{"type": "FeatureCollection", "metadata": {"provincie": "Fryslân", "slug": "fryslan", "generated_at": "2026-08-10T03:59:25.118784Z", "total_boundaries": 18}, "features": [{"type": "Feature", "geometry": {"type": "Polygon", "coordinates": [[[5.37726000172946, 52.76480500436168], [5.631353001982471, 52.80305500437825], [5.660296002012055, 52.831250004393034], [5.7031030020544735, 52.83434600439378], [5.703300002054734, 52.83639300439487], [5.70428200205564, 52.83443100439379], [5.709636002060946, 52.834817004393905], [5.71197300206329, 52.835971004394466], [5.711678002063066, 52.837987004395586], [5.7132200020645945, 52.838189004395616], [5.723801002074971, 52.83578100439409], [5.728663002079699, 52.83339800439268], [5.72957400208061, 52.83372700439284], [5.7246820020761096, 52.84398200439855], [5.7488070020998085, 52.83968000439564], [5.784382002134252, 52.81747600438268], [5.789807002139182, 52.80369100437499], [5.81001600215947, 52.813884004380085], [5.819744002169184, 52.81727800438169], [5.818238002167774, 52.819780004383105], [5.819014002168644, 52.823072004384876], [5.827653002177316, 52.827599004387146], [5.825855002175623, 52.830325004388634], [5.828708002178484, 52.831768004389374], [5.835879002185848, 52.841041004394235], [5.840017002189992, 52.8429960043952], [5.840085002190199, 52.8476520043977], [5.84392800219421, 52.85487400440155], [5.855109002205583, 52.86611500440735], [5.85676800220736, 52.87079100440984], [5.865288002215938, 52.876632004412755], [5.868534002219256, 52.8804150044147], [5.872171002222893, 52.8822440044156], [5.876971002227765, 52.88682800441796], [5.880513002231314, 52.88880900441893], [5.884610002235373, 52.88942600441914], [5.8861190022370025, 52.89432400442177], [5.890230002241086, 52.895351004422146], [5.899261002249999, 52.89566000442212], [5.901606002252352, 52.89706900442281], [5.904601002255296, 52.896726004422504], [5.911343002261975, 52.897881004423], [5.932944002283528, 52.907262004427416], [5.937847002288488, 52.91174000442966], [5.933327002284128, 52.91505500443157], [5.9137470022655325, 52.939550004445245], [5.912975002264805, 52.94063800444585], [5.9141810022660595, 52.94292200444701], [5.904886002257223, 52.95416400445326], [5.905711002258077, 52.955515004453986], [5.902305002254777, 52.957369004455046], [5.897410002250119, 52.963083004458205], [5.895633002248342, 52.96214700445777], [5.894768002247525, 52.96317900445835], [5.891027002243797, 52.961697004457655], [5.888480002241386, 52.96509000445952], [5.886154002239116, 52.965711004459884], [5.888077002241029, 52.96645700446025], [5.88684000223983, 52.967049004460634], [5.870971002224128, 52.96444200445967], [5.867215002220846, 52.97862200446726], [5.886540002239948, 52.98136800446821], [5.887158002240576, 52.982047004468576], [5.885286002238814, 52.98483100447008], [5.866127002220397, 52.999796004478526], [5.8576030022125165, 53.017008004487806], [5.848730002204009, 53.02430000449188], [5.824058002180155, 53.038117004499775], [5.80027300215706, 53.04790800450549], [5.795818002152838, 53.05301600450827], [5.795508002152589, 53.054866004509236], [5.798749002155817, 53.05619500450984], [5.796386002153575, 53.0588390045113], [5.773912002131077, 53.045922004505115], [5.769847002127077, 53.04584900450518], [5.770696002127961, 53.047443004505986], [5.768614002125891, 53.046669004505645], [5.767230002124546, 53.047299004506016], [5.767480002124767, 53.04644800450552], [5.75543200211293, 53.046838004506064], [5.736705002093974, 53.03015200449773], [5.733241002090092, 53.01543800449009], [5.748891002105257, 53.00784200448571], [5.7421830020985745, 53.00535100448456], [5.7424080020987, 53.00238100448299], [5.737481002093805, 53.00098500448239], [5.731034002087471, 53.00137200448269], [5.7226850020791655, 52.99884800448158], [5.721872002078325, 52.99758200448089], [5.716058002072517, 52.99510800447979], [5.71269300206903, 52.98985400447705], [5.707270002063587, 52.986678004475486], [5.7077770020640335, 52.98510900447467], [5.70611300206237, 52.98432000447427], [5.699208002055606, 52.98550400447506], [5.691724002048335, 52.98861300447686], [5.689252002045835, 52.98670300447591], [5.687443002043902, 52.98208000447351], [5.690323002046478, 52.97419300446924], [5.690907002046809, 52.966819004465364], [5.6881530020431015, 52.93687700444943], [5.689326002044129, 52.932967004447335], [5.683340002038257, 52.933881004447954], [5.678820002033768, 52.93294800444758], [5.642455001998004, 52.93616700445005], [5.639978001995091, 52.92246900444276], [5.594259001949723, 52.91541200443995], [5.581279001937461, 52.930989004448506], [5.580531001936831, 52.93404600445019], [5.578901001935216, 52.93394200445017], [5.577259001933642, 52.93520500445086], [5.57281900192951, 52.942246004454724], [5.56902200192588, 52.94553500445654], [5.564779001921761, 52.94748100445767], [5.515507001872453, 52.92867800444853], [5.507604001864493, 52.92438800444637], [5.47696500183341, 52.90223700443504], [5.493845001849625, 52.88983600442806], [5.4897120018453975, 52.88603000442608], [5.4947050018502095, 52.882773004424244], [5.50182200185715, 52.88021200442272], [5.495903001851146, 52.87605400442059], [5.495517001850681, 52.87381600441938], [5.490171001845309, 52.871432004418196], [5.487487001842728, 52.87339800441927], [5.485165001840367, 52.87164200441839], [5.477100001832287, 52.868764004416974], [5.472340001827742, 52.87303400441937], [5.468689001824085, 52.87179400441874], [5.467718001823154, 52.872563004419185], [5.465053001820475, 52.871294004418544], [5.432809001788722, 52.87465200442088], [5.4261020017820405, 52.87329400442026], [5.433352001789085, 52.87010900441841], [5.441340001796217, 52.850072004407416], [5.337842001691649, 52.795955004379415], [5.37726000172946, 52.76480500436168]]]}, "properties": {"type": "boundary", "gemeente": "De Fryske Marren", "slug": "de-fryske-marren", "code": "GM1940", "provincie": "Fryslân"}}, {"type": "Feature", "geometry": {"type": "Polygon", "coordinates": [[[5.372279001737572, 53.09377800453796], [5.3722750017381244, 53.107793004545194], [5.402146001768218, 53.125764004554], [5.406640001773688, 53.1527210045678], [5.410803001777738, 53.151652004567204], [5.413032001779977, 53.15288500456777], [5.417090001783884, 53.150822004566656], [5.421436001788273, 53.153814004568154], [5.426419001793143, 53.153132004567695], [5.435510001802092, 53.153526004567745], [5.435176001801735, 53.15278300456738], [5.442650001809017, 53.151090004566406], [5.443908001810208, 53.14993700456579], [5.444629001810963, 53.15109900456635], [5.4512720018174425, 53.14987600456562], [5.452855001818928, 53.14803600456465], [5.454678001820709, 53.14764600456441], [5.4630280018288975, 53.14726800456408], [5.461436001827231, 53.14454700456272], [5.468338001833971, 53.14333300456198], [5.472446001838137, 53.14682100456371], [5.474902001840703, 53.150886004565734], [5.4767230018424735, 53.150344004565426], [5.480251001846201, 53.15733800456895], [5.48274100184871, 53.15903300456978], [5.486710001852834, 53.16505600457276], [5.484744001850932, 53.1658160045732], [5.486011001852321, 53.169679004575165], [5.488266001854542, 53.169887004575244], [5.489443001855783, 53.17220100457642], [5.493457001859758, 53.17304100457674], [5.496394001862821, 53.17785200457916], [5.480237001846883, 53.17596100457847], [5.479349001846037, 53.176601004578814], [5.483639001850518, 53.1837930045824], [5.48165700184858, 53.184040004582585], [5.485602001852708, 53.19086800458599], [5.487617001854792, 53.19365700458734], [5.490175001857315, 53.19407000458752], [5.489556001856956, 53.200739004590936], [5.485113001852564, 53.199883004590546], [5.467136001834898, 53.19934200459059], [5.46258600183045, 53.19988500459095], [5.461491001829423, 53.20115100459159], [5.458124001826076, 53.200021004591086], [5.456213001824315, 53.203031004592646], [5.437681001806378, 53.20962500459632], [5.432116001801142, 53.215614004599445], [5.38720800175707, 53.21562200460016], [5.147496001523322, 53.25132500462111], [5.132831001506498, 53.19738200459397], [5.1632220015323735, 53.10758500454765], [5.095778001465046, 53.08710500453761], [5.164249001528678, 53.00100400449192], [5.293314001658796, 53.06845900452588], [5.300345001665812, 53.07067800452691], [5.324910001690166, 53.07460500452864], [5.323659001689119, 53.07915900453106], [5.332901001698265, 53.08024400453147], [5.335188001700388, 53.07714100452986], [5.337190001702337, 53.07651300452942], [5.344199001709294, 53.07789200453006], [5.372279001737572, 53.09377800453796]]]}, "properties": {"type": "boundary", "gemeente": "Harlingen", "slug": "harlingen", "code": "GM0072", "provincie": "Fryslân"}}, {"type": "Feature", "geometry": {"type": "Polygon", "coordinates": [[[5.954583002305368, 52.92592000443677], [5.95940500231016, 52.92750700443752], [5.9676230023182795, 52.928395004437746], [5.980289002330716, 52.9271670044367], [5.9869480023373125, 52.928582004437274], [5.99802400234834, 52.933241004439445], [6.0024590023527296, 52.93400700443972], [6.037312002386622, 52.91821900443021], [6.041824002391052, 52.91779300442986], [6.07867500242767, 52.93165300443613], [6.0929730024419975, 52.94230300444133], [6.115406002464274, 52.951182004445364], [6.126889002475603, 52.95289800444588], [6.144012002492802, 52.96837700445352], [6.156976002505696, 52.975177004456704], [6.195703002543975, 52.986209004461216], [6.200870002549101, 52.98849300446227], [6.202206002550453, 52.99031000446319], [6.205424002554665, 53.03793100448812], [6.200399002549709, 53.03679200448768], [6.199394002548673, 53.034308004486384], [6.19658400254589, 53.03324700448595], [6.19041800253972, 53.02776900448331], [6.176812002526224, 53.021049004480226], [6.158530002508192, 53.01702300447874], [6.151338002501123, 53.01661700447877], [6.131188002481235, 53.011879004476974], [6.128779002478835, 53.01038500447625], [6.129804002479801, 53.00875700447535], [6.107408002457586, 52.99940600447117], [6.096437002446651, 52.99289700446806], [6.099722002449796, 52.9895000044662], [6.0982640024483645, 52.989599004466285], [6.096453002446549, 52.98806300446553], [6.097508002447558, 52.98695400446491], [6.094251002444309, 52.98496400446395], [6.084297002434485, 52.983173004463325], [6.0674930024177165, 52.97316600445856], [6.066835002417085, 52.973716004458865], [6.061059002411336, 52.97093100445759], [6.044347002394784, 52.96623700445561], [6.026853002377532, 52.96436400445515], [6.0268050023775, 52.96499800445548], [6.020726002371545, 52.965866004456146], [5.958105002310132, 52.972935004461746], [5.964892002316984, 52.97933700446495], [5.962653002314827, 52.981007004465894], [5.976750002329011, 52.99265900447164], [5.974649002326987, 52.99428500447256], [5.979669002332017, 52.997852004474304], [5.973963002326561, 53.0034250044774], [5.971942002324743, 53.00967300448074], [5.97712300232985, 53.01016500448088], [5.984525002337536, 53.02553900448875], [5.983914002336966, 53.0265590044893], [5.9787210023319055, 53.02817900449028], [5.9790960023323025, 53.029268004490845], [5.977037002330301, 53.030128004491345], [5.952179002306069, 53.03720800449579], [5.953088002306993, 53.03834900449639], [5.940199002294437, 53.04218000449877], [5.940626002294874, 53.042846004499054], [5.9379990022923295, 53.04426400449988], [5.94394900229818, 53.04439400449978], [5.943333002297657, 53.04734000450135], [5.944545002298896, 53.049112004502256], [5.952837002307067, 53.050045004502465], [5.953614002307887, 53.05207100450354], [5.956268002310493, 53.05214200450349], [5.957613002311859, 53.0536180045042], [5.942635002297141, 53.053486004504585], [5.947328002301995, 53.06248000450913], [5.944268002299068, 53.06525500451067], [5.94109000229591, 53.063900004510096], [5.937889002292795, 53.06499800451071], [5.930870002286054, 53.07041300451376], [5.932305002287539, 53.073229004515156], [5.935952002291137, 53.073815004515346], [5.932917002288219, 53.076044004516625], [5.933390002288741, 53.07811100451763], [5.897019002253053, 53.07900400451915], [5.895418002251475, 53.0788370045191], [5.894974002250966, 53.07622900451777], [5.871502002227854, 53.07421000451737], [5.870313002226895, 53.08143200452117], [5.8721200022286935, 53.082222004521505], [5.872996002229631, 53.084933004522895], [5.874654002231262, 53.085018004522894], [5.8735620022301935, 53.085207004523006], [5.859831002216605, 53.08167600452156], [5.854442002211333, 53.082414004522086], [5.84468000220166, 53.07956200452085], [5.843045002200078, 53.08040200452133], [5.831024002188207, 53.07837500452056], [5.830162002187397, 53.079595004521245], [5.8192740021765905, 53.07586200451959], [5.808243002165468, 53.06658900451505], [5.796386002153575, 53.0588390045113], [5.798749002155817, 53.05619500450984], [5.795508002152589, 53.054866004509236], [5.795818002152838, 53.05301600450827], [5.7979470021548325, 53.049809004506535], [5.802223002158946, 53.04679900450487], [5.824058002180155, 53.038117004499775], [5.84933500220459, 53.02390500449163], [5.8576030022125165, 53.017008004487806], [5.867324002221536, 52.9984960044778], [5.886077002239568, 52.98402500446966], [5.887267002240668, 52.981515004468264], [5.867215002220846, 52.97862200446726], [5.870971002224128, 52.96444200445967], [5.88684000223983, 52.967049004460634], [5.888077002241029, 52.96645700446025], [5.886154002239116, 52.965711004459884], [5.888480002241386, 52.96509000445952], [5.891027002243797, 52.961697004457655], [5.894768002247525, 52.96317900445835], [5.895633002248342, 52.96214700445777], [5.897410002250119, 52.963083004458205], [5.902305002254777, 52.957369004455046], [5.905711002258077, 52.955515004453986], [5.904886002257223, 52.95416400445326], [5.9141810022660595, 52.94292200444701], [5.912975002264805, 52.94063800444585], [5.9137470022655325, 52.939550004445245], [5.933327002284128, 52.91505500443157], [5.937847002288488, 52.91174000442966], [5.954583002305368, 52.92592000443677]]]}, "properties": {"type": "boundary", "gemeente": "Heerenveen", "slug": "heerenveen", "code": "GM0074", "provincie": "Fryslân"}}, {"type": "Feature", "geometry": {"type": "Polygon", "coordinates": [[[6.121633002475003, 53.1449930045464], [6.148118002501215, 53.15782700455207], [6.151986002504838, 53.150833004548375], [6.176750002529263, 53.15950500455195], [6.17775500253043, 53.1678860045562], [6.181375002534032, 53.17055700455742], [6.192854002545656, 53.18906800456642], [6.1953360025481325, 53.191538004567626], [6.19943200255217, 53.193254004568324], [6.199603002552448, 53.19833600457093], [6.204115002556885, 53.199758004571486], [6.209426002562077, 53.19988400457138], [6.214166002566791, 53.20389000457321], [6.2190580025716145, 53.20599400457407], [6.222085002574632, 53.20879000457542], [6.222288002574865, 53.21051500457627], [6.224815002577361, 53.211966004576915], [6.224750002577355, 53.21457900457827], [6.229893002582439, 53.21764200457961], [6.228984002581579, 53.219149004580395], [6.230173002582812, 53.22244000458205], [6.2253390025781545, 53.22545500458368], [6.226237002579059, 53.226828004584384], [6.224720002577642, 53.22998400458601], [6.220573002573639, 53.23202600458721], [6.218123002571238, 53.23163400458704], [6.217070002570246, 53.233432004587996], [6.214258002567518, 53.23416300458849], [6.216753002569957, 53.234342004588484], [6.21488200256815, 53.23521400458898], [6.215543002568831, 53.236985004589854], [6.224972002578068, 53.23859300459032], [6.224616002577745, 53.23970100459089], [6.222823002575989, 53.23949800459085], [6.21797800257131, 53.24193200459228], [6.227743002580909, 53.2452400045936], [6.231043002584123, 53.24506700459337], [6.23194800258505, 53.24719800459441], [6.23008200258325, 53.24808300459489], [6.2294810025827, 53.24982600459582], [6.233852002586984, 53.25089300459617], [6.23509700258825, 53.25339800459738], [6.2323250025855765, 53.25484700459819], [6.232158002585453, 53.25687200459924], [6.223971002577477, 53.25724000459969], [6.21894700257263, 53.25987300460122], [6.216805002570652, 53.265351004603986], [6.193790002548303, 53.270037004607154], [6.191480002546038, 53.26972900460714], [6.192114002546646, 53.26910000460676], [6.190720002545276, 53.26858400460656], [6.189220002543839, 53.269890004607255], [6.18567000254032, 53.26727300460609], [6.190384002544838, 53.26337800460397], [6.18721500254173, 53.26275600460377], [6.186640002541149, 53.26175000460332], [6.180721002535358, 53.261050004603156], [6.18118400253578, 53.259655004602415], [6.179442002534066, 53.25905000460219], [6.176605002531338, 53.261021004603286], [6.171460002526326, 53.26137600460363], [6.1673800025223935, 53.26365100460491], [6.164196002519296, 53.26395800460517], [6.160523002515665, 53.26198500460432], [6.158781002514003, 53.263684004605224], [6.148452002503842, 53.26002400460374], [6.147404002502843, 53.26113700460434], [6.144978002500455, 53.26016500460395], [6.1409020024965715, 53.26436400460617], [6.117968002474082, 53.26007800460481], [6.1107740024670525, 53.259855004604916], [6.103689002460062, 53.25663200460355], [6.074515002431368, 53.24844800460041], [6.038849002396373, 53.24261700459861], [6.028816002386567, 53.24275900459896], [6.027706002385452, 53.24139300459833], [6.023094002380977, 53.24279100459916], [6.019939002377854, 53.241253004598505], [6.027244002384717, 53.230133004592695], [6.086289002442076, 53.215026004583194], [6.081700002437569, 53.21408600458286], [6.082426002438267, 53.21371200458266], [6.080138002436018, 53.21315500458245], [6.081905002437698, 53.21117100458139], [6.0787240024345754, 53.21067800458124], [6.079336002435145, 53.20944100458058], [6.0829290024386715, 53.20998300458073], [6.084110002439789, 53.20846300457995], [6.07855800243432, 53.20671600457925], [6.084053002439428, 53.19576600457349], [6.099772002454566, 53.185764004567936], [6.104618002459157, 53.17934100456449], [6.108947002463321, 53.17633200456282], [6.109354002463735, 53.17705700456317], [6.114593002468835, 53.17597800456246], [6.1050130024588904, 53.15179900455043], [6.109025002462828, 53.15219800455049], [6.109582002463344, 53.15100500454989], [6.11253700246622, 53.15019600454936], [6.119338002472859, 53.14942000454874], [6.118791002472235, 53.145741004546856], [6.121633002475003, 53.1449930045464]]]}, "properties": {"type": "boundary", "gemeente": "Achtkarspelen", "slug": "achtkarspelen", "code": "GM0059", "provincie": "Fryslân"}}, {"type": "Feature", "geometry": {"type": "Polygon", "coordinates": [[[5.565315001928776, 53.129627004553136], [5.572585001935953, 53.130425004553416], [5.5753110019387675, 53.13429200455537], [5.582456001945745, 53.133110004554595], [5.5840340019473285, 53.13394900455503], [5.582861001946121, 53.132477004554254], [5.585920001949075, 53.13099700455344], [5.587641001950746, 53.13033500455308], [5.589950001953034, 53.131002004553366], [5.59123200195422, 53.128818004552215], [5.594421001957376, 53.129470004552495], [5.596331001959131, 53.125964004550625], [5.622216001984987, 53.13824800455642], [5.6262360019887225, 53.132008004553114], [5.624483001986881, 53.12848000455136], [5.621894001984285, 53.1269460045506], [5.627268001989614, 53.12834000455123], [5.627424001989709, 53.12670300455037], [5.632089001994278, 53.12627000455007], [5.637348001999372, 53.12414900454887], [5.638371002000507, 53.127969004550785], [5.635197001997443, 53.129593004551715], [5.636183001998449, 53.13064600455223], [5.63199300199441, 53.13302000455355], [5.638214002000644, 53.136564004555225], [5.647076002009398, 53.137989004555756], [5.6541820020164995, 53.14158300455745], [5.652128002014582, 53.144614004559045], [5.648532002011135, 53.147075004560406], [5.652051002014646, 53.14870100456115], [5.65548000201798, 53.14773000456062], [5.658473002020976, 53.1494440045614], [5.6633200020257455, 53.1498210045615], [5.661824002024324, 53.15112700456218], [5.662814002025334, 53.1523240045628], [5.661564002024132, 53.153122004563265], [5.6619350020245625, 53.15495000456415], [5.657737002020417, 53.15425800456389], [5.656659002019395, 53.15543400456453], [5.657421002020199, 53.15710700456535], [5.659453002022212, 53.157627004565576], [5.65750200202033, 53.15861500456611], [5.65982200202268, 53.16075700456715], [5.660676002023634, 53.164223004568925], [5.652840002016009, 53.166259004570136], [5.661261002024393, 53.1697580045717], [5.66253900202568, 53.17073900457222], [5.662020002025216, 53.172152004572936], [5.665960002029194, 53.175470004574535], [5.668240002031416, 53.175027004574254], [5.669006002032112, 53.173333004573394], [5.672836002035936, 53.17532600457433], [5.674586002037735, 53.17780800457555], [5.677291002040342, 53.17639300457477], [5.679398002042502, 53.17913300457611], [5.6858100020488855, 53.1819220045774], [5.687096002050083, 53.180039004576415], [5.692742002055618, 53.17992200457622], [5.697299002060015, 53.17771700457496], [5.699149002061704, 53.17374400457294], [5.706099002068511, 53.17338300457258], [5.707695002070109, 53.174389004573044], [5.713244002075581, 53.17523000457335], [5.718444002080491, 53.16921500457017], [5.720127002082181, 53.1705270045708], [5.723792002085762, 53.170070004570476], [5.724925002086747, 53.16607900456842], [5.728334002090151, 53.167925004569284], [5.728217002090095, 53.169785004570194], [5.73142200209327, 53.17073900457064], [5.733307002095079, 53.16945800456994], [5.73477400209658, 53.171451004570926], [5.737786002099571, 53.17254700457138], [5.741468002103449, 53.18097400457562], [5.745409002107451, 53.18523100457771], [5.740342002102483, 53.18537200457786], [5.742389002104685, 53.19141100458092], [5.739972002102306, 53.19123300458087], [5.7445750021070285, 53.19782100458411], [5.73740000210026, 53.2062170045885], [5.736090002098972, 53.20608500458851], [5.734741002097812, 53.21122000459114], [5.743905002106799, 53.211379004591], [5.747107002110055, 53.21514400459282], [5.745612002108613, 53.215876004593234], [5.7341520020973835, 53.21589300459351], [5.732552002096272, 53.23032300460083], [5.738148002101784, 53.23128300460119], [5.729769002093702, 53.23525400460341], [5.734954002098872, 53.23805400460468], [5.736012002099884, 53.23743500460433], [5.743916002107744, 53.24109800460599], [5.7336200020978945, 53.24851400460996], [5.7360720021002995, 53.24867300460998], [5.735830002100177, 53.252325004611826], [5.729836002094595, 53.26123600461643], [5.735387002100139, 53.26471400461805], [5.723334002088529, 53.27067400462132], [5.720121002085521, 53.27499600462352], [5.721618002087046, 53.276958004624476], [5.720846002086361, 53.279074004625556], [5.726350002092018, 53.28760700462967], [5.724849002090554, 53.28773300462979], [5.725493002091228, 53.289132004630474], [5.727616002093301, 53.288953004630294], [5.727950002093712, 53.29165000463167], [5.730572002096367, 53.29446800463298], [5.735299002100989, 53.294398004632875], [5.739349002105249, 53.3039390046375], [5.747164002113077, 53.309923004640254], [5.749301002115286, 53.31355500464205], [5.7296820020962205, 53.317452004644416], [5.721415002088094, 53.316033004643906], [5.722391002089249, 53.32231400464701], [5.718352002085765, 53.33693400465432], [5.702683002071451, 53.36795800466993], [5.627241001996225, 53.32318300464956], [5.567217001936872, 53.30534100464195], [5.537091001906086, 53.26944100462464], [5.477081001846276, 53.242545004612296], [5.432116001801142, 53.215614004599445], [5.437681001806378, 53.20962500459632], [5.456213001824315, 53.203031004592646], [5.458124001826076, 53.200021004591086], [5.461491001829423, 53.20115100459159], [5.46258600183045, 53.19988500459095], [5.467136001834898, 53.19934200459059], [5.485113001852564, 53.199883004590546], [5.489556001856956, 53.200739004590936], [5.490175001857315, 53.19407000458752], [5.487617001854792, 53.19365700458734], [5.485602001852708, 53.19086800458599], [5.48165700184858, 53.184040004582585], [5.483639001850518, 53.1837930045824], [5.479349001846037, 53.176601004578814], [5.480237001846883, 53.17596100457847], [5.496394001862821, 53.17785200457916], [5.493457001859758, 53.17304100457674], [5.489443001855783, 53.17220100457642], [5.488266001854542, 53.169887004575244], [5.486011001852321, 53.169679004575165], [5.484744001850932, 53.1658160045732], [5.486710001852834, 53.16505600457276], [5.48274100184871, 53.15903300456978], [5.480251001846201, 53.15733800456895], [5.47686700184262, 53.15051700456552], [5.474902001840703, 53.150886004565734], [5.472377001838106, 53.1478400045642], [5.472192001837878, 53.146614004563624], [5.478497001844027, 53.14529200456282], [5.477269001842734, 53.14294200456164], [5.487102001852323, 53.14100000456043], [5.480973001846209, 53.13861600455932], [5.48432200184944, 53.13698800455843], [5.488271001853375, 53.13830500455907], [5.492519001857684, 53.14201200456087], [5.496872001861905, 53.140391004559966], [5.497898001862923, 53.14074500456013], [5.501011001865921, 53.139022004559166], [5.502888001867723, 53.13784900455856], [5.501084001865891, 53.13620800455776], [5.504986001869669, 53.1347270045569], [5.512940001877629, 53.13858100455872], [5.510398001875184, 53.140080004559564], [5.512505001877321, 53.14187100456045], [5.5101990018751525, 53.14454100456185], [5.5115330018765105, 53.14574200456244], [5.520857001885696, 53.14641500456259], [5.524646001889386, 53.14554400456212], [5.527910001892607, 53.145926004562256], [5.5312120018959225, 53.14788900456315], [5.537952001902419, 53.14446500456128], [5.537664001902053, 53.142081004560076], [5.54737100191142, 53.137343004557465], [5.550731001914606, 53.13412400455575], [5.554191001917964, 53.13293800455506], [5.555381001919193, 53.13460400455592], [5.559929001923664, 53.13463700455585], [5.56211900192571, 53.13158700455422], [5.563603001927153, 53.13124300455404], [5.562604001926134, 53.1302320045535], [5.565315001928776, 53.129627004553136]]]}, "properties": {"type": "boundary", "gemeente": "Waadhoeke", "slug": "waadhoeke", "code": "GM1949", "provincie": "Fryslân"}}, {"type": "Feature", "geometry": {"type": "Polygon", "coordinates": [[[5.943336002299698, 53.1216080045399], [5.943278002299719, 53.12444200454139], [5.95002500230638, 53.12615000454199], [5.9510230023073944, 53.12748300454268], [5.95572000231205, 53.129240004543476], [5.974423002330532, 53.1346270045457], [5.996993002352998, 53.147772004551754], [6.012412002368273, 53.154415004554686], [6.042089002397396, 53.15656000455486], [6.078932002433469, 53.156455004553614], [6.085205002439672, 53.15898800455475], [6.087143002441542, 53.157837004554096], [6.085759002440155, 53.156484004553455], [6.088800002443071, 53.15392800455202], [6.0939430024481585, 53.156134004552996], [6.104530002458384, 53.150421004549706], [6.114593002468835, 53.17597800456246], [6.109354002463735, 53.17705700456317], [6.108947002463321, 53.17633200456282], [6.104618002459157, 53.17934100456449], [6.099772002454566, 53.185764004567936], [6.084053002439428, 53.19576600457349], [6.07855800243432, 53.20671600457925], [6.084110002439789, 53.20846300457995], [6.0829290024386715, 53.20998300458073], [6.079336002435145, 53.20944100458058], [6.0787240024345754, 53.21067800458124], [6.081905002437698, 53.21117100458139], [6.080138002436018, 53.21315500458245], [6.082426002438267, 53.21371200458266], [6.081700002437569, 53.21408600458286], [6.086289002442076, 53.215026004583194], [6.027244002384717, 53.230133004592695], [6.019837002377742, 53.240861004598294], [6.017790002375752, 53.241242004598575], [5.983355002341787, 53.22984300459388], [5.97291000233152, 53.22793500459323], [5.955974002314956, 53.228056004593796], [5.942992002302855, 53.25042800460541], [5.925652002285946, 53.25220100460678], [5.92591400228627, 53.25473000460804], [5.922955002283452, 53.25740500460946], [5.914480002275196, 53.258630004610325], [5.908071002269041, 53.262698004612545], [5.893196002254692, 53.26973400461648], [5.876935002239084, 53.28012400462212], [5.874611002236879, 53.28260200462341], [5.861177002223919, 53.288649004626805], [5.847661002210605, 53.2851630046254], [5.845862002208754, 53.28205400462393], [5.832596002195387, 53.268654004617574], [5.832063002194622, 53.26033900461344], [5.829643002192161, 53.257197004611925], [5.833166002195331, 53.24774500460705], [5.831199002193303, 53.2443050046054], [5.832160002194204, 53.242857004604666], [5.859241002220723, 53.243293004604155], [5.852554002213804, 53.23047700459787], [5.8686210022295615, 53.231460004597956], [5.879885002240643, 53.23334100459859], [5.8806560022411585, 53.22497600459434], [5.889992002250298, 53.22499900459409], [5.889170002249433, 53.22281600459305], [5.896927002257029, 53.222962004592894], [5.8971170022571595, 53.220970004591884], [5.888953002249168, 53.22095200459213], [5.889016002249137, 53.217682004590415], [5.894209002254224, 53.21777300459036], [5.893821002253779, 53.21551800458923], [5.897900002257771, 53.21538800458904], [5.897864002257715, 53.214658004588635], [5.905932002265623, 53.21501400458864], [5.905004002264644, 53.21247600458736], [5.907100002266655, 53.211054004586586], [5.897892002257574, 53.20869700458566], [5.857728002218106, 53.20406300458441], [5.857465002217776, 53.201600004583156], [5.862061002222045, 53.19356500457894], [5.850956002211112, 53.191713004578325], [5.8535910022136175, 53.189093004576925], [5.862348002221685, 53.17141000456765], [5.921942002280009, 53.16834600456448], [5.927712002285673, 53.168682004564495], [5.932721002290626, 53.17036500456517], [5.933746002291588, 53.168868004564395], [5.93061000228826, 53.159547004559776], [5.918962002276558, 53.149173004554754], [5.908629002266304, 53.14478000455279], [5.923356002280358, 53.13091000454524], [5.937219002293817, 53.12608600454239], [5.943336002299698, 53.1216080045399]]]}, "properties": {"type": "boundary", "gemeente": "Tytsjerksteradiel", "slug": "tytsjerksteradiel", "code": "GM0737", "provincie": "Fryslân"}}, {"type": "Feature", "geometry": {"type": "Polygon", "coordinates": [[[6.110489002458517, 52.91329900442528], [6.117096002465096, 52.91671200442688], [6.124002002471919, 52.91792900442733], [6.126838002474755, 52.919748004428186], [6.139261002487076, 52.92402100443008], [6.144828002492652, 52.928146004432094], [6.157177002504847, 52.930496004432946], [6.171493002519035, 52.935324004435046], [6.187340002534684, 52.93860100443624], [6.200561002547773, 52.94301400443811], [6.2025250025496685, 52.94149900443724], [6.200836002547955, 52.939033004435984], [6.209184002556037, 52.93369600443286], [6.21363000256023, 52.92579400442849], [6.247259002593224, 52.923347004425985], [6.256593002602482, 52.927641004427976], [6.302985002647987, 52.924972004424795], [6.333281002677366, 52.90635600441375], [6.393436002736913, 52.93284300442557], [6.427615002771128, 52.971815004444935], [6.362521002708507, 53.03396900448023], [6.3678110027143, 53.06736000449744], [6.332055002679467, 53.07527900450294], [6.281430002629694, 53.06418700449908], [6.280531002628694, 53.058211004496], [6.222837002571761, 53.03918700448812], [6.215146002564203, 53.03826900448794], [6.212852002561909, 53.03623600448693], [6.205424002554665, 53.03793100448812], [6.202206002550453, 52.99031000446319], [6.200870002549101, 52.98849300446227], [6.195703002543975, 52.986209004461216], [6.157302002506017, 52.975332004456774], [6.143702002492493, 52.96814700445344], [6.127517002476229, 52.95319900444601], [6.112751002461644, 52.95021900444493], [6.092531002441558, 52.94209300444123], [6.0848480024338585, 52.93627400443838], [6.086525002435508, 52.93634100443838], [6.110489002458517, 52.91329900442528]]]}, "properties": {"type": "boundary", "gemeente": "Ooststellingwerf", "slug": "ooststellingwerf", "code": "GM0085", "provincie": "Fryslân"}}, {"type": "Feature", "geometry": {"type": "Polygon", "coordinates": [[[5.337842001691649, 52.795955004379415], [5.441340001796217, 52.850072004407416], [5.433352001789085, 52.87010900441841], [5.4261020017820405, 52.87329400442026], [5.432809001788722, 52.87465200442088], [5.465053001820475, 52.871294004418544], [5.467718001823154, 52.872563004419185], [5.468689001824085, 52.87179400441874], [5.472340001827742, 52.87303400441937], [5.477100001832287, 52.868764004416974], [5.485165001840367, 52.87164200441839], [5.487487001842728, 52.87339800441927], [5.490171001845309, 52.871432004418196], [5.495517001850681, 52.87381600441938], [5.495903001851146, 52.87605400442059], [5.50182200185715, 52.88021200442272], [5.4947050018502095, 52.882773004424244], [5.4897120018453975, 52.88603000442608], [5.493845001849625, 52.88983600442806], [5.488766001844714, 52.89279600442971], [5.477189001833649, 52.90274000443527], [5.512268001869201, 52.92720900444782], [5.564779001921761, 52.94748100445767], [5.56902200192588, 52.94553500445654], [5.57281900192951, 52.942246004454724], [5.577259001933642, 52.93520500445086], [5.578901001935216, 52.93394200445017], [5.580531001936831, 52.93404600445019], [5.581279001937461, 52.930989004448506], [5.594259001949723, 52.91541200443995], [5.639978001995091, 52.92246900444276], [5.642455001998004, 52.93616700445005], [5.678820002033768, 52.93294800444758], [5.683340002038257, 52.933881004447954], [5.689326002044129, 52.932967004447335], [5.6881530020431015, 52.93687700444943], [5.690940002046786, 52.96508800446443], [5.690323002046478, 52.97419300446924], [5.687520002043943, 52.98100200447294], [5.688489002045048, 52.98558400447534], [5.691432002048049, 52.98864600447692], [5.699208002055606, 52.98550400447506], [5.706542002062799, 52.98447500447435], [5.7077770020640335, 52.98510900447467], [5.707270002063587, 52.986678004475486], [5.71269300206903, 52.98985400447705], [5.716858002073326, 52.99567700448008], [5.721872002078325, 52.99758200448089], [5.722883002079364, 52.99894500448166], [5.7306160020870545, 53.00127400448269], [5.737481002093805, 53.00098500448239], [5.74225800209855, 53.00230100448297], [5.7421830020985745, 53.00535100448456], [5.7488240021051835, 53.00758400448557], [5.733241002090092, 53.01543800449009], [5.736582002093847, 53.02988700449762], [5.75543200211293, 53.046838004506064], [5.767480002124767, 53.04644800450552], [5.767230002124546, 53.047299004506016], [5.768614002125891, 53.046669004505645], [5.771412002128658, 53.047197004505826], [5.769469002126821, 53.04963300450719], [5.766813002124239, 53.050545004507654], [5.761843002119672, 53.060798004513174], [5.766084002123863, 53.06138800451339], [5.7672110021250145, 53.0628410045141], [5.775747002133531, 53.06669900451594], [5.773564002131612, 53.074109004519826], [5.764283002122683, 53.08027600452324], [5.7726110021309145, 53.08180700452385], [5.7745050021329165, 53.086314004526145], [5.771288002129797, 53.08765100452696], [5.771384002129935, 53.08910600452765], [5.785593002144121, 53.09634300453106], [5.788229002146718, 53.09659400453113], [5.787380002145942, 53.09849700453211], [5.7846150021432425, 53.09903000453248], [5.777873002136747, 53.1031850045348], [5.773944002132909, 53.103795004535215], [5.770580002129571, 53.102656004534715], [5.767779002126892, 53.10506400453602], [5.770537002129637, 53.10619500453654], [5.764411002123723, 53.10959100453846], [5.76262800212195, 53.108817004538075], [5.760813002120241, 53.11119500453938], [5.762665002122073, 53.11158300453952], [5.761404002120898, 53.11367900454063], [5.757449002116985, 53.11271600454023], [5.756244002116054, 53.12083700454442], [5.754563002114525, 53.12466300454648], [5.751509002111553, 53.12553400454694], [5.751508002111585, 53.12651600454745], [5.746623002106772, 53.12605800454742], [5.743940002104074, 53.12394100454633], [5.739887002100079, 53.12354300454619], [5.740260002100423, 53.122905004545906], [5.736179002096386, 53.12190200454548], [5.737154002097311, 53.12083600454491], [5.729668002089937, 53.120304004544806], [5.727842002088214, 53.12250700454596], [5.725124002085583, 53.123595004546644], [5.721108002081537, 53.12048900454508], [5.720151002080616, 53.12107900454542], [5.718393002078846, 53.11972900454476], [5.71794800207844, 53.12068600454527], [5.707939002068577, 53.11969900454499], [5.705202002065829, 53.11789700454414], [5.7042440020649074, 53.118511004544445], [5.700613002061252, 53.11577500454315], [5.697768002058522, 53.11775400454425], [5.698245002059018, 53.11866600454471], [5.696312002057134, 53.11912200454496], [5.695433002056401, 53.123009004547015], [5.69328800205429, 53.12295600454702], [5.695617002056705, 53.12682600454894], [5.691539002052716, 53.127256004549274], [5.692233002053448, 53.12884800455004], [5.685974002047335, 53.12986700455074], [5.684881002046207, 53.12826700454998], [5.680037002041458, 53.12857500455021], [5.67338600203482, 53.125341004548666], [5.674340002035751, 53.12517900454857], [5.671856002033235, 53.12295100454749], [5.6684920020298675, 53.120978004546565], [5.667680002029092, 53.12168900454694], [5.664584002025981, 53.11967300454596], [5.664940002026305, 53.11884300454553], [5.659484002020848, 53.11598500454415], [5.656514002017807, 53.11236400454236], [5.646413002008014, 53.11635000454464], [5.643103002004985, 53.12287700454806], [5.637965001999966, 53.12371600454864], [5.632089001994278, 53.12627000455007], [5.627424001989709, 53.12670300455037], [5.627268001989614, 53.12834000455123], [5.62448100198687, 53.12820000455121], [5.621923001984311, 53.12692100455063], [5.624483001986881, 53.12848000455136], [5.6262360019887225, 53.132008004553114], [5.622216001984987, 53.13824800455642], [5.596331001959131, 53.125964004550625], [5.594421001957376, 53.129470004552495], [5.59123200195422, 53.128818004552215], [5.589950001953034, 53.131002004553366], [5.587641001950746, 53.13033500455308], [5.585920001949075, 53.13099700455344], [5.582861001946121, 53.132477004554254], [5.5840340019473285, 53.13394900455503], [5.582456001945745, 53.133110004554595], [5.5753110019387675, 53.13429200455537], [5.573830001937198, 53.13108000455373], [5.568308001931716, 53.12952400455305], [5.562604001926134, 53.1302320045535], [5.563603001927153, 53.13124300455404], [5.56211900192571, 53.13158700455422], [5.559929001923664, 53.13463700455585], [5.555381001919193, 53.13460400455592], [5.554191001917964, 53.13293800455506], [5.550731001914606, 53.13412400455575], [5.54737100191142, 53.137343004557465], [5.543883001908032, 53.13841100455805], [5.539255001903613, 53.141958004559996], [5.537664001902053, 53.142081004560076], [5.538059001902522, 53.14437000456126], [5.5312120018959225, 53.14788900456315], [5.527910001892607, 53.145926004562256], [5.524646001889386, 53.14554400456212], [5.520857001885696, 53.14641500456259], [5.5115330018765105, 53.14574200456244], [5.5101990018751525, 53.14454100456185], [5.512505001877321, 53.14187100456045], [5.510398001875184, 53.140080004559564], [5.512940001877629, 53.13858100455872], [5.504986001869669, 53.1347270045569], [5.501084001865891, 53.13620800455776], [5.502888001867723, 53.13784900455856], [5.501011001865921, 53.139022004559166], [5.497898001862923, 53.14074500456013], [5.496872001861905, 53.140391004559966], [5.492519001857684, 53.14201200456087], [5.488271001853375, 53.13830500455907], [5.48432200184944, 53.13698800455843], [5.480973001846209, 53.13861600455932], [5.487102001852323, 53.14100000456043], [5.477269001842734, 53.14294200456164], [5.478497001844027, 53.14529200456282], [5.474744001840381, 53.146401004563444], [5.471656001837346, 53.146420004563495], [5.468338001833971, 53.14333300456198], [5.461436001827231, 53.14454700456272], [5.4630280018288975, 53.14726800456408], [5.454678001820709, 53.14764600456441], [5.452855001818928, 53.14803600456465], [5.4512720018174425, 53.14987600456562], [5.444629001810963, 53.15109900456635], [5.443908001810208, 53.14993700456579], [5.442650001809017, 53.151090004566406], [5.435176001801735, 53.15278300456738], [5.435510001802092, 53.153526004567745], [5.426419001793143, 53.153132004567695], [5.421436001788273, 53.153814004568154], [5.417090001783884, 53.150822004566656], [5.413032001779977, 53.15288500456777], [5.410803001777738, 53.151652004567204], [5.406640001773688, 53.1527210045678], [5.402146001768218, 53.125764004554], [5.3722750017381244, 53.107793004545194], [5.372279001737572, 53.09377800453796], [5.344199001709294, 53.07789200453006], [5.337190001702337, 53.07651300452942], [5.335188001700388, 53.07714100452986], [5.332901001698265, 53.08024400453147], [5.323659001689119, 53.07915900453106], [5.324910001690166, 53.07460500452864], [5.300345001665812, 53.07067800452691], [5.293314001658796, 53.06845900452588], [5.164249001528678, 53.00100400449192], [5.169135001533351, 52.99761200449006], [5.238682001596724, 52.87406100442323], [5.337842001691649, 52.795955004379415]]]}, "properties": {"type": "boundary", "gemeente": "Súdwest-Fryslân", "slug": "sudwest-fryslan", "code": "GM1900", "provincie": "Fryslân"}}, {"type": "Feature", "geometry": {"type": "Polygon", "coordinates": [[[5.929920002285409, 53.08080500451917], [5.935269002290665, 53.08103800451915], [5.982797002337221, 53.07730600451584], [5.984954002339402, 53.07975900451703], [5.987493002341921, 53.080761004517505], [5.998565002352792, 53.080954004517224], [6.002470002356613, 53.08065300451694], [6.01746700237121, 53.07610500451415], [6.019543002373272, 53.0770570045146], [6.024399002377944, 53.07336100451251], [6.031723002385144, 53.07388900451257], [6.069847002422499, 53.07211000451044], [6.073081002425649, 53.07118400450984], [6.089160002441415, 53.070957004509225], [6.104895002457009, 53.07774300451225], [6.113120002465259, 53.085545004516014], [6.124962002477235, 53.10121100452375], [6.144892002496929, 53.108570004526854], [6.163946002515868, 53.120763004532535], [6.17050800252235, 53.12340200453364], [6.17319000252498, 53.12348400453362], [6.173614002525422, 53.1246870045342], [6.185717002537369, 53.129213004536126], [6.179069002530967, 53.13399200453881], [6.175317002527327, 53.13548200453971], [6.176750002529263, 53.15950500455195], [6.151986002504838, 53.150833004548375], [6.148118002501215, 53.15782700455207], [6.121633002475003, 53.1449930045464], [6.118791002472235, 53.145741004546856], [6.119338002472859, 53.14942000454874], [6.11253700246622, 53.15019600454936], [6.108192002462018, 53.152315004550594], [6.1050130024588904, 53.15179900455043], [6.104489002458346, 53.15043000454975], [6.0939430024481585, 53.156134004552996], [6.088800002443071, 53.15392800455202], [6.085759002440155, 53.156484004553455], [6.087143002441542, 53.157837004554096], [6.085205002439672, 53.15898800455475], [6.078932002433469, 53.156455004553614], [6.042089002397396, 53.15656000455486], [6.011723002367597, 53.15428200455464], [5.996993002352998, 53.147772004551754], [5.974423002330532, 53.1346270045457], [5.95572000231205, 53.129240004543476], [5.9510230023073944, 53.12748300454268], [5.95002500230638, 53.12615000454199], [5.943278002299719, 53.12444200454139], [5.949657002305444, 53.1048920045311], [5.947199002303005, 53.1039440045307], [5.945944002301767, 53.103676004530584], [5.9418250022977706, 53.1054270045316], [5.931585002287868, 53.11060800453455], [5.927869002284177, 53.108938004533776], [5.910696002267334, 53.109181004534435], [5.882006002239109, 53.10693900453405], [5.884827002241719, 53.10136400453109], [5.8859850022426565, 53.09443900452746], [5.878120002234836, 53.09096600452585], [5.880848002237492, 53.09016700452537], [5.883289002239912, 53.09092400452572], [5.883114002239684, 53.088963004524715], [5.877443002234014, 53.08541200452303], [5.873264002229899, 53.08506900452297], [5.871882002228509, 53.08394600452242], [5.8721200022286935, 53.082222004521505], [5.870313002226895, 53.08143200452117], [5.871502002227854, 53.07421000451737], [5.894974002250966, 53.07622900451777], [5.895418002251475, 53.0788370045191], [5.897019002253053, 53.07900400451915], [5.9273330022828, 53.07829500451791], [5.929920002285409, 53.08080500451917]]]}, "properties": {"type": "boundary", "gemeente": "Smallingerland", "slug": "smallingerland", "code": "GM0090", "provincie": "Fryslân"}}, {"type": "Feature", "geometry": {"type": "Polygon", "coordinates": [[[5.095778001465046, 53.08710500453761], [5.1632220015323735, 53.10758500454765], [5.132831001506498, 53.19738200459397], [5.16221700154017, 53.305281004647945], [5.102072001482042, 53.32295000465726], [5.087069001467348, 53.32307200465741], [5.027117001408181, 53.31392300465331], [4.907690001288426, 53.25959300462681], [4.840601001221199, 53.23234900461327], [4.8183760011984385, 53.214275004604175], [5.050953001423522, 53.14326600456699], [5.095778001465046, 53.08710500453761]]]}, "properties": {"type": "boundary", "gemeente": "Vlieland", "slug": "vlieland", "code": "GM0096", "provincie": "Fryslân"}}, {"type": "Feature", "geometry": {"type": "Polygon", "coordinates": [[[5.702881002072508, 53.39491300468308], [5.747976002116518, 53.39478600468193], [5.777876002145143, 53.37672300467238], [5.792901002159809, 53.37667300467196], [5.823134002189838, 53.39453800467994], [5.95877400232278, 53.42092500468894], [5.959013002323478, 53.438894004697545], [6.004411002368105, 53.456640004704745], [6.004929002369501, 53.49257700472192], [5.959612002325224, 53.48381600471912], [5.935560002301788, 53.482136004719074], [5.839015002207659, 53.47534400471845], [5.703443002075504, 53.47128400471995], [5.613209001988338, 53.493949004732755], [5.5528560019287365, 53.47158500472332], [5.582912001957571, 53.45806300471627], [5.612831001985516, 53.42207100469826], [5.6122890019814475, 53.3187430046477], [5.627241001996225, 53.32318300464956], [5.702683002071451, 53.36795800466993], [5.702881002072508, 53.39491300468308]]]}, "properties": {"type": "boundary", "gemeente": "Ameland", "slug": "ameland", "code": "GM0060", "provincie": "Fryslân"}}, {"type": "Feature", "geometry": {"type": "Polygon", "coordinates": [[[5.477081001846276, 53.242545004612296], [5.537091001906086, 53.26944100462464], [5.567217001936872, 53.30534100464195], [5.6122890019814475, 53.3187430046477], [5.612831001985516, 53.42207100469826], [5.582912001957571, 53.45806300471627], [5.5528560019287365, 53.47158500472332], [5.492587001869469, 53.45817600471798], [5.357119001736197, 53.43126400470729], [5.176693001558942, 53.40862100469856], [5.161774001543346, 53.38613200468777], [5.10177800148383, 53.36803400467944], [5.087069001467348, 53.32307200465741], [5.102072001482042, 53.32295000465726], [5.16221700154017, 53.305281004647945], [5.147496001523322, 53.25132500462111], [5.38720800175707, 53.21562200460016], [5.432116001801142, 53.215614004599445], [5.477081001846276, 53.242545004612296]]]}, "properties": {"type": "boundary", "gemeente": "Terschelling", "slug": "terschelling", "code": "GM0093", "provincie": "Fryslân"}}, {"type": "Feature", "geometry": {"type": "Polygon", "coordinates": [[[5.9833430023417735, 53.229863004593874], [6.016680002374665, 53.24109100459851], [6.019894002377801, 53.2409240045983], [6.021360002379279, 53.24253200459909], [6.023094002380977, 53.24279100459916], [6.027765002385507, 53.241395004598324], [6.028816002386567, 53.24275900459896], [6.031341002389026, 53.242214004598644], [6.0439660024013975, 53.243502004598874], [6.050115002407959, 53.26614100461003], [6.051864002409674, 53.26628600461006], [6.053309002411399, 53.27918900461646], [6.0549650024130255, 53.27948400461654], [6.053394002411503, 53.28001800461686], [6.054379002412728, 53.29087000462225], [6.065681002423799, 53.29247600462265], [6.073695002431618, 53.29240000462238], [6.069794002427919, 53.296920004624745], [6.071542002429618, 53.296595004624486], [6.072051002430582, 53.31617700463417], [6.074985002433478, 53.31764400463482], [6.074152002432757, 53.321477004636776], [6.077753002436283, 53.32208700463695], [6.074649002433316, 53.32465200463829], [6.066307002425156, 53.32363900463803], [6.052196002411426, 53.32493200463916], [6.045889002405244, 53.323823004638804], [6.039552002399092, 53.32513500463966], [6.035363002394985, 53.324296004639386], [6.0329620023926775, 53.3256300046401], [6.023437002383357, 53.32452900463987], [6.021241002381109, 53.32033300463788], [6.021122002380708, 53.30884400463218], [6.020152002379746, 53.30822400463192], [6.01161800237142, 53.308444004632285], [6.009254002369143, 53.30963100463294], [5.998101002358278, 53.31050000463371], [5.989624002349991, 53.310043004633755], [5.975853002336466, 53.30692700463263], [5.97066900233158, 53.31367300463612], [5.974300002335185, 53.31599900463716], [5.972187002333254, 53.3210850046397], [5.968784002329968, 53.3225080046405], [5.963562002324882, 53.322828004640854], [5.95375500231526, 53.32102300464023], [5.9489300023104565, 53.31760100463869], [5.9341830022960025, 53.315578004638155], [5.922341002284358, 53.312640004637], [5.920887002282894, 53.311099004636304], [5.8965650022588765, 53.3017420046323], [5.903454002265404, 53.294298004628445], [5.906649002268345, 53.28783900462512], [5.897694002259504, 53.28463400462378], [5.897788002259568, 53.283660004623286], [5.891701002253519, 53.28003800462165], [5.882245002244181, 53.2767820046203], [5.893196002254692, 53.26973400461648], [5.908071002269041, 53.262698004612545], [5.914480002275196, 53.258630004610325], [5.922955002283452, 53.25740500460946], [5.92591400228627, 53.25473000460804], [5.925652002285946, 53.25220100460678], [5.942992002302855, 53.25042800460541], [5.955974002314956, 53.228056004593796], [5.97291000233152, 53.22793500459323], [5.9833430023417735, 53.229863004593874]]]}, "properties": {"type": "boundary", "gemeente": "Dantumadiel", "slug": "dantumadiel", "code": "GM1891", "provincie": "Fryslân"}}, {"type": "Feature", "geometry": {"type": "Polygon", "coordinates": [[[6.0260380023767475, 52.96510600445559], [5.958105002310132, 52.972935004461746], [5.964892002316984, 52.97933700446495], [5.962653002314827, 52.981007004465894], [5.976750002329011, 52.99265900447164], [5.974649002326987, 52.99428500447256], [5.979669002332017, 52.997852004474304], [5.973963002326561, 53.0034250044774], [5.971942002324743, 53.00967300448074], [5.97712300232985, 53.01016500448088], [5.984525002337536, 53.02553900448875], [5.983914002336966, 53.0265590044893], [5.9787210023319055, 53.02817900449028], [5.9790960023323025, 53.029268004490845], [5.977037002330301, 53.030128004491345], [5.952179002306069, 53.03720800449579], [5.953088002306993, 53.03834900449639], [5.940199002294437, 53.04218000449877], [5.940626002294874, 53.042846004499054], [5.9379990022923295, 53.04426400449988], [5.94394900229818, 53.04439400449978], [5.943333002297657, 53.04734000450135], [5.944545002298896, 53.049112004502256], [5.952837002307067, 53.050045004502465], [5.953614002307887, 53.05207100450354], [5.956268002310493, 53.05214200450349], [5.957613002311859, 53.0536180045042], [5.942635002297141, 53.053486004504585], [5.947328002301995, 53.06248000450913], [5.944268002299068, 53.06525500451067], [5.94109000229591, 53.063900004510096], [5.937889002292795, 53.06499800451071], [5.930870002286054, 53.07041300451376], [5.932305002287539, 53.073229004515156], [5.935952002291137, 53.073815004515346], [5.932917002288219, 53.076044004516625], [5.933390002288741, 53.07811100451763], [5.927581002283046, 53.07839500451795], [5.930313002285801, 53.081018004519265], [5.982797002337221, 53.07730600451584], [5.984954002339402, 53.07975900451703], [5.987493002341921, 53.080761004517505], [5.998565002352792, 53.080954004517224], [6.002470002356613, 53.08065300451694], [6.01746700237121, 53.07610500451415], [6.019543002373272, 53.0770570045146], [6.024399002377944, 53.07336100451251], [6.031723002385144, 53.07388900451257], [6.088561002440825, 53.070785004509155], [6.104895002457009, 53.07774300451225], [6.113120002465259, 53.085545004516014], [6.124962002477235, 53.10121100452375], [6.144892002496929, 53.108570004526854], [6.163946002515868, 53.120763004532535], [6.17050800252235, 53.12340200453364], [6.17319000252498, 53.12348400453362], [6.173614002525422, 53.1246870045342], [6.185717002537369, 53.129213004536126], [6.189568002541057, 53.125544004534085], [6.205048002555986, 53.1154840045284], [6.222607002573163, 53.114914004527485], [6.236264002586496, 53.11338700452623], [6.262651002612327, 53.114123004525595], [6.27390400262328, 53.11125300452371], [6.283050002632139, 53.10686300452114], [6.290566002639352, 53.099829004517225], [6.315157002663296, 53.09405300451331], [6.305274002653376, 53.08119000450698], [6.332055002679467, 53.07527900450294], [6.281430002629694, 53.06418700449908], [6.280531002628694, 53.058211004496], [6.223114002572032, 53.039269004488176], [6.215146002564203, 53.03826900448794], [6.212852002561909, 53.03623600448693], [6.20581000255504, 53.037986004488104], [6.200399002549709, 53.03679200448768], [6.199394002548673, 53.034308004486384], [6.19658400254589, 53.03324700448595], [6.19041800253972, 53.02776900448331], [6.175061002524493, 53.02045100448001], [6.158530002508192, 53.01702300447874], [6.151338002501123, 53.01661700447877], [6.131241002481288, 53.01190200447699], [6.128779002478835, 53.01038500447625], [6.129804002479801, 53.00875700447535], [6.107408002457586, 52.99940600447117], [6.096437002446651, 52.99289700446806], [6.099722002449796, 52.9895000044662], [6.0982640024483645, 52.989599004466285], [6.096453002446549, 52.98806300446553], [6.097508002447558, 52.98695400446491], [6.094251002444309, 52.98496400446395], [6.084297002434485, 52.983173004463325], [6.069844002420054, 52.97423400445906], [6.055362002405693, 52.96925100445686], [6.044337002394773, 52.96623500445561], [6.026853002377532, 52.96436400445515], [6.0260380023767475, 52.96510600445559]]]}, "properties": {"type": "boundary", "gemeente": "Opsterland", "slug": "opsterland", "code": "GM0086", "provincie": "Fryslân"}}, {"type": "Feature", "geometry": {"type": "Polygon", "coordinates": [[[5.898723002246942, 52.8086450043749], [5.900657002248944, 52.81182500437657], [5.909370002257615, 52.814059004377555], [5.9145940022629215, 52.819197004380236], [5.924321002272653, 52.82368400438242], [5.922869002271326, 52.82737600438448], [5.926407002274844, 52.82835000438487], [5.923070002271583, 52.82953200438562], [5.922841002271395, 52.83079200438634], [5.9306890022791725, 52.83193800438673], [5.927097002275658, 52.83290300438733], [5.927079002275664, 52.833827004387864], [5.931587002280156, 52.83532800438856], [5.9406080022890695, 52.83570600438852], [5.945933002294373, 52.83745200438934], [5.955706002303896, 52.833219004386734], [5.956853002305062, 52.834443004387325], [5.955764002304073, 52.837374004389], [5.95809800230643, 52.83939500439002], [5.969976002318231, 52.84237500439128], [5.973128002321342, 52.84247000439125], [5.972871002321039, 52.840714004390314], [5.976175002324134, 52.83474800438697], [5.98177700232951, 52.82928300438384], [5.986479002333944, 52.82169300437952], [5.990575002337982, 52.82159700437937], [5.9965080023437, 52.81656200437646], [6.00748300235462, 52.82004600437805], [6.024559002371535, 52.82254500437889], [6.031168002377853, 52.81499100437453], [6.046957002393576, 52.82052600437708], [6.052936002399564, 52.82412300437887], [6.059951002406536, 52.82611900437974], [6.055084002401867, 52.8311540043826], [6.052607002399586, 52.837339004386095], [6.061500002408404, 52.83929700438688], [6.082608002429205, 52.83915100438614], [6.08748000243411, 52.84311400438814], [6.121250002467671, 52.85474400439336], [6.165993002512212, 52.87502700440284], [6.206900002552825, 52.8907440044099], [6.232291002578295, 52.91343800442125], [6.244830002590753, 52.91958700442407], [6.247259002593224, 52.923347004425985], [6.21363000256023, 52.92579400442849], [6.209184002556037, 52.93369600443286], [6.200836002547955, 52.939033004435984], [6.2025250025496685, 52.94149900443724], [6.200561002547773, 52.94301400443811], [6.187340002534684, 52.93860100443624], [6.171493002519035, 52.935324004435046], [6.157177002504847, 52.930496004432946], [6.144828002492652, 52.928146004432094], [6.139261002487076, 52.92402100443008], [6.126838002474755, 52.919748004428186], [6.124002002471919, 52.91792900442733], [6.117096002465096, 52.91671200442688], [6.110545002458568, 52.91324400442525], [6.086303002435291, 52.93644700443843], [6.07774100242674, 52.931221004435926], [6.041126002390362, 52.91772300442983], [6.037312002386622, 52.91821900443021], [6.002688002352952, 52.93398200443969], [5.99802400234834, 52.933241004439445], [5.9872270023375895, 52.92867200443733], [5.980289002330716, 52.9271670044367], [5.968174002318821, 52.928408004437735], [5.957495002308266, 52.92704900443733], [5.952570002303355, 52.924848004436285], [5.932819002283407, 52.90720200442738], [5.911163002261795, 52.89782700442294], [5.904601002255296, 52.896726004422504], [5.901606002252352, 52.89706900442281], [5.899261002249999, 52.89566000442212], [5.890230002241086, 52.895351004422146], [5.8861190022370025, 52.89432400442177], [5.884610002235373, 52.88942600441914], [5.880513002231314, 52.88880900441893], [5.876971002227765, 52.88682800441796], [5.872171002222893, 52.8822440044156], [5.868534002219256, 52.8804150044147], [5.865288002215938, 52.876632004412755], [5.85676800220736, 52.87079100440984], [5.855109002205583, 52.86611500440735], [5.84392800219421, 52.85487400440155], [5.840085002190199, 52.8476520043977], [5.840017002189992, 52.8429960043952], [5.835879002185848, 52.841041004394235], [5.828708002178484, 52.831768004389374], [5.825855002175623, 52.830325004388634], [5.827653002177316, 52.827599004387146], [5.819963002169603, 52.823796004385265], [5.818128002167723, 52.82166800438414], [5.820143002169542, 52.81605300438101], [5.824198002173461, 52.81327700437935], [5.828721002177935, 52.81342700437934], [5.833629002182732, 52.81165600437827], [5.83736500218632, 52.808262004376324], [5.836570002185458, 52.805769004374966], [5.84220200219108, 52.807584004375784], [5.843594002192377, 52.80503300437438], [5.850172002198909, 52.80617400437484], [5.854667002203332, 52.80550700437435], [5.857027002205714, 52.80722900437525], [5.859640002208213, 52.804536004373695], [5.865636002214146, 52.80465000437362], [5.868680002217093, 52.80272600437246], [5.877756002226001, 52.80071800437114], [5.882578002230856, 52.80392000437275], [5.892782002240998, 52.8060510043736], [5.898723002246942, 52.8086450043749]]]}, "properties": {"type": "boundary", "gemeente": "Weststellingwerf", "slug": "weststellingwerf", "code": "GM0098", "provincie": "Fryslân"}}, {"type": "Feature", "geometry": {"type": "Polygon", "coordinates": [[[6.044239002401666, 53.2435370045989], [6.074515002431368, 53.24844800460041], [6.103689002460062, 53.25663200460355], [6.1107740024670525, 53.259855004604916], [6.117968002474082, 53.26007800460481], [6.141058002496719, 53.26438300460617], [6.144978002500455, 53.26016500460395], [6.147404002502843, 53.26113700460434], [6.148452002503842, 53.26002400460374], [6.158781002514003, 53.263684004605224], [6.160523002515665, 53.26198500460432], [6.164196002519296, 53.26395800460517], [6.1673800025223935, 53.26365100460491], [6.171460002526326, 53.26137600460363], [6.176605002531338, 53.261021004603286], [6.179491002534114, 53.25905400460218], [6.18118400253578, 53.259655004602415], [6.180721002535358, 53.261050004603156], [6.186640002541149, 53.26175000460332], [6.18721500254173, 53.26275600460377], [6.190384002544838, 53.26337800460397], [6.18567000254032, 53.26727300460609], [6.189220002543839, 53.269890004607255], [6.190720002545276, 53.26858400460656], [6.192114002546646, 53.26910000460676], [6.191480002546038, 53.26972900460714], [6.193790002548303, 53.270037004607154], [6.216805002570652, 53.265351004603986], [6.21894700257263, 53.25987300460122], [6.221828002575405, 53.25806300460021], [6.223971002577477, 53.25724000459969], [6.235672002588881, 53.256827004599096], [6.238745002591918, 53.258785004599964], [6.237578002590819, 53.26080500460101], [6.238844002592095, 53.26280700460196], [6.24306800259626, 53.265000004602925], [6.245053002598247, 53.267540004604115], [6.2475430026006915, 53.26840600460444], [6.2494800026025565, 53.267268004603814], [6.251984002605003, 53.26740500460379], [6.255546002608509, 53.26900600460444], [6.255701002608697, 53.270985004605436], [6.2529650026060795, 53.27346800460682], [6.251409002604638, 53.27725500460873], [6.253228002606619, 53.287928004613924], [6.2599040026131885, 53.29107600461527], [6.26562900261877, 53.291217004615156], [6.268717002621749, 53.289773004614304], [6.270685002623702, 53.29156200461512], [6.2710290026240925, 53.29419500461642], [6.274410002627426, 53.29650400461744], [6.274548002627615, 53.2992440046188], [6.278428002631461, 53.302830004620425], [6.289651002642437, 53.30507300462113], [6.29436100264708, 53.30817300462248], [6.290412002643292, 53.31113000462409], [6.2805030026336714, 53.3125810046252], [6.286981002640521, 53.34138200463917], [6.280016002633766, 53.34264800464002], [6.273680002627651, 53.345272004641544], [6.264478002618715, 53.346259004642356], [6.254047002608609, 53.348593004643895], [6.247577002602291, 53.34747200464359], [6.2392990025941435, 53.34303900464172], [6.2335950025885944, 53.34310000464197], [6.230480002585597, 53.344746004642886], [6.224972002580424, 53.354307004647744], [6.218892002574572, 53.35740700464952], [6.187714002544318, 53.36207800465291], [6.180150002536998, 53.36406700465417], [6.176298002533308, 53.36691300465566], [6.1695790025269766, 53.376850004660724], [6.167726002525343, 53.38477000466466], [6.167945002525685, 53.390759004667586], [6.194020002551516, 53.41328900467761], [6.079240002440241, 53.42927800468921], [6.050125002413411, 53.49233700472038], [6.004929002369501, 53.49257700472192], [6.004411002368105, 53.456640004704745], [5.959013002323478, 53.438894004697545], [5.95877400232278, 53.42092500468894], [5.823134002189838, 53.39453800467994], [5.792901002159809, 53.37667300467196], [5.777876002145143, 53.37672300467238], [5.747976002116518, 53.39478600468193], [5.702881002072508, 53.39491300468308], [5.702683002071451, 53.36795800466993], [5.718352002085765, 53.33693400465432], [5.722391002089249, 53.32231400464701], [5.721415002088094, 53.316033004643906], [5.7296820020962205, 53.317452004644416], [5.749301002115286, 53.31355500464205], [5.747164002113077, 53.309923004640254], [5.739349002105249, 53.3039390046375], [5.735384002101081, 53.29472100463302], [5.749789002115149, 53.29393500463223], [5.763284002128365, 53.29449100463225], [5.794331002158417, 53.284119004626284], [5.797837002161836, 53.283773004626], [5.800478002164371, 53.282155004625174], [5.8110460021746695, 53.28080800462418], [5.810471002174078, 53.27987300462374], [5.813229002176755, 53.27923800462336], [5.81053800217407, 53.27742400462254], [5.811412002174902, 53.27673000462214], [5.814255002177715, 53.27769100462259], [5.817694002181037, 53.276269004621774], [5.838824002201664, 53.27493500462056], [5.847661002210605, 53.2851630046254], [5.861177002223919, 53.288649004626805], [5.874611002236879, 53.28260200462341], [5.876935002239084, 53.28012400462212], [5.883134002245048, 53.27668000462023], [5.891701002253519, 53.28003800462165], [5.897788002259568, 53.283660004623286], [5.897844002259656, 53.284711004623844], [5.906649002268345, 53.28783900462512], [5.903454002265404, 53.294298004628445], [5.8965650022588765, 53.3017420046323], [5.920887002282894, 53.311099004636304], [5.922341002284358, 53.312640004637], [5.9341830022960025, 53.315578004638155], [5.9489300023104565, 53.31760100463869], [5.954768002316255, 53.321288004640344], [5.96385800232517, 53.32285300464084], [5.968784002329968, 53.3225080046405], [5.972187002333254, 53.3210850046397], [5.974300002335185, 53.31599900463716], [5.97066900233158, 53.31367300463612], [5.975853002336466, 53.30692700463263], [5.989624002349991, 53.310043004633755], [5.998101002358278, 53.31050000463371], [6.009254002369143, 53.30963100463294], [6.01161800237142, 53.308444004632285], [6.020152002379746, 53.30822400463192], [6.021122002380708, 53.30884400463218], [6.021241002381109, 53.32033300463788], [6.023437002383357, 53.32452900463987], [6.0329620023926775, 53.3256300046401], [6.035363002394985, 53.324296004639386], [6.039552002399092, 53.32513500463966], [6.045889002405244, 53.323823004638804], [6.052196002411426, 53.32493200463916], [6.066307002425156, 53.32363900463803], [6.072439002431167, 53.32486200463848], [6.075663002434298, 53.32429400463809], [6.077753002436283, 53.32208700463695], [6.074152002432757, 53.321477004636776], [6.074985002433478, 53.31764400463482], [6.072051002430582, 53.31617700463417], [6.071542002429618, 53.296595004624486], [6.069794002427919, 53.296920004624745], [6.073695002431618, 53.29240000462238], [6.065681002423799, 53.29247600462265], [6.054379002412728, 53.29087000462225], [6.053394002411503, 53.28001800461686], [6.0549650024130255, 53.27948400461654], [6.053309002411399, 53.27918900461646], [6.051864002409674, 53.26628600461006], [6.050115002407959, 53.26614100461003], [6.044239002401666, 53.2435370045989]]]}, "properties": {"type": "boundary", "gemeente": "Noardeast-Fryslân", "slug": "noardeast-fryslan", "code": "GM1970", "provincie": "Fryslân"}}, {"type": "Feature", "geometry": {"type": "Polygon", "coordinates": [[[5.773912002131077, 53.045922004505115], [5.802150002159351, 53.06248000451308], [5.816213002173527, 53.074044004518726], [5.820737002178045, 53.07647600451987], [5.830162002187397, 53.079595004521245], [5.831024002188207, 53.07837500452056], [5.843045002200078, 53.08040200452133], [5.84468000220166, 53.07956200452085], [5.854442002211333, 53.082414004522086], [5.859831002216605, 53.08167600452156], [5.868370002225069, 53.08427000452268], [5.877443002234014, 53.08541200452303], [5.883114002239684, 53.088963004524715], [5.883532002240141, 53.090661004525536], [5.880848002237492, 53.09016700452537], [5.878120002234836, 53.09096600452585], [5.8859850022426565, 53.09443900452746], [5.884827002241719, 53.10136400453109], [5.882006002239109, 53.10693900453405], [5.910696002267334, 53.109181004534435], [5.927869002284177, 53.108938004533776], [5.931585002287868, 53.11060800453455], [5.945944002301767, 53.103676004530584], [5.949657002305444, 53.1048920045311], [5.943460002299818, 53.121614004539886], [5.937219002293817, 53.12608600454239], [5.923356002280358, 53.13091000454524], [5.908629002266304, 53.14478000455279], [5.918962002276558, 53.149173004554754], [5.93061000228826, 53.159547004559776], [5.933746002291588, 53.168868004564395], [5.932721002290626, 53.17036500456517], [5.927712002285673, 53.168682004564495], [5.921942002280009, 53.16834600456448], [5.861937002221286, 53.17151900456775], [5.8535910022136175, 53.189093004576925], [5.850956002211112, 53.191713004578325], [5.862061002222045, 53.19356500457894], [5.857465002217776, 53.201600004583156], [5.857728002218106, 53.20406300458441], [5.897892002257574, 53.20869700458566], [5.907100002266655, 53.211054004586586], [5.905004002264644, 53.21247600458736], [5.905932002265623, 53.21501400458864], [5.897864002257715, 53.214658004588635], [5.897900002257771, 53.21538800458904], [5.893821002253779, 53.21551800458923], [5.894209002254224, 53.21777300459036], [5.889016002249137, 53.217682004590415], [5.888953002249168, 53.22095200459213], [5.8971170022571595, 53.220970004591884], [5.896927002257029, 53.222962004592894], [5.889170002249433, 53.22281600459305], [5.889992002250298, 53.22499900459409], [5.8806560022411585, 53.22497600459434], [5.879885002240643, 53.23334100459859], [5.8686210022295615, 53.231460004597956], [5.852554002213804, 53.23047700459787], [5.859241002220723, 53.243293004604155], [5.832160002194204, 53.242857004604666], [5.831020002193141, 53.244723004605575], [5.833166002195331, 53.24774500460705], [5.8297010021922295, 53.25758200461208], [5.832063002194622, 53.26033900461344], [5.8325300021953215, 53.268547004617524], [5.838649002201493, 53.274949004620574], [5.817694002181037, 53.276269004621774], [5.814255002177715, 53.27769100462259], [5.811412002174902, 53.27673000462214], [5.81053800217407, 53.27742400462254], [5.813229002176755, 53.27923800462336], [5.810471002174078, 53.27987300462374], [5.8110460021746695, 53.28080800462418], [5.800478002164371, 53.282155004625174], [5.797837002161836, 53.283773004626], [5.794331002158417, 53.284119004626284], [5.763284002128365, 53.29449100463225], [5.752757002118051, 53.29392200463219], [5.730914002096706, 53.29457500463305], [5.727950002093712, 53.29165000463167], [5.727616002093301, 53.288953004630294], [5.725493002091228, 53.289132004630474], [5.724849002090554, 53.28773300462979], [5.726350002092018, 53.28760700462967], [5.720846002086361, 53.279074004625556], [5.721618002087046, 53.276958004624476], [5.720121002085521, 53.27499600462352], [5.723334002088529, 53.27067400462132], [5.735387002100139, 53.26471400461805], [5.729836002094595, 53.26123600461643], [5.735830002100177, 53.252325004611826], [5.7360720021002995, 53.24867300460998], [5.7336200020978945, 53.24851400460996], [5.743916002107744, 53.24109800460599], [5.736012002099884, 53.23743500460433], [5.734954002098872, 53.23805400460468], [5.729769002093702, 53.23525400460341], [5.738148002101784, 53.23128300460119], [5.732552002096272, 53.23032300460083], [5.7341520020973835, 53.21589300459351], [5.745612002108613, 53.215876004593234], [5.747107002110055, 53.21514400459282], [5.743905002106799, 53.211379004591], [5.734741002097812, 53.21122000459114], [5.736090002098972, 53.20608500458851], [5.73740000210026, 53.2062170045885], [5.7445750021070285, 53.19782100458411], [5.739972002102306, 53.19123300458087], [5.742389002104685, 53.19141100458092], [5.740342002102483, 53.18537200457786], [5.745409002107451, 53.18523100457771], [5.741468002103449, 53.18097400457562], [5.737786002099571, 53.17254700457138], [5.73477400209658, 53.171451004570926], [5.733307002095079, 53.16945800456994], [5.73142200209327, 53.17073900457064], [5.728217002090095, 53.169785004570194], [5.728334002090151, 53.167925004569284], [5.724925002086747, 53.16607900456842], [5.723792002085762, 53.170070004570476], [5.720127002082181, 53.1705270045708], [5.718444002080491, 53.16921500457017], [5.713244002075581, 53.17523000457335], [5.707695002070109, 53.174389004573044], [5.706099002068511, 53.17338300457258], [5.699149002061704, 53.17374400457294], [5.697299002060015, 53.17771700457496], [5.692742002055618, 53.17992200457622], [5.687096002050083, 53.180039004576415], [5.6858100020488855, 53.1819220045774], [5.679398002042502, 53.17913300457611], [5.677291002040342, 53.17639300457477], [5.674586002037735, 53.17780800457555], [5.672836002035936, 53.17532600457433], [5.669006002032112, 53.173333004573394], [5.668240002031416, 53.175027004574254], [5.665960002029194, 53.175470004574535], [5.662020002025216, 53.172152004572936], [5.66253900202568, 53.17073900457222], [5.661261002024393, 53.1697580045717], [5.652840002016009, 53.166259004570136], [5.660676002023634, 53.164223004568925], [5.65982200202268, 53.16075700456715], [5.65750200202033, 53.15861500456611], [5.659453002022212, 53.157627004565576], [5.657421002020199, 53.15710700456535], [5.656659002019395, 53.15543400456453], [5.657737002020417, 53.15425800456389], [5.6619350020245625, 53.15495000456415], [5.661564002024132, 53.153122004563265], [5.662814002025334, 53.1523240045628], [5.661824002024324, 53.15112700456218], [5.6633200020257455, 53.1498210045615], [5.658473002020976, 53.1494440045614], [5.65548000201798, 53.14773000456062], [5.652051002014646, 53.14870100456115], [5.648532002011135, 53.147075004560406], [5.652128002014582, 53.144614004559045], [5.6541820020164995, 53.14158300455745], [5.647076002009398, 53.137989004555756], [5.638214002000644, 53.136564004555225], [5.63199300199441, 53.13302000455355], [5.636183001998449, 53.13064600455223], [5.635197001997443, 53.129593004551715], [5.638371002000507, 53.127969004550785], [5.637348001999372, 53.12414900454887], [5.6438080020056525, 53.12214300454766], [5.646413002008014, 53.11635000454464], [5.656514002017807, 53.11236400454236], [5.659484002020848, 53.11598500454415], [5.664940002026305, 53.11884300454553], [5.664584002025981, 53.11967300454596], [5.667680002029092, 53.12168900454694], [5.6684920020298675, 53.120978004546565], [5.671856002033235, 53.12295100454749], [5.674340002035751, 53.12517900454857], [5.67338600203482, 53.125341004548666], [5.680037002041458, 53.12857500455021], [5.684881002046207, 53.12826700454998], [5.685974002047335, 53.12986700455074], [5.692233002053448, 53.12884800455004], [5.691539002052716, 53.127256004549274], [5.695617002056705, 53.12682600454894], [5.69328800205429, 53.12295600454702], [5.695433002056401, 53.123009004547015], [5.696312002057134, 53.11912200454496], [5.698245002059018, 53.11866600454471], [5.697768002058522, 53.11775400454425], [5.700613002061252, 53.11577500454315], [5.7042440020649074, 53.118511004544445], [5.705202002065829, 53.11789700454414], [5.707939002068577, 53.11969900454499], [5.71794800207844, 53.12068600454527], [5.718393002078846, 53.11972900454476], [5.720151002080616, 53.12107900454542], [5.721108002081537, 53.12048900454508], [5.725124002085583, 53.123595004546644], [5.727842002088214, 53.12250700454596], [5.729668002089937, 53.120304004544806], [5.737154002097311, 53.12083600454491], [5.736179002096386, 53.12190200454548], [5.740260002100423, 53.122905004545906], [5.739887002100079, 53.12354300454619], [5.743940002104074, 53.12394100454633], [5.746623002106772, 53.12605800454742], [5.751508002111585, 53.12651600454745], [5.751509002111553, 53.12553400454694], [5.754563002114525, 53.12466300454648], [5.756244002116054, 53.12083700454442], [5.757449002116985, 53.11271600454023], [5.761404002120898, 53.11367900454063], [5.762665002122073, 53.11158300453952], [5.760813002120241, 53.11119500453938], [5.76262800212195, 53.108817004538075], [5.764411002123723, 53.10959100453846], [5.770537002129637, 53.10619500453654], [5.767779002126892, 53.10506400453602], [5.770580002129571, 53.102656004534715], [5.773944002132909, 53.103795004535215], [5.777873002136747, 53.1031850045348], [5.7846150021432425, 53.09903000453248], [5.787380002145942, 53.09849700453211], [5.788229002146718, 53.09659400453113], [5.785593002144121, 53.09634300453106], [5.771384002129935, 53.08910600452765], [5.771288002129797, 53.08765100452696], [5.7745050021329165, 53.086314004526145], [5.7726110021309145, 53.08180700452385], [5.764283002122683, 53.08027600452324], [5.773564002131612, 53.074109004519826], [5.775749002133529, 53.0666750045159], [5.7672110021250145, 53.0628410045141], [5.766084002123863, 53.06138800451339], [5.7618600021196915, 53.06082900451321], [5.763119002120795, 53.05662700451095], [5.766813002124239, 53.050545004507654], [5.769469002126821, 53.04963300450719], [5.771412002128658, 53.047197004505826], [5.769847002127077, 53.04584900450518], [5.773912002131077, 53.045922004505115]]]}, "properties": {"type": "boundary", "gemeente": "Leeuwarden", "slug": "leeuwarden", "code": "GM0080", "provincie": "Fryslân"}}, {"type": "Feature", "geometry": {"type": "Polygon", "coordinates": [[[6.194020002551516, 53.41328900467761], [6.350426002704012, 53.44626800468767], [6.351567002705956, 53.497042004711844], [6.366633002720549, 53.4969200047112], [6.381647002735053, 53.49455100470947], [6.383923002737271, 53.495429004709806], [6.402210002754954, 53.49400800470837], [6.408991002761532, 53.49485300470848], [6.415015002767406, 53.497507004709526], [6.417751002770095, 53.50029500471072], [6.4186810027710735, 53.505646004713235], [6.416010002768593, 53.512989004716786], [6.411133002763943, 53.517487004719136], [6.404449002757528, 53.52088600472101], [6.382272002736079, 53.521501004722204], [6.367249002721574, 53.52387100472391], [6.352123002706896, 53.52174600472351], [6.352528002707579, 53.539713004731944], [6.322071002677877, 53.52647600472692], [6.1861280025459084, 53.51397500472604], [6.125992002487769, 53.52334400473259], [6.110461002472107, 53.496483004720396], [6.050125002413411, 53.49233700472038], [6.079240002440241, 53.42927800468921], [6.194020002551516, 53.41328900467761]]]}, "properties": {"type": "boundary", "gemeente": "Schiermonnikoog", "slug": "schiermonnikoog", "code": "GM0088", "provincie": "Fryslân"}}]}