{"type": "FeatureCollection", "metadata": {"provincie": "Limburg", "slug": "limburg", "generated_at": "2026-08-24T03:11:36.474594Z", "total_boundaries": 31}, "features": [{"type": "Feature", "geometry": {"type": "Polygon", "coordinates": [[[5.688475001967738, 50.75571400306599], [5.699409001978856, 50.75540900306553], [5.702553001982185, 50.75891300306806], [5.707046001986735, 50.7582870030675], [5.708897001988681, 50.75993500306865], [5.712293001992171, 50.76096100306933], [5.715633001995532, 50.75987800306849], [5.720266002000419, 50.76471500307187], [5.722847002003014, 50.76377800307115], [5.722024002002168, 50.76349400307099], [5.724653002004765, 50.76142100306941], [5.724012002004095, 50.76090600306905], [5.73026000201036, 50.75826600306703], [5.730388002010458, 50.75741600306638], [5.7391790020193945, 50.75707400306598], [5.741572002021975, 50.761162003068875], [5.740428002020819, 50.76141500306913], [5.74143700202188, 50.762286003069676], [5.740519002020969, 50.76301300307026], [5.744896002025629, 50.768822003074376], [5.751869002032901, 50.77368000307773], [5.7557760020369235, 50.77501900307863], [5.75882600204014, 50.77820100308083], [5.7658110020474, 50.78254600308384], [5.77357500205532, 50.78324500308417], [5.777367002059168, 50.7829550030839], [5.776648002058413, 50.78224700308338], [5.779683002061223, 50.77434300307765], [5.784503002065869, 50.76716900307234], [5.793222002074846, 50.77019900307433], [5.807621002088998, 50.756054003063795], [5.814417002095913, 50.756163003063726], [5.822433002104158, 50.75879600306546], [5.830760002112621, 50.7585590030651], [5.838139002120293, 50.763344003068404], [5.845038002127378, 50.76537100306971], [5.844910002127437, 50.770764003073616], [5.842547002125149, 50.77407700307606], [5.844243002126891, 50.77455100307637], [5.843883002126548, 50.775185003076835], [5.838456002121253, 50.78165000308163], [5.837191002119946, 50.781023003081195], [5.835256002118003, 50.781738003081756], [5.833958002116776, 50.78440200308372], [5.835586002118448, 50.78481200308397], [5.835886002118817, 50.786681003085306], [5.832910002115785, 50.786580003085284], [5.832597002115542, 50.788640003086805], [5.827516002110424, 50.79009100308795], [5.821742002104763, 50.7962130030925], [5.821382002104606, 50.80215300309678], [5.81941000210271, 50.805242003099025], [5.829554002113098, 50.80740700310037], [5.831718002115348, 50.808770003101316], [5.839239002122951, 50.807588003100264], [5.842338002126194, 50.81018100310209], [5.845121002129202, 50.815398003105805], [5.848733002132859, 50.81491500310538], [5.852870002137162, 50.817792003107314], [5.851178002135491, 50.81917500310835], [5.853176002137577, 50.82075100310943], [5.856485002140958, 50.82125400310974], [5.857649002142107, 50.820340003109045], [5.864136002148806, 50.823344003111075], [5.859461002144411, 50.83368400311862], [5.85738900214225, 50.83208200311748], [5.853979002138765, 50.831542003117185], [5.853474002138289, 50.83260900311796], [5.850681002135423, 50.83184000311748], [5.844048002128749, 50.83382900311903], [5.843092002127758, 50.83314200311858], [5.836115002120762, 50.83596700312072], [5.837505002122008, 50.831239003117325], [5.836247002120689, 50.829964003116466], [5.824459002108713, 50.83016400311686], [5.8206370021048865, 50.83185700311816], [5.82123900210574, 50.838761003123096], [5.812870002097317, 50.84123100312507], [5.811077002095465, 50.84039400312448], [5.807836002092209, 50.84146500312532], [5.805301002089701, 50.84342700312674], [5.801638002086205, 50.84987500313148], [5.800667002085164, 50.84835000313043], [5.79503200207944, 50.84857000313071], [5.791266002075663, 50.84987900313174], [5.780533002064734, 50.84943600313162], [5.778781002063056, 50.85230400313374], [5.775792002060055, 50.85339400313459], [5.774613002058826, 50.85257200313399], [5.770753002054897, 50.852395003133964], [5.764171002048283, 50.85462100313568], [5.75734000204136, 50.85529100313632], [5.757326002040997, 50.84535700312919], [5.754855002038358, 50.84184100312672], [5.741261002024474, 50.84010300312573], [5.7406390020238085, 50.83915700312509], [5.740454002023592, 50.83839900312455], [5.746311002029509, 50.837325003123674], [5.745565002028717, 50.83633900312293], [5.7467060020298595, 50.835872003122645], [5.745345002028457, 50.835311003122236], [5.746822002029765, 50.829871003118306], [5.746266002029121, 50.82764800311674], [5.74491500202775, 50.827770003116825], [5.745365002028072, 50.824012003114134], [5.744873002027534, 50.82292100311336], [5.743698002026345, 50.822990003113404], [5.743482002026064, 50.821319003112194], [5.728732002010941, 50.81792500311007], [5.723198002005197, 50.81472900310787], [5.7173120019992005, 50.81450100310785], [5.716944001998443, 50.80380500310015], [5.70852800198992, 50.8049110031011], [5.709491001991021, 50.80827800310352], [5.696503001977816, 50.808546003103984], [5.693817001975152, 50.81045000310541], [5.693666001974579, 50.798827003097024], [5.698493001978966, 50.784215003086416], [5.698286001978511, 50.77747900308156], [5.695212001975202, 50.772504003078005], [5.683818001963239, 50.762363003070895], [5.681972001961232, 50.7588550030684], [5.682062001961277, 50.757536003067415], [5.687823001967144, 50.757682003067444], [5.688475001967738, 50.75571400306599]]]}, "properties": {"type": "boundary", "gemeente": "Eijsden-Margraten", "slug": "eijsden-margraten", "code": "GM1903", "provincie": "Limburg"}}, {"type": "Feature", "geometry": {"type": "Polygon", "coordinates": [[[5.857190002148793, 51.028536003257116], [5.8618280021535085, 51.02889400325723], [5.862009002153713, 51.029565003257716], [5.865314002157055, 51.02916800325735], [5.877000002169004, 51.03204200325908], [5.878028002170238, 51.03758300326296], [5.874608002166821, 51.039138003264156], [5.867285002159636, 51.046280003269324], [5.866737002159259, 51.051570003273056], [5.887199002180029, 51.052179003273], [5.89200000218493, 51.053128003273535], [5.896372002189498, 51.057141003276264], [5.913208002206892, 51.06688300328268], [5.918732002212394, 51.063953003280474], [5.92631700221956, 51.048231003269265], [5.93460700222773, 51.04123000326413], [5.938129002231097, 51.035117003259764], [5.943099002236183, 51.036586003260666], [5.949801002242991, 51.03696700326076], [5.954006002247236, 51.03652900326037], [5.955701002248905, 51.03503200325928], [5.957778002251002, 51.034726003259], [5.959467002252831, 51.03823900326141], [5.957830002251264, 51.04098100326336], [5.966900002260557, 51.04413700326532], [5.9691980022629725, 51.04677200326715], [5.968228002262133, 51.05107100327019], [5.970311002264344, 51.054185003272316], [5.968113002262162, 51.05556200327337], [5.970780002264947, 51.058018003275], [5.969978002264221, 51.06070400327687], [5.974783002269173, 51.063158003278474], [5.978663002273252, 51.06770200328157], [5.981730002276418, 51.06947800328273], [5.9795810022743, 51.07134400328411], [5.980294002275054, 51.0723170032848], [5.988452002283395, 51.07461400328617], [5.992194002287355, 51.07985500328975], [5.996186002291506, 51.08315700329192], [6.005317002300902, 51.08763200329483], [6.009524002305267, 51.09084400329695], [6.014086002309906, 51.09145900329727], [6.01757500231354, 51.094573003299345], [6.020676002316624, 51.09283800329806], [6.03646300233273, 51.096531003300214], [6.030469002326826, 51.10174100330399], [6.0282140023247175, 51.10715600330784], [6.023975002320408, 51.106636003307564], [6.022640002319137, 51.1090630033093], [6.024217002320759, 51.10987000330983], [6.0219830023186125, 51.113371003312345], [6.012823002309446, 51.11680200331496], [6.013948002310623, 51.117926003315716], [6.000766002297152, 51.11413600331342], [5.997704002294205, 51.1188370033168], [5.990903002287371, 51.12040900331806], [5.9848070022812045, 51.12065500331839], [5.982989002279277, 51.118095003316654], [5.982065002278363, 51.11860900331704], [5.978488002274648, 51.11584300331521], [5.976081002272253, 51.11709100331613], [5.972126002268168, 51.11469400331456], [5.965329002261406, 51.11844200331735], [5.961545002257528, 51.11696900331643], [5.962658002258638, 51.116459003316024], [5.956056002251895, 51.11478300331504], [5.956569002252384, 51.11382200331432], [5.95423500225, 51.113199003314], [5.953350002249147, 51.114525003314924], [5.951849002247579, 51.11308200331397], [5.948089002243756, 51.11258100331372], [5.947415002243104, 51.11345500331435], [5.940426002235997, 51.112693003313986], [5.941341002236961, 51.11382700331474], [5.940500002236124, 51.114329003315135], [5.926755002222182, 51.113774003315086], [5.919405002214952, 51.120239003319746], [5.91437200221012, 51.12829700332547], [5.916387002212233, 51.130452003326916], [5.913874002209781, 51.13323500332889], [5.911563002207393, 51.131793003327964], [5.90809400220398, 51.1348360033302], [5.903469002199231, 51.13294800332899], [5.898274002194032, 51.1348320033304], [5.897776002193565, 51.135955003331254], [5.8906310021862724, 51.13440300333029], [5.8873300021829245, 51.13422100333022], [5.886616002182226, 51.13501000333083], [5.882838002178345, 51.133376003329786], [5.881568002177106, 51.134831003330824], [5.874302002169726, 51.134250003330585], [5.872282002167707, 51.13510900333122], [5.851310002145576, 51.10911300331363], [5.849025002143286, 51.10992300331424], [5.844680002138722, 51.10526300331107], [5.837100002130957, 51.10291900330963], [5.828987002122444, 51.094422003303904], [5.822659002115956, 51.09232400330256], [5.812623002105904, 51.095930003305334], [5.806782002099987, 51.096179003305615], [5.7987540020917585, 51.09351600330393], [5.79510700208792, 51.089623003301305], [5.797130002089853, 51.08618100329885], [5.80173200209444, 51.083728003297054], [5.804865002097473, 51.07963300329412], [5.8041910020966965, 51.07692500329223], [5.799248002091616, 51.075007003291], [5.796620002088842, 51.07182400328884], [5.801058002093073, 51.064020003283275], [5.799339002091192, 51.06007200328054], [5.802946002094797, 51.05855800327938], [5.803233002095055, 51.05759500327872], [5.806934002098807, 51.057572003278636], [5.807996002099946, 51.05932000327983], [5.809344002101307, 51.05914400327968], [5.819623002112197, 51.072610003288865], [5.823960002116594, 51.07251100328867], [5.823540002116001, 51.0676300032853], [5.825939002118202, 51.06090200328053], [5.827252002119074, 51.047524003271135], [5.83527500212726, 51.04893000327192], [5.837780002129726, 51.04675900327033], [5.841285002133249, 51.04571600326952], [5.842390002134392, 51.04645500327002], [5.84363900213563, 51.04562400326939], [5.848526002140612, 51.04632800326977], [5.852743002144608, 51.03812400326393], [5.8491170021408765, 51.036538003262876], [5.850800002142457, 51.03278900326027], [5.8526140021441755, 51.029318003257714], [5.857190002148793, 51.028536003257116]]]}, "properties": {"type": "boundary", "gemeente": "Echt-Susteren", "slug": "echt-susteren", "code": "GM1711", "provincie": "Limburg"}}, {"type": "Feature", "geometry": {"type": "Polygon", "coordinates": [[[5.876178002165874, 50.964443003211414], [5.877858002167557, 50.96380200321092], [5.885266002175231, 50.96843800321405], [5.88669200217668, 50.96844800321398], [5.890848002181008, 50.97172500321622], [5.891036002181281, 50.9740940032179], [5.897086002187444, 50.97486500321834], [5.896797002187206, 50.97648600321947], [5.892610002183088, 50.98031300322225], [5.895723002186283, 50.98137400322294], [5.903725002194599, 50.98719800322686], [5.9055170021969206, 51.00217200323738], [5.895477002186815, 51.004531003239244], [5.8957400021873, 51.01101900324388], [5.888344002179884, 51.01347200324576], [5.884262002175739, 51.01338200324578], [5.878914002170466, 51.017837003249056], [5.878896002170539, 51.020644003251064], [5.874600002166475, 51.029205003257154], [5.877000002169004, 51.03204200325908], [5.864484002156211, 51.02904400325727], [5.862009002153713, 51.029565003257716], [5.8618280021535085, 51.02889400325723], [5.8567110021483, 51.028338003257], [5.852793002144356, 51.02924900325769], [5.8491170021408765, 51.036538003262876], [5.852743002144608, 51.03812400326393], [5.848526002140612, 51.04632800326977], [5.84363900213563, 51.04562400326939], [5.842390002134392, 51.04645500327002], [5.841285002133249, 51.04571600326952], [5.837780002129726, 51.04675900327033], [5.83527500212726, 51.04893000327192], [5.827252002119074, 51.047524003271135], [5.825939002118202, 51.06090200328053], [5.823540002116001, 51.0676300032853], [5.823960002116594, 51.07251100328867], [5.819623002112197, 51.072610003288865], [5.809344002101307, 51.05914400327968], [5.807996002099946, 51.05932000327983], [5.806934002098807, 51.057572003278636], [5.803233002095055, 51.05759500327872], [5.802946002094797, 51.05855800327938], [5.799339002091192, 51.06007200328054], [5.796124002087885, 51.058852003279746], [5.790464002082145, 51.058905003279904], [5.781818002073491, 51.06225900328243], [5.774656002066251, 51.06297700328312], [5.771669002063111, 51.059891003280995], [5.772564002063895, 51.05629600327847], [5.770266002061284, 51.0483210032729], [5.766408002057167, 51.04252600326895], [5.759615002050071, 51.036740003265024], [5.758002002048326, 51.033666003262894], [5.760819002051056, 51.03000600326027], [5.769226002059546, 51.02877900325923], [5.774913002065218, 51.02598600325715], [5.776434002066639, 51.02244800325462], [5.773407002063446, 51.01899900325225], [5.787245002077497, 51.019167003252065], [5.774828002064371, 51.00415500324175], [5.789197002078854, 51.00119700323936], [5.782138002071135, 50.985422003228415], [5.7826770020715355, 50.98122400322541], [5.78670600207536, 50.97356900321987], [5.786193002074737, 50.97066400321783], [5.783898002072342, 50.96887900321663], [5.78820600207599, 50.94803600320178], [5.793361002081361, 50.95190400320446], [5.802292002090272, 50.94740400320103], [5.8118860021002865, 50.955143003206295], [5.830954002119391, 50.947760003200614], [5.837820002126316, 50.94639800319951], [5.840046002128717, 50.950442003202355], [5.839818002128713, 50.957058003206996], [5.843266002132435, 50.96351700321154], [5.852185002141645, 50.968027003214544], [5.856399002145808, 50.96475500321208], [5.858873002148382, 50.96656700321332], [5.860446002149935, 50.9653240032124], [5.861708002151248, 50.966210003212986], [5.865844002155369, 50.96396200321134], [5.869178002158842, 50.9665680032131], [5.873503002163103, 50.96280400321034], [5.876178002165874, 50.964443003211414]]]}, "properties": {"type": "boundary", "gemeente": "Sittard-Geleen", "slug": "sittard-geleen", "code": "GM1883", "provincie": "Limburg"}}, {"type": "Feature", "geometry": {"type": "Polygon", "coordinates": [[[5.91954400223452, 51.71816400372166], [5.921325002236427, 51.72182100372398], [5.9278000022430835, 51.726369003726724], [5.934195002249746, 51.733720003731335], [5.934487002250226, 51.739698003735185], [5.938167002253974, 51.7412500037361], [5.932767002248568, 51.74193800373668], [5.929948002245812, 51.74442800373835], [5.930738002246673, 51.74653500373969], [5.9333230022493195, 51.74809900374065], [5.915285002231319, 51.7522870037438], [5.911115002227446, 51.762406003750435], [5.905376002221784, 51.7656840037527], [5.8934090022101415, 51.77785300376084], [5.886375002203096, 51.77859000376148], [5.869465002186016, 51.77609200376027], [5.867893002184417, 51.775521003759934], [5.867080002183457, 51.77106800375711], [5.869245002185367, 51.76286000375179], [5.864469002180398, 51.75768200374858], [5.872765002188635, 51.75435600374622], [5.879560002195322, 51.74991400374318], [5.886635002201678, 51.72626600372772], [5.8920570022070216, 51.722825003725376], [5.899567002214493, 51.72019000372348], [5.912002002226923, 51.71787700372164], [5.91954400223452, 51.71816400372166]]]}, "properties": {"type": "boundary", "gemeente": "Mook en Middelaar", "slug": "mook-en-middelaar", "code": "GM0944", "provincie": "Limburg"}}, {"type": "Feature", "geometry": {"type": "Polygon", "coordinates": [[[6.0165900570483055, 51.25057719745271], [6.0166550023176875, 51.25296700340893], [6.01478200231586, 51.25507700341043], [6.007840002308914, 51.257247003412125], [6.005711002306816, 51.258915003413314], [6.005517002306709, 51.261757003415234], [6.008096002309416, 51.26496600341736], [6.012654002314075, 51.2665090034183], [6.019294002320766, 51.26585600341769], [6.025591002327152, 51.26658300341799], [6.028198002329834, 51.26805600341892], [6.030536002332387, 51.27402700342297], [6.046415002348792, 51.28560200343045], [6.058425002361074, 51.29024700343328], [6.063278002365926, 51.28869800343204], [6.066819002369509, 51.28888100343212], [6.069975002372778, 51.29143100343372], [6.070891002373771, 51.29367700343525], [6.084717002387852, 51.297454003437444], [6.0874320023905195, 51.29504200343573], [6.090839002393941, 51.294500003435246], [6.093596002396758, 51.295527003435865], [6.103152002406197, 51.288700003430925], [6.1070080024101765, 51.29146900343271], [6.114462002417631, 51.28917500343095], [6.120071002423173, 51.28510400342797], [6.122752002425738, 51.280627003424854], [6.124559002427547, 51.27991500342433], [6.12450200242733, 51.27472900342078], [6.085617002387217, 51.247626003403354], [6.072664002373971, 51.242560003400236], [6.062961002364281, 51.246313003403095], [6.0545020023559095, 51.25187300340715], [6.052149002353548, 51.25248100340761], [6.043119002344252, 51.24705000340416], [6.038362002339413, 51.24610400340364], [6.032521002333539, 51.24699000340439], [6.0274660023283815, 51.24555500340355], [6.026156002327113, 51.24726500340478], [6.019623002320586, 51.249748003406644], [6.019866002320859, 51.25060100340722], [6.0165900570483055, 51.25057719745271]]]}, "properties": {"type": "boundary", "gemeente": "Beesel", "slug": "beesel", "code": "GM0889", "provincie": "Limburg"}}, {"type": "Feature", "geometry": {"type": "Polygon", "coordinates": [[[5.851020002145285, 51.109208003313725], [5.872282002167707, 51.13510900333122], [5.874302002169726, 51.134250003330585], [5.881568002177106, 51.134831003330824], [5.882838002178345, 51.133376003329786], [5.886616002182226, 51.13501000333083], [5.8873300021829245, 51.13422100333022], [5.8906310021862724, 51.13440300333029], [5.897776002193565, 51.135955003331254], [5.898274002194032, 51.1348320033304], [5.903469002199231, 51.13294800332899], [5.90809400220398, 51.1348360033302], [5.911563002207393, 51.131793003327964], [5.955478002252764, 51.15904400334579], [5.952515002249758, 51.15882300334572], [5.946977002244213, 51.16072000334719], [5.941154002238316, 51.16067000334728], [5.927303002224561, 51.16887200335333], [5.922816002220046, 51.16966100335397], [5.916653002213772, 51.1686210033534], [5.921628002218898, 51.17126400335512], [5.925924002223457, 51.17768200335946], [5.921247002218764, 51.1789050033604], [5.927821002225682, 51.18685100336572], [5.935155002233286, 51.19227900336932], [5.95132500224994, 51.20116500337501], [5.9468690022454656, 51.202307003375914], [5.946682002245316, 51.203434003376685], [5.925603002223991, 51.20372500337747], [5.919571002217952, 51.20565400337892], [5.91412800221255, 51.20890700338128], [5.907013002205235, 51.205550003379166], [5.905996002204237, 51.20640800337977], [5.909141002207503, 51.208858003381415], [5.907883002206313, 51.21142800338319], [5.894875002193299, 51.216000003386654], [5.89189700219022, 51.21407600338542], [5.889433002187771, 51.2154110033864], [5.879462002177527, 51.21084900338348], [5.8728320021705605, 51.2033990033785], [5.872095002169686, 51.19950600337581], [5.868671002166134, 51.19701100337417], [5.868242002165637, 51.19507800337288], [5.873733002171056, 51.19094200336987], [5.848096002144694, 51.17920800336238], [5.852469002148969, 51.17458000335908], [5.846092002142647, 51.178593003361996], [5.826960002122992, 51.17058400335691], [5.827651002123639, 51.16903900335584], [5.8261700021221, 51.16780700335496], [5.828097002123932, 51.16434400335257], [5.832694002128525, 51.16243000335113], [5.8336990021294985, 51.16110200335013], [5.832881002128598, 51.15903700334879], [5.838611002134339, 51.15708700334725], [5.836354002131937, 51.15368500334498], [5.8557830021513135, 51.144626003338246], [5.845840002141107, 51.140759003335816], [5.843507002138623, 51.137327003333446], [5.842937002137897, 51.13291400333041], [5.840116002134967, 51.130843003328984], [5.827524002122183, 51.13010500332878], [5.820704002115152, 51.12675300332661], [5.815966002110194, 51.12217400332356], [5.809850002103864, 51.118422003321065], [5.807835002101669, 51.11403500331806], [5.808358002102104, 51.111204003316075], [5.810863002104561, 51.1088670033144], [5.81462700210833, 51.107455003313326], [5.82359100211745, 51.10835000331375], [5.828886002122772, 51.107040003312655], [5.832785002126642, 51.10460400331091], [5.833507002127201, 51.09955500330741], [5.8347110021284205, 51.09947000330732], [5.837100002130957, 51.10291900330963], [5.844680002138722, 51.10526300331107], [5.849025002143286, 51.10992300331424], [5.851020002145285, 51.109208003313725]]]}, "properties": {"type": "boundary", "gemeente": "Maasgouw", "slug": "maasgouw", "code": "GM1641", "provincie": "Limburg"}}, {"type": "Feature", "geometry": {"type": "Polygon", "coordinates": [[[5.848642002135144, 50.88368400315466], [5.85697800214355, 50.88191500315315], [5.871456002158309, 50.883459003153945], [5.880824002167792, 50.88248200315305], [5.885860002172969, 50.88430500315422], [5.8873450021744596, 50.88378800315381], [5.889605002176819, 50.88563600315508], [5.8905890021778, 50.885063003154656], [5.894007002181289, 50.88560200315495], [5.890390002177711, 50.888413003157034], [5.9036660021913905, 50.894238003160886], [5.901533002189277, 50.89577600316203], [5.9147070022028565, 50.90172200316596], [5.913393002201556, 50.90272500316669], [5.9163660022046205, 50.90413100316761], [5.917598002205881, 50.904399003167796], [5.920543002208828, 50.90306400316678], [5.923721002212112, 50.904965003168016], [5.916305002204754, 50.90996500317178], [5.904207002192593, 50.913448003174565], [5.907960002196474, 50.91561600317599], [5.904104002192617, 50.91728400317729], [5.899586002188015, 50.916824003177084], [5.8959510021843915, 50.91879600317855], [5.89545600218393, 50.92003800317944], [5.898225002186854, 50.923309003181735], [5.900745002189402, 50.9229830031814], [5.901141002189871, 50.92508700318291], [5.902865002191631, 50.92529900318302], [5.905274002194152, 50.92755300318458], [5.91005800219899, 50.926974003184014], [5.913132002202141, 50.927894003184626], [5.920210002209454, 50.93171200318715], [5.918934002208211, 50.93322400318828], [5.934416002224104, 50.938636003191725], [5.931401002221142, 50.94155700319387], [5.936029002225999, 50.946325003197124], [5.940863002230957, 50.94789700319816], [5.942643002232816, 50.94950500319924], [5.943800002233979, 50.94915500319894], [5.952673002243091, 50.95247000320109], [5.962755002253527, 50.958740003205236], [5.965862002256805, 50.96241800320779], [5.9699900022609915, 50.96250200320775], [5.969084002260025, 50.96103600320674], [5.972301002263228, 50.9592750032054], [5.973957002264914, 50.95937500320548], [5.974109002265031, 50.95833600320469], [5.980123002271209, 50.96068000320619], [5.9992420022905035, 50.95777500320366], [6.006054002297403, 50.95753500320326], [6.009081002300538, 50.95948500320461], [6.0130000023045405, 50.960398003205135], [6.021163002313162, 50.97100300321246], [6.026802002319217, 50.98130900321958], [6.026512002318986, 50.98327200322094], [6.0187000023110855, 50.983819003221534], [5.984233002276085, 50.98211500322123], [5.981357002273205, 50.983217003222116], [5.973591002265239, 50.98045800322036], [5.967576002259102, 50.97939600321976], [5.957392002248961, 50.98500500322397], [5.955185002246837, 50.98841700322644], [5.933886002225132, 50.985353003224816], [5.918554002209324, 50.977747003219825], [5.915590002206319, 50.977825003219934], [5.905601002196079, 50.97472000321799], [5.895353002185687, 50.974941003218355], [5.891036002181281, 50.9740940032179], [5.890848002181008, 50.97172500321622], [5.88669200217668, 50.96844800321398], [5.885266002175231, 50.96843800321405], [5.8788490021685735, 50.96418900321116], [5.877858002167557, 50.96380200321092], [5.876848002166565, 50.964783003211615], [5.873503002163103, 50.96280400321034], [5.869178002158842, 50.9665680032131], [5.865844002155369, 50.96396200321134], [5.861708002151248, 50.966210003212986], [5.860446002149935, 50.9653240032124], [5.858873002148382, 50.96656700321332], [5.856399002145808, 50.96475500321208], [5.852185002141645, 50.968027003214544], [5.843266002132435, 50.96351700321154], [5.83978000212867, 50.95691800320694], [5.8398920021285505, 50.950191003202136], [5.8475610021361595, 50.94501500319833], [5.849350002137964, 50.94467400319805], [5.853726002142468, 50.94649800319924], [5.856930002145636, 50.944001003197364], [5.85554000214395, 50.93600700319169], [5.851930002140081, 50.9300020031876], [5.841498002129128, 50.91960700318042], [5.833457002120982, 50.920208003180996], [5.831246002118709, 50.919392003180484], [5.831557002118945, 50.9171800031789], [5.8017150020885255, 50.914130003177405], [5.801003002087617, 50.90875500317358], [5.796557002083055, 50.90747900317276], [5.802257002088668, 50.90241200316904], [5.798667002084972, 50.9010150031681], [5.80197200208832, 50.90067600316778], [5.803481002089758, 50.89803700316588], [5.801488002087674, 50.89630700316468], [5.800520002086757, 50.898181003166094], [5.796563002082719, 50.897697003165845], [5.797632002083727, 50.89545900316417], [5.796711002082673, 50.89206000316176], [5.799842002085631, 50.885673003157144], [5.802367002088246, 50.88707900315807], [5.809866002095894, 50.88784700315845], [5.8192070021052436, 50.88384300315543], [5.821192002107338, 50.88608100315698], [5.83311200211966, 50.89220900316107], [5.836648002123231, 50.89160000316058], [5.832716002119035, 50.88577100315649], [5.83314500211938, 50.88310700315458], [5.834191002120407, 50.88208400315387], [5.835293002121534, 50.882302003153946], [5.834687002120864, 50.88064800315276], [5.835830002122053, 50.881514003153384], [5.848642002135144, 50.88368400315466]]]}, "properties": {"type": "boundary", "gemeente": "Beekdaelen", "slug": "beekdaelen", "code": "GM1954", "provincie": "Limburg"}}, {"type": "Feature", "geometry": {"type": "Polygon", "coordinates": [[[5.758443002044012, 50.8985550031672], [5.774665002060944, 50.911277003175954], [5.77898100206532, 50.910973003175634], [5.782441002068918, 50.91337600317728], [5.7921930020787284, 50.91048600317502], [5.800347002087163, 50.914789003177894], [5.8017150020885255, 50.914130003177405], [5.831557002118945, 50.9171800031789], [5.831246002118709, 50.919392003180484], [5.833457002120982, 50.920208003180996], [5.841498002129128, 50.91960700318042], [5.847201002135135, 50.92587800318472], [5.850092002138117, 50.927291003185665], [5.85554000214395, 50.93600700319169], [5.856930002145636, 50.944001003197364], [5.855310002144054, 50.94587400319873], [5.853255002141989, 50.946481003199224], [5.848461002137063, 50.9447110031981], [5.841905002130523, 50.94808800320061], [5.8398920021285505, 50.950191003202136], [5.838609002127124, 50.946602003199644], [5.833344002121796, 50.94712600320011], [5.8118860021002865, 50.955143003206295], [5.802250002090231, 50.947395003201], [5.793361002081361, 50.95190400320446], [5.78820600207599, 50.94803600320178], [5.78810800207591, 50.94860600320218], [5.779955002067517, 50.94533900320003], [5.779037002066538, 50.94398000319908], [5.78373100207127, 50.94299700319826], [5.7792310020665685, 50.93924100319575], [5.777919002065004, 50.93268900319111], [5.772188002059021, 50.928112003187984], [5.773764002060481, 50.924076003185064], [5.771237002057744, 50.919246003181684], [5.76291300204901, 50.911481003176306], [5.754845002040429, 50.90059200316871], [5.758443002044012, 50.8985550031672]]]}, "properties": {"type": "boundary", "gemeente": "Beek", "slug": "beek", "code": "GM0888", "provincie": "Limburg"}}, {"type": "Feature", "geometry": {"type": "Polygon", "coordinates": [[[5.891632002177415, 50.84285900312447], [5.898772002184688, 50.84335100312461], [5.903258002189324, 50.845706003126175], [5.916169002202545, 50.84881900312812], [5.9250020022115155, 50.84884100312791], [5.929108002215491, 50.84304300312367], [5.929530002215824, 50.84023000312165], [5.933181002219513, 50.839660003121146], [5.936021002222415, 50.8401790031214], [5.946802002233516, 50.844686003124394], [5.9510590022378365, 50.844589003124256], [5.954950002241836, 50.84599500312513], [5.955296002242218, 50.8469210031258], [5.953253002240191, 50.84830600312684], [5.954518002241619, 50.85257300312986], [5.960720002247995, 50.854871003131365], [5.961424002248678, 50.85392100313063], [5.965079002252447, 50.85567300313181], [5.966393002253771, 50.85529800313152], [5.965982002253411, 50.85705600313278], [5.969362002256943, 50.860080003134875], [5.964863002252592, 50.86656500313963], [5.928645002216963, 50.900439003164685], [5.92593400221426, 50.90193300316583], [5.924181002212578, 50.90484400316793], [5.920543002208828, 50.90306400316678], [5.917598002205881, 50.904399003167796], [5.9163660022046205, 50.90413100316761], [5.913393002201556, 50.90272500316669], [5.9147070022028565, 50.90172200316596], [5.901533002189277, 50.89577600316203], [5.9036660021913905, 50.894238003160886], [5.890390002177711, 50.888413003157034], [5.894007002181289, 50.88560200315495], [5.8905890021778, 50.885063003154656], [5.889605002176819, 50.88563600315508], [5.8873450021744596, 50.88378800315381], [5.885860002172969, 50.88430500315422], [5.880824002167792, 50.88248200315305], [5.871456002158309, 50.883459003153945], [5.861618002148281, 50.882418003153425], [5.863964002150478, 50.87700700314952], [5.870068002156541, 50.873019003146545], [5.869122002155554, 50.87220500314596], [5.870671002157077, 50.87075500314491], [5.869040002155346, 50.86869900314347], [5.871333002157647, 50.867810003142765], [5.8734310021596645, 50.864478003140334], [5.871403002157553, 50.86299500313929], [5.86903300215493, 50.85667900313484], [5.874280002160281, 50.857251003135154], [5.876639002162654, 50.85658800313462], [5.875663002161622, 50.855415003133814], [5.884539002170491, 50.85100400313042], [5.891632002177415, 50.84285900312447]]]}, "properties": {"type": "boundary", "gemeente": "Voerendaal", "slug": "voerendaal", "code": "GM0986", "provincie": "Limburg"}}, {"type": "Feature", "geometry": {"type": "Polygon", "coordinates": [[[6.01591900230454, 50.870231003140944], [6.022574002311344, 50.87181000314187], [6.031140002320028, 50.871587003141485], [6.037055002326512, 50.88632000315185], [6.040415002329987, 50.888241003153134], [6.043037002332609, 50.887120003152255], [6.045534002335231, 50.88989500315417], [6.040421002330116, 50.89206600315586], [6.0425370023322875, 50.892836003156354], [6.042897002332899, 50.90040900316174], [6.048687002338741, 50.89941500316087], [6.05587800234605, 50.89993200316105], [6.056789002347042, 50.901987003162496], [6.058730002349024, 50.90244800316275], [6.059351002349617, 50.901212003161895], [6.064022002354387, 50.90232400316252], [6.063824002354232, 50.90365800316351], [6.066461002356925, 50.904264003163846], [6.079813002370514, 50.90577000316453], [6.0816010023724445, 50.909481003167144], [6.086350002377351, 50.91225800316898], [6.086984002378056, 50.91424800317038], [6.092331002383588, 50.9177000031727], [6.093726002385116, 50.921231003175166], [6.089436002380681, 50.91852500317334], [6.077465002368675, 50.92257800317658], [6.071775002362923, 50.923133003177114], [6.068184002359204, 50.92065300317548], [6.062967002353957, 50.92203500317658], [6.061818002352763, 50.921236003176034], [6.054023002344895, 50.92224700317696], [6.056160002347223, 50.92715300318041], [6.050871002341948, 50.92990500318251], [6.045582002336523, 50.92808000318136], [6.0444150023353815, 50.92934100318226], [6.039793002330746, 50.930852003183475], [6.018202002308974, 50.934701003186774], [6.006105002296176, 50.91867900317571], [5.993269002282873, 50.910083003169945], [5.990627002280059, 50.90619300316725], [5.992379002281839, 50.90613100316716], [5.991605002281015, 50.905057003166384], [5.9945050022839075, 50.90351400316524], [5.994809002283954, 50.895575003159536], [5.996608002285677, 50.89252300315734], [5.998624002287737, 50.892918003157575], [5.998505002287579, 50.891803003156795], [6.008265002297277, 50.88556200315208], [6.010018002298787, 50.87744900314623], [6.015087002303801, 50.873515003143275], [6.01591900230454, 50.870231003140944]]]}, "properties": {"type": "boundary", "gemeente": "Landgraaf", "slug": "landgraaf", "code": "GM0882", "provincie": "Limburg"}}, {"type": "Feature", "geometry": {"type": "Polygon", "coordinates": [[[5.97166500228469, 51.64613300367343], [5.976607002289592, 51.64378300367178], [6.001518002315012, 51.65525400367858], [6.002015002315493, 51.65457300367811], [6.006843002320393, 51.656027003678936], [6.014235002327961, 51.66032700368152], [6.015375002329165, 51.662242003682756], [6.024672002338453, 51.660072003681066], [6.0317580023456685, 51.66304800368282], [6.024278002338354, 51.66981600368745], [6.031945002346256, 51.67616500369137], [6.02982300234418, 51.678099003692665], [6.03036400234487, 51.6829470036958], [6.032234002346808, 51.68479600369695], [6.028248002342945, 51.68962400370022], [6.030119002344838, 51.690008003700385], [6.031741002346535, 51.69216800370177], [6.03111200234603, 51.696428003704526], [6.0305880023455645, 51.69843800370582], [6.027766002342794, 51.700549003707295], [6.026054002341321, 51.70868800371266], [6.028325002343693, 51.71173300371454], [6.0315200023469435, 51.712990003715255], [6.042009002357494, 51.713345003715226], [6.044939002360546, 51.71691300371744], [6.037881002353543, 51.719930003719604], [6.038386002353998, 51.7181140037184], [6.03542400235101, 51.71777400371826], [6.035035002350722, 51.72122700372051], [6.033000002348684, 51.72141600372067], [6.03225900234801, 51.72381900372225], [6.029522002345311, 51.7254850037234], [6.00357600231949, 51.733794003729535], [5.994197002310202, 51.73830900373269], [5.985495002301488, 51.73926800373352], [5.973362002289293, 51.73930600373392], [5.9551550022709545, 51.73811800373362], [5.952294002268219, 51.74268400373661], [5.953288002269389, 51.74802400374008], [5.952436002268421, 51.74453700373784], [5.943962002259818, 51.74181700373632], [5.938299002254119, 51.74159300373633], [5.934531002250273, 51.739740003735214], [5.934195002249746, 51.733720003731335], [5.9278000022430835, 51.726369003726724], [5.921325002236427, 51.72182100372398], [5.919470002234428, 51.717671003721314], [5.92846100224345, 51.71701500372066], [5.943139002258131, 51.71440500371861], [5.950746002265713, 51.71220300371698], [5.955291002270194, 51.709305003714995], [5.956568002271153, 51.69894100370821], [5.964393002278352, 51.677372003693996], [5.963256002276695, 51.66098200368332], [5.964034002277285, 51.65486400367933], [5.966449002279576, 51.65037400367635], [5.97166500228469, 51.64613300367343]]]}, "properties": {"type": "boundary", "gemeente": "Gennep", "slug": "gennep", "code": "GM0907", "provincie": "Limburg"}}, {"type": "Feature", "geometry": {"type": "Polygon", "coordinates": [[[5.794599002092489, 51.23698700340343], [5.802963002100989, 51.237871003403846], [5.808327002106511, 51.24046300340552], [5.817728002116078, 51.242000003406346], [5.82877600212723, 51.24099100340543], [5.83523600213378, 51.24128100340545], [5.83951700213823, 51.24468300340772], [5.8456850021445, 51.245556003408154], [5.849705002148561, 51.24531900340791], [5.85201700215084, 51.2434830034066], [5.855526002154579, 51.24899500341028], [5.8549920021541935, 51.25365900341349], [5.849863002149102, 51.25661900341565], [5.846750002145913, 51.255518003414956], [5.833836002133502, 51.27494300342855], [5.839421002139248, 51.27772300343036], [5.837922002137798, 51.279720003431734], [5.850657002151081, 51.291543003439514], [5.860725002161911, 51.310802003452416], [5.877823002179394, 51.31657800345594], [5.852108002153529, 51.32072900345936], [5.832076002133853, 51.33804700347158], [5.840194002142359, 51.34687700347741], [5.672048001971142, 51.31508200345943], [5.643997001941861, 51.290575003443244], [5.648749001946482, 51.285190003439496], [5.656958001954598, 51.279732003435576], [5.667800001965496, 51.27737600343374], [5.674512001972282, 51.277049003433426], [5.690830001988968, 51.2816100034362], [5.707593002006016, 51.28360500343724], [5.723565002022151, 51.282658003436254], [5.733001002031614, 51.2800860034343], [5.736779002035324, 51.2767150034319], [5.742799002041066, 51.26666900342491], [5.746238002044439, 51.263474003422644], [5.764005002062169, 51.25601200341719], [5.768089002066282, 51.2554220034167], [5.769512002067675, 51.253908003415624], [5.778267002076409, 51.250188003412845], [5.7823600020804555, 51.24737300341079], [5.790941002088828, 51.23817400340432], [5.794599002092489, 51.23698700340343]]]}, "properties": {"type": "boundary", "gemeente": "Nederweert", "slug": "nederweert", "code": "GM0946", "provincie": "Limburg"}}, {"type": "Feature", "geometry": {"type": "Polygon", "coordinates": [[[5.94185900223127, 50.92708600318333], [5.945485002234992, 50.92837000318417], [5.946049002235609, 50.92976500318514], [5.95411300224392, 50.93354800318764], [5.9605980022505225, 50.934222003187934], [5.96391900225388, 50.93381100318755], [5.974720002264671, 50.9287870031837], [6.011696002302103, 50.92643900318109], [6.016137002306752, 50.930811003184125], [6.018202002308974, 50.934701003186774], [6.01507900230624, 50.94788300319626], [6.016853002308193, 50.952643003199555], [6.0051980022965115, 50.95677700320279], [6.006054002297403, 50.95753500320326], [5.9992420022905035, 50.95777500320366], [5.980123002271209, 50.96068000320619], [5.974022002264943, 50.95834100320469], [5.973957002264914, 50.95937500320548], [5.972301002263228, 50.9592750032054], [5.969084002260025, 50.96103600320674], [5.9699900022609915, 50.96250200320775], [5.965862002256805, 50.96241800320779], [5.962755002253527, 50.958740003205236], [5.952673002243091, 50.95247000320109], [5.943800002233979, 50.94915500319894], [5.942643002232816, 50.94950500319924], [5.940863002230957, 50.94789700319816], [5.936220002226195, 50.94644200319721], [5.931401002221142, 50.94155700319387], [5.934416002224104, 50.938636003191725], [5.928470002218002, 50.93661200319044], [5.93011400221959, 50.93423400318872], [5.938711002228121, 50.928507003184414], [5.94185900223127, 50.92708600318333]]]}, "properties": {"type": "boundary", "gemeente": "Brunssum", "slug": "brunssum", "code": "GM0899", "provincie": "Limburg"}}, {"type": "Feature", "geometry": {"type": "Polygon", "coordinates": [[[5.851363002136122, 50.83201900311758], [5.853474002138289, 50.83260900311796], [5.853979002138765, 50.831542003117185], [5.85738900214225, 50.83208200311748], [5.865907002151093, 50.83750200312118], [5.866214002151447, 50.83871200312202], [5.871003002156297, 50.838293003121635], [5.870259002155481, 50.8365350031204], [5.8736830021590025, 50.83774800312118], [5.8775790021630865, 50.84131900312361], [5.875005002160593, 50.844940003126325], [5.875246002160912, 50.84708000312784], [5.876459002162115, 50.84624400312722], [5.884970002170805, 50.84747200312791], [5.888009002173879, 50.84705200312748], [5.8827210021686875, 50.8523240031314], [5.875663002161622, 50.855415003133814], [5.875927002161943, 50.856977003134894], [5.86903300215493, 50.85667900313484], [5.871403002157553, 50.86299500313929], [5.8734310021596645, 50.864478003140334], [5.871333002157647, 50.867810003142765], [5.869040002155346, 50.86869900314347], [5.870671002157077, 50.87075500314491], [5.869122002155554, 50.87220500314596], [5.870068002156541, 50.873019003146545], [5.863964002150478, 50.87700700314952], [5.861618002148281, 50.882418003153425], [5.85166500213816, 50.88220000315348], [5.8491500021356595, 50.88373100315464], [5.835830002122053, 50.881514003153384], [5.834687002120864, 50.88064800315276], [5.835293002121534, 50.882302003153946], [5.834191002120407, 50.88208400315387], [5.83314500211938, 50.88310700315458], [5.832716002119035, 50.88577100315649], [5.836648002123231, 50.89160000316058], [5.83311200211966, 50.89220900316107], [5.821192002107338, 50.88608100315698], [5.8192070021052436, 50.88384300315543], [5.8149900021010446, 50.88623900315723], [5.809093002095108, 50.88785000315849], [5.802086002087957, 50.88698600315801], [5.799768002085554, 50.8856120031571], [5.798372002084038, 50.88285000315518], [5.789536002075044, 50.88241100315506], [5.789101002074653, 50.88388900315608], [5.7841870020696105, 50.88240200315514], [5.7815840020670075, 50.88362800315609], [5.78056900206594, 50.88265600315542], [5.777663002063024, 50.88372700315625], [5.772078002057067, 50.875749003150645], [5.773998002058974, 50.874451003149694], [5.772595002057519, 50.87373600314919], [5.774201002059141, 50.87337800314893], [5.773013002057893, 50.87228000314814], [5.767001002051815, 50.87320300314893], [5.764269002048919, 50.86977300314655], [5.764637002049189, 50.86684100314443], [5.762660002047169, 50.86651000314425], [5.762925002047354, 50.86413800314254], [5.749360002033307, 50.8569810031377], [5.764171002048283, 50.85462100313568], [5.770753002054897, 50.852395003133964], [5.774613002058826, 50.85257200313399], [5.775792002060055, 50.85339400313459], [5.778781002063056, 50.85230400313374], [5.780533002064734, 50.84943600313162], [5.791266002075663, 50.84987900313174], [5.79503200207944, 50.84857000313071], [5.800667002085164, 50.84835000313043], [5.801638002086205, 50.84987500313148], [5.805301002089701, 50.84342700312674], [5.807836002092209, 50.84146500312532], [5.811077002095465, 50.84039400312448], [5.812870002097317, 50.84123100312507], [5.82123900210574, 50.838761003123096], [5.8206370021048865, 50.83185700311816], [5.8236100021078565, 50.83035800311701], [5.831232002115576, 50.82955800311628], [5.836247002120689, 50.829964003116466], [5.837505002122008, 50.831239003117325], [5.836115002120762, 50.83596700312072], [5.843092002127758, 50.83314200311858], [5.844048002128749, 50.83382900311903], [5.851363002136122, 50.83201900311758]]]}, "properties": {"type": "boundary", "gemeente": "Valkenburg aan de Geul", "slug": "valkenburg-aan-de-geul", "code": "GM0994", "provincie": "Limburg"}}, {"type": "Feature", "geometry": {"type": "Polygon", "coordinates": [[[6.018001002305782, 50.84391000312203], [6.018946002306818, 50.8462560031237], [6.027839002315888, 50.84763000312442], [6.034281002322526, 50.850575003126394], [6.0421020023304814, 50.85121700312663], [6.05008200233868, 50.85422500312856], [6.050770002339417, 50.85542200312938], [6.0550780023438495, 50.85725800313061], [6.056554002345339, 50.85711800313046], [6.057149002345892, 50.85551200312929], [6.056699002345289, 50.851053003126125], [6.0633800023520426, 50.85021600312533], [6.0741710023628706, 50.84653800312241], [6.077298002366505, 50.860756003132515], [6.08104000237036, 50.8625640031337], [6.081027002370411, 50.86454400313512], [6.083396002372822, 50.86483700313525], [6.086541002376159, 50.86933100313836], [6.086141002375823, 50.871476003139925], [6.088102002377841, 50.87242700314054], [6.085074002374898, 50.87636800314347], [6.087026002376937, 50.87811500314466], [6.086681002376626, 50.87945000314556], [6.082244002372199, 50.881647003147286], [6.0825370023725265, 50.8825070031479], [6.079680002369616, 50.88218500314774], [6.078222002368234, 50.88515600314988], [6.079332002369411, 50.886743003151], [6.078210002368314, 50.887977003151924], [6.077223002367301, 50.88771100315175], [6.075367002365517, 50.89056500315387], [6.077398002367849, 50.89910700315984], [6.079989002370611, 50.90318800316271], [6.079813002370514, 50.90577000316453], [6.066461002356925, 50.904264003163846], [6.063824002354232, 50.90365800316351], [6.064022002354387, 50.90232400316252], [6.059351002349617, 50.901212003161895], [6.058730002349024, 50.90244800316275], [6.056789002347042, 50.901987003162496], [6.05587800234605, 50.89993200316105], [6.048687002338741, 50.89941500316087], [6.042897002332899, 50.90040900316174], [6.0425370023322875, 50.892836003156354], [6.040421002330116, 50.89206600315586], [6.045534002335231, 50.88989500315417], [6.043037002332609, 50.887120003152255], [6.040415002329987, 50.888241003153134], [6.037055002326512, 50.88632000315185], [6.031140002320028, 50.871587003141485], [6.022574002311344, 50.87181000314187], [6.017287002305938, 50.87054500314112], [6.020309002308945, 50.86879100313976], [6.010341002298651, 50.86343400313619], [6.006977002295152, 50.860801003134426], [6.008172002296319, 50.859423003133365], [6.000568002288543, 50.85773500313239], [6.012024002299787, 50.846116003123775], [6.015742002303487, 50.843811003122035], [6.018001002305782, 50.84391000312203]]]}, "properties": {"type": "boundary", "gemeente": "Kerkrade", "slug": "kerkrade", "code": "GM0928", "provincie": "Limburg"}}, {"type": "Feature", "geometry": {"type": "Polygon", "coordinates": [[[6.018597002303726, 50.763680003064316], [6.027643002313264, 50.77418400307163], [6.026114002311756, 50.77553100307265], [6.020333002305914, 50.77648800307349], [6.0173780023029835, 50.778593003075095], [6.006579002292126, 50.78189200307775], [6.00548600229107, 50.783394003078854], [6.002159002287712, 50.7841750030795], [5.998509002284099, 50.786983003081666], [5.997456002283016, 50.78656600308135], [5.995852002281415, 50.78742300308199], [5.995904002281555, 50.7900510030839], [5.988269002273935, 50.794050003086966], [5.980176002265748, 50.79509900308792], [5.977173002262751, 50.79670200308915], [5.974862002260449, 50.79803700309018], [5.976558002262353, 50.80344000309405], [5.969104002254711, 50.80127200309269], [5.964809002250383, 50.8024190030936], [5.951629002236704, 50.79378700308774], [5.945427002230481, 50.796146003089525], [5.942008002226818, 50.79047900308557], [5.944914002229468, 50.78160900307908], [5.943609002227859, 50.7732600030731], [5.940229002224375, 50.771755003072094], [5.9359300022199974, 50.771461003072005], [5.9311210022152325, 50.775139003074734], [5.923850002207849, 50.775241003074996], [5.920541002204281, 50.76933300307084], [5.925476002209195, 50.766322003068524], [5.92612900220978, 50.76400000306686], [5.925059002208677, 50.7636510030666], [5.926893002210527, 50.76309200306613], [5.927286002210948, 50.76378700306665], [5.927983002211612, 50.76245800306569], [5.930143002213813, 50.762636003065744], [5.931078002214704, 50.76087700306444], [5.93212400221577, 50.76091300306447], [5.93009400221364, 50.75904000306313], [5.9320960022156415, 50.75811100306244], [5.934710002218315, 50.75849400306266], [5.936174002219743, 50.75678700306138], [5.938973002222626, 50.75794000306213], [5.944247002228005, 50.758473003062385], [5.946493002230333, 50.759818003063295], [5.953583002237552, 50.76014100306337], [5.960663002244826, 50.76247500306487], [5.960926002245061, 50.761538003064196], [5.972821002257086, 50.759648003062544], [5.975118002259362, 50.757889003061194], [5.974140002258275, 50.75521200305926], [5.976474002260616, 50.754335003058586], [5.979335002263536, 50.75463200305874], [5.983190002267391, 50.752820003057316], [5.984523002268764, 50.75339700305772], [5.993372002277734, 50.752760003057055], [5.997214002281677, 50.75386500305773], [5.999278002283746, 50.75302600305707], [6.002487002287041, 50.7541110030578], [6.013415002298177, 50.75506900305818], [6.021009002305865, 50.75428800305741], [6.018597002303726, 50.763680003064316]]]}, "properties": {"type": "boundary", "gemeente": "Vaals", "slug": "vaals", "code": "GM0981", "provincie": "Limburg"}}, {"type": "Feature", "geometry": {"type": "Polygon", "coordinates": [[[5.67729700197174, 51.182875003368586], [5.6805000019750125, 51.18352200336895], [5.680994001975546, 51.18444800336961], [5.68402900197861, 51.18408700336926], [5.689411001984113, 51.185420003370076], [5.695295001989977, 51.18255900336801], [5.696436001991183, 51.18393700336894], [5.701611001996422, 51.18379300336873], [5.7012880019960495, 51.18247800336784], [5.7080040020028395, 51.18205500336739], [5.709339002004137, 51.18042100336624], [5.714479002009457, 51.18350900336828], [5.719676002014765, 51.18470000336901], [5.725137002020324, 51.18526900336927], [5.7253020020204675, 51.18464400336883], [5.728474002023721, 51.18574100336953], [5.730065002025303, 51.18492000336893], [5.738234002033638, 51.186516003369874], [5.739740002035103, 51.18474800336861], [5.740098002035527, 51.18655100336984], [5.743075002038579, 51.18753500337046], [5.746547002042204, 51.19055800337245], [5.747365002043098, 51.19246800337375], [5.745820002041583, 51.19384600337477], [5.752285002048371, 51.2005880033793], [5.753846002050057, 51.20357100338132], [5.75290900204916, 51.205179003382455], [5.755857002052208, 51.20683000338351], [5.753658002049972, 51.2066030033834], [5.753344002049699, 51.20794200338434], [5.751239002047546, 51.20734700338395], [5.7488870020451905, 51.20815500338457], [5.75083600204722, 51.20967900338559], [5.751776002048308, 51.21361100338827], [5.757171002053864, 51.21619200338993], [5.761277002058034, 51.216450003390044], [5.768824002065621, 51.21482600338875], [5.774057002070943, 51.21544300338906], [5.775589002072612, 51.21885500339138], [5.782139002079305, 51.22056000339242], [5.789738002087462, 51.23388300340142], [5.790051002087866, 51.23649900340319], [5.791770002089643, 51.237537003403865], [5.7823600020804555, 51.24737300341079], [5.778267002076409, 51.250188003412845], [5.769512002067675, 51.253908003415624], [5.768089002066282, 51.2554220034167], [5.764005002062169, 51.25601200341719], [5.746238002044439, 51.263474003422644], [5.742799002041066, 51.26666900342491], [5.736779002035324, 51.2767150034319], [5.733001002031614, 51.2800860034343], [5.723565002022151, 51.282658003436254], [5.707593002006016, 51.28360500343724], [5.690830001988968, 51.2816100034362], [5.674512001972282, 51.277049003433426], [5.667800001965496, 51.27737600343374], [5.656958001954598, 51.279732003435576], [5.648749001946482, 51.285190003439496], [5.643997001941861, 51.290575003443244], [5.62597200192299, 51.273602003431975], [5.6234740019195675, 51.249026003415175], [5.618782001914102, 51.22942500340179], [5.594414001889209, 51.22418000339864], [5.594321001889184, 51.22607400339992], [5.566045001860329, 51.220909003396876], [5.646468001941101, 51.19994400338098], [5.652734001947369, 51.19766100337927], [5.654083001948615, 51.19424200337685], [5.649740001944189, 51.193618003376514], [5.658044001952287, 51.18474500337026], [5.6643060019586935, 51.18628500337118], [5.6710370019655, 51.185768003370704], [5.676125001970619, 51.18470400336991], [5.67729700197174, 51.182875003368586]]]}, "properties": {"type": "boundary", "gemeente": "Weert", "slug": "weert", "code": "GM0988", "provincie": "Limburg"}}, {"type": "Feature", "geometry": {"type": "Polygon", "coordinates": [[[5.983646002288324, 51.37816000349501], [6.006808002311764, 51.379965003495606], [6.0187660023239085, 51.38225700349682], [6.073302002379356, 51.39576300350441], [6.07190500237813, 51.401626003508404], [6.074052002380415, 51.40550600351097], [6.073366002379739, 51.40610600351139], [6.076890002383397, 51.40949900351356], [6.077471002384275, 51.41907300351997], [6.077696002384539, 51.4201710035207], [6.078983002385842, 51.42033100352079], [6.101758002408784, 51.41955400351962], [6.107547002414641, 51.4202530035199], [6.10876400241584, 51.419325003519255], [6.109505002416618, 51.42039500351993], [6.116680002423881, 51.42131800352036], [6.1219460024290235, 51.41585900351654], [6.1245560024316195, 51.414801003515734], [6.127935002435031, 51.41478300351561], [6.128198002435267, 51.41389100351501], [6.131171002438288, 51.414704003515475], [6.132704002439806, 51.413717003514776], [6.134091002441276, 51.41613600351634], [6.135271002442464, 51.41610900351629], [6.140779002447383, 51.39486200350185], [6.153042002459778, 51.395925003502164], [6.1491160024562115, 51.40910300351116], [6.1513750024586535, 51.4146120035148], [6.156825002464277, 51.41912000351766], [6.158380002465954, 51.42272700352005], [6.1539690024619125, 51.43639100352935], [6.1544690024625455, 51.44080600353227], [6.1574600024657, 51.44556200353535], [6.176377002485232, 51.46183400354568], [6.178980002488038, 51.46817300354984], [6.177609002486823, 51.47383000355367], [6.166729002476244, 51.48675900356263], [6.169401002479326, 51.50015900357144], [6.1683550024784335, 51.50561400357512], [6.160791002471016, 51.51238400357985], [6.146859002457118, 51.516652003583076], [6.141094002451397, 51.51952000358523], [6.1319980024420015, 51.51147300358013], [6.126863002436918, 51.51438800358218], [6.121991002431887, 51.510176003579545], [6.106612002416645, 51.5183020035854], [6.107573002417704, 51.521403003587466], [6.1047390024148775, 51.52238800358816], [6.100459002410579, 51.52268700358847], [6.095629002405682, 51.52159600358793], [6.093772002403845, 51.52272100358872], [6.08716900239722, 51.52356600358946], [6.079929002389909, 51.52295200358932], [6.076764002386779, 51.524777003590586], [6.066774002376683, 51.52369400359017], [6.064602002374265, 51.516066003585166], [6.066259002375687, 51.50794800357969], [6.073756002382853, 51.49517300357099], [6.068394002377228, 51.48790000356631], [6.066295002375125, 51.488344003566674], [6.0613240023700765, 51.487121003565974], [6.058205002366986, 51.48881500356721], [6.051301002360041, 51.48924500356769], [6.049474002358236, 51.49040400356847], [6.039943002348554, 51.48791600356709], [6.039794002348358, 51.4863900035661], [6.0358390023443125, 51.484513003564985], [6.035209002343611, 51.48234800356353], [6.030211002338497, 51.47984900356201], [6.023057002331272, 51.47948800356196], [6.013270002321327, 51.47699200356059], [5.99412000230196, 51.47521300355992], [5.95300400226012, 51.46354100355318], [5.874966002180811, 51.446558003543785], [5.9312880022356635, 51.38475300350084], [5.94732700225181, 51.383134003499315], [5.957897002262317, 51.37805000349558], [5.983646002288324, 51.37816000349501]]]}, "properties": {"type": "boundary", "gemeente": "Horst aan de Maas", "slug": "horst-aan-de-maas", "code": "GM1507", "provincie": "Limburg"}}, {"type": "Feature", "geometry": {"type": "Polygon", "coordinates": [[[5.757259002040987, 50.847036003130384], [5.75734000204136, 50.85529100313632], [5.749287002033239, 50.85715000313782], [5.762925002047354, 50.86413800314254], [5.762660002047169, 50.86651000314425], [5.75909100204352, 50.865972003143916], [5.755445002040012, 50.87149100314793], [5.746974002031369, 50.870701003147545], [5.74600600203044, 50.872268003148655], [5.742567002026914, 50.87139900314815], [5.7418890020262845, 50.87311700314939], [5.733366002017681, 50.874746003150754], [5.7362430020208635, 50.88204600315589], [5.732515002017086, 50.882434003156256], [5.731480002016054, 50.88290100315661], [5.732463002017073, 50.88353000315702], [5.726542002011077, 50.88414800315759], [5.725591002010363, 50.891267003162696], [5.723467002008323, 50.89456200316505], [5.7180370020028874, 50.8969270031669], [5.719841002004803, 50.89922900316849], [5.712640001997605, 50.902672003171084], [5.713096001998202, 50.906340003173675], [5.717287002002507, 50.90765500317455], [5.709270001994501, 50.91159300317751], [5.703418001988555, 50.91171400317771], [5.6994650019845015, 50.9107620031771], [5.69653500198145, 50.90861000317565], [5.695782001980581, 50.90580300317365], [5.6971810019818765, 50.902262003171096], [5.695744001980254, 50.897745003167906], [5.692342001976651, 50.893708003165095], [5.682516001966474, 50.888524003161585], [5.679106001962825, 50.883469003158055], [5.679350001962964, 50.880489003155894], [5.669631001953127, 50.88182200315706], [5.661678001944927, 50.87866500315493], [5.658596001941702, 50.876185003153225], [5.656442001939525, 50.87656900315355], [5.653336001936273, 50.87397900315174], [5.6513230019342675, 50.87509200315262], [5.644159001926841, 50.87135000315002], [5.6494720019321365, 50.86834400314778], [5.641665001924044, 50.86416200314493], [5.644005001926382, 50.862920003144026], [5.642279001924566, 50.86140700314295], [5.643616001925895, 50.860483003142235], [5.641802001924004, 50.85924800314141], [5.643791001926013, 50.858878003141065], [5.641685001923824, 50.85755500314018], [5.643514001925656, 50.856784003139616], [5.6403260019223005, 50.853725003137484], [5.642708001924591, 50.85008100313484], [5.640287001922106, 50.84946600313445], [5.640766001922526, 50.847697003133156], [5.6388660019205945, 50.84767400313319], [5.642294001923915, 50.84309100312981], [5.6412180019228115, 50.84289200312969], [5.642793001924363, 50.841467003128656], [5.641854001923384, 50.84079300312819], [5.645346001926885, 50.839395003127095], [5.643732001925189, 50.837936003126075], [5.647419001928869, 50.835932003124576], [5.648334001929702, 50.83321800312263], [5.650003001931422, 50.8338860031231], [5.651382001932757, 50.83199200312171], [5.6488960019300345, 50.82670300311793], [5.651855001933074, 50.82750800311847], [5.6561780019373575, 50.824290003116054], [5.653991001934979, 50.82008200311307], [5.667648001948746, 50.81654400311027], [5.668076001949223, 50.81773700311114], [5.669454001950632, 50.81785000311119], [5.672750001953952, 50.816949003110466], [5.673173001954351, 50.815996003109795], [5.678283001959564, 50.816468003110046], [5.680531001961693, 50.81205800310682], [5.684360001965636, 50.81342000310771], [5.688773001970062, 50.81162700310635], [5.691680001973038, 50.812122003106644], [5.693856001975228, 50.811516003106156], [5.693817001975152, 50.81045000310541], [5.696503001977816, 50.808546003103984], [5.709491001991021, 50.80827800310352], [5.70852800198992, 50.8049110031011], [5.709823001991212, 50.80419100310058], [5.716944001998443, 50.80380500310015], [5.7173120019992005, 50.81450100310785], [5.723198002005197, 50.81472900310787], [5.728732002010941, 50.81792500311007], [5.743482002026064, 50.821319003112194], [5.743698002026345, 50.822990003113404], [5.744873002027534, 50.82292100311336], [5.745365002028072, 50.824012003114134], [5.74491500202775, 50.827770003116825], [5.746266002029121, 50.82764800311674], [5.746822002029765, 50.829871003118306], [5.745345002028457, 50.835311003122236], [5.7467060020298595, 50.835872003122645], [5.745565002028717, 50.83633900312293], [5.746311002029509, 50.837325003123674], [5.740454002023592, 50.83839900312455], [5.7406390020238085, 50.83915700312509], [5.741261002024474, 50.84010300312573], [5.754855002038358, 50.84184100312672], [5.757259002040987, 50.847036003130384]]]}, "properties": {"type": "boundary", "gemeente": "Maastricht", "slug": "maastricht", "code": "GM0935", "provincie": "Limburg"}}, {"type": "Feature", "geometry": {"type": "Polygon", "coordinates": [[[6.009597002310973, 51.26612300341811], [6.014424002315866, 51.26655900341828], [6.020663002322151, 51.265871003417644], [6.025591002327152, 51.26658300341799], [6.028198002329834, 51.26805600341892], [6.030536002332387, 51.27402700342297], [6.046415002348792, 51.28560200343045], [6.058425002361074, 51.29024700343328], [6.063278002365926, 51.28869800343204], [6.066819002369509, 51.28888100343212], [6.069975002372778, 51.29143100343372], [6.070891002373771, 51.29367700343525], [6.089139002392371, 51.29924000343852], [6.103552002407233, 51.30926700344494], [6.116233002420458, 51.323206003454054], [6.118200002422646, 51.32992500345856], [6.11662000242133, 51.339005003464784], [6.1232540024281565, 51.343370003467506], [6.122642002427576, 51.34468000346842], [6.119905002424879, 51.34668700346989], [6.118773002423713, 51.345931003469396], [6.107100002412241, 51.356003003476566], [6.099655002404762, 51.357097003477534], [6.09106700239654, 51.37159500348759], [6.087591002392995, 51.37033500348686], [6.086234002391696, 51.372596003488425], [6.077587002383142, 51.37817300349245], [6.090459002396366, 51.38591100349728], [6.090374002396374, 51.38911000349943], [6.086504002392501, 51.38997000350014], [6.083728002389779, 51.392571003501935], [6.081498002387518, 51.392146003501765], [6.077303002383351, 51.394393003503374], [6.074430002380437, 51.39382200350307], [6.073126002379178, 51.39572900350439], [6.0187660023239085, 51.38225700349682], [6.006808002311764, 51.379965003495606], [5.989833002294572, 51.37822100349489], [5.957897002262317, 51.37805000349558], [5.94732700225181, 51.383134003499315], [5.9312880022356635, 51.38475300350084], [5.874543002177297, 51.35331300348098], [5.840194002142359, 51.34687700347741], [5.832076002133853, 51.33804700347158], [5.8521420021535615, 51.320702003459374], [5.883999002185607, 51.31555700345509], [5.910654002212297, 51.30770900344913], [5.907567002209356, 51.31324100345293], [5.954706002256588, 51.30028000344291], [6.00825500230998, 51.27754300342598], [6.011015002312582, 51.27155300342181], [6.009597002310973, 51.26612300341811]]]}, "properties": {"type": "boundary", "gemeente": "Peel en Maas", "slug": "peel-en-maas", "code": "GM1894", "provincie": "Limburg"}}, {"type": "Feature", "geometry": {"type": "Polygon", "coordinates": [[[6.169193002479202, 51.5030820035734], [6.188363002498558, 51.50508100357415], [6.204045002514315, 51.50431300357312], [6.21336100252379, 51.50781800357519], [6.212024002522606, 51.51339100357892], [6.207709002518425, 51.519096003582824], [6.199929002510835, 51.52738100358859], [6.176902002487987, 51.53855600359672], [6.157032002468811, 51.56657600361582], [6.1469860024588225, 51.5705910036188], [6.130560002442604, 51.58108800362625], [6.121485002433816, 51.59274500363417], [6.117085002429425, 51.59384800363502], [6.091387002403932, 51.605936003643734], [6.094355002407194, 51.615196003649714], [6.093934002406976, 51.62215400365427], [6.097229002410252, 51.62088400365333], [6.100012002413146, 51.6240790036554], [6.108040002421744, 51.6419320036668], [6.11168300242549, 51.644730003668535], [6.1094120024232685, 51.64686700367], [6.1172480024312605, 51.65073100367227], [6.115771002429846, 51.65322700367396], [6.118087002432258, 51.6559730036757], [6.102838002417059, 51.6605050036791], [6.09965400241379, 51.658116003677634], [6.095035002409193, 51.6597030036788], [6.0878880024020114, 51.65985000367913], [6.085345002399548, 51.66291400368116], [6.083096002397252, 51.66171900368046], [6.079545002393679, 51.661593003680494], [6.07966300239385, 51.663462003681694], [6.075724002389931, 51.66482600368272], [6.072384002386546, 51.66383900368214], [6.036642002350875, 51.672760003689], [6.034947002349207, 51.673988003689864], [6.031540002345801, 51.674583003690344], [6.034684002348969, 51.67487100369044], [6.031945002346256, 51.67616500369137], [6.024278002338354, 51.66981600368745], [6.0317580023456685, 51.66304800368282], [6.024672002338453, 51.660072003681066], [6.015375002329165, 51.662242003682756], [6.014235002327961, 51.66032700368152], [6.006843002320393, 51.656027003678936], [6.002015002315493, 51.65457300367811], [6.001518002315012, 51.65525400367858], [5.976607002289592, 51.64378300367178], [5.982122002295101, 51.64252000367082], [5.996352002309244, 51.6367190036666], [6.01895000233155, 51.622637003656756], [6.022020002334551, 51.61966400365473], [6.02406600233646, 51.6148030036515], [6.023767002335805, 51.60324500364389], [6.0249430023368316, 51.59806400364047], [6.027244002339031, 51.594298003637924], [6.036595002348219, 51.58685900363275], [6.039536002351036, 51.58225000362965], [6.03755500234868, 51.570425003621885], [6.040712002351678, 51.564455003617866], [6.048355002359188, 51.55833700361366], [6.056509002367375, 51.55758100361289], [6.062132002372983, 51.555875003611604], [6.068940002379709, 51.551558003608555], [6.078849002389554, 51.54720600360538], [6.085596002396335, 51.54686200360497], [6.102774002413673, 51.54828200360538], [6.111065002421973, 51.54670400360411], [6.113880002424733, 51.54423700360241], [6.116371002427016, 51.536686003597325], [6.120767002431276, 51.531043003593446], [6.144703002454971, 51.51750200358375], [6.161670002471887, 51.5118830035795], [6.166641002476775, 51.507864003576664], [6.169193002479202, 51.5030820035734]]]}, "properties": {"type": "boundary", "gemeente": "Bergen (L)", "slug": "bergen-l", "code": "GM0893", "provincie": "Limburg"}}, {"type": "Feature", "geometry": {"type": "Polygon", "coordinates": [[[6.021858002308912, 50.82014800310487], [6.023723002310749, 50.818403003103604], [6.026355002313475, 50.82003300310469], [6.022744002310026, 50.826606003109475], [6.025270002312631, 50.82782100311029], [6.018769002306092, 50.829695003111816], [6.01631600230374, 50.833884003114896], [6.018450002306018, 50.83732900311728], [6.015942002303522, 50.83879600311838], [6.0179590023057346, 50.843805003121936], [6.015742002303487, 50.843811003122035], [6.012024002299787, 50.846116003123775], [6.000568002288543, 50.85773500313239], [6.008172002296319, 50.859423003133365], [6.006977002295152, 50.860801003134426], [6.010341002298651, 50.86343400313619], [6.020309002308945, 50.86879100313976], [6.017142002305786, 50.87046700314106], [6.015860002304478, 50.87022000314092], [6.015087002303801, 50.873515003143275], [6.010018002298787, 50.87744900314623], [6.008265002297277, 50.88556200315208], [5.998505002287579, 50.891803003156795], [5.998624002287737, 50.892918003157575], [5.996608002285677, 50.89252300315734], [5.994809002283954, 50.895575003159536], [5.9945050022839075, 50.90351400316524], [5.991605002281015, 50.905057003166384], [5.992379002281839, 50.90613100316716], [5.990627002280059, 50.90619300316725], [5.993269002282873, 50.910083003169945], [6.006105002296176, 50.91867900317571], [6.012383002302794, 50.92627300318095], [5.974720002264671, 50.9287870031837], [5.96391900225388, 50.93381100318755], [5.9605980022505225, 50.934222003187934], [5.954564002244386, 50.93372400318774], [5.94185900223127, 50.92708600318333], [5.930564002220035, 50.933849003188435], [5.928130002217653, 50.93650700319037], [5.918934002208211, 50.93322400318828], [5.920210002209454, 50.93171200318715], [5.91278100220178, 50.92774700318452], [5.91005800219899, 50.926974003184014], [5.905274002194152, 50.92755300318458], [5.902865002191631, 50.92529900318302], [5.901141002189871, 50.92508700318291], [5.900745002189402, 50.9229830031814], [5.897674002186279, 50.92281900318139], [5.895758002184202, 50.91896800317867], [5.899586002188015, 50.916824003177084], [5.904104002192617, 50.91728400317729], [5.907960002196474, 50.91561600317599], [5.904207002192593, 50.913448003174565], [5.916305002204754, 50.90996500317178], [5.923517002211931, 50.90557000316844], [5.921759002210143, 50.905563003168524], [5.925297002213682, 50.90394900316728], [5.92593400221426, 50.90193300316583], [5.928645002216963, 50.900439003164685], [5.965175002252902, 50.86625500313937], [5.977408002264791, 50.85046600312781], [5.988955002276295, 50.84389100312277], [5.992377002279755, 50.84342200312232], [5.994270002281615, 50.84158400312097], [5.997770002285156, 50.841254003120646], [6.003301002290672, 50.838248003118366], [6.00539700229269, 50.83494200311594], [6.003021002290183, 50.83202600311391], [6.011817002299063, 50.8305440031126], [6.017030002304194, 50.825702003108994], [6.015746002302826, 50.82381200310767], [6.01747200230451, 50.82168500310607], [6.020631002307652, 50.8197390031046], [6.021858002308912, 50.82014800310487]]]}, "properties": {"type": "boundary", "gemeente": "Heerlen", "slug": "heerlen", "code": "GM0917", "provincie": "Limburg"}}, {"type": "Feature", "geometry": {"type": "Polygon", "coordinates": [[[6.093668002396827, 51.29539000343577], [6.103152002406197, 51.288700003430925], [6.1070080024101765, 51.29146900343271], [6.114462002417631, 51.28917500343095], [6.120071002423173, 51.28510400342797], [6.122752002425738, 51.280627003424854], [6.124559002427547, 51.27991500342433], [6.124500002427397, 51.2770610034223], [6.129011002432216, 51.285702003428156], [6.145145002448879, 51.29811600343613], [6.153824002457918, 51.30744800344219], [6.15424000245845, 51.311115003444705], [6.159420002463813, 51.315642003447614], [6.159590002464103, 51.319691003450394], [6.164188002468918, 51.3255520034542], [6.169378002474269, 51.32937400345667], [6.168557002473548, 51.332989003459154], [6.178240002483324, 51.33322600345901], [6.188304002493526, 51.33506800345995], [6.194236002499503, 51.3348790034596], [6.189882002495249, 51.33946100346289], [6.226390002532665, 51.36033600347588], [6.214743002521721, 51.3875160034946], [6.216367002523393, 51.38883200349544], [6.214425002521461, 51.38963400349603], [6.223703002531007, 51.39655300350039], [6.226668002534103, 51.40026800350281], [6.211363002518701, 51.40092600350375], [6.205257002512507, 51.399520003503014], [6.214761002523078, 51.43388100352578], [6.213937002522606, 51.4462640035341], [6.22059300252932, 51.44664600353415], [6.220006002528977, 51.45535000353995], [6.223676002533057, 51.46871500354879], [6.223557002533112, 51.47496500355296], [6.219032002528846, 51.4849830035598], [6.218515002528306, 51.484341003559365], [6.212764002522718, 51.49130800356418], [6.214195002524492, 51.502913003571884], [6.21336100252379, 51.50781800357519], [6.204045002514315, 51.50431300357312], [6.188363002498558, 51.50508100357415], [6.169193002479202, 51.5030820035734], [6.166729002476244, 51.48675900356263], [6.177609002486823, 51.47383000355367], [6.178640002487628, 51.46580800354829], [6.175339002484154, 51.460693003544975], [6.1574600024657, 51.44556200353535], [6.1544690024625455, 51.44080600353227], [6.1539690024619125, 51.43639100352935], [6.158380002465954, 51.42272700352005], [6.156825002464277, 51.41912000351766], [6.1513750024586535, 51.4146120035148], [6.1491160024562115, 51.40910300351116], [6.153042002459778, 51.395925003502164], [6.140779002447383, 51.39486200350185], [6.135271002442464, 51.41610900351629], [6.134091002441276, 51.41613600351634], [6.132704002439806, 51.413717003514776], [6.131171002438288, 51.414704003515475], [6.128198002435267, 51.41389100351501], [6.127935002435031, 51.41478300351561], [6.1245560024316195, 51.414801003515734], [6.1219460024290235, 51.41585900351654], [6.116680002423881, 51.42131800352036], [6.109505002416618, 51.42039500351993], [6.10876400241584, 51.419325003519255], [6.107547002414641, 51.4202530035199], [6.101758002408784, 51.41955400351962], [6.077696002384539, 51.4201710035207], [6.076890002383397, 51.40949900351356], [6.073366002379739, 51.40610600351139], [6.071828002378041, 51.401205003508174], [6.072308002378408, 51.39755600350563], [6.074430002380437, 51.39382200350307], [6.077303002383351, 51.394393003503374], [6.081498002387518, 51.392146003501765], [6.083728002389779, 51.392571003501935], [6.086504002392501, 51.38997000350014], [6.090374002396374, 51.38911000349943], [6.090459002396366, 51.38591100349728], [6.077587002383142, 51.37817300349245], [6.086234002391696, 51.372596003488425], [6.087591002392995, 51.37033500348686], [6.09106700239654, 51.37159500348759], [6.099655002404762, 51.357097003477534], [6.107100002412241, 51.356003003476566], [6.118773002423713, 51.345931003469396], [6.119905002424879, 51.34668700346989], [6.1232540024281565, 51.343370003467506], [6.116643002421357, 51.339076003464825], [6.11819000242263, 51.32975200345844], [6.11539000241957, 51.32200000345327], [6.10262100240627, 51.30851900344447], [6.097312002400821, 51.305667003442686], [6.089139002392371, 51.29924000343852], [6.084717002387852, 51.297454003437444], [6.0874320023905195, 51.29504200343573], [6.090839002393941, 51.294500003435246], [6.093668002396827, 51.29539000343577]]]}, "properties": {"type": "boundary", "gemeente": "Venlo", "slug": "venlo", "code": "GM0983", "provincie": "Limburg"}}, {"type": "Feature", "geometry": {"type": "Polygon", "coordinates": [[[5.875070002180915, 51.44658100354387], [5.95300400226012, 51.46354100355318], [5.99412000230196, 51.47521300355992], [6.013270002321327, 51.47699200356059], [6.023057002331272, 51.47948800356196], [6.030211002338497, 51.47984900356201], [6.035209002343611, 51.48234800356353], [6.0358390023443125, 51.484513003564985], [6.039794002348358, 51.4863900035661], [6.039943002348554, 51.48791600356709], [6.049474002358236, 51.49040400356847], [6.051301002360041, 51.48924500356769], [6.058205002366986, 51.48881500356721], [6.0613240023700765, 51.487121003565974], [6.066295002375125, 51.488344003566674], [6.068394002377228, 51.48790000356631], [6.073756002382853, 51.49517300357099], [6.066259002375687, 51.50794800357969], [6.064602002374265, 51.516066003585166], [6.066774002376683, 51.52369400359017], [6.076764002386779, 51.524777003590586], [6.079929002389909, 51.52295200358932], [6.08716900239722, 51.52356600358946], [6.093772002403845, 51.52272100358872], [6.095629002405682, 51.52159600358793], [6.100459002410579, 51.52268700358847], [6.1047390024148775, 51.52238800358816], [6.107573002417704, 51.521403003587466], [6.106612002416645, 51.5183020035854], [6.121991002431887, 51.510176003579545], [6.126863002436918, 51.51438800358218], [6.1319980024420015, 51.51147300358013], [6.141094002451397, 51.51952000358523], [6.1196830024302065, 51.531845003593986], [6.11599700242666, 51.53740500359778], [6.113880002424733, 51.54423700360241], [6.109986002420901, 51.54711900360439], [6.102774002413673, 51.54828200360538], [6.085596002396335, 51.54686200360497], [6.0793920023901, 51.54709200360527], [6.069226002379991, 51.551411003608436], [6.062132002372983, 51.555875003611604], [6.056509002367375, 51.55758100361289], [6.048121002358956, 51.55846300361372], [6.046425002357222, 51.5576410036132], [6.0446550023554835, 51.55902900361419], [6.042782002353584, 51.558679003613975], [6.044383002355162, 51.557487003613176], [6.0422170023529596, 51.55676700361278], [6.04013700235086, 51.55666700361275], [6.037308002348059, 51.5581490036138], [6.032598002343274, 51.55685200361307], [6.03368800234433, 51.55544700361211], [6.031669002342201, 51.55233900361013], [6.018212002328984, 51.56333500361778], [6.004253002315141, 51.570244003622676], [5.976346002286761, 51.56163800361778], [5.935445002245293, 51.55360000361356], [5.90666300221623, 51.55203100361324], [5.891466002201175, 51.56020500361902], [5.8382380021477145, 51.566415003624435], [5.852552002160089, 51.504177003582825], [5.8607240021679345, 51.49196700357448], [5.871695002177622, 51.45011200354625], [5.875070002180915, 51.44658100354387]]]}, "properties": {"type": "boundary", "gemeente": "Venray", "slug": "venray", "code": "GM0984", "provincie": "Limburg"}}, {"type": "Feature", "geometry": {"type": "Polygon", "coordinates": [[[5.804935002100413, 51.16287600335206], [5.8150560021105315, 51.158848003349], [5.815971002111605, 51.163171003352], [5.823727002119621, 51.16768400335498], [5.826417002122315, 51.16683400335431], [5.827651002123639, 51.16903900335584], [5.826960002122992, 51.17058400335691], [5.846092002142647, 51.178593003361996], [5.852469002148969, 51.17458000335908], [5.848096002144694, 51.17920800336238], [5.873733002171056, 51.19094200336987], [5.868242002165637, 51.19507800337288], [5.868671002166134, 51.19701100337417], [5.872095002169686, 51.19950600337581], [5.8728320021705605, 51.2033990033785], [5.879462002177527, 51.21084900338348], [5.889433002187771, 51.2154110033864], [5.89189700219022, 51.21407600338542], [5.894875002193299, 51.216000003386654], [5.907883002206313, 51.21142800338319], [5.909141002207503, 51.208858003381415], [5.905996002204237, 51.20640800337977], [5.907013002205235, 51.205550003379166], [5.91412800221255, 51.20890700338128], [5.919571002217952, 51.20565400337892], [5.925603002223991, 51.20372500337747], [5.945659002244285, 51.203560003376836], [5.9468690022454656, 51.202307003375914], [5.95132500224994, 51.20116500337501], [5.964188002263185, 51.20820300337954], [5.97324500227257, 51.21504600338403], [5.980007002279679, 51.22333500338957], [5.986133002285999, 51.22722100339209], [5.992999002292999, 51.22889400339304], [5.9983000022984365, 51.231348003394565], [6.005462002305894, 51.23799200339897], [6.009098002309979, 51.25079100340763], [6.005936002306987, 51.25714900341207], [6.005367002306539, 51.261208003414886], [6.009612002310976, 51.26575900341786], [6.01100300231256, 51.27136300342165], [6.00825500230998, 51.27754300342598], [5.954706002256588, 51.30028000344291], [5.907567002209356, 51.31324100345293], [5.910654002212297, 51.30770900344913], [5.883999002185607, 51.31555700345509], [5.877823002179394, 51.31657800345594], [5.860725002161911, 51.310802003452416], [5.850657002151081, 51.291543003439514], [5.837922002137798, 51.279720003431734], [5.839421002139248, 51.27772300343036], [5.833798002133458, 51.27477000342846], [5.846750002145913, 51.255518003414956], [5.849863002149102, 51.25661900341565], [5.8549920021541935, 51.25365900341349], [5.8557010021547775, 51.249676003410706], [5.853441002152316, 51.24449300340726], [5.85201700215084, 51.2434830034066], [5.849705002148561, 51.24531900340791], [5.8456850021445, 51.245556003408154], [5.83951700213823, 51.24468300340772], [5.835140002133682, 51.24126500340546], [5.82877600212723, 51.24099100340543], [5.817728002116078, 51.242000003406346], [5.808327002106511, 51.24046300340552], [5.802963002100989, 51.237871003403846], [5.790741002088591, 51.2372430034037], [5.781616002078759, 51.220022003392046], [5.775845002072878, 51.219006003391485], [5.774447002071347, 51.215750003389246], [5.772468002069318, 51.214993003388784], [5.768514002065308, 51.214847003388776], [5.760964002057715, 51.21647500339005], [5.75658100205326, 51.21606100338986], [5.751776002048308, 51.21361100338827], [5.75083600204722, 51.20967900338559], [5.7488870020451905, 51.20815500338457], [5.751239002047546, 51.20734700338395], [5.753344002049699, 51.20794200338434], [5.753658002049972, 51.2066030033834], [5.755857002052208, 51.20683000338351], [5.75290900204916, 51.205179003382455], [5.753846002050057, 51.20357100338132], [5.752285002048371, 51.2005880033793], [5.745820002041583, 51.19384600337477], [5.7473690020431025, 51.19242400337376], [5.745641002041248, 51.18949900337175], [5.749090002044719, 51.18867800337112], [5.7531410020487295, 51.18609900336928], [5.756868002052484, 51.185404003368696], [5.755963002051534, 51.18446100336807], [5.767160002062852, 51.18369100336727], [5.77672800207237, 51.17848600336349], [5.772952002068362, 51.17337000336003], [5.779736002075185, 51.171799003358785], [5.772611002067886, 51.16949800335737], [5.77044700206571, 51.170016003357766], [5.769565002064785, 51.16908300335714], [5.770189002065246, 51.16422400335377], [5.774460002069566, 51.163937003353446], [5.774038002069185, 51.1652920033544], [5.776366002071543, 51.165330003354384], [5.77596400207106, 51.16305000335281], [5.7778190020729205, 51.16254000335241], [5.779402002074553, 51.163316003352925], [5.779483002074498, 51.15938300335021], [5.7764480020713656, 51.1577090033491], [5.774759002069547, 51.15468200334705], [5.776668002071472, 51.154405003346795], [5.777646002072354, 51.15130400334463], [5.785086002079959, 51.15310800334572], [5.786508002081458, 51.1547400033468], [5.791982002087088, 51.15712900334833], [5.798781002093998, 51.157667003348564], [5.80257900209791, 51.159480003349756], [5.802110002097482, 51.160927003350764], [5.804935002100413, 51.16287600335206]]]}, "properties": {"type": "boundary", "gemeente": "Leudal", "slug": "leudal", "code": "GM1640", "provincie": "Limburg"}}, {"type": "Feature", "geometry": {"type": "Polygon", "coordinates": [[[6.04440100234091, 51.101119003303175], [6.056832002353767, 51.109550003308726], [6.055238002352189, 51.11074200330958], [6.060293002357469, 51.11592600331307], [6.067293002364619, 51.11803500331432], [6.071347002368722, 51.11795100331415], [6.07588300237335, 51.11919200331491], [6.075698002373216, 51.12094100331612], [6.080551002378167, 51.12214200331684], [6.080901002378641, 51.12597900331947], [6.0835010023812055, 51.12389200331797], [6.086992002384761, 51.12459500331833], [6.086447002384242, 51.12565500331909], [6.084424002382207, 51.1260190033194], [6.088772002386664, 51.127897003320584], [6.087103002385022, 51.129303003321596], [6.089190002387159, 51.13016400332215], [6.091996002390149, 51.13504800332546], [6.096303002394496, 51.13475900332512], [6.1004480023987435, 51.136421003326184], [6.103555002401885, 51.13635700332606], [6.11638800241495, 51.13915500332763], [6.121302002419975, 51.14092700332869], [6.121279002420006, 51.142680003329914], [6.125830002424683, 51.145117003331485], [6.134590002433541, 51.145099003331204], [6.1447760024438995, 51.14702900333224], [6.1450580024442125, 51.147948003332864], [6.147686002446892, 51.14860800333326], [6.154832002454092, 51.14790500333254], [6.160616002459988, 51.149461003333464], [6.163457002462839, 51.1487420033329], [6.162848002462343, 51.15267100333562], [6.170113002469763, 51.15523600333717], [6.175422002475228, 51.15846400333928], [6.138802002438671, 51.17333900335064], [6.18072400248143, 51.18635900335834], [6.165170002465962, 51.19441400336442], [6.122406002422341, 51.18130300335664], [6.117372002417187, 51.17910100335525], [6.111264002410848, 51.17384800335179], [6.102075002401489, 51.171647003350536], [6.099686002399017, 51.169833003349375], [6.095888002395217, 51.17115400335039], [6.089997002389235, 51.17035500335], [6.082190002381379, 51.171634003351095], [6.073141002372583, 51.182825003359085], [6.066591002365994, 51.18405300336012], [6.06068900236001, 51.18357400335997], [6.055197002354488, 51.18456700336078], [6.054603002353734, 51.17970400335747], [6.0570710023561025, 51.175704003354625], [6.0481390023470425, 51.174845003354285], [6.050004002348841, 51.17214900335233], [6.060075002358991, 51.17091300335122], [6.063566002362351, 51.16552400334739], [6.056238002354873, 51.16341600334614], [6.0556260023542094, 51.16211200334526], [6.040115002338471, 51.160542003344595], [6.039871002338258, 51.161601003345346], [6.029519002327763, 51.16097000334518], [6.026076002324378, 51.16402300334738], [6.01846500231669, 51.164430003347896], [6.013697002311936, 51.16664900334954], [6.005970002304004, 51.16316100334734], [5.998865002296782, 51.162217003346846], [5.999269002297265, 51.1644400033484], [5.997555002295576, 51.165830003349384], [5.998179002296278, 51.16803300335093], [5.995138002293218, 51.16855000335135], [5.994032002292021, 51.16617000334976], [5.991277002289291, 51.16795000335104], [5.992695002290792, 51.169994003352386], [5.99196400229007, 51.1705470033528], [5.986327002284325, 51.16936200335215], [5.988962002287133, 51.17364200335503], [5.987691002285896, 51.17519200335615], [5.984664002282818, 51.17469700335588], [5.983499002281687, 51.17621700335696], [5.913749002209646, 51.13302500332876], [5.916387002212233, 51.130452003326916], [5.91437200221012, 51.12829700332547], [5.919405002214952, 51.120239003319746], [5.926755002222182, 51.113774003315086], [5.940500002236124, 51.114329003315135], [5.941341002236961, 51.11382700331474], [5.940426002235997, 51.112693003313986], [5.947415002243104, 51.11345500331435], [5.948089002243756, 51.11258100331372], [5.951849002247579, 51.11308200331397], [5.953350002249147, 51.114525003314924], [5.95423500225, 51.113199003314], [5.956569002252384, 51.11382200331432], [5.956056002251895, 51.11478300331504], [5.962658002258638, 51.116459003316024], [5.961545002257528, 51.11696900331643], [5.965329002261406, 51.11844200331735], [5.972126002268168, 51.11469400331456], [5.976081002272253, 51.11709100331613], [5.978488002274648, 51.11584300331521], [5.982065002278363, 51.11860900331704], [5.982989002279277, 51.118095003316654], [5.9848070022812045, 51.12065500331839], [5.990903002287371, 51.12040900331806], [5.997704002294205, 51.1188370033168], [6.000766002297152, 51.11413600331342], [6.013948002310623, 51.117926003315716], [6.012823002309446, 51.11680200331496], [6.0219830023186125, 51.113371003312345], [6.024217002320759, 51.10987000330983], [6.022640002319137, 51.1090630033093], [6.023975002320408, 51.106636003307564], [6.0282140023247175, 51.10715600330784], [6.030469002326826, 51.10174100330399], [6.03646300233273, 51.096531003300214], [6.04196700233844, 51.10090200330311], [6.04440100234091, 51.101119003303175]]]}, "properties": {"type": "boundary", "gemeente": "Roerdalen", "slug": "roerdalen", "code": "GM1669", "provincie": "Limburg"}}, {"type": "Feature", "geometry": {"type": "Polygon", "coordinates": [[[5.953775002251033, 51.15876500334566], [5.946977002244213, 51.16072000334719], [5.940475002237639, 51.160920003347485], [5.927444002224704, 51.168837003353275], [5.922816002220046, 51.16966100335397], [5.916653002213772, 51.1686210033534], [5.921628002218898, 51.17126400335512], [5.925924002223457, 51.17768200335946], [5.921247002218764, 51.1789050033604], [5.927821002225682, 51.18685100336572], [5.935825002233975, 51.19268400336955], [5.96723600226633, 51.2101330033808], [5.974087002273447, 51.21587500338458], [5.980007002279679, 51.22333500338957], [5.984317002284136, 51.22625900339147], [5.995933002296003, 51.230084003393756], [6.00284000230314, 51.234709003396766], [6.00570900230616, 51.238521003399285], [6.009080002309918, 51.24946300340672], [6.005880002306976, 51.25868300341313], [6.007840002308914, 51.257247003412125], [6.014537002315617, 51.25523000341052], [6.016721002317748, 51.25278800340879], [6.015998002316959, 51.250911003407516], [6.019866002320859, 51.25060100340722], [6.019623002320586, 51.249748003406644], [6.026156002327113, 51.24726500340478], [6.0274660023283815, 51.24555500340355], [6.032521002333539, 51.24699000340439], [6.038362002339413, 51.24610400340364], [6.042952002344079, 51.24700200340412], [6.051332002352725, 51.252527003407664], [6.0541830023555905, 51.25204400340727], [6.0627580023640775, 51.24641700340318], [6.072664002373971, 51.242560003400236], [6.086025002386854, 51.222670003386206], [6.083594002384376, 51.222042003385845], [6.073259002373944, 51.222436003386406], [6.067988002368556, 51.22055100338524], [6.073141002372583, 51.182825003359085], [6.066591002365994, 51.18405300336012], [6.06068900236001, 51.18357400335997], [6.055197002354488, 51.18456700336078], [6.054603002353734, 51.17970400335747], [6.0570710023561025, 51.175704003354625], [6.0481390023470425, 51.174845003354285], [6.050004002348841, 51.17214900335233], [6.060075002358991, 51.17091300335122], [6.063566002362351, 51.16552400334739], [6.056238002354873, 51.16341600334614], [6.0556260023542094, 51.16211200334526], [6.040115002338471, 51.160542003344595], [6.039871002338258, 51.161601003345346], [6.029519002327763, 51.16097000334518], [6.026076002324378, 51.16402300334738], [6.01846500231669, 51.164430003347896], [6.013697002311936, 51.16664900334954], [6.005970002304004, 51.16316100334734], [5.999017002296935, 51.16218300334683], [5.999269002297265, 51.1644400033484], [5.997564002295585, 51.16575900334933], [5.998179002296278, 51.16803300335093], [5.995138002293218, 51.16855000335135], [5.994032002292021, 51.16617000334976], [5.991277002289291, 51.16795000335104], [5.992695002290792, 51.169994003352386], [5.99196400229007, 51.1705470033528], [5.986327002284325, 51.16936200335215], [5.988962002287133, 51.17364200335503], [5.987691002285896, 51.17519200335615], [5.984664002282818, 51.17469700335588], [5.983567002281754, 51.176229003356966], [5.955526002252812, 51.15903100334581], [5.953775002251033, 51.15876500334566]]]}, "properties": {"type": "boundary", "gemeente": "Roermond", "slug": "roermond", "code": "GM0957", "provincie": "Limburg"}}, {"type": "Feature", "geometry": {"type": "Polygon", "coordinates": [[[5.771089002057898, 50.927977003187884], [5.777919002065004, 50.93268900319111], [5.7792310020665685, 50.93924100319575], [5.78373100207127, 50.94299700319826], [5.779171002066666, 50.94381600319896], [5.779955002067517, 50.94533900320003], [5.78810800207591, 50.94860600320218], [5.783898002072342, 50.96887900321663], [5.786193002074737, 50.97066400321783], [5.78670600207536, 50.97356900321987], [5.7826770020715355, 50.98122400322541], [5.782138002071135, 50.985422003228415], [5.789197002078854, 51.00119700323936], [5.774828002064371, 51.00415500324175], [5.787245002077497, 51.019167003252065], [5.773407002063446, 51.01899900325225], [5.772031002062012, 51.01788000325148], [5.767493002057239, 51.013255003248325], [5.765968002055567, 51.009638003245804], [5.767641002057015, 51.00248800324069], [5.766496002055699, 50.99810300323764], [5.756521002045344, 50.99160800323331], [5.749884002038284, 50.98253700322699], [5.746645002034927, 50.98066400322572], [5.739779002027924, 50.97979800322529], [5.737295002025362, 50.978691003224576], [5.7342960020221065, 50.972742003220425], [5.728545002016164, 50.9698730032185], [5.719786002006969, 50.96151000321275], [5.722012002009072, 50.957135003209615], [5.72810000201518, 50.95496400320795], [5.734160002021355, 50.95545100320816], [5.739014002026356, 50.95743400320948], [5.740021002027443, 50.95919600321071], [5.7446340020322095, 50.961539003212266], [5.750523002038165, 50.96074100321159], [5.756048002043668, 50.95772300320933], [5.759124002046648, 50.95356800320629], [5.758108002045515, 50.950750003204334], [5.751577002038828, 50.9492420032034], [5.745877002032939, 50.94649600320158], [5.74599300203295, 50.94341100319938], [5.748907002035824, 50.94100500319762], [5.748240002035076, 50.93898100319619], [5.750120002036992, 50.939203003196326], [5.748561002035293, 50.935912003194], [5.753852002040593, 50.933763003192375], [5.755431002042126, 50.931754003190925], [5.757082002043791, 50.93145300319066], [5.7574630020442115, 50.93230200319124], [5.761528002048302, 50.931177003190385], [5.761229002047969, 50.93042800318986], [5.771089002057898, 50.927977003187884]]]}, "properties": {"type": "boundary", "gemeente": "Stein", "slug": "stein", "code": "GM0971", "provincie": "Limburg"}}, {"type": "Feature", "geometry": {"type": "Polygon", "coordinates": [[[5.7487700020332095, 50.87110700314781], [5.749429002033857, 50.8704340031473], [5.755445002040012, 50.87149100314793], [5.75909100204352, 50.865972003143916], [5.764637002049189, 50.86684100314443], [5.764269002048919, 50.86977300314655], [5.767001002051815, 50.87320300314893], [5.773013002057893, 50.87228000314814], [5.774201002059141, 50.87337800314893], [5.772595002057519, 50.87373600314919], [5.773998002058974, 50.874451003149694], [5.772078002057067, 50.875749003150645], [5.777663002063024, 50.88372700315625], [5.78056900206594, 50.88265600315542], [5.7815840020670075, 50.88362800315609], [5.7841870020696105, 50.88240200315514], [5.789101002074653, 50.88388900315608], [5.789536002075044, 50.88241100315506], [5.798372002084038, 50.88285000315518], [5.799842002085631, 50.885673003157144], [5.797216002083111, 50.88991900316026], [5.797632002083727, 50.89545900316417], [5.796563002082719, 50.897697003165845], [5.800520002086757, 50.898181003166094], [5.801488002087674, 50.89630700316468], [5.8034800020897634, 50.89811100316591], [5.80197200208832, 50.90067600316778], [5.798667002084972, 50.9010150031681], [5.802257002088668, 50.90241200316904], [5.796557002083055, 50.90747900317276], [5.801003002087617, 50.90875500317358], [5.800591002087312, 50.911970003175874], [5.802393002089206, 50.913795003177135], [5.800347002087163, 50.914789003177894], [5.79235300207889, 50.91050300317501], [5.782441002068918, 50.91337600317728], [5.77898100206532, 50.910973003175634], [5.774764002061049, 50.91132100317596], [5.75897800204456, 50.89870000316729], [5.7556990020412595, 50.89954900316797], [5.754845002040429, 50.90059200316871], [5.7593960020452855, 50.907171003173374], [5.771063002057558, 50.91899300318152], [5.773825002060594, 50.92556100318613], [5.772498002059351, 50.92856900318826], [5.770938002057746, 50.92792800318788], [5.7690150020558235, 50.92883300318855], [5.768544002055322, 50.92819100318806], [5.758984002045741, 50.931912003190966], [5.755431002042126, 50.931754003190925], [5.753852002040593, 50.933763003192375], [5.748561002035293, 50.935912003194], [5.750120002036992, 50.939203003196326], [5.748240002035076, 50.93898100319619], [5.748768002035695, 50.94133500319787], [5.74599300203295, 50.94341100319938], [5.740879002027464, 50.93522500319366], [5.732544002018819, 50.930222003190316], [5.726930002012884, 50.92384100318586], [5.725907002011754, 50.92119800318402], [5.727259002012933, 50.915798003180164], [5.726645002012212, 50.91307100317821], [5.7203810020056665, 50.90807100317478], [5.714854002000061, 50.90845800317517], [5.717287002002507, 50.90765500317455], [5.713215001998326, 50.90646500317378], [5.712483001997464, 50.90316600317145], [5.713003001997955, 50.90215200317069], [5.719841002004803, 50.89922900316849], [5.7180370020028874, 50.8969270031669], [5.723467002008323, 50.89456200316505], [5.725591002010363, 50.891267003162696], [5.726542002011077, 50.88414800315759], [5.732463002017073, 50.88353000315702], [5.731480002016054, 50.88290100315661], [5.732515002017086, 50.882434003156256], [5.7362430020208635, 50.88204600315589], [5.733366002017681, 50.874746003150754], [5.7418890020262845, 50.87311700314939], [5.742567002026914, 50.87139900314815], [5.74600600203044, 50.872268003148655], [5.746974002031369, 50.870701003147545], [5.7487700020332095, 50.87110700314781]]]}, "properties": {"type": "boundary", "gemeente": "Meerssen", "slug": "meerssen", "code": "GM0938", "provincie": "Limburg"}}, {"type": "Feature", "geometry": {"type": "Polygon", "coordinates": [[[5.98551400227169, 50.81057400309894], [6.003629002289783, 50.80146200309194], [6.0076370022938965, 50.80275300309275], [6.016500002303128, 50.809780003097565], [6.024758002311648, 50.81388800310028], [6.023529002310426, 50.81465000310088], [6.0244890023114435, 50.81592400310178], [6.022101002309047, 50.81681000310244], [6.023660002310687, 50.81861800310371], [6.0220440023091015, 50.820159003104905], [6.020631002307652, 50.8197390031046], [6.017657002304693, 50.82149400310601], [6.015746002302826, 50.82381200310767], [6.017030002304194, 50.825702003108994], [6.011817002299063, 50.8305440031126], [6.003021002290183, 50.83202600311391], [6.00539700229269, 50.83494200311594], [6.004130002291494, 50.83767800311794], [5.997770002285156, 50.841254003120646], [5.994270002281615, 50.84158400312097], [5.992377002279755, 50.84342200312232], [5.988955002276295, 50.84389100312277], [5.9783870022657615, 50.84976900312725], [5.973557002261012, 50.854372003130685], [5.969645002257234, 50.860228003134964], [5.965982002253411, 50.85705600313278], [5.966393002253771, 50.85529800313152], [5.965079002252447, 50.85567300313181], [5.961424002248678, 50.85392100313063], [5.960720002247995, 50.854871003131365], [5.954518002241619, 50.85257300312986], [5.953803002240825, 50.85049400312838], [5.9532640022402, 50.8482170031268], [5.955364002242286, 50.84679500312568], [5.956947002243527, 50.83584300311783], [5.955524002242061, 50.83535400311752], [5.95943600224579, 50.82810800311216], [5.968083002254375, 50.822251003107745], [5.971846002258163, 50.82122000310692], [5.969318002255444, 50.81664600310373], [5.979466002265681, 50.81460100310202], [5.9835180022696335, 50.80973000309841], [5.98551400227169, 50.81057400309894]]]}, "properties": {"type": "boundary", "gemeente": "Simpelveld", "slug": "simpelveld", "code": "GM0965", "provincie": "Limburg"}}, {"type": "Feature", "geometry": {"type": "Polygon", "coordinates": [[[5.849139002131144, 50.75365800306117], [5.852963002135172, 50.75771400306401], [5.863127002145705, 50.763373003067876], [5.868963002151696, 50.764939003068875], [5.876228002159107, 50.765616003069184], [5.8864770021696815, 50.770157003072256], [5.889672002172727, 50.76422100306786], [5.889738002172521, 50.756328003062166], [5.901023002183829, 50.75149400305841], [5.904850002187844, 50.755224003061], [5.908217002191286, 50.75569600306125], [5.909010002192041, 50.75421900306016], [5.913703002196866, 50.755748003061186], [5.913981002197102, 50.75432400306012], [5.915383002198539, 50.75472000306036], [5.915081002198083, 50.75036700305727], [5.916221002199246, 50.7504500030573], [5.92145000220459, 50.751357003057805], [5.931064002214556, 50.7569430030616], [5.935698002219264, 50.75690800306148], [5.934710002218315, 50.75849400306266], [5.9320960022156415, 50.75811100306244], [5.93009400221364, 50.75904000306313], [5.929939002213511, 50.75984100306374], [5.932151002215793, 50.760850003064384], [5.930143002213813, 50.762636003065744], [5.928020002211648, 50.76244700306565], [5.927286002210948, 50.76378700306665], [5.926893002210527, 50.76309200306613], [5.925059002208677, 50.7636510030666], [5.92612900220978, 50.76400000306686], [5.925476002209195, 50.766322003068524], [5.920541002204281, 50.76933300307084], [5.921905002205804, 50.773354003073706], [5.923850002207849, 50.775241003074996], [5.92954600221364, 50.77535600307495], [5.933914002218022, 50.7736660030736], [5.9359300022199974, 50.771461003072005], [5.939543002223671, 50.77160400307202], [5.94310200222733, 50.77292000307287], [5.944914002229468, 50.78160900307908], [5.942008002226818, 50.79047900308557], [5.945427002230481, 50.796146003089525], [5.951629002236704, 50.79378700308774], [5.964809002250383, 50.8024190030936], [5.969104002254711, 50.80127200309269], [5.9766810022624774, 50.80337000309401], [5.9835180022696335, 50.80973000309841], [5.97952300226574, 50.814576003101976], [5.969318002255444, 50.81664600310373], [5.971846002258163, 50.82122000310692], [5.968083002254375, 50.822251003107745], [5.959453002245809, 50.828081003112196], [5.955524002242061, 50.83535400311752], [5.956947002243527, 50.83584300311783], [5.9548160022416985, 50.845924003125084], [5.9510590022378365, 50.844589003124256], [5.946802002233516, 50.844686003124394], [5.939441002225923, 50.84114800312203], [5.933181002219513, 50.839660003121146], [5.929530002215824, 50.84023000312165], [5.929108002215491, 50.84304300312367], [5.9250020022115155, 50.84884100312791], [5.916169002202545, 50.84881900312812], [5.903258002189324, 50.845706003126175], [5.898772002184688, 50.84335100312461], [5.891244002177018, 50.84274700312437], [5.887993002173862, 50.84703400312753], [5.884970002170805, 50.84747200312791], [5.876459002162115, 50.84624400312722], [5.87531300216098, 50.84710600312784], [5.875005002160593, 50.844940003126325], [5.8775790021630865, 50.84131900312361], [5.8739510021592825, 50.837924003121294], [5.870259002155481, 50.8365350031204], [5.871003002156297, 50.838293003121635], [5.866214002151447, 50.83871200312202], [5.865907002151093, 50.83750200312118], [5.859461002144411, 50.83368400311862], [5.864136002148806, 50.823344003111075], [5.857649002142107, 50.820340003109045], [5.856485002140958, 50.82125400310974], [5.853176002137577, 50.82075100310943], [5.851178002135491, 50.81917500310835], [5.852870002137162, 50.817792003107314], [5.848733002132859, 50.81491500310538], [5.845121002129202, 50.815398003105805], [5.842338002126194, 50.81018100310209], [5.839239002122951, 50.807588003100264], [5.831718002115348, 50.808770003101316], [5.829554002113098, 50.80740700310037], [5.81941000210271, 50.805242003099025], [5.821382002104606, 50.80215300309678], [5.821742002104763, 50.7962130030925], [5.827516002110424, 50.79009100308795], [5.832597002115542, 50.788640003086805], [5.832910002115785, 50.786580003085284], [5.835886002118817, 50.786681003085306], [5.835586002118448, 50.78481200308397], [5.833958002116776, 50.78440200308372], [5.835256002118003, 50.781738003081756], [5.837191002119946, 50.781023003081195], [5.838456002121253, 50.78165000308163], [5.843883002126548, 50.775185003076835], [5.844243002126891, 50.77455100307637], [5.842547002125149, 50.77407700307606], [5.844910002127437, 50.770764003073616], [5.844534002126911, 50.76657300307061], [5.849139002131144, 50.75365800306117]]]}, "properties": {"type": "boundary", "gemeente": "Gulpen-Wittem", "slug": "gulpen-wittem", "code": "GM1729", "provincie": "Limburg"}}]}