{"type": "FeatureCollection", "metadata": {"provincie": "Overijssel", "slug": "overijssel", "generated_at": "2026-08-10T03:59:25.118784Z", "total_boundaries": 25}, "features": [{"type": "Feature", "geometry": {"type": "Polygon", "coordinates": [[[6.101910002438598, 52.464694004175094], [6.103559002439928, 52.453082004168316], [6.101934002438152, 52.44691700416476], [6.105024002441107, 52.44258700416215], [6.109580002445575, 52.4405310041608], [6.120608002456569, 52.442314004161496], [6.13590700247174, 52.44156600416055], [6.137141002472944, 52.44075800416007], [6.139991002475804, 52.44191000416066], [6.140640002476516, 52.44456600416216], [6.141817002477665, 52.44371400416166], [6.1476760024834975, 52.444441004161874], [6.155085002491083, 52.453658004166975], [6.152197002488316, 52.457439004169274], [6.152516002488727, 52.46113500417141], [6.14414600248059, 52.467665004175466], [6.151315002487791, 52.471087004177214], [6.167296002503767, 52.47598100417952], [6.170018002506465, 52.475879004179376], [6.171247002507721, 52.477395004180224], [6.173627002510063, 52.47680300417981], [6.174727002511194, 52.478213004180574], [6.177661002514093, 52.47785600418028], [6.17752900251401, 52.479822004181415], [6.182076002518503, 52.4790570041808], [6.182832002519295, 52.48080700418182], [6.188756002525163, 52.48061100418149], [6.19051800252694, 52.481746004182085], [6.192551002528955, 52.48163200418197], [6.193730002530154, 52.48289200418265], [6.192351002528852, 52.48557500418424], [6.196520002533086, 52.48967900418644], [6.201003002537565, 52.49099500418708], [6.198743002535367, 52.49281700418818], [6.199946002536571, 52.4931770041884], [6.199713002536388, 52.49527400418958], [6.196893002533603, 52.49547100418983], [6.188150002525034, 52.49955700419246], [6.186420002523417, 52.50345600419478], [6.183912002520981, 52.505589004196075], [6.184071002521195, 52.50774100419731], [6.173322002510814, 52.518830004204055], [6.182953002520374, 52.51933500420403], [6.183109002520565, 52.520887004204916], [6.18785100252533, 52.52351600420628], [6.187442002524956, 52.52477900420701], [6.193050002530686, 52.53184800421088], [6.1896310025274035, 52.53616000421346], [6.210811002549143, 52.56779800423082], [6.205456002544024, 52.575250004235244], [6.202138002540971, 52.584949004240855], [6.194533002533428, 52.58415100424067], [6.182788002521894, 52.58778700424314], [6.179901002519043, 52.58794000424333], [6.147583002486981, 52.585204004242804], [6.147532002486898, 52.58380000424206], [6.155070002494331, 52.58270600424115], [6.157425002496617, 52.58077700423999], [6.1588120024978545, 52.575406004236854], [6.166814002505525, 52.56525200423083], [6.140527002479158, 52.55210200422418], [6.130303002469111, 52.555316004226356], [6.1286790024675355, 52.55658100422714], [6.125978002464847, 52.55610500422696], [6.118081002457057, 52.55739700422794], [6.114589002453676, 52.56045700422984], [6.109925002449069, 52.561049004230284], [6.110060002449368, 52.5674120042339], [6.1080720024474, 52.56749400423403], [6.103336002442707, 52.567388004234125], [6.099044002438324, 52.56235200423138], [6.0976840024368775, 52.55862900422928], [6.089400002428491, 52.55184100422567], [6.074186002413532, 52.55640200422874], [6.076163002415505, 52.556963004229004], [6.0735440024129685, 52.55917600423039], [6.070156002409585, 52.558226004229915], [6.0631540024028885, 52.56728000423529], [6.018010002357808, 52.555161004229774], [6.018451002358228, 52.55454900422938], [6.003619002343401, 52.55039100422743], [6.007288002346894, 52.54511800422431], [6.030455002369675, 52.538061004219564], [6.030171002369085, 52.526754004213096], [6.024832002363778, 52.526308004213014], [6.023643002362627, 52.527366004213654], [6.017055002356013, 52.52458400421226], [6.014714002353544, 52.519430004209354], [6.017085002355783, 52.515251004206895], [6.024570002363084, 52.510782004204096], [6.042409002380647, 52.50559600420057], [6.054666002392643, 52.4995470041967], [6.0666720024041645, 52.48494700418791], [6.073717002411054, 52.48114100418548], [6.085987002423147, 52.477996004183304], [6.092990002430016, 52.474853004181256], [6.09990000243673, 52.469518004177935], [6.101910002438598, 52.464694004175094]]]}, "properties": {"type": "boundary", "gemeente": "Zwolle", "slug": "zwolle", "code": "GM0193", "provincie": "Overijssel"}}, {"type": "Feature", "geometry": {"type": "Polygon", "coordinates": [[[6.626066002954474, 52.289974004052844], [6.63178200296035, 52.301780004059644], [6.618747002947525, 52.30617500406284], [6.607915002936821, 52.307541004064085], [6.61110400293998, 52.30752600406396], [6.614751002943622, 52.30917400406478], [6.61678200294563, 52.30910200406462], [6.616435002945299, 52.30984500406507], [6.613915002942803, 52.30965900406508], [6.614740002943652, 52.311422004066095], [6.6114270029404025, 52.31312400406725], [6.604763002933787, 52.312225004067], [6.608266002937323, 52.31589400406901], [6.610230002939277, 52.316399004069225], [6.609959002939029, 52.31746400406989], [6.612811002941872, 52.3185620040704], [6.612667002941752, 52.31985500407117], [6.619020002948157, 52.32614500407464], [6.616559002945773, 52.329158004076525], [6.603423002932898, 52.335956004081105], [6.599467002929048, 52.33949200408336], [6.597705002927364, 52.34290000408545], [6.604687002934312, 52.34491400408638], [6.608244002937906, 52.34911200408864], [6.610318002940057, 52.35445800409172], [6.614277002944009, 52.35643500409271], [6.615309002945148, 52.36303400409655], [6.613410002943307, 52.36510500409786], [6.608515002938504, 52.36721100409933], [6.606239002936347, 52.372412004102436], [6.575952002907216, 52.417513004130186], [6.515982002847681, 52.40612200412603], [6.5085390028400445, 52.392152004118145], [6.514108002845351, 52.381665004111746], [6.512607002843869, 52.381840004111936], [6.495516002826835, 52.3761800041093], [6.496078002827223, 52.36794300410439], [6.499059002830091, 52.36356200410172], [6.520793002851574, 52.361415004099605], [6.518873002849551, 52.35516100409596], [6.506663002837456, 52.35527600409658], [6.505839002836587, 52.35245000409495], [6.501347002832144, 52.35291600409539], [6.495978002826767, 52.34995500409384], [6.49079500282162, 52.34935500409369], [6.489134002819902, 52.34595500409175], [6.486609002817388, 52.34520900409142], [6.488447002819179, 52.34378500409049], [6.468189002798745, 52.326462004081066], [6.499327002829553, 52.32352200407807], [6.517908002848001, 52.325174004078306], [6.518164002848238, 52.32438100407786], [6.523138002853156, 52.323834004077305], [6.524878002854917, 52.32567700407829], [6.532846002862639, 52.316775004072746], [6.535841002865583, 52.31564100407191], [6.539652002869364, 52.31580300407187], [6.545089002874796, 52.31837500407316], [6.5503060028798155, 52.31051600406828], [6.55324500288251, 52.29918900406144], [6.553378002882557, 52.29492500405892], [6.552266002881459, 52.295147004059075], [6.549963002879033, 52.287802004054804], [6.562253002890956, 52.27435900404626], [6.568191002896759, 52.270144004043516], [6.575326002903811, 52.2691160040426], [6.595148002923495, 52.27119900404301], [6.605363002933609, 52.27068900404226], [6.626066002954474, 52.289974004052844]]]}, "properties": {"type": "boundary", "gemeente": "Wierden", "slug": "wierden", "code": "GM0189", "provincie": "Overijssel"}}, {"type": "Feature", "geometry": {"type": "Polygon", "coordinates": [[[6.716272003040777, 52.118270003945355], [6.822710003146287, 52.118404003940555], [6.855474003178766, 52.120462003940254], [6.867088003190382, 52.12807100394436], [6.87345900319672, 52.13028400394539], [6.873301003196604, 52.13297400394705], [6.881960003205524, 52.15597600396058], [6.880458003204037, 52.15601000396069], [6.889750003213304, 52.161206003963365], [6.869865003193661, 52.16269300396526], [6.827991003152358, 52.1710070039723], [6.8142770031387805, 52.17086100397286], [6.805581003130103, 52.16660000397067], [6.788321003113171, 52.17619000397729], [6.7668010030921115, 52.19106500398728], [6.71238800303848, 52.20633100399896], [6.703469003029507, 52.198528003994674], [6.697494003023548, 52.19624800399357], [6.672050002998365, 52.19818700399584], [6.653082002979481, 52.19370100399395], [6.624347002950888, 52.18890800399232], [6.6284520029549245, 52.18676100399086], [6.634454002960859, 52.185955003990095], [6.6401240029664, 52.18128100398704], [6.642755002969008, 52.181447003987024], [6.647294002973427, 52.17689500398407], [6.6450410029711415, 52.17419400398252], [6.66459400299042, 52.16792700397788], [6.665002002990809, 52.16699500397729], [6.671339002997069, 52.16568300397621], [6.673397002999062, 52.16324000397462], [6.672782002998421, 52.16137100397353], [6.67406300299969, 52.161271003973425], [6.673148002998759, 52.160103003972736], [6.674280002999854, 52.15853800397176], [6.67035100299592, 52.156424003970656], [6.673469002998982, 52.15497200396964], [6.672429002997916, 52.153032003968505], [6.673819002999277, 52.152104003967864], [6.672752002998195, 52.15052700396698], [6.671309002996758, 52.15045800396698], [6.673748002999135, 52.14828700396555], [6.673880002999138, 52.141204003961235], [6.662399002987539, 52.130167003955016], [6.677691003002641, 52.12595900395177], [6.697810003022556, 52.12355400394939], [6.716272003040777, 52.118270003945355]]]}, "properties": {"type": "boundary", "gemeente": "Haaksbergen", "slug": "haaksbergen", "code": "GM0158", "provincie": "Overijssel"}}, {"type": "Feature", "geometry": {"type": "Polygon", "coordinates": [[[6.866688003192146, 52.273143004031795], [6.876495003201848, 52.27472500403224], [6.881358003206715, 52.279379004034794], [6.8800200032054235, 52.28140400403604], [6.883262003208635, 52.28221300403635], [6.88320700320859, 52.283171004036966], [6.887811003213141, 52.283452004036874], [6.88956700321484, 52.28097800403534], [6.890216003215497, 52.28220500403603], [6.8953640032206005, 52.28384100403677], [6.895828003221051, 52.283239004036375], [6.906985003232085, 52.28543800403713], [6.9121270032371624, 52.28550600403691], [6.894498003219877, 52.29353800404255], [6.889480003214913, 52.29246700404221], [6.883890003209417, 52.29395300404333], [6.87990200320548, 52.293719004043425], [6.879534003205133, 52.29497100404415], [6.8749310032006195, 52.296849004045484], [6.865298003191114, 52.29722100404618], [6.859817003185724, 52.2986330040473], [6.861349003187346, 52.30636700405182], [6.866540003192482, 52.30741600405218], [6.867050003193027, 52.310311004053865], [6.869340003195315, 52.31211900405484], [6.877338003203208, 52.3122360040545], [6.879869003205797, 52.31901400405836], [6.884299003210157, 52.3184070040578], [6.886200003212087, 52.32231100406001], [6.88777900321364, 52.322058004059805], [6.894806003220608, 52.324978004061165], [6.8971580032229705, 52.32821300406298], [6.898202003224, 52.328179004062925], [6.900646003226479, 52.3334600040659], [6.911665003237306, 52.330691004063716], [6.93096900325632, 52.32946000406198], [6.931905003257281, 52.33275600406396], [6.945202003270381, 52.33272400406322], [6.953583003278658, 52.333973004063544], [6.951141003276298, 52.337960004066026], [6.952843003278002, 52.34035000406733], [6.961638003286753, 52.34711700407089], [6.9702590032952605, 52.34876700407142], [6.962669003287962, 52.363387004080415], [6.970930003296286, 52.379860004089636], [6.9854290033104665, 52.372224004084416], [7.007830003332407, 52.36382500407829], [7.072205003395802, 52.37280300408018], [7.064021003387932, 52.39032800409087], [7.058518003382584, 52.39619100409459], [7.058728003382822, 52.399410004096474], [7.055320003379491, 52.401034004097596], [7.051656003375879, 52.39992500409715], [7.041534003365964, 52.402540004099215], [7.036074003360601, 52.40266300409958], [7.021990003346967, 52.42298400411214], [7.010782003336018, 52.42913700411631], [7.0051200033306245, 52.44523600412598], [6.994574003320442, 52.462127004136285], [6.993907003319823, 52.465485004138266], [6.987623003313696, 52.469767004141026], [6.977534003303741, 52.46568100413923], [6.9744290033006235, 52.459704004135894], [6.96178500328802, 52.44362400412726], [6.961062003287314, 52.443988004127505], [6.947300003273696, 52.436621004123964], [6.949224003275545, 52.432865004121666], [6.938776003265267, 52.432723004122124], [6.928525003255202, 52.43414800412348], [6.897116003224278, 52.43281500412426], [6.8534110031811775, 52.42706200412311], [6.851495003179122, 52.41458200411591], [6.856592003184087, 52.41045100411325], [6.862338003189714, 52.40781600411143], [6.863585003190348, 52.363731004085544], [6.8556740031825, 52.360288004083905], [6.851789003178695, 52.36216900408522], [6.8356630031628, 52.36263600408626], [6.817683003145099, 52.36509700408858], [6.806833003134352, 52.36221700408739], [6.783399003111195, 52.36011600408728], [6.778322003106035, 52.35021200408168], [6.773979003101689, 52.34656300407974], [6.762634003090438, 52.343437004078424], [6.760577003088381, 52.34194300407764], [6.759035003086705, 52.33206100407189], [6.762136003089748, 52.330762004070976], [6.763184003090733, 52.327492004068986], [6.773842003101127, 52.318911004063416], [6.779219003106425, 52.317820004062504], [6.785903003113028, 52.31823000406244], [6.785149003112272, 52.317370004061964], [6.802129003129002, 52.31454400405947], [6.802158003129018, 52.31352600405889], [6.807816003134593, 52.313091004058336], [6.809335003136054, 52.31036300405667], [6.812251003138941, 52.31088700405682], [6.8233360031498576, 52.30876000405506], [6.825691003152149, 52.30640000405355], [6.824064003150508, 52.304249004052345], [6.819237003145701, 52.3014480040509], [6.82051700314692, 52.29842800404906], [6.828408003154665, 52.29535100404686], [6.827902003154159, 52.294862004046564], [6.839590003165677, 52.293304004045105], [6.843202003169231, 52.29244800404443], [6.842547003168576, 52.29177100404403], [6.846375003172351, 52.29140200404367], [6.852376003178188, 52.285228004039695], [6.850304003176124, 52.28413100403914], [6.852014003177784, 52.282060004037774], [6.845761003171575, 52.27975900403673], [6.847570003173349, 52.27858400403597], [6.840492003166319, 52.27631200403492], [6.866688003192146, 52.273143004031795]]]}, "properties": {"type": "boundary", "gemeente": "Dinkelland", "slug": "dinkelland", "code": "GM1774", "provincie": "Overijssel"}}, {"type": "Feature", "geometry": {"type": "Polygon", "coordinates": [[[6.641907002973304, 52.47132300415857], [6.649556002980883, 52.473090004159246], [6.6511000029824405, 52.475157004160394], [6.647460002978903, 52.47861400416252], [6.654578002986, 52.482715004164604], [6.653659002985174, 52.487832004167586], [6.66930100300072, 52.49498100417101], [6.693485003024428, 52.48632700416494], [6.697585003028473, 52.486298004164716], [6.7053320030366415, 52.52100800418436], [6.680880003013051, 52.55331700420393], [6.716264003047823, 52.54852500419957], [6.716236003047822, 52.550327004200625], [6.719996003051542, 52.55167000420119], [6.72096000305251, 52.55294700420186], [6.725973003057595, 52.563255004207505], [6.734201003065673, 52.5617760042063], [6.740103003071483, 52.56205300420617], [6.752272003083416, 52.55903900420389], [6.766692003097638, 52.56163700420467], [6.766660003097631, 52.56353300420577], [6.718772003050877, 52.58863600422226], [6.721574003053726, 52.59487400422566], [6.720973003053186, 52.598352004227685], [6.723755003055988, 52.60312900423024], [6.724353003056651, 52.608330004233146], [6.72728900305963, 52.61492800423673], [6.724879003057314, 52.61862600423894], [6.718657003051247, 52.62194700424108], [6.714208003046941, 52.62680800424404], [6.708002003040857, 52.62801400424499], [6.70717100304002, 52.626760004244325], [6.70200500303495, 52.627267004244864], [6.700792003033772, 52.62841000424556], [6.704252003037234, 52.6325030042477], [6.703330003036375, 52.635840004249616], [6.706526003039573, 52.639542004251545], [6.705519003038599, 52.640969004252376], [6.70115300303432, 52.64173600425304], [6.70567700303879, 52.643478004253765], [6.705563003038711, 52.6458210042552], [6.708547003041689, 52.6487150042566], [6.682509003016173, 52.65417900426088], [6.61452700294963, 52.67404900427502], [6.552821002888778, 52.66559500427297], [6.546458002882478, 52.663535004272084], [6.513861002850071, 52.64629400426376], [6.518604002854167, 52.61408800424543], [6.512027002847677, 52.613650004245464], [6.504512002840328, 52.61705800424768], [6.494901002830869, 52.61803200424864], [6.4918500028278805, 52.61914400424939], [6.483896002820038, 52.61907700424966], [6.480581002816748, 52.618155004249274], [6.479348002815551, 52.61899800424982], [6.478016002814233, 52.618631004249686], [6.475921002812213, 52.621277004251255], [6.473103002809436, 52.62122000425131], [6.472369002808775, 52.62457900425324], [6.4701240028065685, 52.62500600425357], [6.463285002799798, 52.62351400425301], [6.4639870028004545, 52.621706004251934], [6.462429002798903, 52.62095600425161], [6.459788002796202, 52.615760004248756], [6.455134002791604, 52.61543900424878], [6.453366002789827, 52.613946004248], [6.450558002787085, 52.615216004248865], [6.448094002784645, 52.61479200424871], [6.443035002779681, 52.61619500424967], [6.4418800027785315, 52.61563700424942], [6.43493400277175, 52.61928600425179], [6.435481002772342, 52.62199200425325], [6.432488002769461, 52.62564000425546], [6.433803002770776, 52.62640900425585], [6.4312430027682845, 52.628378004257044], [6.428176002765258, 52.628188004257055], [6.426032002763095, 52.6257850042558], [6.426794002763821, 52.624527004255015], [6.420236002757308, 52.62231800425407], [6.418808002755833, 52.61902300425225], [6.416290002753339, 52.61864500425216], [6.4128590027499754, 52.6195740042528], [6.40947600274668, 52.621728004254145], [6.406251002743477, 52.62069400425366], [6.406858002744015, 52.61778100425201], [6.403767002740934, 52.616271004251274], [6.396035002733335, 52.617788004252446], [6.39384600273116, 52.61723300425219], [6.391522002728813, 52.61451900425075], [6.383902002721243, 52.61219600424972], [6.382796002720223, 52.615661004251734], [6.380320002717764, 52.61497500425144], [6.3765100027140456, 52.6169240042527], [6.377178002714773, 52.62036100425462], [6.373253002710971, 52.623837004256764], [6.375275002712998, 52.625294004257455], [6.374091002711851, 52.62643700425817], [6.375206002712971, 52.62740800425867], [6.374137002711952, 52.62901000425956], [6.372276002710124, 52.62949900425998], [6.3714850027093926, 52.63179200426127], [6.369180002707122, 52.632067004261536], [6.369522002707528, 52.63548400426344], [6.368139002706166, 52.63558200426355], [6.366284002704375, 52.637566004264734], [6.364233002702353, 52.63765700426482], [6.363019002701188, 52.639058004265706], [6.364241002702403, 52.63961300426594], [6.363154002701357, 52.64093700426676], [6.364611002702808, 52.64155600426705], [6.364441002702674, 52.64317500426793], [6.359751002698096, 52.6455620042695], [6.353338002691775, 52.645963004269966], [6.353299002691776, 52.647814004271], [6.346968002685556, 52.64915200427198], [6.347381002685977, 52.64991500427237], [6.343596002682269, 52.65115800427321], [6.3413950026801595, 52.654121004274934], [6.336532002675367, 52.654364004275294], [6.33567900267454, 52.655185004275786], [6.334003002672876, 52.65469900427555], [6.332366002671282, 52.655715004276225], [6.332638002671572, 52.656751004276785], [6.330110002669085, 52.65701600427701], [6.32779800266684, 52.65869300427803], [6.326078002665102, 52.65694700427713], [6.303064002641069, 52.59714100424425], [6.319681002657533, 52.59917100424477], [6.323413002661077, 52.592527004240885], [6.402645002739322, 52.59140300423726], [6.4150150027511055, 52.570012004224616], [6.428282002764234, 52.5712270042248], [6.438071002773861, 52.56937500422338], [6.488356002823494, 52.569001004221114], [6.49676900283185, 52.57162200422226], [6.50493900283999, 52.575885004224354], [6.521827002856373, 52.56058600421496], [6.529660002863837, 52.54628600420647], [6.53096600286493, 52.53546000420022], [6.534115002867909, 52.528336004196014], [6.536055002869836, 52.52893000419626], [6.541772002875431, 52.526348004194546], [6.540913002874545, 52.5244300041935], [6.542797002876346, 52.52106000419146], [6.541323002874853, 52.51897000419038], [6.546594002880047, 52.51855800418988], [6.545671002879093, 52.51603600418848], [6.550087002883432, 52.514991004187685], [6.554058002887305, 52.512460004186075], [6.556678002889905, 52.51326000418639], [6.554882002888178, 52.515596004187834], [6.559049002892355, 52.51918200418973], [6.560975002894268, 52.51979900419], [6.564405002897636, 52.518871004189265], [6.5665270028997105, 52.517802004188596], [6.5668390028999895, 52.51608200418761], [6.564808002897954, 52.51447800418677], [6.560198002893416, 52.51522000418738], [6.5612820028944485, 52.51293100418603], [6.5680110029010565, 52.51114900418473], [6.573094002906019, 52.507984004182646], [6.609644002941824, 52.49250500417225], [6.595188002927345, 52.48030300416579], [6.601035002933104, 52.47947000416504], [6.612575002944253, 52.46576400415661], [6.616570002948262, 52.46936900415855], [6.620940002952597, 52.47054100415904], [6.626821002958456, 52.47383100416068], [6.631217002962766, 52.4719730041594], [6.63562100296711, 52.47164700415902], [6.640584002972032, 52.47310500415965], [6.641907002973304, 52.47132300415857]]]}, "properties": {"type": "boundary", "gemeente": "Hardenberg", "slug": "hardenberg", "code": "GM0160", "provincie": "Overijssel"}}, {"type": "Feature", "geometry": {"type": "Polygon", "coordinates": [[[6.709741003038178, 52.34343500408086], [6.734497003062579, 52.33935500407731], [6.743685003071605, 52.336109004075], [6.7499540030777005, 52.33008400407112], [6.753772003081475, 52.33004400407092], [6.759035003086705, 52.33206100407189], [6.760577003088381, 52.34194300407764], [6.762634003090438, 52.343437004078424], [6.773979003101689, 52.34656300407974], [6.778322003106035, 52.35021200408168], [6.783399003111195, 52.36011600408728], [6.806833003134352, 52.36221700408739], [6.817683003145099, 52.36509700408858], [6.8356630031628, 52.36263600408626], [6.851789003178695, 52.36216900408522], [6.8556740031825, 52.360288004083905], [6.857803003184611, 52.36120100408435], [6.863585003190348, 52.363731004085544], [6.862338003189714, 52.40781600411143], [6.856592003184087, 52.41045100411325], [6.851495003179122, 52.41458200411591], [6.8534110031811775, 52.42706200412311], [6.897116003224278, 52.43281500412426], [6.928525003255202, 52.43414800412348], [6.938776003265267, 52.432723004122124], [6.949224003275545, 52.432865004121666], [6.947300003273696, 52.436621004123964], [6.941657003268133, 52.43542600412351], [6.906080003233217, 52.442243004129274], [6.889062003216526, 52.44654500413266], [6.86181600318977, 52.451358004136786], [6.852542003180623, 52.4499140041364], [6.8542980031824765, 52.459706004141985], [6.77458700310397, 52.45960100414575], [6.7527340030825, 52.4641110041494], [6.723771003054145, 52.47701700415816], [6.717707003048182, 52.478132004159114], [6.701595003032032, 52.461163004150016], [6.697748003028087, 52.45178000414476], [6.694871003025235, 52.45084200414438], [6.692082003022426, 52.447348004142455], [6.682858003013308, 52.44626600414224], [6.676361003006861, 52.44411300414127], [6.673334003003826, 52.44145100413986], [6.672524003002977, 52.43816400413799], [6.674503003004892, 52.4357770041365], [6.6735190030039, 52.43449500413583], [6.677886003008099, 52.42783200413172], [6.675140003005374, 52.42697200413138], [6.67399900300421, 52.42464700413006], [6.676549003006711, 52.423655004129365], [6.674257003004422, 52.42204800412855], [6.672551003002737, 52.42208500412863], [6.669673002999819, 52.417367004125985], [6.672613003002681, 52.41482400412442], [6.675429003005444, 52.41395300412376], [6.69863500302803, 52.39374100411089], [6.697882003027249, 52.39127400410951], [6.705303003034364, 52.37813200410146], [6.7080980030371045, 52.376901004100624], [6.713465003042399, 52.37648900410014], [6.712676003041579, 52.374047004098735], [6.7156610030444055, 52.366549004094175], [6.719693003048308, 52.3612890040909], [6.720563003049018, 52.352329004085604], [6.714138003042579, 52.34679800408263], [6.7148850030433085, 52.34620500408225], [6.712007003040452, 52.345399004081905], [6.709741003038178, 52.34343500408086]]]}, "properties": {"type": "boundary", "gemeente": "Tubbergen", "slug": "tubbergen", "code": "GM0183", "provincie": "Overijssel"}}, {"type": "Feature", "geometry": {"type": "Polygon", "coordinates": [[[6.3903150027237166, 52.42814500414383], [6.428777002762025, 52.43868700414849], [6.438351002771606, 52.44397200415121], [6.438235002771579, 52.44815000415362], [6.4425160027758555, 52.450071004154566], [6.444395002777809, 52.45465500415717], [6.4417680027752295, 52.45567100415786], [6.442960002776434, 52.45693000415849], [6.4461550027796095, 52.457652004158795], [6.444647002778136, 52.45858000415943], [6.445026002778545, 52.46018600416033], [6.447152002780678, 52.46166000416112], [6.4514020027848735, 52.46133000416072], [6.447450002781051, 52.46554300416335], [6.450651002784245, 52.46689000416402], [6.452566002786095, 52.46459800416258], [6.453103002786671, 52.466900004163904], [6.450691002784307, 52.4680510041647], [6.452681002786307, 52.46954100416546], [6.452530002786188, 52.471048004166335], [6.454145002787792, 52.47134500416649], [6.453287002786905, 52.469465004165386], [6.45859900279217, 52.46989800416543], [6.461434002795, 52.471345004166146], [6.461504002795109, 52.47334100416729], [6.46545200279905, 52.47511500416817], [6.472442002805973, 52.47568800416822], [6.4784050028119085, 52.477605004169085], [6.488576002821949, 52.476862004168254], [6.492504002825878, 52.47925900416947], [6.495790002829127, 52.47925600416932], [6.494809002828187, 52.48100200417037], [6.503773002837063, 52.48172200417044], [6.5054690028389155, 52.490963004175676], [6.554463002887255, 52.487593004171714], [6.595170002927325, 52.48028600416578], [6.609644002941824, 52.49250500417225], [6.573094002906019, 52.507984004182646], [6.5680110029010565, 52.51114900418473], [6.5612820028944485, 52.51293100418603], [6.560198002893416, 52.51522000418738], [6.564808002897954, 52.51447800418677], [6.5668390028999895, 52.51608200418761], [6.5665270028997105, 52.517802004188596], [6.564405002897636, 52.518871004189265], [6.560975002894268, 52.51979900419], [6.559049002892355, 52.51918200418973], [6.554882002888178, 52.515596004187834], [6.556678002889905, 52.51326000418639], [6.554058002887305, 52.512460004186075], [6.550087002883432, 52.514991004187685], [6.545671002879093, 52.51603600418848], [6.546594002880047, 52.51855800418988], [6.541323002874853, 52.51897000419038], [6.542797002876346, 52.52106000419146], [6.540913002874545, 52.5244300041935], [6.541772002875431, 52.526348004194546], [6.536055002869836, 52.52893000419626], [6.534115002867909, 52.528336004196014], [6.53096600286493, 52.53546000420022], [6.529660002863837, 52.54628600420647], [6.521827002856373, 52.56058600421496], [6.50493900283999, 52.575885004224354], [6.49676900283185, 52.57162200422226], [6.488356002823494, 52.569001004221114], [6.438071002773861, 52.56937500422338], [6.428282002764234, 52.5712270042248], [6.4150150027511055, 52.570012004224616], [6.402645002739322, 52.59140300423726], [6.323413002661077, 52.592527004240885], [6.361572002697336, 52.52475500420079], [6.3614240026971745, 52.524025004200396], [6.353267002689081, 52.52289900420005], [6.351351002687204, 52.52369800420057], [6.345801002681636, 52.520253004198786], [6.343203002679058, 52.519755004198615], [6.338719002674664, 52.521698004199905], [6.331516002667544, 52.52207500420037], [6.33192600266786, 52.517895004197975], [6.333702002669564, 52.515623004196584], [6.332181002667991, 52.512504004194845], [6.335437002671179, 52.510875004193814], [6.334899002670619, 52.50968500419312], [6.3368020026724565, 52.507635004191854], [6.33458200267025, 52.50707800419166], [6.3440490026790615, 52.48172000417666], [6.342616002677094, 52.45690500416232], [6.378494002712614, 52.456417004160684], [6.3710610027051064, 52.44971100415711], [6.373154002707117, 52.4468570041554], [6.376210002710167, 52.44782500415584], [6.381105002714846, 52.44000500415109], [6.384150002717848, 52.439435004150646], [6.380556002714081, 52.42981900414519], [6.3903150027237166, 52.42814500414383]]]}, "properties": {"type": "boundary", "gemeente": "Ommen", "slug": "ommen", "code": "GM0175", "provincie": "Overijssel"}}, {"type": "Feature", "geometry": {"type": "Polygon", "coordinates": [[[6.805615003130139, 52.16661700397067], [6.8142770031387805, 52.17086100397286], [6.827991003152358, 52.1710070039723], [6.869865003193661, 52.16269300396526], [6.889750003213304, 52.161206003963365], [6.90572000322922, 52.16991500396789], [6.905839003229395, 52.173793003970225], [6.908061003231625, 52.1759590039714], [6.915629003239125, 52.17761400397204], [6.933741003257038, 52.17844800397165], [6.949505003272635, 52.18050500397208], [6.954725003277841, 52.18395200397389], [6.962479003285596, 52.19137900397802], [6.96239200328555, 52.19429900397978], [6.967397003290538, 52.197894003981666], [6.970903003294066, 52.20298000398457], [6.97408500329724, 52.20540300398587], [6.979522003302719, 52.21421600399089], [6.981100003304358, 52.22073700399472], [6.965890003289481, 52.23041900400131], [6.964873003288558, 52.23676500400516], [6.971646003295331, 52.244068004009186], [6.973028003296752, 52.24850300401179], [6.969015003293037, 52.26739900402326], [6.940986003265608, 52.283903004034535], [6.91896200324388, 52.28365700403549], [6.913587003238559, 52.282168004034865], [6.9121270032371624, 52.28550600403691], [6.906985003232085, 52.28543800403713], [6.895828003221051, 52.283239004036375], [6.8953640032206005, 52.28384100403677], [6.890216003215497, 52.28220500403603], [6.88956700321484, 52.28097800403534], [6.887811003213141, 52.283452004036874], [6.88320700320859, 52.283171004036966], [6.883262003208635, 52.28221300403635], [6.8800200032054235, 52.28140400403604], [6.881358003206715, 52.279379004034794], [6.876495003201848, 52.27472500403224], [6.868327003193763, 52.27296200403161], [6.837846003163714, 52.27663200403528], [6.831745003157639, 52.273512004033705], [6.843515003169161, 52.266593004029026], [6.843352003168961, 52.263697004027314], [6.840288003165894, 52.2610860040259], [6.8425620031680365, 52.25390900402152], [6.827239003152807, 52.24829700401885], [6.819539003145125, 52.24365700401643], [6.813754003139186, 52.2294830040082], [6.774434003100441, 52.23845600401546], [6.765190003091207, 52.233138004012666], [6.769055003094932, 52.2270130040088], [6.755893003081749, 52.217396004003646], [6.75962400308532, 52.21003500399904], [6.766324003091839, 52.20313900399459], [6.7668010030921115, 52.19106500398728], [6.788321003113171, 52.17619000397729], [6.805615003130139, 52.16661700397067]]]}, "properties": {"type": "boundary", "gemeente": "Enschede", "slug": "enschede", "code": "GM0153", "provincie": "Overijssel"}}, {"type": "Feature", "geometry": {"type": "Polygon", "coordinates": [[[7.003476003326531, 52.22859000399827], [7.0117870033347085, 52.22688300399687], [7.013082003335987, 52.22734700399704], [7.019171003341965, 52.22505200399534], [7.020450003343234, 52.22593900399581], [7.0263980033490965, 52.22571400399536], [7.039094003361636, 52.22757400399582], [7.061284003383583, 52.234711003998946], [7.065790003388098, 52.24123500400259], [7.042395003365217, 52.256144004012725], [7.032063003355221, 52.2716640040225], [7.028584003351817, 52.273627004023886], [7.027520003350819, 52.27798600402658], [7.029548003352862, 52.28152600402856], [7.026239003349667, 52.28732400403218], [7.0264530033499275, 52.29196800403492], [7.033837003357321, 52.30250500404079], [7.039493003362946, 52.307627004043525], [7.041313003364774, 52.31114300404552], [7.0386830033622, 52.312380004046354], [7.0474210033708315, 52.315206004047525], [7.045787003369236, 52.31644300404841], [7.048110003371559, 52.319949004050365], [7.047180003370686, 52.32374400405265], [7.055493003378958, 52.332169004057185], [7.056231003379743, 52.33795400406058], [7.072255003395644, 52.35187900406789], [7.072205003395802, 52.37280300408018], [7.007830003332407, 52.36382500407829], [6.9854290033104665, 52.372224004084416], [6.970930003296286, 52.379860004089636], [6.962669003287962, 52.363387004080415], [6.9702590032952605, 52.34876700407142], [6.961638003286753, 52.34711700407089], [6.952843003278002, 52.34035000406733], [6.951141003276298, 52.337960004066026], [6.953583003278658, 52.333973004063544], [6.945202003270381, 52.33272400406322], [6.937531003262827, 52.332836004063665], [6.934325003259543, 52.32271900405788], [6.942793003267877, 52.3221720040571], [6.9456240032706535, 52.32106900405634], [6.944935003269957, 52.319596004055505], [6.950139003275082, 52.3193570040551], [6.9498020032747085, 52.315975004053115], [6.948421003273347, 52.3159860040532], [6.9477100032726185, 52.313915004051985], [6.950389003275188, 52.30821800404851], [6.9418740032666735, 52.29864600404323], [6.946363003271022, 52.29271700403946], [6.940632003265341, 52.2903840040384], [6.935699003260481, 52.290820004038906], [6.939171003263817, 52.28386900403457], [6.940986003265608, 52.283903004034535], [6.946293003270809, 52.28133700403271], [6.969015003293037, 52.26739900402326], [6.973028003296752, 52.24850300401179], [6.971646003295331, 52.244068004009186], [6.964873003288558, 52.23676500400516], [6.965890003289481, 52.23041900400131], [6.981100003304358, 52.22073700399472], [6.985353003308591, 52.223478003996156], [6.985314003308577, 52.225347003997285], [6.989114003312343, 52.22684300399797], [6.9969990033201235, 52.22705900399769], [7.003476003326531, 52.22859000399827]]]}, "properties": {"type": "boundary", "gemeente": "Losser", "slug": "losser", "code": "GM0168", "provincie": "Overijssel"}}, {"type": "Feature", "geometry": {"type": "Polygon", "coordinates": [[[6.28766800261897, 52.30052300407243], [6.326530002657608, 52.3016320040717], [6.341194002672348, 52.309078004075594], [6.356016002687272, 52.31821900408049], [6.342388002674084, 52.33316900408983], [6.333502002665681, 52.35139800410095], [6.343082002675611, 52.370032004111565], [6.356965002689539, 52.37698400411515], [6.382475002714914, 52.38064900411638], [6.388410002720779, 52.379782004115604], [6.405170002738158, 52.41554200413591], [6.3903150027237166, 52.42814500414383], [6.380573002714097, 52.42981600414519], [6.38039900271388, 52.42779900414402], [6.368319002701914, 52.42775200414441], [6.356254002689988, 52.429104004145636], [6.355663002689336, 52.425942004143856], [6.350235002683967, 52.42646900414435], [6.349400002683103, 52.42485200414344], [6.343345002677112, 52.42531000414394], [6.337110002670987, 52.42772300414558], [6.3344190026682465, 52.42444100414376], [6.328523002662482, 52.42805900414604], [6.318856002652994, 52.4320870041488], [6.314438002648635, 52.43302800414949], [6.302263002636532, 52.43144400414898], [6.3018340026361885, 52.435228004151256], [6.291825002626258, 52.434721004151314], [6.289289002623952, 52.443702004156634], [6.289948002624669, 52.446445004158186], [6.278627002613468, 52.44735200415911], [6.278241002613311, 52.45704300416475], [6.253575002589003, 52.463086004169135], [6.24799100258347, 52.46326800416942], [6.236257002571896, 52.46561700417118], [6.213531002549338, 52.46463900417138], [6.202577002538578, 52.468728004174146], [6.186673002522797, 52.46841800417452], [6.17802200251427, 52.470636004176086], [6.174485002510707, 52.468401004174886], [6.17129500250755, 52.468739004175205], [6.162495002498964, 52.47438800417877], [6.151315002487791, 52.471087004177214], [6.14414600248059, 52.467665004175466], [6.152516002488727, 52.46113500417141], [6.152197002488316, 52.457439004169274], [6.154915002490907, 52.45318300416668], [6.157681002493661, 52.45354100416684], [6.1774280025126895, 52.431149004153156], [6.191058002526257, 52.43269000415359], [6.190762002525915, 52.43075500415247], [6.192586002527728, 52.43096400415255], [6.193493002528564, 52.42832400415098], [6.196586002531603, 52.42711100415015], [6.2063690025413365, 52.42823100415048], [6.208342002543286, 52.42781600415015], [6.207680002542572, 52.425517004148844], [6.2309580025656235, 52.42350000414686], [6.222670002557045, 52.40911200413877], [6.221579002555963, 52.40908900413877], [6.23123300256527, 52.3978800041319], [6.229841002563886, 52.39778200413189], [6.23212000256604, 52.39331300412919], [6.229884002563736, 52.38984400412726], [6.226218002560051, 52.38801700412629], [6.221872002555718, 52.38739900412606], [6.218446002552264, 52.385270004124955], [6.21640300255026, 52.38638800412565], [6.203988002537948, 52.386899004126384], [6.202355002536285, 52.38518000412544], [6.20652100254041, 52.38470600412501], [6.2078140025416575, 52.383275004124094], [6.20729900254113, 52.38264200412378], [6.201607002535498, 52.38350800412446], [6.201020002534836, 52.3803040041226], [6.198685002532521, 52.38042900412277], [6.20368300253743, 52.37828700412133], [6.202582002536321, 52.377643004120976], [6.2037150025374395, 52.37735200412075], [6.203306002537006, 52.376266004120154], [6.199944002533631, 52.37481000411941], [6.2014800025351375, 52.37412000411895], [6.2013370025349275, 52.37139500411735], [6.196764002530403, 52.37217200411796], [6.195467002529163, 52.3741750041192], [6.189456002523232, 52.37574600412031], [6.188786002522285, 52.3644770041137], [6.193918002527252, 52.359213004110394], [6.196213002529518, 52.35861300411], [6.195295002528523, 52.35546700410816], [6.196859002529993, 52.35211200410612], [6.222961002555807, 52.34723700410238], [6.23566500256825, 52.339902004097596], [6.231878002564383, 52.33561300409521], [6.232483002564833, 52.32960700409162], [6.235843002568144, 52.32838900409079], [6.235133002567093, 52.31445500408255], [6.267239002598671, 52.30080500407331], [6.28766800261897, 52.30052300407243]]]}, "properties": {"type": "boundary", "gemeente": "Raalte", "slug": "raalte", "code": "GM0177", "provincie": "Overijssel"}}, {"type": "Feature", "geometry": {"type": "Polygon", "coordinates": [[[6.9183060032432335, 52.283486004035424], [6.939171003263817, 52.28386900403457], [6.935699003260481, 52.290820004038906], [6.940632003265341, 52.2903840040384], [6.946363003271022, 52.29271700403946], [6.9418740032666735, 52.29864600404323], [6.950389003275188, 52.30821800404851], [6.9477100032726185, 52.313915004051985], [6.948421003273347, 52.3159860040532], [6.9498020032747085, 52.315975004053115], [6.950139003275082, 52.3193570040551], [6.944935003269957, 52.319596004055505], [6.9456240032706535, 52.32106900405634], [6.942793003267877, 52.3221720040571], [6.934325003259543, 52.32271900405788], [6.937531003262827, 52.332836004063665], [6.931905003257281, 52.33275600406396], [6.93096900325632, 52.32946000406198], [6.911665003237306, 52.330691004063716], [6.900646003226479, 52.3334600040659], [6.898202003224, 52.328179004062925], [6.8971580032229705, 52.32821300406298], [6.894806003220608, 52.324978004061165], [6.88777900321364, 52.322058004059805], [6.886200003212087, 52.32231100406001], [6.884299003210157, 52.3184070040578], [6.879869003205797, 52.31901400405836], [6.877338003203208, 52.3122360040545], [6.869340003195315, 52.31211900405484], [6.867050003193027, 52.310311004053865], [6.866540003192482, 52.30741600405218], [6.861349003187346, 52.30636700405182], [6.85978100318569, 52.29867400404732], [6.865298003191114, 52.29722100404618], [6.8749310032006195, 52.296849004045484], [6.879534003205133, 52.29497100404415], [6.87990200320548, 52.293719004043425], [6.883890003209417, 52.29395300404333], [6.889480003214913, 52.29246700404221], [6.894498003219877, 52.29353800404255], [6.912049003237087, 52.285564004036964], [6.913587003238559, 52.282168004034865], [6.9183060032432335, 52.283486004035424]]]}, "properties": {"type": "boundary", "gemeente": "Oldenzaal", "slug": "oldenzaal", "code": "GM0173", "provincie": "Overijssel"}}, {"type": "Feature", "geometry": {"type": "Polygon", "coordinates": [[[6.750567003077591, 52.28532400404452], [6.752961003079995, 52.28756100404576], [6.754612003081621, 52.28714600404543], [6.763221003090149, 52.28840600404581], [6.766683003093608, 52.290519004046864], [6.7677500030946955, 52.29263200404808], [6.770026003096929, 52.29159400404739], [6.775516003102378, 52.29315300404803], [6.779988003106862, 52.297173004050215], [6.7850490031119035, 52.29981300405153], [6.792551003119325, 52.300387004051544], [6.787892003114792, 52.304976004054495], [6.797451003124258, 52.30670100405506], [6.801234003128026, 52.30854700405599], [6.802129003129002, 52.31454400405947], [6.785149003112272, 52.317370004061964], [6.785903003113028, 52.31823000406244], [6.779219003106425, 52.317820004062504], [6.773842003101127, 52.318911004063416], [6.763184003090733, 52.327492004068986], [6.762136003089748, 52.330762004070976], [6.759035003086705, 52.33206100407189], [6.750679003078412, 52.32966500407087], [6.743685003071605, 52.336109004075], [6.734497003062579, 52.33935500407731], [6.720846003049119, 52.34120800407904], [6.721010003049263, 52.3401280040784], [6.715039003043297, 52.33618500407634], [6.7094470030376785, 52.33060000407327], [6.706841003035128, 52.33225900407437], [6.696954003025315, 52.32980700407338], [6.694945003023276, 52.32682300407169], [6.707010003035111, 52.32100400406773], [6.704354003032464, 52.3197360040671], [6.705896003033957, 52.31795700406596], [6.694681003022813, 52.31481100406458], [6.69022900301841, 52.314792004064785], [6.692320003020464, 52.3139680040642], [6.690042003018197, 52.31301000406374], [6.691098003019215, 52.31148100406279], [6.689481003017583, 52.309589004061756], [6.690940003019005, 52.308391004060994], [6.702017003029951, 52.30785200406015], [6.711234003039005, 52.30412400405752], [6.724431003051919, 52.295836004052], [6.729617003056961, 52.290472004048574], [6.730887003058219, 52.29079700404869], [6.730988003058309, 52.28999400404821], [6.7328920030601855, 52.289813004048014], [6.742771003069848, 52.28311900404359], [6.750567003077591, 52.28532400404452]]]}, "properties": {"type": "boundary", "gemeente": "Borne", "slug": "borne", "code": "GM0147", "provincie": "Overijssel"}}, {"type": "Feature", "geometry": {"type": "Polygon", "coordinates": [[[6.140527002479158, 52.55210200422418], [6.166814002505525, 52.56525200423083], [6.1588120024978545, 52.575406004236854], [6.157459002496648, 52.58073400423997], [6.155070002494331, 52.58270600424115], [6.147532002486898, 52.58380000424206], [6.1474190024867985, 52.584408004242384], [6.131378002470838, 52.58124600424111], [6.124090002463865, 52.590844004246826], [6.125508002465311, 52.59249200424769], [6.124057002463917, 52.59405700424863], [6.120529002460499, 52.59706900425045], [6.10528300244557, 52.60343300425456], [6.103225002443581, 52.605368004255695], [6.106230002446601, 52.60703500425655], [6.103701002444243, 52.61268600425982], [6.106951002447515, 52.61483200426094], [6.106406002447055, 52.617951004262714], [6.107614002448252, 52.61797100426271], [6.107477002448141, 52.618873004263186], [6.106002002446687, 52.61918600426342], [6.106664002447404, 52.62149300426472], [6.10509400244585, 52.621494004264775], [6.103931002444802, 52.625569004267106], [6.098348002439278, 52.62555500426728], [6.095917002437009, 52.63094100427041], [6.096848002438055, 52.63562600427301], [6.101932002443214, 52.64062000427565], [6.102906002444329, 52.64653900427894], [6.104471002445912, 52.64792600427965], [6.103417002445054, 52.655104004283764], [6.10429100244597, 52.65712000428485], [6.106632002448277, 52.6567580042846], [6.110030002451712, 52.659648004286076], [6.120271002461979, 52.66509000428883], [6.119566002461349, 52.667937004290444], [6.1074390024493015, 52.66561800428952], [6.102368002444233, 52.66345100428847], [6.09991700244174, 52.660821004287065], [6.097360002439311, 52.66462700428929], [6.085563002427605, 52.66327400428891], [6.054864002396892, 52.65021900428255], [6.03820800238039, 52.64950000428263], [6.02469200236681, 52.64209900427886], [6.021083002363219, 52.64136300427855], [6.018073002360306, 52.64385500428006], [6.010491002352637, 52.63788200427689], [5.988626002330744, 52.6293240042727], [5.981015002323179, 52.62830200427232], [5.991745002333623, 52.62174800426835], [5.991302002332979, 52.61439700426421], [5.980243002321759, 52.60508800425926], [5.971341002312628, 52.59415700425332], [5.982941002323658, 52.57751400424349], [6.012888002353582, 52.586114004247534], [6.033365002373134, 52.55898000423145], [6.0631540024028885, 52.56728000423529], [6.070156002409585, 52.558226004229915], [6.0735440024129685, 52.55917600423039], [6.076163002415505, 52.556963004229004], [6.074186002413532, 52.55640200422874], [6.089400002428491, 52.55184100422567], [6.0976840024368775, 52.55862900422928], [6.099044002438324, 52.56235200423138], [6.103336002442707, 52.567388004234125], [6.1080720024474, 52.56749400423403], [6.110060002449368, 52.5674120042339], [6.109791002448939, 52.56111500423033], [6.114589002453676, 52.56045700422984], [6.118081002457057, 52.55739700422794], [6.125978002464847, 52.55610500422696], [6.1286790024675355, 52.55658100422714], [6.130303002469111, 52.555316004226356], [6.140527002479158, 52.55210200422418]]]}, "properties": {"type": "boundary", "gemeente": "Zwartewaterland", "slug": "zwartewaterland", "code": "GM1896", "provincie": "Overijssel"}}, {"type": "Feature", "geometry": {"type": "Polygon", "coordinates": [[[6.333921002667758, 52.42471400414393], [6.337110002670987, 52.42772300414558], [6.343345002677112, 52.42531000414394], [6.349400002683103, 52.42485200414344], [6.350377002684106, 52.42648500414437], [6.355663002689336, 52.425942004143856], [6.356254002689988, 52.429104004145636], [6.368319002701914, 52.42775200414441], [6.38039900271388, 52.42779900414402], [6.384150002717848, 52.439435004150646], [6.381105002714846, 52.44000500415109], [6.376210002710167, 52.44782500415584], [6.373154002707117, 52.4468570041554], [6.3710610027051064, 52.44971100415711], [6.378494002712614, 52.456417004160684], [6.342616002677094, 52.45690500416232], [6.3440490026790615, 52.48172000417666], [6.33458200267025, 52.50707800419166], [6.3368020026724565, 52.507635004191854], [6.334899002670619, 52.50968500419312], [6.335437002671179, 52.510875004193814], [6.332181002667991, 52.512504004194845], [6.333702002669564, 52.515623004196584], [6.33192600266786, 52.517895004197975], [6.331516002667544, 52.52207500420037], [6.338719002674664, 52.521698004199905], [6.343203002679058, 52.519755004198615], [6.345801002681636, 52.520253004198786], [6.351351002687204, 52.52369800420057], [6.353267002689081, 52.52289900420005], [6.3614240026971745, 52.524025004200396], [6.361572002697336, 52.52475500420079], [6.319681002657533, 52.59917100424477], [6.286958002625102, 52.59519200424371], [6.286327002624501, 52.59621200424432], [6.283349002621545, 52.59572400424414], [6.283870002622043, 52.594801004243614], [6.274898002613147, 52.593705004243326], [6.2747760026130495, 52.59478800424393], [6.270744002609068, 52.59505100424421], [6.259130002597553, 52.59359400424379], [6.258311002596709, 52.592020004242954], [6.246926002585407, 52.59032500424238], [6.202138002540971, 52.584949004240855], [6.205456002544024, 52.575250004235244], [6.210811002549143, 52.56779800423082], [6.1896310025274035, 52.53616000421346], [6.193050002530686, 52.53184800421088], [6.187442002524956, 52.52477900420701], [6.18785100252533, 52.52351600420628], [6.183109002520565, 52.520887004204916], [6.182953002520374, 52.51933500420403], [6.173322002510814, 52.518830004204055], [6.184071002521195, 52.50774100419731], [6.183912002520981, 52.505589004196075], [6.186420002523417, 52.50345600419478], [6.188150002525034, 52.49955700419246], [6.196893002533603, 52.49547100418983], [6.199713002536388, 52.49527400418958], [6.199946002536571, 52.4931770041884], [6.198743002535367, 52.49281700418818], [6.201003002537565, 52.49099500418708], [6.196520002533086, 52.48967900418644], [6.192351002528852, 52.48557500418424], [6.193730002530154, 52.48289200418265], [6.192551002528955, 52.48163200418197], [6.19051800252694, 52.481746004182085], [6.188756002525163, 52.48061100418149], [6.182832002519295, 52.48080700418182], [6.182076002518503, 52.4790570041808], [6.177558002514042, 52.47982900418142], [6.177661002514093, 52.47785600418028], [6.174727002511194, 52.478213004180574], [6.173627002510063, 52.47680300417981], [6.171247002507721, 52.477395004180224], [6.170018002506465, 52.475879004179376], [6.1674320025039036, 52.47601000417954], [6.162495002498964, 52.47438800417877], [6.17129500250755, 52.468739004175205], [6.174485002510707, 52.468401004174886], [6.17802200251427, 52.470636004176086], [6.186673002522797, 52.46841800417452], [6.202577002538578, 52.468728004174146], [6.213531002549338, 52.46463900417138], [6.239075002574685, 52.46539400417099], [6.24799100258347, 52.46326800416942], [6.253575002589003, 52.463086004169135], [6.278241002613311, 52.45704300416475], [6.278627002613468, 52.44735200415911], [6.289948002624669, 52.446445004158186], [6.289289002623952, 52.443702004156634], [6.291825002626258, 52.434721004151314], [6.3018340026361885, 52.435228004151256], [6.302263002636532, 52.43144400414898], [6.314438002648635, 52.43302800414949], [6.318944002653082, 52.43206700414878], [6.328523002662482, 52.42805900414604], [6.333921002667758, 52.42471400414393]]]}, "properties": {"type": "boundary", "gemeente": "Dalfsen", "slug": "dalfsen", "code": "GM0148", "provincie": "Overijssel"}}, {"type": "Feature", "geometry": {"type": "Polygon", "coordinates": [[[6.612147002938292, 52.16316600397725], [6.621692002947868, 52.168417003980025], [6.624952002951108, 52.16865000398004], [6.626564002952758, 52.17145700398165], [6.625154002951373, 52.17210200398212], [6.629101002955288, 52.17203300398189], [6.630545002956752, 52.17360000398283], [6.6348620029610075, 52.17216500398174], [6.640280002966288, 52.167405003978615], [6.647294002973427, 52.17689500398407], [6.642755002969008, 52.181447003987024], [6.641391002967646, 52.18090600398675], [6.639666002965945, 52.18150600398721], [6.634454002960859, 52.185955003990095], [6.6284520029549245, 52.18676100399086], [6.624362002950907, 52.18891700399232], [6.653082002979481, 52.19370100399395], [6.672050002998365, 52.19818700399584], [6.697494003023548, 52.19624800399357], [6.703469003029507, 52.198528003994674], [6.71238800303848, 52.20633100399896], [6.702039003028414, 52.21682200400575], [6.703239003029649, 52.21944200400727], [6.7121400030385745, 52.22602900401084], [6.717088003043734, 52.24098000401959], [6.71866400304524, 52.237911004017654], [6.720937003047494, 52.23808500401769], [6.720055003046717, 52.24374200402111], [6.717927003044608, 52.24351400402107], [6.719616003046364, 52.24861700402407], [6.724194003050963, 52.25270700402629], [6.748656003075153, 52.251672004024556], [6.752960003079423, 52.25237000402477], [6.747905003074662, 52.266866004033645], [6.749413003076187, 52.26906100403492], [6.74869500307556, 52.27420000403803], [6.744782003071806, 52.281380004042425], [6.7328920030601855, 52.289813004048014], [6.730988003058309, 52.28999400404821], [6.730887003058219, 52.29079700404869], [6.729617003056961, 52.290472004048574], [6.724431003051919, 52.295836004052], [6.717239003044883, 52.30051100405509], [6.711234003039005, 52.30412400405752], [6.701088003029036, 52.30806900406028], [6.693844003021883, 52.30866600406098], [6.689367003017446, 52.308111004060876], [6.682384003010497, 52.305673004059734], [6.6754390030035555, 52.30178200405774], [6.658073002986268, 52.295890004055], [6.657520002985701, 52.29485400405438], [6.647465002975728, 52.293711004054146], [6.64160400296989, 52.29173600405322], [6.637788002966119, 52.29198600405357], [6.636705002965021, 52.29073800405286], [6.633278002961636, 52.291259004053295], [6.626066002954474, 52.289974004052844], [6.605363002933609, 52.27068900404226], [6.595148002923495, 52.27119900404301], [6.575326002903811, 52.2691160040426], [6.568191002896759, 52.270144004043516], [6.5643880028930335, 52.272412004045016], [6.554009002882957, 52.28331300405195], [6.541547002870582, 52.28226700405181], [6.525813002855008, 52.28349900405322], [6.51726400284652, 52.28304800405329], [6.475564002804913, 52.27128400404797], [6.471231002800572, 52.26931000404692], [6.471002002800311, 52.26768600404596], [6.461797002791082, 52.26340300404376], [6.429685002758949, 52.25169800403803], [6.431821002761055, 52.250902004037485], [6.4284860027576824, 52.24820300403599], [6.426226002755449, 52.24886200403646], [6.416422002745565, 52.242166004032825], [6.416807002745838, 52.23712600402979], [6.4231340027520085, 52.23201300402644], [6.428470002757134, 52.22386200402135], [6.4319470027605234, 52.22093500401947], [6.439591002768039, 52.217354004017025], [6.44647600277478, 52.21269800401394], [6.453209002781329, 52.20625300400979], [6.454876002782903, 52.20237800400741], [6.457287002785271, 52.20096500400645], [6.467475002795381, 52.200410004005725], [6.470293002798155, 52.19937400400498], [6.4699990027977226, 52.19269000400096], [6.479216002806663, 52.182258003994285], [6.488560002815906, 52.18055600399287], [6.4908060028181245, 52.17978000399231], [6.492401002819657, 52.17737200399079], [6.495648002822878, 52.17713900399051], [6.514163002841362, 52.18131100399233], [6.555349002882183, 52.17725600398816], [6.590415002917098, 52.18246400398986], [6.606327002932711, 52.17308200398352], [6.602986002929327, 52.169852003981696], [6.604990002931245, 52.166171003979386], [6.607355002933565, 52.16463100397834], [6.609270002935476, 52.165143003978564], [6.612147002938292, 52.16316600397725]]]}, "properties": {"type": "boundary", "gemeente": "Hof van Twente", "slug": "hof-van-twente", "code": "GM1735", "provincie": "Overijssel"}}, {"type": "Feature", "geometry": {"type": "Polygon", "coordinates": [[[5.926054002264205, 52.47422400418578], [5.9354100022735965, 52.477392004187344], [5.93688000227503, 52.4764990041868], [5.946795002285054, 52.48243400418996], [5.952985002291261, 52.484448004190924], [5.958697002296923, 52.483838004190446], [5.9653610023033234, 52.47645600418594], [5.982216002320412, 52.48838800419239], [6.007121002345579, 52.50402700420071], [6.01236700235084, 52.50594000420166], [6.019338002357728, 52.50482700420082], [6.022851002361228, 52.50533200420103], [6.027857002366314, 52.50960600420329], [6.017085002355783, 52.515251004206895], [6.014740002353593, 52.52026100420982], [6.015879002354809, 52.52335000421158], [6.018670002357649, 52.52591900421298], [6.023643002362627, 52.527366004213654], [6.024832002363778, 52.526308004213014], [6.030171002369085, 52.526754004213096], [6.030455002369675, 52.538061004219564], [6.007288002346894, 52.54511800422431], [6.003619002343401, 52.55039100422743], [6.033038002372823, 52.559403004231704], [6.012888002353582, 52.586114004247534], [5.982941002323658, 52.57751400424349], [5.971380002312662, 52.59392500425317], [5.980243002321759, 52.60508800425926], [5.990909002332566, 52.61350900426372], [5.99228300233405, 52.61796800426624], [5.991745002333623, 52.62174800426835], [5.981015002323179, 52.62830200427232], [5.9552850022975905, 52.62484200427115], [5.9556200022978665, 52.622917004270015], [5.932690002274913, 52.61492300426617], [5.915664002257998, 52.61353400426586], [5.910602002253101, 52.617661004268314], [5.9054700022480615, 52.61921500426934], [5.840525002183399, 52.61041300426606], [5.83721400218002, 52.60733100426439], [5.7779680021212485, 52.607534004265965], [5.777930002120357, 52.58085200425081], [5.804283002146514, 52.5807380042501], [5.8120060021541295, 52.579169004249025], [5.855076002196009, 52.55082400423177], [5.856359002197126, 52.54584400422886], [5.857601002198356, 52.54565000422872], [5.856845002197553, 52.54396100422778], [5.861140002201424, 52.53107300422027], [5.862055002202043, 52.5215830042148], [5.864310002204179, 52.51817300421279], [5.876205002216111, 52.5220250042147], [5.87776300221763, 52.52114800421415], [5.879023002218899, 52.521662004214406], [5.887277002226953, 52.51690600421146], [5.9002890022395755, 52.50683600420533], [5.910217002249155, 52.49730500419951], [5.926054002264205, 52.47422400418578]]]}, "properties": {"type": "boundary", "gemeente": "Kampen", "slug": "kampen", "code": "GM0166", "provincie": "Overijssel"}}, {"type": "Feature", "geometry": {"type": "Polygon", "coordinates": [[[6.598851002929241, 52.38365800410939], [6.609455002939831, 52.38955100411236], [6.613979002944247, 52.38611900411018], [6.6194920029497615, 52.38983000411212], [6.621763002952003, 52.38954500411184], [6.636382002966558, 52.39553600411472], [6.640200002970392, 52.39912300411665], [6.647626002977667, 52.39545400411417], [6.6517520029818025, 52.39872500411592], [6.664169002993914, 52.38951400410997], [6.667363002997076, 52.38991100411007], [6.671896003001538, 52.38885100410925], [6.676120003005829, 52.396151004113314], [6.684391003013917, 52.39089900410987], [6.685229003014778, 52.39310500411114], [6.691113003020589, 52.392803004110725], [6.69863500302803, 52.39374100411089], [6.675429003005444, 52.41395300412376], [6.672613003002681, 52.41482400412442], [6.669673002999819, 52.417367004125985], [6.672551003002737, 52.42208500412863], [6.674257003004422, 52.42204800412855], [6.676549003006711, 52.423655004129365], [6.67399900300421, 52.42464700413006], [6.675140003005374, 52.42697200413138], [6.677886003008099, 52.42783200413172], [6.674386003004726, 52.43265600413471], [6.673492003003877, 52.43473000413596], [6.674503003004892, 52.4357770041365], [6.672558003003022, 52.43896000413845], [6.673334003003826, 52.44145100413986], [6.676361003006861, 52.44411300414127], [6.682858003013308, 52.44626600414224], [6.692082003022426, 52.447348004142455], [6.694871003025235, 52.45084200414438], [6.697748003028087, 52.45178000414476], [6.701595003032032, 52.461163004150016], [6.717707003048182, 52.478132004159114], [6.697585003028473, 52.486298004164716], [6.693485003024428, 52.48632700416494], [6.66930100300072, 52.49498100417101], [6.653659002985174, 52.487832004167586], [6.654578002986, 52.482715004164604], [6.647460002978903, 52.47861400416252], [6.6511000029824405, 52.475157004160394], [6.649556002980883, 52.473090004159246], [6.641541002972943, 52.47124400415853], [6.640584002972032, 52.47310500415965], [6.63562100296711, 52.47164700415902], [6.631217002962766, 52.4719730041594], [6.626821002958456, 52.47383100416068], [6.620940002952597, 52.47054100415904], [6.616570002948262, 52.46936900415855], [6.613001002944675, 52.465603004156534], [6.601035002933104, 52.47947000416504], [6.554463002887255, 52.487593004171714], [6.5054690028389155, 52.490963004175676], [6.503773002837063, 52.48172200417044], [6.494809002828187, 52.48100200417037], [6.495790002829127, 52.47925600416932], [6.492504002825878, 52.47925900416947], [6.488576002821949, 52.476862004168254], [6.4784050028119085, 52.477605004169085], [6.472442002805973, 52.47568800416822], [6.46545200279905, 52.47511500416817], [6.461504002795109, 52.47334100416729], [6.461434002795, 52.471345004166146], [6.45859900279217, 52.46989800416543], [6.453287002786905, 52.469465004165386], [6.454145002787792, 52.47134500416649], [6.452530002786188, 52.471048004166335], [6.452681002786307, 52.46954100416546], [6.450691002784307, 52.4680510041647], [6.453103002786671, 52.466900004163904], [6.452566002786095, 52.46459800416258], [6.450651002784245, 52.46689000416402], [6.447463002781067, 52.46559900416337], [6.451428002784907, 52.461476004160836], [6.448760002782261, 52.46113100416071], [6.448550002782032, 52.46030700416028], [6.453490002786915, 52.46002200415988], [6.457989002791251, 52.454190004156345], [6.462462002795593, 52.44999800415374], [6.46575800279882, 52.44842300415268], [6.467388002800375, 52.44557200415096], [6.4736130028064816, 52.44294800414919], [6.474973002807792, 52.441107004148066], [6.479553002812323, 52.44121400414796], [6.480015002812764, 52.440326004147444], [6.510901002843255, 52.437173004144334], [6.513815002846161, 52.43831000414488], [6.51627900284858, 52.437455004144304], [6.521074002853384, 52.44069600414597], [6.524070002856328, 52.43962600414522], [6.528404002860634, 52.440664004145646], [6.5299430028621765, 52.44193900414629], [6.531037002863339, 52.44621800414875], [6.53787700287015, 52.448752004149966], [6.537871002870164, 52.44974500415049], [6.540555002872837, 52.45087600415108], [6.543071002875331, 52.45123100415116], [6.5513590028834985, 52.449877004150046], [6.554513002886589, 52.44845800414907], [6.558346002890387, 52.448974004149214], [6.5628940028948195, 52.44576400414715], [6.566327002898231, 52.44681800414764], [6.56677600289867, 52.4462560041473], [6.571064002902945, 52.44839800414836], [6.57163300290347, 52.446504004147215], [6.596387002928077, 52.45480800415099], [6.59814800292954, 52.43902900414176], [6.587735002919157, 52.43391000413921], [6.573968002905359, 52.42331700413363], [6.572469002903874, 52.4233150041337], [6.598851002929241, 52.38365800410939]]]}, "properties": {"type": "boundary", "gemeente": "Twenterand", "slug": "twenterand", "code": "GM1700", "provincie": "Overijssel"}}, {"type": "Feature", "geometry": {"type": "Polygon", "coordinates": [[[6.217224002547068, 52.226401004030485], [6.214501002544483, 52.23142700403362], [6.216440002546418, 52.23148000403357], [6.222337002552221, 52.228884004031805], [6.227925002557807, 52.22976800403216], [6.233958002563794, 52.22902900403149], [6.2380180025678, 52.22754300403047], [6.244590002574358, 52.22827600403071], [6.245667002575404, 52.22726200403004], [6.2486260025783595, 52.227638004030176], [6.250429002580137, 52.226906004029665], [6.257295002586981, 52.227276004029655], [6.260058002589776, 52.22914200403068], [6.264718002594366, 52.22724800402939], [6.271291002600889, 52.226414004028655], [6.271007002600644, 52.227910004029546], [6.276116002605723, 52.22776800402931], [6.286333002615952, 52.23036200403047], [6.287251002616852, 52.2297270040301], [6.292732002622333, 52.2308690040306], [6.292974002622538, 52.229501004029714], [6.296951002626481, 52.229005004029304], [6.297942002627386, 52.22553000402721], [6.320429002649759, 52.22566900402648], [6.325434002654771, 52.22699700402707], [6.338708002667975, 52.22715300402671], [6.338025002667511, 52.23622200403217], [6.341276002670738, 52.23598600403192], [6.341194002670692, 52.237612004032925], [6.347135002676635, 52.23916000403362], [6.349477002678958, 52.23879700403327], [6.349652002679187, 52.24124100403477], [6.35089200268043, 52.241680004035004], [6.36685100269629, 52.24153200403431], [6.381898002711353, 52.24621100403656], [6.376754002706329, 52.25015900403913], [6.377317002706983, 52.25432600404158], [6.374803002704507, 52.25531600404227], [6.374810002704536, 52.25629800404286], [6.37722200270694, 52.256649004043], [6.377194002706965, 52.25893800404435], [6.372897002702743, 52.26100000404576], [6.370775002700611, 52.26000600404524], [6.35671800268683, 52.26812800405063], [6.3553760026854755, 52.26726600405015], [6.352843002682983, 52.26835000405088], [6.354884002685032, 52.26920100405135], [6.352020002682224, 52.270889004052435], [6.350832002681007, 52.269254004051504], [6.348857002679057, 52.26989200405196], [6.350066002680303, 52.271760004053036], [6.328842002659429, 52.28110300405939], [6.326530002657608, 52.3016320040717], [6.305090002636283, 52.30054500407182], [6.267239002598671, 52.30080500407331], [6.235133002567093, 52.31445500408255], [6.235355002567448, 52.31982000408571], [6.206487002538782, 52.321122004087485], [6.203691002535983, 52.320281004087065], [6.202706002534924, 52.31725000408532], [6.199492002531695, 52.31587900408456], [6.1900660025222916, 52.31475500408423], [6.181551002513827, 52.31485700408457], [6.182176002514296, 52.30891100408103], [6.17027100250245, 52.30878500408134], [6.11014600244233, 52.297724004076684], [6.108374002440563, 52.2976500040767], [6.108119002440348, 52.29908400407755], [6.101320002433638, 52.30122500407905], [6.104906002437085, 52.29671300407622], [6.105864002437927, 52.29240800407366], [6.111322002443246, 52.28821100407097], [6.111267002442987, 52.28072100406647], [6.112627002444267, 52.277928004064805], [6.121670002453095, 52.27144000406063], [6.124547002455755, 52.26365700405588], [6.130069002461176, 52.260691004053925], [6.125145002456166, 52.25682500405178], [6.123865002454746, 52.25148100404859], [6.135412002466197, 52.24961500404712], [6.143526002474196, 52.24640400404493], [6.150020002480712, 52.2483160040459], [6.153748002484385, 52.246790004044826], [6.15360400248417, 52.244018004043205], [6.142237002472699, 52.23845600404019], [6.141942002472271, 52.23344000403719], [6.147682002477837, 52.22769100403353], [6.161375002491401, 52.22476000403136], [6.163933002493875, 52.22192400402954], [6.162604002492456, 52.21833700402742], [6.163909002493732, 52.21749600402688], [6.1676480024974945, 52.21887500402759], [6.168671002498564, 52.220699004028624], [6.165482002495433, 52.2225770040299], [6.1624990024926065, 52.227890004033206], [6.167738002497777, 52.22622200403202], [6.167881002497952, 52.227552004032795], [6.163028002493147, 52.22852200403355], [6.166269002496441, 52.231014004034954], [6.182531002512711, 52.233825004036106], [6.189136002519168, 52.229167004033144], [6.20194300253193, 52.22942300403285], [6.217224002547068, 52.226401004030485]]]}, "properties": {"type": "boundary", "gemeente": "Deventer", "slug": "deventer", "code": "GM0150", "provincie": "Overijssel"}}, {"type": "Feature", "geometry": {"type": "Polygon", "coordinates": [[[6.136166002468364, 52.30287900407892], [6.17027100250245, 52.30878500408134], [6.182176002514296, 52.30891100408103], [6.181551002513827, 52.31485700408457], [6.1900660025222916, 52.31475500408423], [6.199492002531695, 52.31587900408456], [6.202706002534924, 52.31725000408532], [6.203691002535983, 52.320281004087065], [6.206487002538782, 52.321122004087485], [6.235355002567448, 52.31982000408571], [6.235843002568144, 52.32838900409079], [6.232483002564833, 52.32960700409162], [6.231878002564383, 52.33561300409521], [6.23566500256825, 52.339902004097596], [6.222961002555807, 52.34723700410238], [6.196859002529993, 52.35211200410612], [6.195295002528523, 52.35546700410816], [6.196213002529518, 52.35861300411], [6.193918002527252, 52.359213004110394], [6.188807002522303, 52.36442700411368], [6.1885060025221605, 52.37058200411731], [6.189456002523232, 52.37574600412031], [6.195467002529163, 52.3741750041192], [6.196764002530403, 52.37217200411796], [6.2013370025349275, 52.37139500411735], [6.2014800025351375, 52.37412000411895], [6.199944002533631, 52.37481000411941], [6.203306002537006, 52.376266004120154], [6.2037150025374395, 52.37735200412075], [6.202582002536321, 52.377643004120976], [6.20368300253743, 52.37828700412133], [6.198685002532521, 52.38042900412277], [6.201020002534836, 52.3803040041226], [6.201607002535498, 52.38350800412446], [6.20729900254113, 52.38264200412378], [6.2078140025416575, 52.383275004124094], [6.20652100254041, 52.38470600412501], [6.202355002536285, 52.38518000412544], [6.203988002537948, 52.386899004126384], [6.21640300255026, 52.38638800412565], [6.218446002552264, 52.385270004124955], [6.221872002555718, 52.38739900412606], [6.226218002560051, 52.38801700412629], [6.229884002563736, 52.38984400412726], [6.23212000256604, 52.39331300412919], [6.229841002563886, 52.39778200413189], [6.23123300256527, 52.3978800041319], [6.221579002555963, 52.40908900413877], [6.222670002557045, 52.40911200413877], [6.2309580025656235, 52.42350000414686], [6.207680002542572, 52.425517004148844], [6.208342002543286, 52.42781600415015], [6.2063690025413365, 52.42823100415048], [6.196586002531603, 52.42711100415015], [6.193493002528564, 52.42832400415098], [6.192586002527728, 52.43096400415255], [6.190762002525915, 52.43075500415247], [6.191058002526257, 52.43269000415359], [6.1774280025126895, 52.431149004153156], [6.157681002493661, 52.45354100416684], [6.154915002490907, 52.45318300416668], [6.1476760024834975, 52.444441004161874], [6.141817002477665, 52.44371400416166], [6.140640002476516, 52.44456600416216], [6.139991002475804, 52.44191000416066], [6.137141002472944, 52.44075800416007], [6.13590700247174, 52.44156600416055], [6.120608002456569, 52.442314004161496], [6.109580002445575, 52.4405310041608], [6.114107002450006, 52.438006004159206], [6.119472002455198, 52.432918004156065], [6.116385002452061, 52.43019900415452], [6.118245002453813, 52.426644004152436], [6.113872002449291, 52.41985300414862], [6.114741002450008, 52.414256004145315], [6.110774002445893, 52.40774700414165], [6.11494000245001, 52.40693600414102], [6.119065002453995, 52.40264200413838], [6.123683002458565, 52.4019160041378], [6.127579002462374, 52.399617004136324], [6.130553002465341, 52.39997800413645], [6.125208002459835, 52.392627004132336], [6.126005002460414, 52.384521004127535], [6.122917002457245, 52.38068800412535], [6.117494002451788, 52.37815000412409], [6.083725002418062, 52.372411004121744], [6.0787490024130415, 52.36980600412035], [6.077437002411627, 52.36577400411797], [6.0790940024132, 52.362873004116246], [6.090314002424294, 52.36060500411456], [6.094857002428714, 52.356968004112304], [6.087241002421054, 52.3538900041107], [6.078010002411833, 52.35242600411011], [6.076070002409854, 52.35057000410908], [6.075330002408954, 52.344556004105534], [6.076764002410218, 52.338651004102005], [6.075610002408964, 52.33476400409973], [6.074046002407397, 52.33447900409961], [6.075632002408944, 52.333300004098874], [6.074012002407298, 52.33202700409815], [6.07070600240373, 52.32188200409226], [6.068518002401549, 52.321853004092304], [6.066087002399087, 52.32025300409142], [6.066525002399456, 52.31780900408996], [6.079822002412684, 52.31759400408942], [6.0809900024136905, 52.31190200408604], [6.08478000241746, 52.311741004085825], [6.082928002415488, 52.307120004083096], [6.0841260024165305, 52.301567004079764], [6.08623400241864, 52.30189800407991], [6.08793400242029, 52.30039100407892], [6.099194002431492, 52.30012800407846], [6.098742002431068, 52.30116000407904], [6.1026160024349245, 52.30111900407894], [6.108119002440348, 52.29908400407755], [6.108539002440725, 52.297627004076624], [6.118587002450762, 52.29889300407712], [6.136166002468364, 52.30287900407892]]]}, "properties": {"type": "boundary", "gemeente": "Olst-Wijhe", "slug": "olst-wijhe", "code": "GM1773", "provincie": "Overijssel"}}, {"type": "Feature", "geometry": {"type": "Polygon", "coordinates": [[[6.131273002470739, 52.5813750042412], [6.1465820024859665, 52.58419000424225], [6.147583002486981, 52.585204004242804], [6.179476002518621, 52.58793000424332], [6.182788002521894, 52.58778700424314], [6.195094002533984, 52.58411100424065], [6.246926002585407, 52.59032500424238], [6.258311002596709, 52.592020004242954], [6.259130002597553, 52.59359400424379], [6.270744002609068, 52.59505100424421], [6.2747760026130495, 52.59478800424393], [6.274898002613147, 52.593705004243326], [6.283870002622043, 52.594801004243614], [6.283349002621545, 52.59572400424414], [6.286327002624501, 52.59621200424432], [6.286958002625102, 52.59519200424371], [6.303064002641069, 52.59714100424425], [6.326078002665102, 52.65694700427713], [6.32779800266684, 52.65869300427803], [6.325884002664968, 52.65970900427869], [6.327225002666309, 52.660447004279035], [6.325755002664876, 52.66128300427957], [6.325857002665012, 52.66281000428042], [6.329290002668454, 52.66539800428173], [6.3270370026663105, 52.669159004283934], [6.32265000266201, 52.67051000428482], [6.319362002658763, 52.67039800428493], [6.319078002658468, 52.66974500428457], [6.314957002654394, 52.66942500428452], [6.314103002653524, 52.66805800428381], [6.312080002651525, 52.66805500428388], [6.309759002649206, 52.66675100428322], [6.305700002645188, 52.666232004283096], [6.302685002642237, 52.66735000428378], [6.302246002641782, 52.6664040042833], [6.2996760026392495, 52.66649700428345], [6.299618002639177, 52.66581000428308], [6.297634002637232, 52.66638600428344], [6.295367002634903, 52.66228600428122], [6.28748700262715, 52.66345300428219], [6.28505300262479, 52.665394004283364], [6.285465002625231, 52.66702200428428], [6.279163002619054, 52.669053004285644], [6.276816002616731, 52.66874600428554], [6.273200002613075, 52.66483700428347], [6.270067002609982, 52.66479400428357], [6.265794002605807, 52.66686500428488], [6.265401002605469, 52.66918000428619], [6.260535002600698, 52.670478004287105], [6.255912002596112, 52.66960200428676], [6.252001002592258, 52.66988100428707], [6.250298002590601, 52.67102900428775], [6.250862002591172, 52.671730004288094], [6.249238002589561, 52.67137100428798], [6.247286002587668, 52.672811004288874], [6.248957002589342, 52.6738620042894], [6.248365002588799, 52.67561700429038], [6.243761002584322, 52.6787180042923], [6.237075002577692, 52.677548004291886], [6.232843002573553, 52.679109004292904], [6.2340650025747815, 52.680222004293476], [6.232741002573504, 52.681455004294214], [6.22714400256797, 52.681242004294276], [6.224905002565786, 52.682431004295026], [6.221091002562031, 52.682779004295334], [6.221165002562121, 52.68353600429577], [6.218708002559713, 52.68432700429629], [6.219807002560831, 52.68570400429708], [6.217497002558543, 52.685490004297], [6.21497900255608, 52.68648600429762], [6.212114002553222, 52.68530800429708], [6.212536002553624, 52.68463400429667], [6.2101300025512645, 52.685225004297095], [6.204985002546158, 52.68416100429669], [6.2016820025429045, 52.68462000429704], [6.195036002536222, 52.67957300429445], [6.194230002535353, 52.67663000429283], [6.192055002533202, 52.67642600429276], [6.191444002532666, 52.67932000429444], [6.187862002529135, 52.67961400429472], [6.185871002527238, 52.68250400429638], [6.180548002521956, 52.681588004296074], [6.184208002525469, 52.67720800429348], [6.18193300252321, 52.676868004293375], [6.182685002523913, 52.675120004292395], [6.163885002505444, 52.67950600429546], [6.162996002504578, 52.680062004295785], [6.169651002511305, 52.686121004298954], [6.168196002509913, 52.688136004300134], [6.164925002506699, 52.688890004300674], [6.159616002501533, 52.69216200430266], [6.154979002496919, 52.69072800430203], [6.154729002496609, 52.688049004300545], [6.152089002493906, 52.68424500429851], [6.145646002487441, 52.68036900429651], [6.135738002477566, 52.67707200429503], [6.135892002477656, 52.67448300429355], [6.131328002473079, 52.6719000042923], [6.127757002469554, 52.672056004292486], [6.1223050024640715, 52.66844900429065], [6.119541002461335, 52.668204004290594], [6.120271002461979, 52.66509000428883], [6.110030002451712, 52.659648004286076], [6.106632002448277, 52.6567580042846], [6.10429100244597, 52.65712000428485], [6.104201002445624, 52.64710500427925], [6.102906002444329, 52.64653900427894], [6.101932002443214, 52.64062000427565], [6.096729002437923, 52.635088004272696], [6.095917002437009, 52.63094100427041], [6.098348002439278, 52.62555500426728], [6.103931002444802, 52.625569004267106], [6.10509400244585, 52.621494004264775], [6.106664002447404, 52.62149300426472], [6.106002002446687, 52.61918600426342], [6.107477002448141, 52.618873004263186], [6.107614002448252, 52.61797100426271], [6.106406002447055, 52.617951004262714], [6.106951002447515, 52.61483200426094], [6.103701002444243, 52.61268600425982], [6.106230002446601, 52.60703500425655], [6.103225002443581, 52.605368004255695], [6.10528300244557, 52.60343300425456], [6.120529002460499, 52.59706900425045], [6.124057002463917, 52.59405700424863], [6.125508002465311, 52.59249200424769], [6.124090002463865, 52.590844004246826], [6.131273002470739, 52.5813750042412]]]}, "properties": {"type": "boundary", "gemeente": "Staphorst", "slug": "staphorst", "code": "GM0180", "provincie": "Overijssel"}}, {"type": "Feature", "geometry": {"type": "Polygon", "coordinates": [[[6.416422002745565, 52.242166004032825], [6.426226002755449, 52.24886200403646], [6.4284860027576824, 52.24820300403599], [6.431821002761055, 52.250902004037485], [6.429685002758949, 52.25169800403803], [6.461797002791082, 52.26340300404376], [6.471002002800311, 52.26768600404596], [6.47207700280142, 52.26971900404716], [6.485260002814604, 52.27460600404957], [6.51726400284652, 52.28304800405329], [6.525813002855008, 52.28349900405322], [6.541547002870582, 52.28226700405181], [6.554009002882957, 52.28331300405195], [6.549963002879033, 52.287802004054804], [6.553533002882753, 52.296999004060126], [6.551096002880559, 52.30829600406694], [6.545089002874796, 52.31837500407316], [6.539652002869364, 52.31580300407187], [6.535841002865583, 52.31564100407191], [6.532846002862639, 52.316775004072746], [6.524878002854917, 52.32567700407829], [6.523138002853156, 52.323834004077305], [6.518164002848238, 52.32438100407786], [6.517908002848001, 52.325174004078306], [6.499327002829553, 52.32352200407807], [6.468189002798745, 52.326462004081066], [6.4609200027914016, 52.320059004077535], [6.421896002752819, 52.32569000408241], [6.356016002687272, 52.31821900408049], [6.341194002672348, 52.309078004075594], [6.326530002657608, 52.3016320040717], [6.328842002659429, 52.28110300405939], [6.350066002680303, 52.271760004053036], [6.348857002679057, 52.26989200405196], [6.350832002681007, 52.269254004051504], [6.352020002682224, 52.270889004052435], [6.354884002685032, 52.26920100405135], [6.352843002682983, 52.26835000405088], [6.3553760026854755, 52.26726600405015], [6.35671800268683, 52.26812800405063], [6.370775002700611, 52.26000600404524], [6.372897002702743, 52.26100000404576], [6.377194002706965, 52.25893800404435], [6.37722200270694, 52.256649004043], [6.3747960027045165, 52.25606700404275], [6.374880002704578, 52.25513600404219], [6.377317002706983, 52.25432600404158], [6.376721002706297, 52.25021000403914], [6.381225002710712, 52.24739700403732], [6.383411002712805, 52.24401600403518], [6.390661002719976, 52.242503004034006], [6.4026190027318775, 52.24327200403401], [6.416422002745565, 52.242166004032825]]]}, "properties": {"type": "boundary", "gemeente": "Rijssen-Holten", "slug": "rijssen-holten", "code": "GM1742", "provincie": "Overijssel"}}, {"type": "Feature", "geometry": {"type": "Polygon", "coordinates": [[[6.054864002396892, 52.65021900428255], [6.085563002427605, 52.66327400428891], [6.097360002439311, 52.66462700428929], [6.09991700244174, 52.660821004287065], [6.102368002444233, 52.66345100428847], [6.1074390024493015, 52.66561800428952], [6.121934002463703, 52.668301004290576], [6.127201002468997, 52.67184500429236], [6.1309170024726685, 52.67173600429218], [6.135892002477656, 52.67448300429355], [6.135738002477566, 52.67707200429503], [6.145646002487441, 52.68036900429651], [6.152127002493942, 52.684276004298546], [6.1547900024966715, 52.6882060043006], [6.154498002496434, 52.69041100430187], [6.158976002500903, 52.6921540043027], [6.156607002498558, 52.691957004302665], [6.15524500249726, 52.69403900430387], [6.148498002490931, 52.70763100431166], [6.120332002464176, 52.75014900433615], [6.1205570024644524, 52.75246800433743], [6.121666002465596, 52.754284004338395], [6.126617002470547, 52.75693500433968], [6.132468002476366, 52.75866800434049], [6.13865500248248, 52.75909400434048], [6.156703002500378, 52.76269900434189], [6.163940002507607, 52.766449004343706], [6.168525002512143, 52.76709300434388], [6.173099002516805, 52.773317004347184], [6.193808002537533, 52.786403004353666], [6.201731002545511, 52.79369600435734], [6.177230002521837, 52.81385100436926], [6.17241900251714, 52.8156390043704], [6.171682002516399, 52.81506000437008], [6.157644002502805, 52.825036004376024], [6.149199002494566, 52.8284020043781], [6.1519620024972985, 52.82883000437827], [6.130312002476333, 52.843930004387204], [6.128694002474833, 52.84780700438936], [6.119820002466249, 52.85421500439312], [6.08748000243411, 52.84311400438814], [6.082346002428947, 52.83906900438609], [6.061500002408404, 52.83929700438688], [6.052607002399586, 52.837339004386095], [6.055084002401867, 52.8311540043826], [6.059951002406536, 52.82611900437974], [6.052936002399564, 52.82412300437887], [6.046957002393576, 52.82052600437708], [6.031168002377853, 52.81499100437453], [6.024559002371535, 52.82254500437889], [6.00748300235462, 52.82004600437805], [5.9965080023437, 52.81656200437646], [5.990575002337982, 52.82159700437937], [5.986479002333944, 52.82169300437952], [5.98177700232951, 52.82928300438384], [5.976175002324134, 52.83474800438697], [5.972871002321039, 52.840714004390314], [5.973128002321342, 52.84247000439125], [5.969976002318231, 52.84237500439128], [5.95809800230643, 52.83939500439002], [5.955764002304073, 52.837374004389], [5.956853002305062, 52.834443004387325], [5.955706002303896, 52.833219004386734], [5.945933002294373, 52.83745200438934], [5.9406080022890695, 52.83570600438852], [5.931587002280156, 52.83532800438856], [5.927079002275664, 52.833827004387864], [5.927097002275658, 52.83290300438733], [5.9306890022791725, 52.83193800438673], [5.922841002271395, 52.83079200438634], [5.923070002271583, 52.82953200438562], [5.926407002274844, 52.82835000438487], [5.922905002271363, 52.827452004384504], [5.924079002272407, 52.823488004382305], [5.914998002263325, 52.81945600438036], [5.909370002257615, 52.814059004377555], [5.900657002248944, 52.81182500437657], [5.897881002246089, 52.80780300437446], [5.882578002230856, 52.80392000437275], [5.878763002226997, 52.80084900437117], [5.868680002217093, 52.80272600437246], [5.865636002214146, 52.80465000437362], [5.859640002208213, 52.804536004373695], [5.857027002205714, 52.80722900437525], [5.854667002203332, 52.80550700437435], [5.850172002198909, 52.80617400437484], [5.843594002192377, 52.80503300437438], [5.84220200219108, 52.807584004375784], [5.836474002185364, 52.805793004375], [5.83736500218632, 52.808262004376324], [5.833629002182732, 52.81165600437827], [5.828721002177935, 52.81342700437934], [5.824198002173461, 52.81327700437935], [5.819744002169184, 52.81727800438169], [5.81001600215947, 52.813884004380085], [5.795177002144578, 52.806522004376426], [5.80592600215484, 52.79485900436977], [5.8186560021672, 52.787636004365496], [5.8187920021672435, 52.78469700436384], [5.836254002184533, 52.78563700436395], [5.843482002191642, 52.78445200436309], [5.849699002197796, 52.78473900436311], [5.860258002208146, 52.78181700436121], [5.8796830022270905, 52.77325100435601], [5.885137002232367, 52.76930100435366], [5.894383002241385, 52.76513400435112], [5.896085002242995, 52.762822004349786], [5.900054002246872, 52.761195004348785], [5.906009002252763, 52.76132600434872], [5.922574002268827, 52.75069200434237], [5.93555900228108, 52.73025200433067], [5.942555002287563, 52.71500200432204], [5.95116100229599, 52.711919004320045], [5.955316002299966, 52.70726200431738], [5.954839002299395, 52.70376800431544], [5.9590120023035285, 52.70386300431538], [5.964825002309116, 52.69810400431199], [5.965155002309314, 52.69357000430949], [5.9621050023062026, 52.69035100430773], [5.959400002303518, 52.6899500043076], [5.9527400022967925, 52.68524000430515], [5.949519002293618, 52.68571300430551], [5.933870002277835, 52.67551000430025], [5.933084002276938, 52.6712640042979], [5.935148002278921, 52.66923400429669], [5.939726002283441, 52.668835004296334], [5.940101002283857, 52.6704270042972], [5.941594002285339, 52.67051700429722], [5.954017002297557, 52.66767400429532], [5.958173002301676, 52.66780900429527], [5.964968002308353, 52.66615400429414], [5.966852002310233, 52.66658000429434], [5.979546002322625, 52.66049600429052], [5.9840480023269915, 52.65719200428854], [5.999530002342251, 52.65463600428666], [6.006915002349465, 52.65128600428456], [6.015737002358, 52.644115004280266], [6.017298002359522, 52.64323400427975], [6.018859002361076, 52.643514004279844], [6.021083002363219, 52.64136300427855], [6.02469200236681, 52.64209900427886], [6.03820800238039, 52.64950000428263], [6.054864002396892, 52.65021900428255]]]}, "properties": {"type": "boundary", "gemeente": "Steenwijkerland", "slug": "steenwijkerland", "code": "GM1708", "provincie": "Overijssel"}}, {"type": "Feature", "geometry": {"type": "Polygon", "coordinates": [[[6.658073002986268, 52.295890004055], [6.667902002996046, 52.298855004056335], [6.683637003011743, 52.306205004059976], [6.690940003019005, 52.308391004060994], [6.689481003017583, 52.309589004061756], [6.691098003019215, 52.31148100406279], [6.690042003018197, 52.31301000406374], [6.692320003020464, 52.3139680040642], [6.69022900301841, 52.314792004064785], [6.694681003022813, 52.31481100406458], [6.705896003033957, 52.31795700406596], [6.704354003032464, 52.3197360040671], [6.707010003035111, 52.32100400406773], [6.694945003023276, 52.32682300407169], [6.696954003025315, 52.32980700407338], [6.706841003035128, 52.33225900407437], [6.7094470030376785, 52.33060000407327], [6.715039003043297, 52.33618500407634], [6.721010003049263, 52.3401280040784], [6.720846003049119, 52.34120800407904], [6.709741003038178, 52.34343500408086], [6.712007003040452, 52.345399004081905], [6.7148850030433085, 52.34620500408225], [6.714138003042579, 52.34679800408263], [6.720563003049018, 52.352329004085604], [6.719693003048308, 52.3612890040909], [6.7156610030444055, 52.366549004094175], [6.712676003041579, 52.374047004098735], [6.713465003042399, 52.37648900410014], [6.7080980030371045, 52.376901004100624], [6.705303003034364, 52.37813200410146], [6.697882003027249, 52.39127400410951], [6.69863500302803, 52.39374100411089], [6.691113003020589, 52.392803004110725], [6.685229003014778, 52.39310500411114], [6.684391003013917, 52.39089900410987], [6.676120003005829, 52.396151004113314], [6.671896003001538, 52.38885100410925], [6.667363002997076, 52.38991100411007], [6.664169002993914, 52.38951400410997], [6.6517520029818025, 52.39872500411592], [6.647626002977667, 52.39545400411417], [6.640200002970392, 52.39912300411665], [6.636382002966558, 52.39553600411472], [6.621763002952003, 52.38954500411184], [6.6194920029497615, 52.38983000411212], [6.613979002944247, 52.38611900411018], [6.609455002939831, 52.38955100411236], [6.598851002929241, 52.38365800410939], [6.608543002938531, 52.367174004099304], [6.614103002943985, 52.36461500409757], [6.615569002945383, 52.36183400409585], [6.614277002944009, 52.35643500409271], [6.610318002940057, 52.35445800409172], [6.608244002937906, 52.34911200408864], [6.6046730029343, 52.34489800408636], [6.597705002927364, 52.34290000408545], [6.599467002929048, 52.33949200408336], [6.603423002932898, 52.335956004081105], [6.616559002945773, 52.329158004076525], [6.619020002948157, 52.32614500407464], [6.612667002941752, 52.31985500407117], [6.612811002941872, 52.3185620040704], [6.609959002939029, 52.31746400406989], [6.610230002939277, 52.316399004069225], [6.608266002937323, 52.31589400406901], [6.604763002933787, 52.312225004067], [6.6114270029404025, 52.31312400406725], [6.614740002943652, 52.311422004066095], [6.613915002942803, 52.30965900406508], [6.616435002945299, 52.30984500406507], [6.61678200294563, 52.30910200406462], [6.614751002943622, 52.30917400406478], [6.61110400293998, 52.30752600406396], [6.607915002936821, 52.307541004064085], [6.618747002947525, 52.30617500406284], [6.63178200296035, 52.301780004059644], [6.626066002954474, 52.289974004052844], [6.633278002961636, 52.291259004053295], [6.636705002965021, 52.29073800405286], [6.637788002966119, 52.29198600405357], [6.64160400296989, 52.29173600405322], [6.647465002975728, 52.293711004054146], [6.657520002985701, 52.29485400405438], [6.658073002986268, 52.295890004055]]]}, "properties": {"type": "boundary", "gemeente": "Almelo", "slug": "almelo", "code": "GM0141", "provincie": "Overijssel"}}, {"type": "Feature", "geometry": {"type": "Polygon", "coordinates": [[[6.7661980030915165, 52.1912110039874], [6.766324003091839, 52.20313900399459], [6.75962400308532, 52.21003500399904], [6.755893003081749, 52.217396004003646], [6.769055003094932, 52.2270130040088], [6.765190003091207, 52.233138004012666], [6.774434003100441, 52.23845600401546], [6.813754003139186, 52.2294830040082], [6.819539003145125, 52.24365700401643], [6.827239003152807, 52.24829700401885], [6.8425620031680365, 52.25390900402152], [6.840288003165894, 52.2610860040259], [6.843352003168961, 52.263697004027314], [6.843515003169161, 52.266593004029026], [6.831745003157639, 52.273512004033705], [6.837846003163714, 52.27663200403528], [6.840492003166319, 52.27631200403492], [6.847570003173349, 52.27858400403597], [6.845761003171575, 52.27975900403673], [6.852014003177784, 52.282060004037774], [6.850304003176124, 52.28413100403914], [6.852376003178188, 52.285228004039695], [6.846375003172351, 52.29140200404367], [6.842547003168576, 52.29177100404403], [6.843202003169231, 52.29244800404443], [6.839590003165677, 52.293304004045105], [6.827902003154159, 52.294862004046564], [6.828408003154665, 52.29535100404686], [6.82051700314692, 52.29842800404906], [6.819237003145701, 52.3014480040509], [6.824064003150508, 52.304249004052345], [6.825691003152149, 52.30640000405355], [6.8233360031498576, 52.30876000405506], [6.812251003138941, 52.31088700405682], [6.809335003136054, 52.31036300405667], [6.807816003134593, 52.313091004058336], [6.802039003128897, 52.31358600405893], [6.801234003128026, 52.30854700405599], [6.797451003124258, 52.30670100405506], [6.787892003114792, 52.304976004054495], [6.792551003119325, 52.300387004051544], [6.7850490031119035, 52.29981300405153], [6.779988003106862, 52.297173004050215], [6.775516003102378, 52.29315300404803], [6.770026003096929, 52.29159400404739], [6.7677500030946955, 52.29263200404808], [6.766683003093608, 52.290519004046864], [6.763221003090149, 52.28840600404581], [6.754612003081621, 52.28714600404543], [6.752961003079995, 52.28756100404576], [6.7503640030773875, 52.28513600404444], [6.742886003069962, 52.28311300404361], [6.748135003075035, 52.27604900403914], [6.749413003076187, 52.26906100403492], [6.747905003074662, 52.266866004033645], [6.752960003079423, 52.25237000402477], [6.748656003075153, 52.251672004024556], [6.724194003050963, 52.25270700402629], [6.719616003046364, 52.24861700402407], [6.717927003044608, 52.24351400402107], [6.720055003046717, 52.24374200402111], [6.720937003047494, 52.23808500401769], [6.71866400304524, 52.237911004017654], [6.717088003043734, 52.24098000401959], [6.7121400030385745, 52.22602900401084], [6.703239003029649, 52.21944200400727], [6.702039003028414, 52.21682200400575], [6.71238800303848, 52.20633100399896], [6.7661980030915165, 52.1912110039874]]]}, "properties": {"type": "boundary", "gemeente": "Hengelo (O)", "slug": "hengelo-o", "code": "GM0164", "provincie": "Overijssel"}}, {"type": "Feature", "geometry": {"type": "Polygon", "coordinates": [[[6.356016002687272, 52.31821900408049], [6.421896002752819, 52.32569000408241], [6.4609200027914016, 52.320059004077535], [6.488447002819179, 52.34378500409049], [6.486609002817388, 52.34520900409142], [6.489134002819902, 52.34595500409175], [6.49079500282162, 52.34935500409369], [6.495978002826767, 52.34995500409384], [6.501347002832144, 52.35291600409539], [6.505839002836587, 52.35245000409495], [6.506663002837456, 52.35527600409658], [6.518873002849551, 52.35516100409596], [6.520793002851574, 52.361415004099605], [6.499059002830091, 52.36356200410172], [6.496078002827223, 52.36794300410439], [6.495516002826835, 52.3761800041093], [6.512607002843869, 52.381840004111936], [6.514108002845351, 52.381665004111746], [6.5085390028400445, 52.392152004118145], [6.515982002847681, 52.40612200412603], [6.575952002907216, 52.417513004130186], [6.572469002903874, 52.4233150041337], [6.573968002905359, 52.42331700413363], [6.587735002919157, 52.43391000413921], [6.59814800292954, 52.43902900414176], [6.596387002928077, 52.45480800415099], [6.57163300290347, 52.446504004147215], [6.571064002902945, 52.44839800414836], [6.56677600289867, 52.4462560041473], [6.566327002898231, 52.44681800414764], [6.5628940028948195, 52.44576400414715], [6.558346002890387, 52.448974004149214], [6.554513002886589, 52.44845800414907], [6.5513590028834985, 52.449877004150046], [6.543071002875331, 52.45123100415116], [6.540555002872837, 52.45087600415108], [6.537871002870164, 52.44974500415049], [6.53787700287015, 52.448752004149966], [6.531037002863339, 52.44621800414875], [6.5299430028621765, 52.44193900414629], [6.528372002860601, 52.44064800414565], [6.524070002856328, 52.43962600414522], [6.521074002853384, 52.44069600414597], [6.51844100285076, 52.439526004145385], [6.517829002850122, 52.43781800414442], [6.5162160028485205, 52.43745000414427], [6.513815002846161, 52.43831000414488], [6.510901002843255, 52.437173004144334], [6.480015002812764, 52.440326004147444], [6.4792380028120125, 52.44125500414798], [6.475599002808404, 52.4408570041479], [6.4736130028064816, 52.44294800414919], [6.467388002800375, 52.44557200415096], [6.46575800279882, 52.44842300415268], [6.462462002795593, 52.44999800415374], [6.457989002791251, 52.454190004156345], [6.453490002786915, 52.46002200415988], [6.448550002782032, 52.46030700416028], [6.450098002783583, 52.46125600416076], [6.448001002781519, 52.46169300416107], [6.445935002779465, 52.46117000416086], [6.444607002778101, 52.45878900415955], [6.446132002779588, 52.457605004158786], [6.442960002776434, 52.45693000415849], [6.4417350027751965, 52.45559500415782], [6.444398002777812, 52.454713004157206], [6.4425160027758555, 52.450071004154566], [6.438235002771579, 52.44815000415362], [6.438351002771606, 52.44397200415121], [6.428777002762025, 52.43868700414849], [6.3903150027237166, 52.42814500414383], [6.405170002738158, 52.41554200413591], [6.388410002720779, 52.379782004115604], [6.382475002714914, 52.38064900411638], [6.356965002689539, 52.37698400411515], [6.343082002675611, 52.370032004111565], [6.333502002665681, 52.35139800410095], [6.342388002674084, 52.33316900408983], [6.356016002687272, 52.31821900408049]]]}, "properties": {"type": "boundary", "gemeente": "Hellendoorn", "slug": "hellendoorn", "code": "GM0163", "provincie": "Overijssel"}}]}