{"type": "FeatureCollection", "metadata": {"gemeente": "Alblasserdam", "slug": "alblasserdam", "generated_at": "2026-07-28T10:02:02.095237Z", "total_points": 39, "merken": ["StatiegeldNederland", "Stibat", "StichtingOPEN"], "bounds": [4.6449273, 51.850081, 4.680363, 51.871081]}, "features": [{"type": "Feature", "geometry": {"type": "Point", "coordinates": [4.6576043, 51.8638986]}, "properties": {"type": "inleverpunt", "locatieNaam": "Albert Heijn", "straatNaam": "Makado Center", "straatNr": "41", "postcode": "2951 EH", "plaats": "Alblasserdam", "merk": "StatiegeldNederland", "puntType": "automaat", "materialen": ["pet-groot", "pet-klein", "blik", "glas", "krat"], "uitbetaling": ["bonnetje", "donatie"], "vrijToegankelijk": true, "gemeenteBeperking": null, "openingstijden": {"ma": "08:00–22:00", "di": "08:00–22:00", "wo": "08:00–22:00", "do": "08:00–22:00", "vr": "07:00–22:00", "za": "07:00–22:00", "zo": "Gesloten"}, "latitude": 51.8638986, "longitude": 4.6576043, "bronId": "252493"}}, {"type": "Feature", "geometry": {"type": "Point", "coordinates": [4.6495262, 51.8705924]}, "properties": {"type": "inleverpunt", "locatieNaam": "Ckc Kinderdijk", "straatNaam": "Groen van Prinstererstraat", "straatNr": "", "postcode": "2953 BD", "plaats": "Alblasserdam", "merk": "StatiegeldNederland", "puntType": "balie", "materialen": ["pet-groot", "pet-klein", "blik"], "uitbetaling": [], "vrijToegankelijk": false, "gemeenteBeperking": null, "openingstijden": null, "latitude": 51.8705924, "longitude": 4.6495262, "bronId": "254175"}}, {"type": "Feature", "geometry": {"type": "Point", "coordinates": [4.6449273, 51.8710334]}, "properties": {"type": "inleverpunt", "locatieNaam": "Coop z.o. 2272", "straatNaam": "Scheldeplein", "straatNr": "5-11", "postcode": "2953 EV", "plaats": "Alblasserdam", "merk": "StatiegeldNederland", "puntType": "automaat", "materialen": ["pet-groot", "pet-klein", "blik", "glas", "krat"], "uitbetaling": ["bonnetje"], "vrijToegankelijk": true, "gemeenteBeperking": null, "openingstijden": {"ma": "08:00–20:00", "di": "08:00–20:00", "wo": "08:00–20:00", "do": "08:00–20:00", "vr": "08:00–20:00", "za": "08:00–18:00", "zo": "Gesloten"}, "latitude": 51.8710334, "longitude": 4.6449273, "bronId": "254199"}}, {"type": "Feature", "geometry": {"type": "Point", "coordinates": [4.6617671, 51.8624985]}, "properties": {"type": "inleverpunt", "locatieNaam": "Dirk", "straatNaam": "Plantageweg", "straatNr": "31", "postcode": "2951 GN", "plaats": "Alblasserdam", "merk": "StatiegeldNederland", "puntType": "automaat", "materialen": ["pet-groot", "pet-klein", "blik", "glas", "krat"], "uitbetaling": ["bonnetje", "donatie"], "vrijToegankelijk": true, "gemeenteBeperking": null, "openingstijden": {"ma": "07:00–21:00", "di": "07:00–21:00", "wo": "07:00–21:00", "do": "07:00–21:00", "vr": "07:00–21:00", "za": "07:00–20:00", "zo": "Gesloten"}, "latitude": 51.8624985, "longitude": 4.6617671, "bronId": "254522"}}, {"type": "Feature", "geometry": {"type": "Point", "coordinates": [4.65856, 51.86484]}, "properties": {"type": "inleverpunt", "locatieNaam": "Lidl", "straatNaam": "Wilgenplein", "straatNr": "2-8", "postcode": "2951 EM", "plaats": "Alblasserdam", "merk": "StatiegeldNederland", "puntType": "automaat", "materialen": ["pet-groot", "pet-klein", "blik", "glas", "krat"], "uitbetaling": ["bonnetje", "donatie"], "vrijToegankelijk": true, "gemeenteBeperking": null, "openingstijden": {"ma": "08:00–21:00", "di": "08:00–21:00", "wo": "08:00–21:00", "do": "08:00–21:00", "vr": "07:00–21:00", "za": "07:00–21:00", "zo": "Gesloten"}, "latitude": 51.86484, "longitude": 4.65856, "bronId": "256465"}}, {"type": "Feature", "geometry": {"type": "Point", "coordinates": [4.6638093, 51.8679263]}, "properties": {"type": "inleverpunt", "locatieNaam": "Plus", "straatNaam": "Sportlaan", "straatNr": "1", "postcode": "2951 HL", "plaats": "Alblasserdam", "merk": "StatiegeldNederland", "puntType": "automaat", "materialen": ["pet-groot", "pet-klein", "blik", "glas", "krat"], "uitbetaling": ["bonnetje"], "vrijToegankelijk": true, "gemeenteBeperking": null, "openingstijden": {"ma": "07:00–21:00", "di": "07:00–21:00", "wo": "07:00–21:00", "do": "07:00–21:00", "vr": "07:00–21:00", "za": "07:00–21:00", "zo": "Gesloten"}, "latitude": 51.8679263, "longitude": 4.6638093, "bronId": "257534"}}, {"type": "Feature", "geometry": {"type": "Point", "coordinates": [4.680363, 51.850081]}, "properties": {"type": "inleverpunt", "locatieNaam": "Shell", "straatNaam": "Rijksweg A15 NZ NR", "straatNr": "1", "postcode": "2952 BN", "plaats": "Alblasserdam", "merk": "StatiegeldNederland", "puntType": "balie", "materialen": ["pet-groot", "pet-klein", "blik"], "uitbetaling": [], "vrijToegankelijk": true, "gemeenteBeperking": null, "openingstijden": {"ma": "24 uur geopend", "di": "24 uur geopend", "wo": "24 uur geopend", "do": "24 uur geopend", "vr": "24 uur geopend", "za": "24 uur geopend", "zo": "24 uur geopend"}, "latitude": 51.850081, "longitude": 4.680363, "bronId": "258183"}}, {"type": "Feature", "geometry": {"type": "Point", "coordinates": [4.665156, 51.86777]}, "properties": {"type": "inleverpunt", "locatieNaam": "Dirk Alblasserdam", "straatNaam": "Sportlaan", "straatNr": "1", "postcode": "2951 HL", "plaats": "Alblasserdam", "merk": "StichtingOPEN", "puntType": "balie", "materialen": ["batterijen", "lampen"], "uitbetaling": [], "vrijToegankelijk": false, "gemeenteBeperking": null, "openingstijden": null, "latitude": 51.86777, "longitude": 4.665156, "bronId": "SP00023420"}}, {"type": "Feature", "geometry": {"type": "Point", "coordinates": [4.663809, 51.864742]}, "properties": {"type": "inleverpunt", "locatieNaam": "Kinderboerderij De Plantage", "straatNaam": "Hilmar J. de Haanstraat", "straatNr": "10", "postcode": "2951 AD", "plaats": "Alblasserdam", "merk": "StichtingOPEN", "puntType": "balie", "materialen": ["elektro-middel"], "uitbetaling": [], "vrijToegankelijk": false, "gemeenteBeperking": null, "openingstijden": null, "latitude": 51.864742, "longitude": 4.663809, "bronId": "SP00006096"}}, {"type": "Feature", "geometry": {"type": "Point", "coordinates": [4.671331, 51.856522]}, "properties": {"type": "inleverpunt", "locatieNaam": "Hornbach Alblasserdam", "straatNaam": "Kelvinring", "straatNr": "60", "postcode": "2952 BG", "plaats": "Alblasserdam", "merk": "StichtingOPEN", "puntType": "balie", "materialen": ["elektro-middel", "lampen", "tl-buizen"], "uitbetaling": [], "vrijToegankelijk": false, "gemeenteBeperking": null, "openingstijden": null, "latitude": 51.856522, "longitude": 4.671331, "bronId": "SP00004660"}}, {"type": "Feature", "geometry": {"type": "Point", "coordinates": [4.666956, 51.859573]}, "properties": {"type": "inleverpunt", "locatieNaam": "Kluswijs Alblasserdam", "straatNaam": "Voltastraat", "straatNr": "1", "postcode": "2952 AW", "plaats": "Alblasserdam", "merk": "StichtingOPEN", "puntType": "balie", "materialen": ["elektro-middel", "lampen", "tl-buizen"], "uitbetaling": [], "vrijToegankelijk": false, "gemeenteBeperking": null, "openingstijden": null, "latitude": 51.859573, "longitude": 4.666956, "bronId": "SP00003432"}}, {"type": "Feature", "geometry": {"type": "Point", "coordinates": [4.657583, 51.863812]}, "properties": {"type": "inleverpunt", "locatieNaam": "1154 Albert Heijn Alblasserdam", "straatNaam": "Makado-Center", "straatNr": "41", "postcode": "2951 EH", "plaats": "Alblasserdam", "merk": "StichtingOPEN", "puntType": "balie", "materialen": ["batterijen", "elektro-klein", "lampen"], "uitbetaling": [], "vrijToegankelijk": false, "gemeenteBeperking": null, "openingstijden": null, "latitude": 51.863812, "longitude": 4.657583, "bronId": "SP00022697"}}, {"type": "Feature", "geometry": {"type": "Point", "coordinates": [4.644953, 51.870991]}, "properties": {"type": "inleverpunt", "locatieNaam": "Coop Compact Alblasserdam", "straatNaam": "Scheldeplein", "straatNr": "5-11", "postcode": "2953 EV", "plaats": "Alblasserdam", "merk": "StichtingOPEN", "puntType": "balie", "materialen": ["batterijen", "lampen"], "uitbetaling": [], "vrijToegankelijk": false, "gemeenteBeperking": null, "openingstijden": null, "latitude": 51.870991, "longitude": 4.644953, "bronId": "SP00026669"}}, {"type": "Feature", "geometry": {"type": "Point", "coordinates": [4.6652668, 51.8677032]}, "properties": {"type": "inleverpunt", "locatieNaam": "Plus", "straatNaam": "Sportlaan", "straatNr": "1", "postcode": "2951 HL", "plaats": "Alblasserdam", "merk": "Stibat", "puntType": "inzamelbak", "materialen": ["batterijen"], "uitbetaling": [], "vrijToegankelijk": false, "gemeenteBeperking": null, "openingstijden": null, "latitude": 51.8677032, "longitude": 4.6652668, "bronId": "L042491"}}, {"type": "Feature", "geometry": {"type": "Point", "coordinates": [4.6727951, 51.8594555]}, "properties": {"type": "inleverpunt", "locatieNaam": "Bakfietsloods", "straatNaam": "Edisonweg", "straatNr": "50b", "postcode": "2952 AD", "plaats": "Alblasserdam", "merk": "Stibat", "puntType": "inzamelbak", "materialen": ["batterijen"], "uitbetaling": [], "vrijToegankelijk": false, "gemeenteBeperking": null, "openingstijden": null, "latitude": 51.8594555, "longitude": 4.6727951, "bronId": "L044421"}}, {"type": "Feature", "geometry": {"type": "Point", "coordinates": [4.68032, 51.85024]}, "properties": {"type": "inleverpunt", "locatieNaam": "Shell", "straatNaam": "Rijksweg A15", "straatNr": "1", "postcode": "2952 BN", "plaats": "Alblasserdam", "merk": "Stibat", "puntType": "inzamelbak", "materialen": ["batterijen"], "uitbetaling": [], "vrijToegankelijk": false, "gemeenteBeperking": null, "openingstijden": null, "latitude": 51.85024, "longitude": 4.68032, "bronId": "L027223"}}, {"type": "Feature", "geometry": {"type": "Point", "coordinates": [4.6711512, 51.8566144]}, "properties": {"type": "inleverpunt", "locatieNaam": "Hornbach", "straatNaam": "Kelvinring", "straatNr": "60", "postcode": "2952 BG", "plaats": "Alblasserdam", "merk": "Stibat", "puntType": "inzamelbak", "materialen": ["batterijen"], "uitbetaling": [], "vrijToegankelijk": false, "gemeenteBeperking": null, "openingstijden": null, "latitude": 51.8566144, "longitude": 4.6711512, "bronId": "L019399"}}, {"type": "Feature", "geometry": {"type": "Point", "coordinates": [4.6676147, 51.8595223]}, "properties": {"type": "inleverpunt", "locatieNaam": "KlusWijs", "straatNaam": "Amperestraat", "straatNr": "30", "postcode": "2952 AA", "plaats": "Alblasserdam", "merk": "Stibat", "puntType": "inzamelbak", "materialen": ["batterijen"], "uitbetaling": [], "vrijToegankelijk": false, "gemeenteBeperking": null, "openingstijden": null, "latitude": 51.8595223, "longitude": 4.6676147, "bronId": "L030048"}}, {"type": "Feature", "geometry": {"type": "Point", "coordinates": [4.6674718, 51.8569858]}, "properties": {"type": "inleverpunt", "locatieNaam": "De Haan", "straatNaam": "De Helling", "straatNr": "1", "postcode": "2952 BC", "plaats": "Alblasserdam", "merk": "Stibat", "puntType": "inzamelbak", "materialen": ["batterijen"], "uitbetaling": [], "vrijToegankelijk": false, "gemeenteBeperking": null, "openingstijden": null, "latitude": 51.8569858, "longitude": 4.6674718, "bronId": "L044752"}}, {"type": "Feature", "geometry": {"type": "Point", "coordinates": [4.6589405, 51.8653998]}, "properties": {"type": "inleverpunt", "locatieNaam": "Bike Totaal Philip de Koning", "straatNaam": "Van Eesterensingel", "straatNr": "131", "postcode": "2951 CJ", "plaats": "Alblasserdam", "merk": "Stibat", "puntType": "inzamelbak", "materialen": ["batterijen"], "uitbetaling": [], "vrijToegankelijk": false, "gemeenteBeperking": null, "openingstijden": null, "latitude": 51.8653998, "longitude": 4.6589405, "bronId": "L018329"}}, {"type": "Feature", "geometry": {"type": "Point", "coordinates": [4.6586178, 51.8655107]}, "properties": {"type": "inleverpunt", "locatieNaam": "Witgoed specialist", "straatNaam": "Van Eesterensingel", "straatNr": "125", "postcode": "2951 CJ", "plaats": "Alblasserdam", "merk": "Stibat", "puntType": "inzamelbak", "materialen": ["batterijen"], "uitbetaling": [], "vrijToegankelijk": false, "gemeenteBeperking": null, "openingstijden": null, "latitude": 51.8655107, "longitude": 4.6586178, "bronId": "L014482"}}, {"type": "Feature", "geometry": {"type": "Point", "coordinates": [4.6613225, 51.8627023]}, "properties": {"type": "inleverpunt", "locatieNaam": "Trekpleister", "straatNaam": "Plantageweg", "straatNr": "31a", "postcode": "2951 GN", "plaats": "Alblasserdam", "merk": "Stibat", "puntType": "inzamelbak", "materialen": ["batterijen"], "uitbetaling": [], "vrijToegankelijk": false, "gemeenteBeperking": null, "openingstijden": null, "latitude": 51.8627023, "longitude": 4.6613225, "bronId": "L040886"}}, {"type": "Feature", "geometry": {"type": "Point", "coordinates": [4.6613225, 51.8627023]}, "properties": {"type": "inleverpunt", "locatieNaam": "Dirk", "straatNaam": "Plantageweg", "straatNr": "31", "postcode": "2951 GN", "plaats": "Alblasserdam", "merk": "Stibat", "puntType": "inzamelbak", "materialen": ["batterijen"], "uitbetaling": [], "vrijToegankelijk": false, "gemeenteBeperking": null, "openingstijden": null, "latitude": 51.8627023, "longitude": 4.6613225, "bronId": "L013341"}}, {"type": "Feature", "geometry": {"type": "Point", "coordinates": [4.6554316, 51.868592]}, "properties": {"type": "inleverpunt", "locatieNaam": "Rijwielhuis", "straatNaam": "Van Hogendorpweg", "straatNr": "10A", "postcode": "2953 AS", "plaats": "Alblasserdam", "merk": "Stibat", "puntType": "inzamelbak", "materialen": ["batterijen"], "uitbetaling": [], "vrijToegankelijk": false, "gemeenteBeperking": null, "openingstijden": null, "latitude": 51.868592, "longitude": 4.6554316, "bronId": "L033052"}}, {"type": "Feature", "geometry": {"type": "Point", "coordinates": [4.655346, 51.8685943]}, "properties": {"type": "inleverpunt", "locatieNaam": "Het Rijwielhuis", "straatNaam": "Van Hogendorpweg", "straatNr": "10a", "postcode": "2953 AS", "plaats": "Alblasserdam", "merk": "Stibat", "puntType": "inzamelbak", "materialen": ["batterijen"], "uitbetaling": [], "vrijToegankelijk": false, "gemeenteBeperking": null, "openingstijden": null, "latitude": 51.8685943, "longitude": 4.655346, "bronId": "L048795"}}, {"type": "Feature", "geometry": {"type": "Point", "coordinates": [4.6590026, 51.8646888]}, "properties": {"type": "inleverpunt", "locatieNaam": "Lidl", "straatNaam": "Wilgenplein", "straatNr": "2", "postcode": "2951 EM", "plaats": "Alblasserdam", "merk": "Stibat", "puntType": "inzamelbak", "materialen": ["batterijen"], "uitbetaling": [], "vrijToegankelijk": false, "gemeenteBeperking": null, "openingstijden": null, "latitude": 51.8646888, "longitude": 4.6590026, "bronId": "L027917"}}, {"type": "Feature", "geometry": {"type": "Point", "coordinates": [4.6580998, 51.8641571]}, "properties": {"type": "inleverpunt", "locatieNaam": "Wibra", "straatNaam": "Makado-Center", "straatNr": "66", "postcode": "2951 EJ", "plaats": "Alblasserdam", "merk": "Stibat", "puntType": "inzamelbak", "materialen": ["batterijen"], "uitbetaling": [], "vrijToegankelijk": false, "gemeenteBeperking": null, "openingstijden": null, "latitude": 51.8641571, "longitude": 4.6580998, "bronId": "L037303"}}, {"type": "Feature", "geometry": {"type": "Point", "coordinates": [4.658077, 51.863779]}, "properties": {"type": "inleverpunt", "locatieNaam": "Hans Anders", "straatNaam": "Makado-Center", "straatNr": "46", "postcode": "2951 EJ", "plaats": "Alblasserdam", "merk": "Stibat", "puntType": "inzamelbak", "materialen": ["batterijen"], "uitbetaling": [], "vrijToegankelijk": false, "gemeenteBeperking": null, "openingstijden": null, "latitude": 51.863779, "longitude": 4.658077, "bronId": "L037722"}}, {"type": "Feature", "geometry": {"type": "Point", "coordinates": [4.6597908, 51.8619384]}, "properties": {"type": "inleverpunt", "locatieNaam": "Europart", "straatNaam": "Dam", "straatNr": "137", "postcode": "2951 GA", "plaats": "Alblasserdam", "merk": "Stibat", "puntType": "inzamelbak", "materialen": ["batterijen"], "uitbetaling": [], "vrijToegankelijk": false, "gemeenteBeperking": null, "openingstijden": null, "latitude": 51.8619384, "longitude": 4.6597908, "bronId": "L021668"}}, {"type": "Feature", "geometry": {"type": "Point", "coordinates": [4.6576292, 51.8637967]}, "properties": {"type": "inleverpunt", "locatieNaam": "1154 Albert Heijn", "straatNaam": "Makado-Center", "straatNr": "41", "postcode": "2951 EH", "plaats": "Alblasserdam", "merk": "Stibat", "puntType": "inzamelbak", "materialen": ["batterijen"], "uitbetaling": [], "vrijToegankelijk": false, "gemeenteBeperking": null, "openingstijden": null, "latitude": 51.8637967, "longitude": 4.6576292, "bronId": "L007232"}}, {"type": "Feature", "geometry": {"type": "Point", "coordinates": [4.6577734, 51.8629617]}, "properties": {"type": "inleverpunt", "locatieNaam": "Primera", "straatNaam": "Makado-Center", "straatNr": "40-42", "postcode": "2951 EJ", "plaats": "Alblasserdam", "merk": "Stibat", "puntType": "inzamelbak", "materialen": ["batterijen"], "uitbetaling": [], "vrijToegankelijk": false, "gemeenteBeperking": null, "openingstijden": null, "latitude": 51.8629617, "longitude": 4.6577734, "bronId": "L023545"}}, {"type": "Feature", "geometry": {"type": "Point", "coordinates": [4.6571646, 51.863257]}, "properties": {"type": "inleverpunt", "locatieNaam": "Beter Horen", "straatNaam": "Makado-Center", "straatNr": "21a", "postcode": "2951 EH", "plaats": "Alblasserdam", "merk": "Stibat", "puntType": "inzamelbak", "materialen": ["batterijen"], "uitbetaling": [], "vrijToegankelijk": false, "gemeenteBeperking": null, "openingstijden": null, "latitude": 51.863257, "longitude": 4.6571646, "bronId": "L031763"}}, {"type": "Feature", "geometry": {"type": "Point", "coordinates": [4.6572772, 51.8629565]}, "properties": {"type": "inleverpunt", "locatieNaam": "Xenos", "straatNaam": "Makado-Center", "straatNr": "13", "postcode": "2951 EH", "plaats": "Alblasserdam", "merk": "Stibat", "puntType": "inzamelbak", "materialen": ["batterijen"], "uitbetaling": [], "vrijToegankelijk": false, "gemeenteBeperking": null, "openingstijden": null, "latitude": 51.8629565, "longitude": 4.6572772, "bronId": "L037035"}}, {"type": "Feature", "geometry": {"type": "Point", "coordinates": [4.6580132, 51.8616059]}, "properties": {"type": "inleverpunt", "locatieNaam": "Kruidvat", "straatNaam": "Cortgene", "straatNr": "4 C", "postcode": "2951 ED", "plaats": "Alblasserdam", "merk": "Stibat", "puntType": "inzamelbak", "materialen": ["batterijen"], "uitbetaling": [], "vrijToegankelijk": false, "gemeenteBeperking": null, "openingstijden": null, "latitude": 51.8616059, "longitude": 4.6580132, "bronId": "L015112"}}, {"type": "Feature", "geometry": {"type": "Point", "coordinates": [4.6572333, 51.8622482]}, "properties": {"type": "inleverpunt", "locatieNaam": "Intertoys", "straatNaam": "Cortgene", "straatNr": "4b", "postcode": "2951 ED", "plaats": "Alblasserdam", "merk": "Stibat", "puntType": "inzamelbak", "materialen": ["batterijen"], "uitbetaling": [], "vrijToegankelijk": false, "gemeenteBeperking": null, "openingstijden": null, "latitude": 51.8622482, "longitude": 4.6572333, "bronId": "L012655"}}, {"type": "Feature", "geometry": {"type": "Point", "coordinates": [4.6568371, 51.8625064]}, "properties": {"type": "inleverpunt", "locatieNaam": "HEMA Cortgene", "straatNaam": "Cortgene", "straatNr": "29", "postcode": "2951 EB", "plaats": "Alblasserdam", "merk": "Stibat", "puntType": "inzamelbak", "materialen": ["batterijen"], "uitbetaling": [], "vrijToegankelijk": false, "gemeenteBeperking": null, "openingstijden": null, "latitude": 51.8625064, "longitude": 4.6568371, "bronId": "L006027"}}, {"type": "Feature", "geometry": {"type": "Point", "coordinates": [4.657167, 51.8618613]}, "properties": {"type": "inleverpunt", "locatieNaam": "Zeeman", "straatNaam": "Raadhuisplein", "straatNr": "9", "postcode": "2951 GS", "plaats": "Alblasserdam", "merk": "Stibat", "puntType": "inzamelbak", "materialen": ["batterijen"], "uitbetaling": [], "vrijToegankelijk": false, "gemeenteBeperking": null, "openingstijden": null, "latitude": 51.8618613, "longitude": 4.657167, "bronId": "L019642"}}, {"type": "Feature", "geometry": {"type": "Point", "coordinates": [4.6451247, 51.871081]}, "properties": {"type": "inleverpunt", "locatieNaam": "Smaakgilde Compleet Cadeau &amp; Meer", "straatNaam": "Scheldeplein", "straatNr": "15", "postcode": "2953 EV", "plaats": "Alblasserdam", "merk": "Stibat", "puntType": "inzamelbak", "materialen": ["batterijen"], "uitbetaling": [], "vrijToegankelijk": false, "gemeenteBeperking": null, "openingstijden": null, "latitude": 51.871081, "longitude": 4.6451247, "bronId": "L046531"}}, {"type": "Feature", "geometry": {"type": "Point", "coordinates": [4.6449669, 51.8708163]}, "properties": {"type": "inleverpunt", "locatieNaam": "Coop Compact", "straatNaam": "Scheldeplein", "straatNr": "5-11", "postcode": "2953 EV", "plaats": "Alblasserdam", "merk": "Stibat", "puntType": "inzamelbak", "materialen": ["batterijen"], "uitbetaling": [], "vrijToegankelijk": false, "gemeenteBeperking": null, "openingstijden": null, "latitude": 51.8708163, "longitude": 4.6449669, "bronId": "L012838"}}, {"type": "Feature", "geometry": {"type": "Polygon", "coordinates": [[[4.672606000983359, 51.83865000381388], [4.68039800099149, 51.844439003817584], [4.681911000993212, 51.84844100382014], [4.681349000992657, 51.84867800382031], [4.681827000993159, 51.84909300382056], [4.683191000994502, 51.84849100382021], [4.681307000993112, 51.85878600382675], [4.680709000992553, 51.859639003827276], [4.6823680009942725, 51.8606320038279], [4.6852470009973874, 51.865077003830734], [4.6864490009986595, 51.86629000383151], [4.688495001000749, 51.866925003831945], [4.690439001002699, 51.86684700383188], [4.7002400010131975, 51.879710003840074], [4.6972680010102135, 51.87985700384017], [4.687815001000645, 51.8787180038394], [4.685502000998266, 51.87772800383877], [4.681101000993786, 51.876665003838106], [4.677884000990482, 51.875300003837225], [4.6760200009885855, 51.874886003836956], [4.673361000985918, 51.87505600383707], [4.672914000985455, 51.87479200383691], [4.670306000982847, 51.87507900383707], [4.6639850009764805, 51.87498100383703], [4.658560000971093, 51.876396003837904], [4.646858000959435, 51.878805003839375], [4.645217000957806, 51.879230003839666], [4.6446860009572974, 51.87974400383998], [4.642138000954757, 51.880200003840244], [4.637076000949469, 51.87629400383776], [4.6287750009413635, 51.88121200384085], [4.628236000940797, 51.880800003840584], [4.628062000940633, 51.8809720038407], [4.626391000938936, 51.8806580038405], [4.634220000946296, 51.87036300383398], [4.643656000955548, 51.8654720038309], [4.648850000960598, 51.86184200382862], [4.653064000964634, 51.85774500382601], [4.65902600097029, 51.850837003821646], [4.670173000981083, 51.84214900381609], [4.672606000983359, 51.83865000381388]]]}, "properties": {"type": "boundary", "gemeente": "Alblasserdam"}}]}