{"type": "FeatureCollection", "metadata": {"gemeente": "Ameland", "slug": "ameland", "generated_at": "2026-07-28T09:25:50.134599Z", "total_points": 34, "merken": ["StatiegeldNederland", "Stibat", "StichtingOPEN"], "bounds": [5.6354197, 53.4386029, 5.805195, 53.4575595]}, "features": [{"type": "Feature", "geometry": {"type": "Point", "coordinates": [5.774876, 53.442422]}, "properties": {"type": "inleverpunt", "locatieNaam": "Jumbo", "straatNaam": "Hoge Eggenweg", "straatNr": "6", "postcode": "9163 JB", "plaats": "Ameland (Nes)", "merk": "StatiegeldNederland", "puntType": "automaat", "materialen": ["pet-groot", "pet-klein", "blik", "glas", "krat"], "uitbetaling": ["bonnetje", "donatie"], "vrijToegankelijk": true, "gemeenteBeperking": null, "openingstijden": {"ma": "08:30–18:00", "di": "08:30–18:00", "wo": "08:30–18:00", "do": "08:30–18:00", "vr": "08:30–18:00", "za": "08:30–17:00", "zo": "Gesloten"}, "latitude": 53.442422, "longitude": 5.774876, "bronId": "255427"}}, {"type": "Feature", "geometry": {"type": "Point", "coordinates": [5.6366882, 53.4414605]}, "properties": {"type": "inleverpunt", "locatieNaam": "Plus", "straatNaam": "O.P. Lapstraat", "straatNr": "4", "postcode": "9161 BV", "plaats": "Ameland (Hollum)", "merk": "StatiegeldNederland", "puntType": "automaat", "materialen": ["pet-groot", "pet-klein", "blik", "glas", "krat"], "uitbetaling": ["bonnetje", "donatie"], "vrijToegankelijk": true, "gemeenteBeperking": null, "openingstijden": {"ma": "08:00–18:00", "di": "08:00–18:00", "wo": "08:00–18:00", "do": "08:00–18:00", "vr": "08:00–20:00", "za": "08:00–18:00", "zo": "08:00–17:00"}, "latitude": 53.4414605, "longitude": 5.6366882, "bronId": "257451"}}, {"type": "Feature", "geometry": {"type": "Point", "coordinates": [5.8048855, 53.453345]}, "properties": {"type": "inleverpunt", "locatieNaam": "Spar", "straatNaam": "Klein Vaartwater", "straatNr": "14", "postcode": "9164 MA", "plaats": "Buren", "merk": "StatiegeldNederland", "puntType": "automaat", "materialen": ["pet-groot", "pet-klein", "blik", "glas", "krat"], "uitbetaling": ["bonnetje", "donatie"], "vrijToegankelijk": true, "gemeenteBeperking": null, "openingstijden": {"ma": "08:00–19:00", "di": "08:00–19:00", "wo": "08:00–19:00", "do": "08:00–19:00", "vr": "08:00–21:00", "za": "08:00–18:00", "zo": "09:00–17:30"}, "latitude": 53.453345, "longitude": 5.8048855, "bronId": "258395"}}, {"type": "Feature", "geometry": {"type": "Point", "coordinates": [5.686662, 53.445203]}, "properties": {"type": "inleverpunt", "locatieNaam": "Spar", "straatNaam": "Strandweg", "straatNr": "2", "postcode": "9162 EV", "plaats": "Ballum", "merk": "StatiegeldNederland", "puntType": "automaat", "materialen": ["pet-groot", "pet-klein", "blik", "glas", "krat"], "uitbetaling": ["bonnetje", "donatie"], "vrijToegankelijk": true, "gemeenteBeperking": null, "openingstijden": {"ma": "08:00–18:00", "di": "08:00–18:00", "wo": "08:00–18:00", "do": "08:00–18:00", "vr": "08:00–18:00", "za": "08:00–18:00", "zo": "Gesloten"}, "latitude": 53.445203, "longitude": 5.686662, "bronId": "258470"}}, {"type": "Feature", "geometry": {"type": "Point", "coordinates": [5.770982, 53.4462794]}, "properties": {"type": "inleverpunt", "locatieNaam": "Spar", "straatNaam": "Torenstraat", "straatNr": "7", "postcode": "9163 HD", "plaats": "Nes", "merk": "StatiegeldNederland", "puntType": "automaat", "materialen": ["pet-groot", "pet-klein", "blik", "glas"], "uitbetaling": ["bonnetje", "donatie"], "vrijToegankelijk": true, "gemeenteBeperking": null, "openingstijden": {"ma": "08:30–18:00", "di": "08:30–18:00", "wo": "08:30–18:00", "do": "08:30–18:00", "vr": "08:30–19:00", "za": "08:30–19:00", "zo": "09:00–16:00"}, "latitude": 53.4462794, "longitude": 5.770982, "bronId": "258473"}}, {"type": "Feature", "geometry": {"type": "Point", "coordinates": [5.7727844, 53.4575595]}, "properties": {"type": "inleverpunt", "locatieNaam": "Strandcamping Duinoord", "straatNaam": "Jan Van Eijckweg", "straatNr": "2", "postcode": "9163 PB", "plaats": "Nes", "merk": "StatiegeldNederland", "puntType": "automaat", "materialen": ["pet-groot", "pet-klein", "blik"], "uitbetaling": ["bonnetje", "donatie"], "vrijToegankelijk": true, "gemeenteBeperking": null, "openingstijden": null, "latitude": 53.4575595, "longitude": 5.7727844, "bronId": "258743"}}, {"type": "Feature", "geometry": {"type": "Point", "coordinates": [5.7897924, 53.4482966]}, "properties": {"type": "inleverpunt", "locatieNaam": "Vv Geel Wit", "straatNaam": "Noordwal", "straatNr": "25", "postcode": "9164 KJ", "plaats": "Buren Ameland", "merk": "StatiegeldNederland", "puntType": "balie", "materialen": ["pet-groot", "pet-klein", "blik"], "uitbetaling": [], "vrijToegankelijk": false, "gemeenteBeperking": null, "openingstijden": null, "latitude": 53.4482966, "longitude": 5.7897924, "bronId": "259774"}}, {"type": "Feature", "geometry": {"type": "Point", "coordinates": [5.686575, 53.445189]}, "properties": {"type": "inleverpunt", "locatieNaam": "Spar Ballum", "straatNaam": "Strandweg", "straatNr": "2", "postcode": "9162 EV", "plaats": "Ballum", "merk": "StichtingOPEN", "puntType": "balie", "materialen": ["batterijen", "lampen"], "uitbetaling": [], "vrijToegankelijk": false, "gemeenteBeperking": null, "openingstijden": null, "latitude": 53.445189, "longitude": 5.686575, "bronId": "SP00022494"}}, {"type": "Feature", "geometry": {"type": "Point", "coordinates": [5.767477, 53.441203]}, "properties": {"type": "inleverpunt", "locatieNaam": "Installatiebedrijf R. Oud", "straatNaam": "Achterdijken", "straatNr": "58", "postcode": "9163 JV", "plaats": "Nes Ameland", "merk": "StichtingOPEN", "puntType": "balie", "materialen": ["lampen"], "uitbetaling": [], "vrijToegankelijk": false, "gemeenteBeperking": null, "openingstijden": null, "latitude": 53.441203, "longitude": 5.767477, "bronId": "SP00006557"}}, {"type": "Feature", "geometry": {"type": "Point", "coordinates": [5.77473, 53.442309]}, "properties": {"type": "inleverpunt", "locatieNaam": "Jumbo Nes", "straatNaam": "Hoge Eggenweg", "straatNr": "6", "postcode": "9163 JP", "plaats": "Nes", "merk": "StichtingOPEN", "puntType": "balie", "materialen": ["batterijen", "lampen"], "uitbetaling": [], "vrijToegankelijk": false, "gemeenteBeperking": null, "openingstijden": null, "latitude": 53.442309, "longitude": 5.77473, "bronId": "SP00025425"}}, {"type": "Feature", "geometry": {"type": "Point", "coordinates": [5.770771, 53.446083]}, "properties": {"type": "inleverpunt", "locatieNaam": "Spar Nes", "straatNaam": "Torenstraat", "straatNr": "7", "postcode": "9163 HD", "plaats": "Nes", "merk": "StichtingOPEN", "puntType": "balie", "materialen": ["batterijen", "lampen"], "uitbetaling": [], "vrijToegankelijk": false, "gemeenteBeperking": null, "openingstijden": null, "latitude": 53.446083, "longitude": 5.770771, "bronId": "SP00022495"}}, {"type": "Feature", "geometry": {"type": "Point", "coordinates": [5.771621, 53.446951]}, "properties": {"type": "inleverpunt", "locatieNaam": "Radio Boelens", "straatNaam": "Kolkweg", "straatNr": "1a", "postcode": "9163 HK", "plaats": "Nes Ameland", "merk": "StichtingOPEN", "puntType": "balie", "materialen": ["elektro-klein", "elektro-middel"], "uitbetaling": [], "vrijToegankelijk": false, "gemeenteBeperking": null, "openingstijden": null, "latitude": 53.446951, "longitude": 5.771621, "bronId": "SP00002669"}}, {"type": "Feature", "geometry": {"type": "Point", "coordinates": [5.805195, 53.453393]}, "properties": {"type": "inleverpunt", "locatieNaam": "Spar / Klein Vaarwater Buren", "straatNaam": "Klein Vaarwaterweg", "straatNr": "14", "postcode": "9164 MA", "plaats": "Buren", "merk": "StichtingOPEN", "puntType": "balie", "materialen": ["batterijen", "lampen"], "uitbetaling": [], "vrijToegankelijk": false, "gemeenteBeperking": null, "openingstijden": null, "latitude": 53.453393, "longitude": 5.805195, "bronId": "SP00025900"}}, {"type": "Feature", "geometry": {"type": "Point", "coordinates": [5.726578, 53.445308]}, "properties": {"type": "inleverpunt", "locatieNaam": "Overslagstation Ameland", "straatNaam": "Verbindingsweg", "straatNr": "31", "postcode": "9163 GC", "plaats": "Nes", "merk": "StichtingOPEN", "puntType": "milieustraat", "materialen": ["batterijen", "elektro-groot", "elektro-klein", "elektro-middel", "lampen", "tl-buizen"], "uitbetaling": [], "vrijToegankelijk": false, "gemeenteBeperking": ["Ameland"], "openingstijden": null, "latitude": 53.445308, "longitude": 5.726578, "bronId": "SP00004332"}}, {"type": "Feature", "geometry": {"type": "Point", "coordinates": [5.639648, 53.4393987]}, "properties": {"type": "inleverpunt", "locatieNaam": "PLUS", "straatNaam": "O P Lapstraat", "straatNr": "4", "postcode": "9161 BV", "plaats": "HOLLUM", "merk": "Stibat", "puntType": "inzamelbak", "materialen": ["batterijen"], "uitbetaling": [], "vrijToegankelijk": false, "gemeenteBeperking": null, "openingstijden": null, "latitude": 53.4393987, "longitude": 5.639648, "bronId": "L046623"}}, {"type": "Feature", "geometry": {"type": "Point", "coordinates": [5.6383049, 53.4411153]}, "properties": {"type": "inleverpunt", "locatieNaam": "Novy (Warenhuis Engels)", "straatNaam": "Zwaneplein", "straatNr": "1", "postcode": "9161 BS", "plaats": "HOLLUM", "merk": "Stibat", "puntType": "inzamelbak", "materialen": ["batterijen"], "uitbetaling": [], "vrijToegankelijk": false, "gemeenteBeperking": null, "openingstijden": null, "latitude": 53.4411153, "longitude": 5.6383049, "bronId": "L023311"}}, {"type": "Feature", "geometry": {"type": "Point", "coordinates": [5.639878, 53.4422624]}, "properties": {"type": "inleverpunt", "locatieNaam": "Welkoop", "straatNaam": "Fabrieksweg", "straatNr": "4", "postcode": "9161 CG", "plaats": "HOLLUM", "merk": "Stibat", "puntType": "inzamelbak", "materialen": ["batterijen"], "uitbetaling": [], "vrijToegankelijk": false, "gemeenteBeperking": null, "openingstijden": null, "latitude": 53.4422624, "longitude": 5.639878, "bronId": "L016984"}}, {"type": "Feature", "geometry": {"type": "Point", "coordinates": [5.6354197, 53.4444277]}, "properties": {"type": "inleverpunt", "locatieNaam": "Garage &amp; Tweewielerbedrijf Visser", "straatNaam": "Oranjeweg", "straatNr": "28", "postcode": "9161 CC", "plaats": "Hollum Ameland", "merk": "Stibat", "puntType": "inzamelbak", "materialen": ["batterijen"], "uitbetaling": [], "vrijToegankelijk": false, "gemeenteBeperking": null, "openingstijden": null, "latitude": 53.4444277, "longitude": 5.6354197, "bronId": "L034199"}}, {"type": "Feature", "geometry": {"type": "Point", "coordinates": [5.6867384, 53.4444637]}, "properties": {"type": "inleverpunt", "locatieNaam": "Nobel", "straatNaam": "Camminghastraat", "straatNr": "20", "postcode": "9162 EM", "plaats": "BALLUM", "merk": "Stibat", "puntType": "inzamelbak", "materialen": ["batterijen"], "uitbetaling": [], "vrijToegankelijk": false, "gemeenteBeperking": null, "openingstijden": null, "latitude": 53.4444637, "longitude": 5.6867384, "bronId": "L034200"}}, {"type": "Feature", "geometry": {"type": "Point", "coordinates": [5.6372937, 53.4499427]}, "properties": {"type": "inleverpunt", "locatieNaam": "Roompot Boomhiemke (Spar)", "straatNaam": "Jan Roepespad", "straatNr": "4", "postcode": "9161 CT", "plaats": "HOLLUM", "merk": "Stibat", "puntType": "inzamelbak", "materialen": ["batterijen"], "uitbetaling": [], "vrijToegankelijk": false, "gemeenteBeperking": null, "openingstijden": null, "latitude": 53.4499427, "longitude": 5.6372937, "bronId": "L009275"}}, {"type": "Feature", "geometry": {"type": "Point", "coordinates": [5.6865779, 53.4451829]}, "properties": {"type": "inleverpunt", "locatieNaam": "Spar", "straatNaam": "Strandweg", "straatNr": "2", "postcode": "9162 EV", "plaats": "BALLUM", "merk": "Stibat", "puntType": "inzamelbak", "materialen": ["batterijen"], "uitbetaling": [], "vrijToegankelijk": false, "gemeenteBeperking": null, "openingstijden": null, "latitude": 53.4451829, "longitude": 5.6865779, "bronId": "L010693"}}, {"type": "Feature", "geometry": {"type": "Point", "coordinates": [5.7750531, 53.4386029]}, "properties": {"type": "inleverpunt", "locatieNaam": "Kiewiet Fietsverhuur", "straatNaam": "Oude Steiger", "straatNr": "1", "postcode": "9163 GV", "plaats": "NES AMELAND", "merk": "Stibat", "puntType": "inzamelbak", "materialen": ["batterijen"], "uitbetaling": [], "vrijToegankelijk": false, "gemeenteBeperking": null, "openingstijden": null, "latitude": 53.4386029, "longitude": 5.7750531, "bronId": "L034787"}}, {"type": "Feature", "geometry": {"type": "Point", "coordinates": [5.7272523, 53.4445628]}, "properties": {"type": "inleverpunt", "locatieNaam": "Overslagstation Ameland", "straatNaam": "Verbindingsweg", "straatNr": "31", "postcode": "9163 GC", "plaats": "NES", "merk": "Stibat", "puntType": "inzamelbak", "materialen": ["batterijen"], "uitbetaling": [], "vrijToegankelijk": false, "gemeenteBeperking": null, "openingstijden": null, "latitude": 53.4445628, "longitude": 5.7272523, "bronId": "L035901"}}, {"type": "Feature", "geometry": {"type": "Point", "coordinates": [5.7674347, 53.4411991]}, "properties": {"type": "inleverpunt", "locatieNaam": "Euronics", "straatNaam": "Achterdijken", "straatNr": "58", "postcode": "9163 JV", "plaats": "NES AMELAND", "merk": "Stibat", "puntType": "inzamelbak", "materialen": ["batterijen"], "uitbetaling": [], "vrijToegankelijk": false, "gemeenteBeperking": null, "openingstijden": null, "latitude": 53.4411991, "longitude": 5.7674347, "bronId": "L023802"}}, {"type": "Feature", "geometry": {"type": "Point", "coordinates": [5.6885479, 53.4513956]}, "properties": {"type": "inleverpunt", "locatieNaam": "Stichting Recreatiecentra Amela", "straatNaam": "Strandweg", "straatNr": "20", "postcode": "9162 EV", "plaats": "BALLUM", "merk": "Stibat", "puntType": "inzamelbak", "materialen": ["batterijen"], "uitbetaling": [], "vrijToegankelijk": false, "gemeenteBeperking": null, "openingstijden": null, "latitude": 53.4513956, "longitude": 5.6885479, "bronId": "L005025"}}, {"type": "Feature", "geometry": {"type": "Point", "coordinates": [5.7748797, 53.4424242]}, "properties": {"type": "inleverpunt", "locatieNaam": "Jumbo", "straatNaam": "Hoge Eggenweg", "straatNr": "6", "postcode": "9163 JP", "plaats": "NES AMELAND", "merk": "Stibat", "puntType": "inzamelbak", "materialen": ["batterijen"], "uitbetaling": [], "vrijToegankelijk": false, "gemeenteBeperking": null, "openingstijden": null, "latitude": 53.4424242, "longitude": 5.7748797, "bronId": "L031829"}}, {"type": "Feature", "geometry": {"type": "Point", "coordinates": [5.7719652, 53.4446618]}, "properties": {"type": "inleverpunt", "locatieNaam": "DA", "straatNaam": "Reeweg", "straatNr": "25", "postcode": "9163 GT", "plaats": "Nes-Ameland", "merk": "Stibat", "puntType": "inzamelbak", "materialen": ["batterijen"], "uitbetaling": [], "vrijToegankelijk": false, "gemeenteBeperking": null, "openingstijden": null, "latitude": 53.4446618, "longitude": 5.7719652, "bronId": "L027317"}}, {"type": "Feature", "geometry": {"type": "Point", "coordinates": [5.7707739, 53.4460763]}, "properties": {"type": "inleverpunt", "locatieNaam": "Spar", "straatNaam": "Torenstraat", "straatNr": "7", "postcode": "9163 HD", "plaats": "NES AMELAND", "merk": "Stibat", "puntType": "inzamelbak", "materialen": ["batterijen"], "uitbetaling": [], "vrijToegankelijk": false, "gemeenteBeperking": null, "openingstijden": null, "latitude": 53.4460763, "longitude": 5.7707739, "bronId": "L028706"}}, {"type": "Feature", "geometry": {"type": "Point", "coordinates": [5.7717773, 53.4466917]}, "properties": {"type": "inleverpunt", "locatieNaam": "Hubo", "straatNaam": "J Jacobstraat", "straatNr": "1", "postcode": "9163 HG", "plaats": "NES AMELAND", "merk": "Stibat", "puntType": "inzamelbak", "materialen": ["batterijen"], "uitbetaling": [], "vrijToegankelijk": false, "gemeenteBeperking": null, "openingstijden": null, "latitude": 53.4466917, "longitude": 5.7717773, "bronId": "L045267"}}, {"type": "Feature", "geometry": {"type": "Point", "coordinates": [5.7716094, 53.4469451]}, "properties": {"type": "inleverpunt", "locatieNaam": "Radio Boelens", "straatNaam": "Kolkweg", "straatNr": "1a", "postcode": "9163 HK", "plaats": "NES AMELAND", "merk": "Stibat", "puntType": "inzamelbak", "materialen": ["batterijen"], "uitbetaling": [], "vrijToegankelijk": false, "gemeenteBeperking": null, "openingstijden": null, "latitude": 53.4469451, "longitude": 5.7716094, "bronId": "L014469"}}, {"type": "Feature", "geometry": {"type": "Point", "coordinates": [5.7979375, 53.4474692]}, "properties": {"type": "inleverpunt", "locatieNaam": "Primera", "straatNaam": "Hoofdweg", "straatNr": "5", "postcode": "9164 KL", "plaats": "BUREN FR", "merk": "Stibat", "puntType": "inzamelbak", "materialen": ["batterijen"], "uitbetaling": [], "vrijToegankelijk": false, "gemeenteBeperking": null, "openingstijden": null, "latitude": 53.4474692, "longitude": 5.7979375, "bronId": "L028012"}}, {"type": "Feature", "geometry": {"type": "Point", "coordinates": [5.8005177, 53.4508041]}, "properties": {"type": "inleverpunt", "locatieNaam": "Metz", "straatNaam": "Strandweg", "straatNr": "37", "postcode": "9164 KA", "plaats": "BUREN FR", "merk": "Stibat", "puntType": "inzamelbak", "materialen": ["batterijen"], "uitbetaling": [], "vrijToegankelijk": false, "gemeenteBeperking": null, "openingstijden": null, "latitude": 53.4508041, "longitude": 5.8005177, "bronId": "L034205"}}, {"type": "Feature", "geometry": {"type": "Point", "coordinates": [5.7727857, 53.4575594]}, "properties": {"type": "inleverpunt", "locatieNaam": "Strandwinkel camping Duinoord (Spar)", "straatNaam": "Jan van Eijckweg", "straatNr": "2", "postcode": "9163 PB", "plaats": "NES AMELAND", "merk": "Stibat", "puntType": "inzamelbak", "materialen": ["batterijen"], "uitbetaling": [], "vrijToegankelijk": false, "gemeenteBeperking": null, "openingstijden": null, "latitude": 53.4575594, "longitude": 5.7727857, "bronId": "L044920"}}, {"type": "Feature", "geometry": {"type": "Point", "coordinates": [5.8040109, 53.4547689]}, "properties": {"type": "inleverpunt", "locatieNaam": "Spar / Klein Vaarwater", "straatNaam": "Klein Vaarwaterweg", "straatNr": "14", "postcode": "9164 MA", "plaats": "BUREN FR", "merk": "Stibat", "puntType": "inzamelbak", "materialen": ["batterijen"], "uitbetaling": [], "vrijToegankelijk": false, "gemeenteBeperking": null, "openingstijden": null, "latitude": 53.4547689, "longitude": 5.8040109, "bronId": "L038977"}}, {"type": "Feature", "geometry": {"type": "Polygon", "coordinates": [[[5.70288100207251, 53.39491300468309], [5.747976002116518, 53.39478600468193], [5.777876002145143, 53.37672300467238], [5.792901002159808, 53.376673004671986], [5.823134002189838, 53.39453800467993], [5.958774002322779, 53.42092500468891], [5.959013002323478, 53.43889400469758], [6.004411002368106, 53.45664000470473], [6.004929002369501, 53.49257700472192], [5.959612002325224, 53.48381600471912], [5.935560002301789, 53.48213600471904], [5.839015002207659, 53.47534400471845], [5.703443002075504, 53.47128400471995], [5.613209001988338, 53.493949004732755], [5.5528560019287365, 53.47158500472332], [5.58291200195757, 53.45806300471625], [5.612831001985516, 53.42207100469827], [5.612289001981446, 53.31874300464765], [5.627241001996225, 53.32318300464956], [5.702683002071452, 53.36795800466996], [5.70288100207251, 53.39491300468309]]]}, "properties": {"type": "boundary", "gemeente": "Ameland"}}]}