{"type": "FeatureCollection", "metadata": {"gemeente": "Baarn", "slug": "baarn", "generated_at": "2026-09-14T07:32:33.064092Z", "total_points": 49, "merken": ["StatiegeldNederland", "Stibat", "StichtingOPEN"], "bounds": [5.2280849, 52.173909, 5.302187, 52.2243095]}, "features": [{"type": "Feature", "geometry": {"type": "Point", "coordinates": [5.2856786, 52.2139759]}, "properties": {"type": "inleverpunt", "locatieNaam": "Albert Heijn", "straatNaam": "Eemnesserweg", "straatNr": "40", "postcode": "3741 GB", "plaats": "Baarn", "merk": "StatiegeldNederland", "puntType": "automaat", "materialen": ["pet-groot", "pet-klein", "blik", "glas", "krat"], "uitbetaling": ["bonnetje", "donatie"], "vrijToegankelijk": true, "gemeenteBeperking": null, "openingstijden": {"ma": "08:00–22:00", "di": "08:00–22:00", "wo": "08:00–22:00", "do": "08:00–22:00", "vr": "08:00–22:00", "za": "08:00–22:00", "zo": "08:00–20:00"}, "latitude": 52.2139759, "longitude": 5.2856786, "bronId": "335764"}}, {"type": "Feature", "geometry": {"type": "Point", "coordinates": [5.2864533, 52.2130781]}, "properties": {"type": "inleverpunt", "locatieNaam": "Aldi", "straatNaam": "Laanplein", "straatNr": "1", "postcode": "3743 AE", "plaats": "Baarn", "merk": "StatiegeldNederland", "puntType": "automaat", "materialen": ["pet-groot", "pet-klein", "blik", "glas", "krat"], "uitbetaling": ["bonnetje"], "vrijToegankelijk": true, "gemeenteBeperking": null, "openingstijden": {"ma": "08:00–20:00", "di": "08:00–20:00", "wo": "08:00–20:00", "do": "08:00–20:00", "vr": "08:00–20:00", "za": "08:00–20:00", "zo": "10:00–17:00"}, "latitude": 52.2130781, "longitude": 5.2864533, "bronId": "336782"}}, {"type": "Feature", "geometry": {"type": "Point", "coordinates": [5.246249, 52.173909]}, "properties": {"type": "inleverpunt", "locatieNaam": "Gulf", "straatNaam": "Bilstseweg", "straatNr": "2", "postcode": "3744 BV", "plaats": "Baarn", "merk": "StatiegeldNederland", "puntType": "balie", "materialen": ["pet-groot", "pet-klein", "blik"], "uitbetaling": [], "vrijToegankelijk": true, "gemeenteBeperking": null, "openingstijden": {"ma": "24 uur geopend", "di": "24 uur geopend", "wo": "24 uur geopend", "do": "24 uur geopend", "vr": "24 uur geopend", "za": "24 uur geopend", "zo": "Gesloten"}, "latitude": 52.173909, "longitude": 5.246249, "bronId": "338470"}}, {"type": "Feature", "geometry": {"type": "Point", "coordinates": [5.285692, 52.211878]}, "properties": {"type": "inleverpunt", "locatieNaam": "Jumbo", "straatNaam": "Laanstraat", "straatNr": "87", "postcode": "3743 BC", "plaats": "Baarn", "merk": "StatiegeldNederland", "puntType": "automaat", "materialen": ["pet-groot", "pet-klein", "blik", "glas", "krat"], "uitbetaling": ["bonnetje", "donatie"], "vrijToegankelijk": true, "gemeenteBeperking": null, "openingstijden": {"ma": "07:00–21:00", "di": "07:00–21:00", "wo": "07:00–21:00", "do": "07:00–21:00", "vr": "07:00–21:00", "za": "07:00–21:00", "zo": "08:00–20:00"}, "latitude": 52.211878, "longitude": 5.285692, "bronId": "339155"}}, {"type": "Feature", "geometry": {"type": "Point", "coordinates": [5.2967998, 52.2036184]}, "properties": {"type": "inleverpunt", "locatieNaam": "Nettorama", "straatNaam": "Reigerstraat", "straatNr": "8", "postcode": "3742 VP", "plaats": "Baarn", "merk": "StatiegeldNederland", "puntType": "automaat", "materialen": ["pet-groot", "pet-klein", "blik", "glas", "krat"], "uitbetaling": ["bonnetje"], "vrijToegankelijk": true, "gemeenteBeperking": null, "openingstijden": {"ma": "08:00–20:00", "di": "08:00–20:00", "wo": "08:00–20:00", "do": "08:00–20:00", "vr": "08:00–20:00", "za": "08:00–20:00", "zo": "12:00–17:00"}, "latitude": 52.2036184, "longitude": 5.2967998, "bronId": "340608"}}, {"type": "Feature", "geometry": {"type": "Point", "coordinates": [5.2828618, 52.2189843]}, "properties": {"type": "inleverpunt", "locatieNaam": "Plus", "straatNaam": "Prof. Krabbelaan", "straatNr": "2", "postcode": "3741 EN", "plaats": "Baarn", "merk": "StatiegeldNederland", "puntType": "automaat", "materialen": ["pet-groot", "pet-klein", "blik", "glas", "krat"], "uitbetaling": ["bonnetje", "donatie"], "vrijToegankelijk": true, "gemeenteBeperking": null, "openingstijden": {"ma": "08:00–19:00", "di": "08:00–19:00", "wo": "08:00–19:00", "do": "08:00–19:00", "vr": "08:00–19:00", "za": "08:00–19:00", "zo": "10:00–18:00"}, "latitude": 52.2189843, "longitude": 5.2828618, "bronId": "341212"}}, {"type": "Feature", "geometry": {"type": "Point", "coordinates": [5.274486, 52.215562]}, "properties": {"type": "inleverpunt", "locatieNaam": "Schietvereniging Baarn En Omstrek.", "straatNaam": "Wilhelminalaan", "straatNr": "2", "postcode": "3743 DC", "plaats": "Baarn", "merk": "StatiegeldNederland", "puntType": "balie", "materialen": ["pet-groot", "pet-klein", "blik"], "uitbetaling": [], "vrijToegankelijk": false, "gemeenteBeperking": null, "openingstijden": {"ma": "09:00–12:00", "di": "20:00–22:30", "wo": "Gesloten", "do": "09:00–12:00, 20:00–22:30", "vr": "19:00–21:00", "za": "09:00–12:00", "zo": "Gesloten"}, "latitude": 52.215562, "longitude": 5.274486, "bronId": "341778"}}, {"type": "Feature", "geometry": {"type": "Point", "coordinates": [5.2573785, 52.2217461]}, "properties": {"type": "inleverpunt", "locatieNaam": "Spar Express", "straatNaam": "AMSTERDAMSESTRAATWEG", "straatNr": "42A", "postcode": "3741 GS", "plaats": "Baarn", "merk": "StatiegeldNederland", "puntType": "balie", "materialen": ["pet-groot", "pet-klein", "blik"], "uitbetaling": [], "vrijToegankelijk": true, "gemeenteBeperking": null, "openingstijden": {"ma": "06:00–21:00", "di": "06:00–21:00", "wo": "06:00–21:00", "do": "06:00–21:00", "vr": "06:00–21:00", "za": "07:00–21:00", "zo": "07:00–21:00"}, "latitude": 52.2217461, "longitude": 5.2573785, "bronId": "342344"}}, {"type": "Feature", "geometry": {"type": "Point", "coordinates": [5.2316928, 52.2232652]}, "properties": {"type": "inleverpunt", "locatieNaam": "Stichting Eemhart 187", "straatNaam": "IJSSELLAAN", "straatNr": "18", "postcode": "3744 NE", "plaats": "Baarn", "merk": "StatiegeldNederland", "puntType": "balie", "materialen": ["pet-groot", "pet-klein", "blik"], "uitbetaling": [], "vrijToegankelijk": true, "gemeenteBeperking": null, "openingstijden": {"ma": "24 uur geopend", "di": "24 uur geopend", "wo": "24 uur geopend", "do": "24 uur geopend", "vr": "24 uur geopend", "za": "24 uur geopend", "zo": "24 uur geopend"}, "latitude": 52.2232652, "longitude": 5.2316928, "bronId": "342543"}}, {"type": "Feature", "geometry": {"type": "Point", "coordinates": [5.297356, 52.2178313]}, "properties": {"type": "inleverpunt", "locatieNaam": "Sv Baarn", "straatNaam": "Geerenweg", "straatNr": "6b", "postcode": "3741 RS", "plaats": "Baarn", "merk": "StatiegeldNederland", "puntType": "balie", "materialen": ["pet-groot", "pet-klein", "blik"], "uitbetaling": [], "vrijToegankelijk": false, "gemeenteBeperking": null, "openingstijden": {"ma": "24 uur geopend", "di": "24 uur geopend", "wo": "24 uur geopend", "do": "24 uur geopend", "vr": "24 uur geopend", "za": "24 uur geopend", "zo": "24 uur geopend"}, "latitude": 52.2178313, "longitude": 5.297356, "bronId": "342634"}}, {"type": "Feature", "geometry": {"type": "Point", "coordinates": [5.2942187, 52.2194904]}, "properties": {"type": "inleverpunt", "locatieNaam": "V.v. Eemboys", "straatNaam": "De Geerenweg", "straatNr": "6-D", "postcode": "3741 RS", "plaats": "Baarn", "merk": "StatiegeldNederland", "puntType": "balie", "materialen": ["pet-groot", "pet-klein", "blik"], "uitbetaling": [], "vrijToegankelijk": false, "gemeenteBeperking": null, "openingstijden": null, "latitude": 52.2194904, "longitude": 5.2942187, "bronId": "343031"}}, {"type": "Feature", "geometry": {"type": "Point", "coordinates": [5.298205, 52.207446]}, "properties": {"type": "inleverpunt", "locatieNaam": "Kinderboerderij Canton", "straatNaam": "Piet Heinlaan", "straatNr": "13", "postcode": "3742 AN", "plaats": "Baarn", "merk": "StichtingOPEN", "puntType": "balie", "materialen": ["elektro-middel"], "uitbetaling": [], "vrijToegankelijk": false, "gemeenteBeperking": null, "openingstijden": null, "latitude": 52.207446, "longitude": 5.298205, "bronId": "SP00005827"}}, {"type": "Feature", "geometry": {"type": "Point", "coordinates": [5.302187, 52.209234]}, "properties": {"type": "inleverpunt", "locatieNaam": "Joop Breunesse vof", "straatNaam": "Abel Tasmanlaan", "straatNr": "1", "postcode": "3742 PS", "plaats": "Baarn", "merk": "StichtingOPEN", "puntType": "balie", "materialen": ["elektro-groot"], "uitbetaling": [], "vrijToegankelijk": false, "gemeenteBeperking": null, "openingstijden": null, "latitude": 52.209234, "longitude": 5.302187, "bronId": "SP00002739"}}, {"type": "Feature", "geometry": {"type": "Point", "coordinates": [5.297186, 52.209999]}, "properties": {"type": "inleverpunt", "locatieNaam": "Hubo Seure", "straatNaam": "Faas Eliaslaan", "straatNr": "26A", "postcode": "3742 AT", "plaats": "Baarn", "merk": "StichtingOPEN", "puntType": "balie", "materialen": ["elektro-middel", "lampen", "tl-buizen"], "uitbetaling": [], "vrijToegankelijk": false, "gemeenteBeperking": null, "openingstijden": null, "latitude": 52.209999, "longitude": 5.297186, "bronId": "SP00020239"}}, {"type": "Feature", "geometry": {"type": "Point", "coordinates": [5.286621, 52.212044]}, "properties": {"type": "inleverpunt", "locatieNaam": "Kruidvat Baarn", "straatNaam": "Laanstraat", "straatNr": "60", "postcode": "3743 BH", "plaats": "Baarn", "merk": "StichtingOPEN", "puntType": "balie", "materialen": ["batterijen", "lampen"], "uitbetaling": [], "vrijToegankelijk": false, "gemeenteBeperking": null, "openingstijden": null, "latitude": 52.212044, "longitude": 5.286621, "bronId": "SP00024699"}}, {"type": "Feature", "geometry": {"type": "Point", "coordinates": [5.284937, 52.212837]}, "properties": {"type": "inleverpunt", "locatieNaam": "Aldi Baarn", "straatNaam": "Nieuwstraat", "straatNr": "13", "postcode": "3743 BK", "plaats": "Baarn", "merk": "StichtingOPEN", "puntType": "balie", "materialen": ["batterijen", "elektro-klein", "lampen"], "uitbetaling": [], "vrijToegankelijk": false, "gemeenteBeperking": null, "openingstijden": null, "latitude": 52.212837, "longitude": 5.284937, "bronId": "SP00026830"}}, {"type": "Feature", "geometry": {"type": "Point", "coordinates": [5.292484, 52.21333]}, "properties": {"type": "inleverpunt", "locatieNaam": "Electro World Van der Meulen", "straatNaam": "Brinkstraat", "straatNr": "29", "postcode": "3741 AM", "plaats": "Baarn", "merk": "StichtingOPEN", "puntType": "balie", "materialen": ["elektro-groot", "elektro-middel", "lampen", "tl-buizen"], "uitbetaling": [], "vrijToegankelijk": false, "gemeenteBeperking": null, "openingstijden": null, "latitude": 52.21333, "longitude": 5.292484, "bronId": "SP00003050"}}, {"type": "Feature", "geometry": {"type": "Point", "coordinates": [5.2863, 52.21342]}, "properties": {"type": "inleverpunt", "locatieNaam": "Aldi Baarn", "straatNaam": "Eemnesserweg", "straatNr": "59", "postcode": "3743 AE", "plaats": "Baarn", "merk": "StichtingOPEN", "puntType": "balie", "materialen": ["batterijen", "elektro-klein", "lampen"], "uitbetaling": [], "vrijToegankelijk": false, "gemeenteBeperking": null, "openingstijden": null, "latitude": 52.21342, "longitude": 5.2863, "bronId": "SP00029854"}}, {"type": "Feature", "geometry": {"type": "Point", "coordinates": [5.282285, 52.214667]}, "properties": {"type": "inleverpunt", "locatieNaam": "1025 Albert Heijn Baarn", "straatNaam": "Eemnesserweg", "straatNr": "40", "postcode": "3741 GB", "plaats": "Baarn", "merk": "StichtingOPEN", "puntType": "balie", "materialen": ["batterijen", "elektro-klein", "lampen"], "uitbetaling": [], "vrijToegankelijk": false, "gemeenteBeperking": null, "openingstijden": null, "latitude": 52.214667, "longitude": 5.282285, "bronId": "SP00022945"}}, {"type": "Feature", "geometry": {"type": "Point", "coordinates": [5.258413, 52.222255]}, "properties": {"type": "inleverpunt", "locatieNaam": "Breunesse ICT", "straatNaam": "Hermesweg", "straatNr": "2B1", "postcode": "3741 GP", "plaats": "Baarn", "merk": "StichtingOPEN", "puntType": "balie", "materialen": ["elektro-klein"], "uitbetaling": [], "vrijToegankelijk": false, "gemeenteBeperking": null, "openingstijden": null, "latitude": 52.222255, "longitude": 5.258413, "bronId": "SP00033716"}}, {"type": "Feature", "geometry": {"type": "Point", "coordinates": [5.228987, 52.21807]}, "properties": {"type": "inleverpunt", "locatieNaam": "Spar (Stichting Amerpoort) Baarn", "straatNaam": "Nieuwenoordlaan", "straatNr": "13", "postcode": "3744 PA", "plaats": "Baarn", "merk": "StichtingOPEN", "puntType": "balie", "materialen": ["batterijen", "elektro-klein", "lampen"], "uitbetaling": [], "vrijToegankelijk": false, "gemeenteBeperking": null, "openingstijden": null, "latitude": 52.21807, "longitude": 5.228987, "bronId": "SP00025899"}}, {"type": "Feature", "geometry": {"type": "Point", "coordinates": [5.254623, 52.223094]}, "properties": {"type": "inleverpunt", "locatieNaam": "Recyclingstation Baarn", "straatNaam": "Oude Amsterdamsestraatweg", "straatNr": "4", "postcode": "3741 MR", "plaats": "Baarn", "merk": "StichtingOPEN", "puntType": "milieustraat", "materialen": ["batterijen", "elektro-groot", "elektro-klein", "elektro-middel", "lampen", "tl-buizen"], "uitbetaling": [], "vrijToegankelijk": false, "gemeenteBeperking": ["Baarn"], "openingstijden": null, "latitude": 52.223094, "longitude": 5.254623, "bronId": "SP00006691"}}, {"type": "Feature", "geometry": {"type": "Point", "coordinates": [5.2464299, 52.1964889]}, "properties": {"type": "inleverpunt", "locatieNaam": "Kampeerterrein de Zeven Linden", "straatNaam": "Zevenlindenweg", "straatNr": "4", "postcode": "3744 BC", "plaats": "Baarn", "merk": "Stibat", "puntType": "inzamelbak", "materialen": ["batterijen"], "uitbetaling": [], "vrijToegankelijk": false, "gemeenteBeperking": null, "openingstijden": null, "latitude": 52.1964889, "longitude": 5.2464299, "bronId": "L005214"}}, {"type": "Feature", "geometry": {"type": "Point", "coordinates": [5.296671, 52.2035306]}, "properties": {"type": "inleverpunt", "locatieNaam": "Uw Eigen Drogist", "straatNaam": "Reigerstraat", "straatNr": "12", "postcode": "3742 VP", "plaats": "Baarn", "merk": "Stibat", "puntType": "inzamelbak", "materialen": ["batterijen"], "uitbetaling": [], "vrijToegankelijk": false, "gemeenteBeperking": null, "openingstijden": null, "latitude": 52.2035306, "longitude": 5.296671, "bronId": "L015489"}}, {"type": "Feature", "geometry": {"type": "Point", "coordinates": [5.2944594, 52.2048411]}, "properties": {"type": "inleverpunt", "locatieNaam": "Vakman Ploeg", "straatNaam": "Wijkamplaan", "straatNr": "20", "postcode": "3742 WR", "plaats": "Baarn", "merk": "Stibat", "puntType": "inzamelbak", "materialen": ["batterijen"], "uitbetaling": [], "vrijToegankelijk": false, "gemeenteBeperking": null, "openingstijden": null, "latitude": 52.2048411, "longitude": 5.2944594, "bronId": "L031602"}}, {"type": "Feature", "geometry": {"type": "Point", "coordinates": [5.2946611, 52.2063333]}, "properties": {"type": "inleverpunt", "locatieNaam": "Bike Totaal Wind Baarn (F)", "straatNaam": "Oosterstraat", "straatNr": "54", "postcode": "3742 SW", "plaats": "Baarn", "merk": "Stibat", "puntType": "inzamelbak", "materialen": ["batterijen"], "uitbetaling": [], "vrijToegankelijk": false, "gemeenteBeperking": null, "openingstijden": null, "latitude": 52.2063333, "longitude": 5.2946611, "bronId": "L033221"}}, {"type": "Feature", "geometry": {"type": "Point", "coordinates": [5.2971845, 52.2100202]}, "properties": {"type": "inleverpunt", "locatieNaam": "Hubo", "straatNaam": "Faas Eliaslaan", "straatNr": "26a", "postcode": "3742 AT", "plaats": "Baarn", "merk": "Stibat", "puntType": "inzamelbak", "materialen": ["batterijen"], "uitbetaling": [], "vrijToegankelijk": false, "gemeenteBeperking": null, "openingstijden": null, "latitude": 52.2100202, "longitude": 5.2971845, "bronId": "L010310"}}, {"type": "Feature", "geometry": {"type": "Point", "coordinates": [5.2896205, 52.2113583]}, "properties": {"type": "inleverpunt", "locatieNaam": "Bruna", "straatNaam": "Laanstraat", "straatNr": "39", "postcode": "3743 BA", "plaats": "Baarn", "merk": "Stibat", "puntType": "inzamelbak", "materialen": ["batterijen"], "uitbetaling": [], "vrijToegankelijk": false, "gemeenteBeperking": null, "openingstijden": null, "latitude": 52.2113583, "longitude": 5.2896205, "bronId": "L038646"}}, {"type": "Feature", "geometry": {"type": "Point", "coordinates": [5.2908312, 52.2117049]}, "properties": {"type": "inleverpunt", "locatieNaam": "Zeeman", "straatNaam": "Laanstraat", "straatNr": "8", "postcode": "3743 BE", "plaats": "Baarn", "merk": "Stibat", "puntType": "inzamelbak", "materialen": ["batterijen"], "uitbetaling": [], "vrijToegankelijk": false, "gemeenteBeperking": null, "openingstijden": null, "latitude": 52.2117049, "longitude": 5.2908312, "bronId": "L020803"}}, {"type": "Feature", "geometry": {"type": "Point", "coordinates": [5.2857656, 52.2119412]}, "properties": {"type": "inleverpunt", "locatieNaam": "Jumbo", "straatNaam": "Laanstraat", "straatNr": "87", "postcode": "3743 BC", "plaats": "Baarn", "merk": "Stibat", "puntType": "inzamelbak", "materialen": ["batterijen"], "uitbetaling": [], "vrijToegankelijk": false, "gemeenteBeperking": null, "openingstijden": null, "latitude": 52.2119412, "longitude": 5.2857656, "bronId": "L036207"}}, {"type": "Feature", "geometry": {"type": "Point", "coordinates": [5.2928199, 52.2122548]}, "properties": {"type": "inleverpunt", "locatieNaam": "HEMA Brink", "straatNaam": "Brink", "straatNr": "16", "postcode": "3741 AL", "plaats": "Baarn", "merk": "Stibat", "puntType": "inzamelbak", "materialen": ["batterijen"], "uitbetaling": [], "vrijToegankelijk": false, "gemeenteBeperking": null, "openingstijden": null, "latitude": 52.2122548, "longitude": 5.2928199, "bronId": "L007594"}}, {"type": "Feature", "geometry": {"type": "Point", "coordinates": [5.2866751, 52.212088]}, "properties": {"type": "inleverpunt", "locatieNaam": "Kruidvat", "straatNaam": "Laanstraat", "straatNr": "60", "postcode": "3743 BH", "plaats": "Baarn", "merk": "Stibat", "puntType": "inzamelbak", "materialen": ["batterijen"], "uitbetaling": [], "vrijToegankelijk": false, "gemeenteBeperking": null, "openingstijden": null, "latitude": 52.212088, "longitude": 5.2866751, "bronId": "L016449"}}, {"type": "Feature", "geometry": {"type": "Point", "coordinates": [5.2863144, 52.2121514]}, "properties": {"type": "inleverpunt", "locatieNaam": "Intertoys Baarn", "straatNaam": "Laanstraat", "straatNr": "68a", "postcode": "3743 BH", "plaats": "Baarn", "merk": "Stibat", "puntType": "inzamelbak", "materialen": ["batterijen"], "uitbetaling": [], "vrijToegankelijk": false, "gemeenteBeperking": null, "openingstijden": null, "latitude": 52.2121514, "longitude": 5.2863144, "bronId": "L047577"}}, {"type": "Feature", "geometry": {"type": "Point", "coordinates": [5.2854165, 52.2122307]}, "properties": {"type": "inleverpunt", "locatieNaam": "Trekpleister", "straatNaam": "Laanstraat", "straatNr": "96", "postcode": "3743 BH", "plaats": "Baarn", "merk": "Stibat", "puntType": "inzamelbak", "materialen": ["batterijen"], "uitbetaling": [], "vrijToegankelijk": false, "gemeenteBeperking": null, "openingstijden": null, "latitude": 52.2122307, "longitude": 5.2854165, "bronId": "L019143"}}, {"type": "Feature", "geometry": {"type": "Point", "coordinates": [5.2920878, 52.2125149]}, "properties": {"type": "inleverpunt", "locatieNaam": "7705 Etos", "straatNaam": "Brink", "straatNr": "20 -2", "postcode": "3741 AL", "plaats": "Baarn", "merk": "Stibat", "puntType": "inzamelbak", "materialen": ["batterijen"], "uitbetaling": [], "vrijToegankelijk": false, "gemeenteBeperking": null, "openingstijden": null, "latitude": 52.2125149, "longitude": 5.2920878, "bronId": "L023656"}}, {"type": "Feature", "geometry": {"type": "Point", "coordinates": [5.283726, 52.2124249]}, "properties": {"type": "inleverpunt", "locatieNaam": "Bike Totaal Van Kooy Tweewielers", "straatNaam": "Laanstraat", "straatNr": "115-117", "postcode": "3743 BD", "plaats": "Baarn", "merk": "Stibat", "puntType": "inzamelbak", "materialen": ["batterijen"], "uitbetaling": [], "vrijToegankelijk": false, "gemeenteBeperking": null, "openingstijden": null, "latitude": 52.2124249, "longitude": 5.283726, "bronId": "L017734"}}, {"type": "Feature", "geometry": {"type": "Point", "coordinates": [5.2960503, 52.2130392]}, "properties": {"type": "inleverpunt", "locatieNaam": "1452 Action", "straatNaam": "Hoofdstraat", "straatNr": "37", "postcode": "3741 AC", "plaats": "Baarn", "merk": "Stibat", "puntType": "inzamelbak", "materialen": ["batterijen"], "uitbetaling": [], "vrijToegankelijk": false, "gemeenteBeperking": null, "openingstijden": null, "latitude": 52.2130392, "longitude": 5.2960503, "bronId": "L048778"}}, {"type": "Feature", "geometry": {"type": "Point", "coordinates": [5.2928036, 52.2130188]}, "properties": {"type": "inleverpunt", "locatieNaam": "Ecoutez, passie voor hoortechniek", "straatNaam": "Brinkstraat", "straatNr": "22", "postcode": "3741 AN", "plaats": "Baarn", "merk": "Stibat", "puntType": "inzamelbak", "materialen": ["batterijen"], "uitbetaling": [], "vrijToegankelijk": false, "gemeenteBeperking": null, "openingstijden": null, "latitude": 52.2130188, "longitude": 5.2928036, "bronId": "L020270"}}, {"type": "Feature", "geometry": {"type": "Point", "coordinates": [5.2928269, 52.2130585]}, "properties": {"type": "inleverpunt", "locatieNaam": "Makker Hoortoestellen Baarn", "straatNaam": "Brinkstraat", "straatNr": "22", "postcode": "3741 AN", "plaats": "Baarn", "merk": "Stibat", "puntType": "inzamelbak", "materialen": ["batterijen"], "uitbetaling": [], "vrijToegankelijk": false, "gemeenteBeperking": null, "openingstijden": null, "latitude": 52.2130585, "longitude": 5.2928269, "bronId": "L049880"}}, {"type": "Feature", "geometry": {"type": "Point", "coordinates": [5.2924666, 52.2132522]}, "properties": {"type": "inleverpunt", "locatieNaam": "Electro World", "straatNaam": "Brinkstraat", "straatNr": "29", "postcode": "3741 AM", "plaats": "Baarn", "merk": "Stibat", "puntType": "inzamelbak", "materialen": ["batterijen"], "uitbetaling": [], "vrijToegankelijk": false, "gemeenteBeperking": null, "openingstijden": null, "latitude": 52.2132522, "longitude": 5.2924666, "bronId": "L014306"}}, {"type": "Feature", "geometry": {"type": "Point", "coordinates": [5.2850457, 52.2132438]}, "properties": {"type": "inleverpunt", "locatieNaam": "Aldi", "straatNaam": "Laanplein", "straatNr": "1", "postcode": "3743 AE", "plaats": "Baarn", "merk": "Stibat", "puntType": "inzamelbak", "materialen": ["batterijen"], "uitbetaling": [], "vrijToegankelijk": false, "gemeenteBeperking": null, "openingstijden": null, "latitude": 52.2132438, "longitude": 5.2850457, "bronId": "L041242"}}, {"type": "Feature", "geometry": {"type": "Point", "coordinates": [5.2860121, 52.2141276]}, "properties": {"type": "inleverpunt", "locatieNaam": "1025 Albert Heijn", "straatNaam": "Eemnesserweg", "straatNr": "40", "postcode": "3741 GB", "plaats": "Baarn", "merk": "Stibat", "puntType": "inzamelbak", "materialen": ["batterijen"], "uitbetaling": [], "vrijToegankelijk": false, "gemeenteBeperking": null, "openingstijden": null, "latitude": 52.2141276, "longitude": 5.2860121, "bronId": "L007644"}}, {"type": "Feature", "geometry": {"type": "Point", "coordinates": [5.2997776, 52.2157384]}, "properties": {"type": "inleverpunt", "locatieNaam": "Kringloopcentrum Baarn", "straatNaam": "Tolweg", "straatNr": "1A", "postcode": "3741 LM", "plaats": "Baarn", "merk": "Stibat", "puntType": "inzamelbak", "materialen": ["batterijen"], "uitbetaling": [], "vrijToegankelijk": false, "gemeenteBeperking": null, "openingstijden": null, "latitude": 52.2157384, "longitude": 5.2997776, "bronId": "L031465"}}, {"type": "Feature", "geometry": {"type": "Point", "coordinates": [5.3019225, 52.2174815]}, "properties": {"type": "inleverpunt", "locatieNaam": "Droneland", "straatNaam": "Baarnsche Dijk", "straatNr": "9", "postcode": "3741 LN", "plaats": "Baarn", "merk": "Stibat", "puntType": "inzamelbak", "materialen": ["batterijen"], "uitbetaling": [], "vrijToegankelijk": false, "gemeenteBeperking": null, "openingstijden": null, "latitude": 52.2174815, "longitude": 5.3019225, "bronId": "L038319"}}, {"type": "Feature", "geometry": {"type": "Point", "coordinates": [5.2828618, 52.2189843]}, "properties": {"type": "inleverpunt", "locatieNaam": "PLUS", "straatNaam": "Prof. Krabbelaan", "straatNr": "2", "postcode": "3741 EN", "plaats": "Baarn", "merk": "Stibat", "puntType": "inzamelbak", "materialen": ["batterijen"], "uitbetaling": [], "vrijToegankelijk": false, "gemeenteBeperking": null, "openingstijden": null, "latitude": 52.2189843, "longitude": 5.2828618, "bronId": "L046163"}}, {"type": "Feature", "geometry": {"type": "Point", "coordinates": [5.2838616, 52.2202914]}, "properties": {"type": "inleverpunt", "locatieNaam": "Afvalscheidingsstation Baarn", "straatNaam": "Drakenburgerweg", "straatNr": "21", "postcode": "3741 GK", "plaats": "Baarn", "merk": "Stibat", "puntType": "inzamelbak", "materialen": ["batterijen"], "uitbetaling": [], "vrijToegankelijk": false, "gemeenteBeperking": null, "openingstijden": null, "latitude": 52.2202914, "longitude": 5.2838616, "bronId": "L035687"}}, {"type": "Feature", "geometry": {"type": "Point", "coordinates": [5.2573359, 52.2217283]}, "properties": {"type": "inleverpunt", "locatieNaam": "Esso", "straatNaam": "Amsterdamsestraatweg", "straatNr": "42a", "postcode": "3741 GS", "plaats": "Baarn", "merk": "Stibat", "puntType": "inzamelbak", "materialen": ["batterijen"], "uitbetaling": [], "vrijToegankelijk": false, "gemeenteBeperking": null, "openingstijden": null, "latitude": 52.2217283, "longitude": 5.2573359, "bronId": "L026277"}}, {"type": "Feature", "geometry": {"type": "Point", "coordinates": [5.2457296, 52.2243095]}, "properties": {"type": "inleverpunt", "locatieNaam": "Optimum ICT", "straatNaam": "Oud-Eemnesserweg", "straatNr": "5J", "postcode": "3741 MP", "plaats": "Baarn", "merk": "Stibat", "puntType": "inzamelbak", "materialen": ["batterijen"], "uitbetaling": [], "vrijToegankelijk": false, "gemeenteBeperking": null, "openingstijden": null, "latitude": 52.2243095, "longitude": 5.2457296, "bronId": "L040605"}}, {"type": "Feature", "geometry": {"type": "Point", "coordinates": [5.2280849, 52.2235414]}, "properties": {"type": "inleverpunt", "locatieNaam": "Super Speciaal Baarn", "straatNaam": "Reggelaan", "straatNr": "11", "postcode": "3744 NG", "plaats": "Baarn", "merk": "Stibat", "puntType": "inzamelbak", "materialen": ["batterijen"], "uitbetaling": [], "vrijToegankelijk": false, "gemeenteBeperking": null, "openingstijden": null, "latitude": 52.2235414, "longitude": 5.2280849, "bronId": "L031440"}}, {"type": "Feature", "geometry": {"type": "Polygon", "coordinates": [[[5.232162001560531, 52.167019004016346], [5.236316001564713, 52.167458004016574], [5.236156001564705, 52.1711490040188], [5.237901001566456, 52.17125100401885], [5.238360001566773, 52.16777500401673], [5.2390410015674505, 52.16762200401663], [5.243065001571593, 52.170277004018196], [5.243173001571692, 52.170076004018064], [5.245257001573854, 52.17185700401913], [5.24716500157587, 52.17437800402065], [5.261949001591079, 52.184014004026366], [5.268406001597698, 52.18767800402848], [5.274431001603836, 52.190251004029996], [5.28233500161186, 52.192861004031435], [5.282499001611989, 52.19207400403099], [5.303907001633753, 52.19996000403549], [5.30662200163656, 52.202184004036845], [5.306810001636739, 52.2019650040367], [5.307036001636976, 52.202186004036825], [5.308521001638555, 52.204474004038204], [5.309016001639052, 52.20453500403824], [5.3106060016406005, 52.20345100403755], [5.3120790016421084, 52.20428000403802], [5.313793001643823, 52.204202004037974], [5.314448001644454, 52.20361800403759], [5.314311001644292, 52.203021004037204], [5.319261001649244, 52.202944004037086], [5.330692001660709, 52.203385004037244], [5.327908001658172, 52.20961600404103], [5.329052001659443, 52.21277200404295], [5.334323001665015, 52.2201230040473], [5.335785001666816, 52.228569004052424], [5.332706001663744, 52.2288120040526], [5.322264001653359, 52.23046100405373], [5.312278001643463, 52.23282900405529], [5.308067001639206, 52.23177400405467], [5.3067690016378695, 52.23090100405417], [5.306719001637778, 52.22988300405358], [5.307589001638619, 52.22907900405306], [5.310433001641409, 52.22776500405222], [5.31159400164252, 52.22650800405146], [5.310079001640985, 52.225964004051164], [5.311207001642053, 52.22456700405031], [5.31340300164426, 52.224660004050335], [5.312579001643456, 52.22526300405067], [5.3131290016440245, 52.22564900405096], [5.314191001645062, 52.22501700405053], [5.314758001645594, 52.22413400405], [5.312647001643373, 52.22149500404842], [5.3080110016386906, 52.22043300404784], [5.306875001637507, 52.21927300404717], [5.302312001633034, 52.22169000404866], [5.302721001633473, 52.2223710040491], [5.300970001631767, 52.22352400404981], [5.29416800162496, 52.2235450040499], [5.287464001618221, 52.22288300404958], [5.283698001614477, 52.22349600404998], [5.276495001607279, 52.2238250040503], [5.224730001555518, 52.22519700405169], [5.216487001546472, 52.20636700404041], [5.217214001547198, 52.2062330040403], [5.215501001545399, 52.20427300403912], [5.216301001546148, 52.20304100403839], [5.214232001543982, 52.20078600403703], [5.213254001542553, 52.19008200403055], [5.216003001545222, 52.18806100402929], [5.212076001540795, 52.17637400402224], [5.220995001549813, 52.17826000402332], [5.22121900154988, 52.17457100402104], [5.222702001551372, 52.174687004021116], [5.222905001551388, 52.170216004018386], [5.223889001552175, 52.165380004015425], [5.232162001560531, 52.167019004016346]]]}, "properties": {"type": "boundary", "gemeente": "Baarn"}}]}