{"type": "FeatureCollection", "metadata": {"gemeente": "Barendrecht", "slug": "barendrecht", "generated_at": "2026-07-28T19:03:25.026558Z", "total_points": 84, "merken": ["StatiegeldNederland", "Stibat", "StichtingOPEN"], "bounds": [4.4971663, 51.8342581, 4.560764, 51.8725709]}, "features": [{"type": "Feature", "geometry": {"type": "Point", "coordinates": [4.5373571, 51.8558975]}, "properties": {"type": "inleverpunt", "locatieNaam": "Albert Heijn", "straatNaam": "Middenbaan", "straatNr": "97", "postcode": "2991 CS", "plaats": "Barendrecht", "merk": "StatiegeldNederland", "puntType": "automaat", "materialen": ["pet-groot", "pet-klein", "blik", "glas", "krat"], "uitbetaling": ["bonnetje", "donatie"], "vrijToegankelijk": true, "gemeenteBeperking": null, "openingstijden": {"ma": "08:00–22:00", "di": "08:00–22:00", "wo": "08:00–22:00", "do": "08:00–22:00", "vr": "08:00–22:00", "za": "08:00–22:00", "zo": "10:00–18:00"}, "latitude": 51.8558975, "longitude": 4.5373571, "bronId": "252533"}}, {"type": "Feature", "geometry": {"type": "Point", "coordinates": [4.4990274, 51.847122]}, "properties": {"type": "inleverpunt", "locatieNaam": "Albert Heijn", "straatNaam": "Van Beuningenhaven", "straatNr": "10", "postcode": "2993 EH", "plaats": "Barendrecht", "merk": "StatiegeldNederland", "puntType": "automaat", "materialen": ["pet-groot", "pet-klein", "blik", "glas", "krat"], "uitbetaling": ["bonnetje", "donatie"], "vrijToegankelijk": true, "gemeenteBeperking": null, "openingstijden": {"ma": "08:00–22:00", "di": "08:00–22:00", "wo": "08:00–22:00", "do": "08:00–22:00", "vr": "08:00–22:00", "za": "08:00–22:00", "zo": "10:00–18:00"}, "latitude": 51.847122, "longitude": 4.4990274, "bronId": "252833"}}, {"type": "Feature", "geometry": {"type": "Point", "coordinates": [4.5388649, 51.8568152]}, "properties": {"type": "inleverpunt", "locatieNaam": "Appel -2726-gem.barendrecht", "straatNaam": "Binnenhof", "straatNr": "1", "postcode": "2991 AA", "plaats": "Barendrecht", "merk": "StatiegeldNederland", "puntType": "balie", "materialen": ["pet-groot", "pet-klein", "blik"], "uitbetaling": [], "vrijToegankelijk": true, "gemeenteBeperking": null, "openingstijden": {"ma": "12:30–17:00, 18:00–20:00", "di": "09:00–13:00", "wo": "12:30–17:00, 18:00–20:00", "do": "09:00–13:00", "vr": "09:00–13:00", "za": "Gesloten", "zo": "Gesloten"}, "latitude": 51.8568152, "longitude": 4.5388649, "bronId": "253526"}}, {"type": "Feature", "geometry": {"type": "Point", "coordinates": [4.537043, 51.8685666]}, "properties": {"type": "inleverpunt", "locatieNaam": "Appel 2461 - Cbr Barendrecht", "straatNaam": "Zwaalweg", "straatNr": "1", "postcode": "2991 ZC", "plaats": "Barendrecht", "merk": "StatiegeldNederland", "puntType": "balie", "materialen": ["pet-groot", "pet-klein", "blik"], "uitbetaling": [], "vrijToegankelijk": true, "gemeenteBeperking": null, "openingstijden": {"ma": "08:00–17:00", "di": "08:00–17:00", "wo": "08:00–17:00", "do": "08:00–17:00", "vr": "08:00–17:00", "za": "Gesloten", "zo": "Gesloten"}, "latitude": 51.8685666, "longitude": 4.537043, "bronId": "253554"}}, {"type": "Feature", "geometry": {"type": "Point", "coordinates": [4.5121392, 51.8475553]}, "properties": {"type": "inleverpunt", "locatieNaam": "Appel 2728 Afvalstort Barendrecht", "straatNaam": "London", "straatNr": "15", "postcode": "2993 LA", "plaats": "Barendrecht", "merk": "StatiegeldNederland", "puntType": "balie", "materialen": ["pet-groot", "pet-klein", "blik"], "uitbetaling": [], "vrijToegankelijk": true, "gemeenteBeperking": null, "openingstijden": {"ma": "07:30–16:00", "di": "07:30–16:00", "wo": "07:30–16:00", "do": "07:30–16:00", "vr": "07:30–16:00", "za": "07:30–16:00", "zo": "Gesloten"}, "latitude": 51.8475553, "longitude": 4.5121392, "bronId": "253647"}}, {"type": "Feature", "geometry": {"type": "Point", "coordinates": [4.5490709, 51.8509867]}, "properties": {"type": "inleverpunt", "locatieNaam": "Boon‘s Markt", "straatNaam": "Marijkesingel", "straatNr": "18", "postcode": "2991 BK", "plaats": "Barendrecht", "merk": "StatiegeldNederland", "puntType": "automaat", "materialen": ["pet-groot", "pet-klein", "blik", "glas", "krat"], "uitbetaling": ["bonnetje", "donatie"], "vrijToegankelijk": true, "gemeenteBeperking": null, "openingstijden": {"ma": "08:00–20:00", "di": "08:00–20:00", "wo": "08:00–20:00", "do": "08:00–20:00", "vr": "08:00–20:00", "za": "08:00–20:00", "zo": "Gesloten"}, "latitude": 51.8509867, "longitude": 4.5490709, "bronId": "253863"}}, {"type": "Feature", "geometry": {"type": "Point", "coordinates": [4.5057472, 51.8590917]}, "properties": {"type": "inleverpunt", "locatieNaam": "C.v.v. Spirit", "straatNaam": "van der Hoekleede", "straatNr": "27", "postcode": "2991 WZ", "plaats": "Barendrecht", "merk": "StatiegeldNederland", "puntType": "balie", "materialen": ["pet-groot", "pet-klein", "blik"], "uitbetaling": [], "vrijToegankelijk": false, "gemeenteBeperking": null, "openingstijden": {"ma": "17:15–22:30", "di": "18:00–22:30", "wo": "18:00–22:30", "do": "18:00–22:30", "vr": "18:00–22:30", "za": "10:30–22:00", "zo": "Gesloten"}, "latitude": 51.8590917, "longitude": 4.5057472, "bronId": "253984"}}, {"type": "Feature", "geometry": {"type": "Point", "coordinates": [4.5227891, 51.8539769]}, "properties": {"type": "inleverpunt", "locatieNaam": "Dirk", "straatNaam": "Muziekplein", "straatNr": "5", "postcode": "2992 GH", "plaats": "Barendrecht", "merk": "StatiegeldNederland", "puntType": "automaat", "materialen": ["pet-groot", "pet-klein", "blik", "glas", "krat"], "uitbetaling": ["bonnetje", "donatie"], "vrijToegankelijk": true, "gemeenteBeperking": null, "openingstijden": {"ma": "07:00–21:00", "di": "07:00–21:00", "wo": "07:00–21:00", "do": "07:00–21:00", "vr": "07:00–21:00", "za": "07:00–20:00", "zo": "10:00–18:00"}, "latitude": 51.8539769, "longitude": 4.5227891, "bronId": "254517"}}, {"type": "Feature", "geometry": {"type": "Point", "coordinates": [4.5081471, 51.8428091]}, "properties": {"type": "inleverpunt", "locatieNaam": "Fietscrossclub Barendrecht", "straatNaam": "Zuider Carnisseweg", "straatNr": "103", "postcode": "2993 AZ", "plaats": "Barendrecht", "merk": "StatiegeldNederland", "puntType": "balie", "materialen": ["pet-groot", "pet-klein", "blik"], "uitbetaling": [], "vrijToegankelijk": false, "gemeenteBeperking": null, "openingstijden": {"ma": "18:00–21:00", "di": "18:30–21:00", "wo": "18:00–21:00", "do": "18:30–21:00", "vr": "Gesloten", "za": "Gesloten", "zo": "Gesloten"}, "latitude": 51.8428091, "longitude": 4.5081471, "bronId": "254786"}}, {"type": "Feature", "geometry": {"type": "Point", "coordinates": [4.541214, 51.85389]}, "properties": {"type": "inleverpunt", "locatieNaam": "Jumbo", "straatNaam": "Onderlangs", "straatNr": "44", "postcode": "2991 EM", "plaats": "Barendrecht", "merk": "StatiegeldNederland", "puntType": "automaat", "materialen": ["pet-groot", "pet-klein", "blik", "glas", "krat"], "uitbetaling": ["bonnetje", "donatie"], "vrijToegankelijk": true, "gemeenteBeperking": null, "openingstijden": {"ma": "08:00–21:00", "di": "08:00–21:00", "wo": "08:00–21:00", "do": "08:00–21:00", "vr": "08:00–21:00", "za": "08:00–21:00", "zo": "10:00–18:00"}, "latitude": 51.85389, "longitude": 4.541214, "bronId": "255631"}}, {"type": "Feature", "geometry": {"type": "Point", "coordinates": [4.498515, 51.847071]}, "properties": {"type": "inleverpunt", "locatieNaam": "Jumbo", "straatNaam": "Van Beuningenhaven", "straatNr": "4", "postcode": "2993 EH", "plaats": "Barendrecht", "merk": "StatiegeldNederland", "puntType": "automaat", "materialen": ["pet-groot", "pet-klein", "blik", "glas", "krat"], "uitbetaling": ["bonnetje", "donatie"], "vrijToegankelijk": true, "gemeenteBeperking": null, "openingstijden": {"ma": "08:00–22:00", "di": "08:00–22:00", "wo": "08:00–22:00", "do": "08:00–22:00", "vr": "08:00–22:00", "za": "08:00–22:00", "zo": "10:00–18:00"}, "latitude": 51.847071, "longitude": 4.498515, "bronId": "255806"}}, {"type": "Feature", "geometry": {"type": "Point", "coordinates": [4.5468027, 51.8725709]}, "properties": {"type": "inleverpunt", "locatieNaam": "Lidl", "straatNaam": "Pesetastraat", "straatNr": "50", "postcode": "2991 XT", "plaats": "Barendrecht", "merk": "StatiegeldNederland", "puntType": "automaat", "materialen": ["pet-groot", "pet-klein", "blik", "glas", "krat"], "uitbetaling": ["bonnetje", "donatie"], "vrijToegankelijk": true, "gemeenteBeperking": null, "openingstijden": {"ma": "07:30–21:00", "di": "07:30–21:00", "wo": "07:30–21:00", "do": "07:30–21:00", "vr": "07:30–21:00", "za": "07:30–21:00", "zo": "10:00–18:00"}, "latitude": 51.8725709, "longitude": 4.5468027, "bronId": "256336"}}, {"type": "Feature", "geometry": {"type": "Point", "coordinates": [4.49966, 51.84741]}, "properties": {"type": "inleverpunt", "locatieNaam": "Lidl", "straatNaam": "Van Beuningenhaven", "straatNr": "32-38", "postcode": "2993 EH", "plaats": "Barendrecht", "merk": "StatiegeldNederland", "puntType": "automaat", "materialen": ["pet-groot", "pet-klein", "blik", "glas", "krat"], "uitbetaling": ["bonnetje", "donatie"], "vrijToegankelijk": true, "gemeenteBeperking": null, "openingstijden": {"ma": "08:00–21:00", "di": "08:00–21:00", "wo": "08:00–21:00", "do": "08:00–21:00", "vr": "08:00–21:00", "za": "08:00–21:00", "zo": "10:00–18:00"}, "latitude": 51.84741, "longitude": 4.49966, "bronId": "256426"}}, {"type": "Feature", "geometry": {"type": "Point", "coordinates": [4.54739, 51.868232]}, "properties": {"type": "inleverpunt", "locatieNaam": "Makro", "straatNaam": "Zeemanstraat", "straatNr": "2", "postcode": "2991 XR", "plaats": "Barendrecht", "merk": "StatiegeldNederland", "puntType": "automaat", "materialen": ["pet-groot", "pet-klein", "blik", "krat"], "uitbetaling": ["tikkie"], "vrijToegankelijk": true, "gemeenteBeperking": null, "openingstijden": {"ma": "09:00–21:00", "di": "09:00–21:00", "wo": "09:00–21:00", "do": "09:00–21:00", "vr": "09:00–21:00", "za": "09:00–19:00", "zo": "12:00–18:00"}, "latitude": 51.868232, "longitude": 4.54739, "bronId": "256550"}}, {"type": "Feature", "geometry": {"type": "Point", "coordinates": [4.5520337, 51.8653147]}, "properties": {"type": "inleverpunt", "locatieNaam": "Shell", "straatNaam": "Dierensteinweg", "straatNr": "13", "postcode": "2991 XJ", "plaats": "Barendrecht", "merk": "StatiegeldNederland", "puntType": "balie", "materialen": ["pet-groot", "pet-klein", "blik"], "uitbetaling": [], "vrijToegankelijk": true, "gemeenteBeperking": null, "openingstijden": {"ma": "24 uur geopend", "di": "24 uur geopend", "wo": "24 uur geopend", "do": "24 uur geopend", "vr": "24 uur geopend", "za": "24 uur geopend", "zo": "24 uur geopend"}, "latitude": 51.8653147, "longitude": 4.5520337, "bronId": "258053"}}, {"type": "Feature", "geometry": {"type": "Point", "coordinates": [4.5243221, 51.8604285]}, "properties": {"type": "inleverpunt", "locatieNaam": "ViaTim", "straatNaam": "Maaskantveld", "straatNr": "25", "postcode": "2992 HM", "plaats": "Barendrecht", "merk": "StatiegeldNederland", "puntType": "balie", "materialen": ["pet-groot", "pet-klein", "blik"], "uitbetaling": ["tikkie"], "vrijToegankelijk": true, "gemeenteBeperking": null, "openingstijden": {"ma": "16:00–21:00", "di": "16:00–21:00", "wo": "16:00–21:00", "do": "16:00–21:00", "vr": "16:00–21:00", "za": "Gesloten", "zo": "Gesloten"}, "latitude": 51.8604285, "longitude": 4.5243221, "bronId": "259397"}}, {"type": "Feature", "geometry": {"type": "Point", "coordinates": [4.54671, 51.87231]}, "properties": {"type": "inleverpunt", "locatieNaam": "Lidl Barendrecht", "straatNaam": "Pesetastraat", "straatNr": "50", "postcode": "2991 XT", "plaats": "Barendrecht", "merk": "StichtingOPEN", "puntType": "balie", "materialen": ["batterijen", "lampen"], "uitbetaling": [], "vrijToegankelijk": false, "gemeenteBeperking": null, "openingstijden": null, "latitude": 51.87231, "longitude": 4.54671, "bronId": "SP00029997"}}, {"type": "Feature", "geometry": {"type": "Point", "coordinates": [4.545426, 51.870377]}, "properties": {"type": "inleverpunt", "locatieNaam": "Media Markt Barendrecht N040", "straatNaam": "Van 't Hoffstraat", "straatNr": "30", "postcode": "2991 XP", "plaats": "Barendrecht", "merk": "StichtingOPEN", "puntType": "balie", "materialen": ["batterijen", "elektro-klein", "elektro-middel", "lampen", "tl-buizen"], "uitbetaling": [], "vrijToegankelijk": false, "gemeenteBeperking": null, "openingstijden": null, "latitude": 51.870377, "longitude": 4.545426, "bronId": "SP00036900"}}, {"type": "Feature", "geometry": {"type": "Point", "coordinates": [4.547176, 51.868168]}, "properties": {"type": "inleverpunt", "locatieNaam": "Makro Barendrecht", "straatNaam": "Zeemanstraat", "straatNr": "2", "postcode": "2991 XR", "plaats": "Barendrecht", "merk": "StichtingOPEN", "puntType": "balie", "materialen": ["elektro-middel", "lampen", "tl-buizen"], "uitbetaling": [], "vrijToegankelijk": false, "gemeenteBeperking": null, "openingstijden": null, "latitude": 51.868168, "longitude": 4.547176, "bronId": "SP00021671"}}, {"type": "Feature", "geometry": {"type": "Point", "coordinates": [4.545825, 51.867972]}, "properties": {"type": "inleverpunt", "locatieNaam": "KARWEI Barendrecht-Reijerwaard", "straatNaam": "Lorentzweg", "straatNr": "4", "postcode": "2991 XM", "plaats": "Barendrecht", "merk": "StichtingOPEN", "puntType": "balie", "materialen": ["elektro-middel", "lampen", "tl-buizen"], "uitbetaling": [], "vrijToegankelijk": false, "gemeenteBeperking": null, "openingstijden": null, "latitude": 51.867972, "longitude": 4.545825, "bronId": "SP00000992"}}, {"type": "Feature", "geometry": {"type": "Point", "coordinates": [4.549253, 51.8509]}, "properties": {"type": "inleverpunt", "locatieNaam": "Boon's Markt Barendrecht", "straatNaam": "Marijkesingel", "straatNr": "18", "postcode": "2991 BK", "plaats": "Barendrecht", "merk": "StichtingOPEN", "puntType": "balie", "materialen": ["batterijen", "lampen"], "uitbetaling": [], "vrijToegankelijk": false, "gemeenteBeperking": null, "openingstijden": null, "latitude": 51.8509, "longitude": 4.549253, "bronId": "SP00023382"}}, {"type": "Feature", "geometry": {"type": "Point", "coordinates": [4.541214, 51.85389]}, "properties": {"type": "inleverpunt", "locatieNaam": "JUMBO Barendrecht", "straatNaam": "Onderlangs", "straatNr": "44", "postcode": "2991 EM", "plaats": "Barendrecht", "merk": "StichtingOPEN", "puntType": "balie", "materialen": ["batterijen", "lampen"], "uitbetaling": [], "vrijToegankelijk": false, "gemeenteBeperking": null, "openingstijden": null, "latitude": 51.85389, "longitude": 4.541214, "bronId": "SP00025122"}}, {"type": "Feature", "geometry": {"type": "Point", "coordinates": [4.540406, 51.854143]}, "properties": {"type": "inleverpunt", "locatieNaam": "Electro World Vogel", "straatNaam": "Onderlangs", "straatNr": "36", "postcode": "2991 EM", "plaats": "Barendrecht", "merk": "StichtingOPEN", "puntType": "balie", "materialen": ["batterijen", "elektro-klein", "elektro-middel"], "uitbetaling": [], "vrijToegankelijk": false, "gemeenteBeperking": null, "openingstijden": null, "latitude": 51.854143, "longitude": 4.540406, "bronId": "SP00039326"}}, {"type": "Feature", "geometry": {"type": "Point", "coordinates": [4.536973, 51.855878]}, "properties": {"type": "inleverpunt", "locatieNaam": "1526 Albert Heijn Barendrecht", "straatNaam": "Middenbaan", "straatNr": "97", "postcode": "2991 CS", "plaats": "Barendrecht", "merk": "StichtingOPEN", "puntType": "balie", "materialen": ["batterijen", "elektro-klein", "lampen"], "uitbetaling": [], "vrijToegankelijk": false, "gemeenteBeperking": null, "openingstijden": null, "latitude": 51.855878, "longitude": 4.536973, "bronId": "SP00022692"}}, {"type": "Feature", "geometry": {"type": "Point", "coordinates": [4.522818, 51.854169]}, "properties": {"type": "inleverpunt", "locatieNaam": "Dirk Barendrecht", "straatNaam": "Muziekplein", "straatNr": "5", "postcode": "2992 GH", "plaats": "Barendrecht", "merk": "StichtingOPEN", "puntType": "balie", "materialen": ["batterijen", "lampen"], "uitbetaling": [], "vrijToegankelijk": false, "gemeenteBeperking": null, "openingstijden": null, "latitude": 51.854169, "longitude": 4.522818, "bronId": "SP00023417"}}, {"type": "Feature", "geometry": {"type": "Point", "coordinates": [4.518288, 51.858001]}, "properties": {"type": "inleverpunt", "locatieNaam": "Opnieuw & Co Barendrecht", "straatNaam": "Voordijk", "straatNr": "273", "postcode": "2992 AL", "plaats": "Barendrecht", "merk": "StichtingOPEN", "puntType": "balie", "materialen": ["batterijen", "elektro-groot", "elektro-klein", "elektro-middel", "lampen"], "uitbetaling": [], "vrijToegankelijk": false, "gemeenteBeperking": null, "openingstijden": null, "latitude": 51.858001, "longitude": 4.518288, "bronId": "SP00027705"}}, {"type": "Feature", "geometry": {"type": "Point", "coordinates": [4.512527, 51.854611]}, "properties": {"type": "inleverpunt", "locatieNaam": "Praxis Barendrecht MEGA - 2238", "straatNaam": "Bergen", "straatNr": "1", "postcode": "2993 LR", "plaats": "Barendrecht", "merk": "StichtingOPEN", "puntType": "balie", "materialen": ["elektro-middel", "lampen", "tl-buizen"], "uitbetaling": [], "vrijToegankelijk": false, "gemeenteBeperking": null, "openingstijden": null, "latitude": 51.854611, "longitude": 4.512527, "bronId": "SP00004548"}}, {"type": "Feature", "geometry": {"type": "Point", "coordinates": [4.509955, 51.848754]}, "properties": {"type": "inleverpunt", "locatieNaam": "KARWEI Barendrecht-Carnisse", "straatNaam": "Rostock", "straatNr": "3", "postcode": "2993 LH", "plaats": "Barendrecht", "merk": "StichtingOPEN", "puntType": "balie", "materialen": ["batterijen", "elektro-klein", "elektro-middel", "lampen", "tl-buizen"], "uitbetaling": [], "vrijToegankelijk": false, "gemeenteBeperking": null, "openingstijden": null, "latitude": 51.848754, "longitude": 4.509955, "bronId": "SP00000991"}}, {"type": "Feature", "geometry": {"type": "Point", "coordinates": [4.4986973, 51.8470253]}, "properties": {"type": "inleverpunt", "locatieNaam": "1345 Albert Heijn Barendrecht", "straatNaam": "Van Beuningenhaven", "straatNr": "10", "postcode": "2993 EH", "plaats": "Barendrecht", "merk": "StichtingOPEN", "puntType": "balie", "materialen": ["batterijen", "elektro-klein", "lampen"], "uitbetaling": [], "vrijToegankelijk": false, "gemeenteBeperking": null, "openingstijden": null, "latitude": 51.8470253, "longitude": 4.4986973, "bronId": "SP00022689"}}, {"type": "Feature", "geometry": {"type": "Point", "coordinates": [4.4988784, 51.8470941]}, "properties": {"type": "inleverpunt", "locatieNaam": "Action Barendrecht 1339", "straatNaam": "Van Beuningenhaven", "straatNr": "40-43", "postcode": "2993 EH", "plaats": "Barendrecht", "merk": "StichtingOPEN", "puntType": "balie", "materialen": ["batterijen", "lampen"], "uitbetaling": [], "vrijToegankelijk": false, "gemeenteBeperking": null, "openingstijden": null, "latitude": 51.8470941, "longitude": 4.4988784, "bronId": "SP00007903"}}, {"type": "Feature", "geometry": {"type": "Point", "coordinates": [4.4985155, 51.847071]}, "properties": {"type": "inleverpunt", "locatieNaam": "Jumbo Barendrecht", "straatNaam": "Van Beuningenhaven", "straatNr": "4", "postcode": "2993 EH", "plaats": "Barendrecht", "merk": "StichtingOPEN", "puntType": "balie", "materialen": ["batterijen", "lampen"], "uitbetaling": [], "vrijToegankelijk": false, "gemeenteBeperking": null, "openingstijden": null, "latitude": 51.847071, "longitude": 4.4985155, "bronId": "SP00025119"}}, {"type": "Feature", "geometry": {"type": "Point", "coordinates": [4.49982, 51.84761]}, "properties": {"type": "inleverpunt", "locatieNaam": "Kruidvat Barendrecht", "straatNaam": "Van Beuningenhaven", "straatNr": "32", "postcode": "2993 EH", "plaats": "Barendrecht", "merk": "StichtingOPEN", "puntType": "balie", "materialen": ["batterijen", "lampen"], "uitbetaling": [], "vrijToegankelijk": false, "gemeenteBeperking": null, "openingstijden": null, "latitude": 51.84761, "longitude": 4.49982, "bronId": "SP00029639"}}, {"type": "Feature", "geometry": {"type": "Point", "coordinates": [4.512139, 51.847555]}, "properties": {"type": "inleverpunt", "locatieNaam": "Afval Aanbied Station Barendrecht", "straatNaam": "Londen", "straatNr": "15", "postcode": "2993 LA", "plaats": "Barendrecht", "merk": "StichtingOPEN", "puntType": "milieustraat", "materialen": ["batterijen", "elektro-groot", "elektro-klein", "elektro-middel", "lampen", "tl-buizen"], "uitbetaling": [], "vrijToegankelijk": false, "gemeenteBeperking": ["Barendrecht"], "openingstijden": null, "latitude": 51.847555, "longitude": 4.512139, "bronId": "SP00003785"}}, {"type": "Feature", "geometry": {"type": "Point", "coordinates": [4.548778, 51.871433]}, "properties": {"type": "inleverpunt", "locatieNaam": "Prenatal BARENDRECHT", "straatNaam": "Escudostraat", "straatNr": "5", "postcode": "2991 XV", "plaats": "Barendrecht", "merk": "Stibat", "puntType": "inzamelbak", "materialen": ["batterijen"], "uitbetaling": [], "vrijToegankelijk": false, "gemeenteBeperking": null, "openingstijden": null, "latitude": 51.871433, "longitude": 4.548778, "bronId": "L039617"}}, {"type": "Feature", "geometry": {"type": "Point", "coordinates": [4.5467146, 51.8723124]}, "properties": {"type": "inleverpunt", "locatieNaam": "Lidl", "straatNaam": "Pesetastraat", "straatNr": "50", "postcode": "2991 XT", "plaats": "Barendrecht", "merk": "Stibat", "puntType": "inzamelbak", "materialen": ["batterijen"], "uitbetaling": [], "vrijToegankelijk": false, "gemeenteBeperking": null, "openingstijden": null, "latitude": 51.8723124, "longitude": 4.5467146, "bronId": "L017989"}}, {"type": "Feature", "geometry": {"type": "Point", "coordinates": [4.560764, 51.8548612]}, "properties": {"type": "inleverpunt", "locatieNaam": "Dubson", "straatNaam": "Tuindersweg", "straatNr": "38", "postcode": "2991 LR", "plaats": "Barendrecht", "merk": "Stibat", "puntType": "inzamelbak", "materialen": ["batterijen"], "uitbetaling": [], "vrijToegankelijk": false, "gemeenteBeperking": null, "openingstijden": null, "latitude": 51.8548612, "longitude": 4.560764, "bronId": "L045234"}}, {"type": "Feature", "geometry": {"type": "Point", "coordinates": [4.5470419, 51.8697272]}, "properties": {"type": "inleverpunt", "locatieNaam": "Kwantum", "straatNaam": "Van 't Hoffstraat", "straatNr": "12", "postcode": "2991 XP", "plaats": "Barendrecht", "merk": "Stibat", "puntType": "inzamelbak", "materialen": ["batterijen"], "uitbetaling": [], "vrijToegankelijk": false, "gemeenteBeperking": null, "openingstijden": null, "latitude": 51.8697272, "longitude": 4.5470419, "bronId": "L016540"}}, {"type": "Feature", "geometry": {"type": "Point", "coordinates": [4.5534053, 51.8618514]}, "properties": {"type": "inleverpunt", "locatieNaam": "Senzup", "straatNaam": "Oosteinde", "straatNr": "6", "postcode": "2991 LG", "plaats": "Barendrecht", "merk": "Stibat", "puntType": "inzamelbak", "materialen": ["batterijen"], "uitbetaling": [], "vrijToegankelijk": false, "gemeenteBeperking": null, "openingstijden": null, "latitude": 51.8618514, "longitude": 4.5534053, "bronId": "L042989"}}, {"type": "Feature", "geometry": {"type": "Point", "coordinates": [4.5464802, 51.8695577]}, "properties": {"type": "inleverpunt", "locatieNaam": "Leen Bakker", "straatNaam": "Van't Hoffstraat", "straatNr": "16", "postcode": "2991 XP", "plaats": "Barendrecht", "merk": "Stibat", "puntType": "inzamelbak", "materialen": ["batterijen"], "uitbetaling": [], "vrijToegankelijk": false, "gemeenteBeperking": null, "openingstijden": null, "latitude": 51.8695577, "longitude": 4.5464802, "bronId": "L017903"}}, {"type": "Feature", "geometry": {"type": "Point", "coordinates": [4.5473926, 51.8682341]}, "properties": {"type": "inleverpunt", "locatieNaam": "Makro", "straatNaam": "Zeemanstraat", "straatNr": "2", "postcode": "2991 XR", "plaats": "Barendrecht", "merk": "Stibat", "puntType": "inzamelbak", "materialen": ["batterijen"], "uitbetaling": [], "vrijToegankelijk": false, "gemeenteBeperking": null, "openingstijden": null, "latitude": 51.8682341, "longitude": 4.5473926, "bronId": "L025885"}}, {"type": "Feature", "geometry": {"type": "Point", "coordinates": [4.545426, 51.870377]}, "properties": {"type": "inleverpunt", "locatieNaam": "MediaMarkt", "straatNaam": "Van 't Hoffstraat", "straatNr": "30", "postcode": "2991 XP", "plaats": "Barendrecht", "merk": "Stibat", "puntType": "inzamelbak", "materialen": ["batterijen"], "uitbetaling": [], "vrijToegankelijk": false, "gemeenteBeperking": null, "openingstijden": null, "latitude": 51.870377, "longitude": 4.545426, "bronId": "L047955"}}, {"type": "Feature", "geometry": {"type": "Point", "coordinates": [4.54569, 51.8680589]}, "properties": {"type": "inleverpunt", "locatieNaam": "Karwei", "straatNaam": "Lorentzweg", "straatNr": "4", "postcode": "2991 XM", "plaats": "Barendrecht", "merk": "Stibat", "puntType": "inzamelbak", "materialen": ["batterijen"], "uitbetaling": [], "vrijToegankelijk": false, "gemeenteBeperking": null, "openingstijden": null, "latitude": 51.8680589, "longitude": 4.54569, "bronId": "L007895"}}, {"type": "Feature", "geometry": {"type": "Point", "coordinates": [4.5520138, 51.8544076]}, "properties": {"type": "inleverpunt", "locatieNaam": "Het Zijspoor (fietsherstel)", "straatNaam": "Stationsweg", "straatNr": "49", "postcode": "2991 CM", "plaats": "Barendrecht", "merk": "Stibat", "puntType": "inzamelbak", "materialen": ["batterijen"], "uitbetaling": [], "vrijToegankelijk": false, "gemeenteBeperking": null, "openingstijden": null, "latitude": 51.8544076, "longitude": 4.5520138, "bronId": "L042077"}}, {"type": "Feature", "geometry": {"type": "Point", "coordinates": [4.5489356, 51.8508366]}, "properties": {"type": "inleverpunt", "locatieNaam": "Boon's Markt", "straatNaam": "Marijkesingel", "straatNr": "18", "postcode": "2991 BK", "plaats": "Barendrecht", "merk": "Stibat", "puntType": "inzamelbak", "materialen": ["batterijen"], "uitbetaling": [], "vrijToegankelijk": false, "gemeenteBeperking": null, "openingstijden": null, "latitude": 51.8508366, "longitude": 4.5489356, "bronId": "L010961"}}, {"type": "Feature", "geometry": {"type": "Point", "coordinates": [4.5412443, 51.8538634]}, "properties": {"type": "inleverpunt", "locatieNaam": "Electro World Vogel", "straatNaam": "Onderlangs", "straatNr": "36", "postcode": "2991 EM", "plaats": "Barendrecht", "merk": "Stibat", "puntType": "inzamelbak", "materialen": ["batterijen"], "uitbetaling": [], "vrijToegankelijk": false, "gemeenteBeperking": null, "openingstijden": null, "latitude": 51.8538634, "longitude": 4.5412443, "bronId": "L039701"}}, {"type": "Feature", "geometry": {"type": "Point", "coordinates": [4.5412148, 51.8538901]}, "properties": {"type": "inleverpunt", "locatieNaam": "Jumbo", "straatNaam": "Onderlangs", "straatNr": "44", "postcode": "2991 EM", "plaats": "Barendrecht", "merk": "Stibat", "puntType": "inzamelbak", "materialen": ["batterijen"], "uitbetaling": [], "vrijToegankelijk": false, "gemeenteBeperking": null, "openingstijden": null, "latitude": 51.8538901, "longitude": 4.5412148, "bronId": "L038005"}}, {"type": "Feature", "geometry": {"type": "Point", "coordinates": [4.5408887, 51.8540113]}, "properties": {"type": "inleverpunt", "locatieNaam": "Zeeman", "straatNaam": "Middenbaan", "straatNr": "38", "postcode": "2991 CT", "plaats": "Barendrecht", "merk": "Stibat", "puntType": "inzamelbak", "materialen": ["batterijen"], "uitbetaling": [], "vrijToegankelijk": false, "gemeenteBeperking": null, "openingstijden": null, "latitude": 51.8540113, "longitude": 4.5408887, "bronId": "L020893"}}, {"type": "Feature", "geometry": {"type": "Point", "coordinates": [4.5409728, 51.8536367]}, "properties": {"type": "inleverpunt", "locatieNaam": "HEMA Barendrecht-Centrum", "straatNaam": "Middenbaan", "straatNr": "36", "postcode": "2991 CT", "plaats": "Barendrecht", "merk": "Stibat", "puntType": "inzamelbak", "materialen": ["batterijen"], "uitbetaling": [], "vrijToegankelijk": false, "gemeenteBeperking": null, "openingstijden": null, "latitude": 51.8536367, "longitude": 4.5409728, "bronId": "L046847"}}, {"type": "Feature", "geometry": {"type": "Point", "coordinates": [4.5406725, 51.8536874]}, "properties": {"type": "inleverpunt", "locatieNaam": "Trekpleister", "straatNaam": "Middenbaan", "straatNr": "40", "postcode": "2991 CT", "plaats": "Barendrecht", "merk": "Stibat", "puntType": "inzamelbak", "materialen": ["batterijen"], "uitbetaling": [], "vrijToegankelijk": false, "gemeenteBeperking": null, "openingstijden": null, "latitude": 51.8536874, "longitude": 4.5406725, "bronId": "L018842"}}, {"type": "Feature", "geometry": {"type": "Point", "coordinates": [4.5399864, 51.8543756]}, "properties": {"type": "inleverpunt", "locatieNaam": "Primera", "straatNaam": "Middenbaan", "straatNr": "54", "postcode": "2991 CT", "plaats": "Barendrecht", "merk": "Stibat", "puntType": "inzamelbak", "materialen": ["batterijen"], "uitbetaling": [], "vrijToegankelijk": false, "gemeenteBeperking": null, "openingstijden": null, "latitude": 51.8543756, "longitude": 4.5399864, "bronId": "L028512"}}, {"type": "Feature", "geometry": {"type": "Point", "coordinates": [4.5404488, 51.8537138]}, "properties": {"type": "inleverpunt", "locatieNaam": "Beter Horen", "straatNaam": "Middenbaan", "straatNr": "23", "postcode": "2991 CS", "plaats": "Barendrecht", "merk": "Stibat", "puntType": "inzamelbak", "materialen": ["batterijen"], "uitbetaling": [], "vrijToegankelijk": false, "gemeenteBeperking": null, "openingstijden": null, "latitude": 51.8537138, "longitude": 4.5404488, "bronId": "L023451"}}, {"type": "Feature", "geometry": {"type": "Point", "coordinates": [4.5406621, 51.8534577]}, "properties": {"type": "inleverpunt", "locatieNaam": "Schoonenberg Hoorcomfort", "straatNaam": "Middenbaan", "straatNr": "15", "postcode": "2991 CS", "plaats": "Barendrecht", "merk": "Stibat", "puntType": "inzamelbak", "materialen": ["batterijen"], "uitbetaling": [], "vrijToegankelijk": false, "gemeenteBeperking": null, "openingstijden": null, "latitude": 51.8534577, "longitude": 4.5406621, "bronId": "L031390"}}, {"type": "Feature", "geometry": {"type": "Point", "coordinates": [4.5405409, 51.8535907]}, "properties": {"type": "inleverpunt", "locatieNaam": "Wibra", "straatNaam": "Middenbaan", "straatNr": "19", "postcode": "2991 CS", "plaats": "Barendrecht", "merk": "Stibat", "puntType": "inzamelbak", "materialen": ["batterijen"], "uitbetaling": [], "vrijToegankelijk": false, "gemeenteBeperking": null, "openingstijden": null, "latitude": 51.8535907, "longitude": 4.5405409, "bronId": "L031181"}}, {"type": "Feature", "geometry": {"type": "Point", "coordinates": [4.5389422, 51.8552332]}, "properties": {"type": "inleverpunt", "locatieNaam": "Kruidvat", "straatNaam": "Middenbaan", "straatNr": "76", "postcode": "2991 CT", "plaats": "Barendrecht", "merk": "Stibat", "puntType": "inzamelbak", "materialen": ["batterijen"], "uitbetaling": [], "vrijToegankelijk": false, "gemeenteBeperking": null, "openingstijden": null, "latitude": 51.8552332, "longitude": 4.5389422, "bronId": "L014175"}}, {"type": "Feature", "geometry": {"type": "Point", "coordinates": [4.5385344, 51.8556048]}, "properties": {"type": "inleverpunt", "locatieNaam": "Audio &amp; Video Specialist", "straatNaam": "Onderlangs", "straatNr": "16", "postcode": "2991 EM", "plaats": "Barendrecht", "merk": "Stibat", "puntType": "inzamelbak", "materialen": ["batterijen"], "uitbetaling": [], "vrijToegankelijk": false, "gemeenteBeperking": null, "openingstijden": null, "latitude": 51.8556048, "longitude": 4.5385344, "bronId": "L017618"}}, {"type": "Feature", "geometry": {"type": "Point", "coordinates": [4.5374173, 51.8560491]}, "properties": {"type": "inleverpunt", "locatieNaam": "Monditel", "straatNaam": "Middenbaan", "straatNr": "102", "postcode": "2991 CT", "plaats": "Barendrecht", "merk": "Stibat", "puntType": "inzamelbak", "materialen": ["batterijen"], "uitbetaling": [], "vrijToegankelijk": false, "gemeenteBeperking": null, "openingstijden": null, "latitude": 51.8560491, "longitude": 4.5374173, "bronId": "L028779"}}, {"type": "Feature", "geometry": {"type": "Point", "coordinates": [4.5373181, 51.855895]}, "properties": {"type": "inleverpunt", "locatieNaam": "1526 Albert Heijn", "straatNaam": "Middenbaan", "straatNr": "97", "postcode": "2991 CS", "plaats": "Barendrecht", "merk": "Stibat", "puntType": "inzamelbak", "materialen": ["batterijen"], "uitbetaling": [], "vrijToegankelijk": false, "gemeenteBeperking": null, "openingstijden": null, "latitude": 51.855895, "longitude": 4.5373181, "bronId": "L006226"}}, {"type": "Feature", "geometry": {"type": "Point", "coordinates": [4.5248682, 51.8631493]}, "properties": {"type": "inleverpunt", "locatieNaam": "Van Rietschoten Office Point", "straatNaam": "Bijdorp-Oost", "straatNr": "38", "postcode": "2992 LA", "plaats": "Barendrecht", "merk": "Stibat", "puntType": "inzamelbak", "materialen": ["batterijen"], "uitbetaling": [], "vrijToegankelijk": false, "gemeenteBeperking": null, "openingstijden": null, "latitude": 51.8631493, "longitude": 4.5248682, "bronId": "L025329"}}, {"type": "Feature", "geometry": {"type": "Point", "coordinates": [4.5468221, 51.8342581]}, "properties": {"type": "inleverpunt", "locatieNaam": "Camping De Oude Maas", "straatNaam": "Achterzeedijk", "straatNr": "1a", "postcode": "2991 SB", "plaats": "Barendrecht", "merk": "Stibat", "puntType": "inzamelbak", "materialen": ["batterijen"], "uitbetaling": [], "vrijToegankelijk": false, "gemeenteBeperking": null, "openingstijden": null, "latitude": 51.8342581, "longitude": 4.5468221, "bronId": "L003508"}}, {"type": "Feature", "geometry": {"type": "Point", "coordinates": [4.519155, 51.8619898]}, "properties": {"type": "inleverpunt", "locatieNaam": "Destil", "straatNaam": "Bijdorp-West", "straatNr": "48", "postcode": "2992 LC", "plaats": "Barendrecht", "merk": "Stibat", "puntType": "inzamelbak", "materialen": ["batterijen"], "uitbetaling": [], "vrijToegankelijk": false, "gemeenteBeperking": null, "openingstijden": null, "latitude": 51.8619898, "longitude": 4.519155, "bronId": "L043431"}}, {"type": "Feature", "geometry": {"type": "Point", "coordinates": [4.5228211, 51.8541718]}, "properties": {"type": "inleverpunt", "locatieNaam": "Dirk", "straatNaam": "Muziekplein", "straatNr": "5", "postcode": "2992 GH", "plaats": "Barendrecht", "merk": "Stibat", "puntType": "inzamelbak", "materialen": ["batterijen"], "uitbetaling": [], "vrijToegankelijk": false, "gemeenteBeperking": null, "openingstijden": null, "latitude": 51.8541718, "longitude": 4.5228211, "bronId": "L012397"}}, {"type": "Feature", "geometry": {"type": "Point", "coordinates": [4.5228184, 51.8541696]}, "properties": {"type": "inleverpunt", "locatieNaam": "Trekpleister", "straatNaam": "Muziekplein", "straatNr": "5", "postcode": "2992 GH", "plaats": "Barendrecht", "merk": "Stibat", "puntType": "inzamelbak", "materialen": ["batterijen"], "uitbetaling": [], "vrijToegankelijk": false, "gemeenteBeperking": null, "openingstijden": null, "latitude": 51.8541696, "longitude": 4.5228184, "bronId": "L044049"}}, {"type": "Feature", "geometry": {"type": "Point", "coordinates": [4.5182882, 51.8580014]}, "properties": {"type": "inleverpunt", "locatieNaam": "Opnieuw &amp; Co Barendrecht", "straatNaam": "Voordijk", "straatNr": "273", "postcode": "2992 AL", "plaats": "Barendrecht", "merk": "Stibat", "puntType": "inzamelbak", "materialen": ["batterijen"], "uitbetaling": [], "vrijToegankelijk": false, "gemeenteBeperking": null, "openingstijden": null, "latitude": 51.8580014, "longitude": 4.5182882, "bronId": "L039663"}}, {"type": "Feature", "geometry": {"type": "Point", "coordinates": [4.5180778, 51.8581343]}, "properties": {"type": "inleverpunt", "locatieNaam": "Broekhuis Fietsen", "straatNaam": "Voordijk", "straatNr": "275", "postcode": "2992 AL", "plaats": "Barendrecht", "merk": "Stibat", "puntType": "inzamelbak", "materialen": ["batterijen"], "uitbetaling": [], "vrijToegankelijk": false, "gemeenteBeperking": null, "openingstijden": null, "latitude": 51.8581343, "longitude": 4.5180778, "bronId": "L047904"}}, {"type": "Feature", "geometry": {"type": "Point", "coordinates": [4.5116535, 51.8619003]}, "properties": {"type": "inleverpunt", "locatieNaam": "Safe Beveiliging", "straatNaam": "Zwolseweg", "straatNr": "40-46", "postcode": "2994 LB", "plaats": "Barendrecht", "merk": "Stibat", "puntType": "inzamelbak", "materialen": ["batterijen"], "uitbetaling": [], "vrijToegankelijk": false, "gemeenteBeperking": null, "openingstijden": null, "latitude": 51.8619003, "longitude": 4.5116535, "bronId": "L022574"}}, {"type": "Feature", "geometry": {"type": "Point", "coordinates": [4.521291, 51.8476114]}, "properties": {"type": "inleverpunt", "locatieNaam": "Het Rozenpakhuys BV", "straatNaam": "Middeldijk", "straatNr": "75", "postcode": "2992 SH", "plaats": "Barendrecht", "merk": "Stibat", "puntType": "inzamelbak", "materialen": ["batterijen"], "uitbetaling": [], "vrijToegankelijk": false, "gemeenteBeperking": null, "openingstijden": null, "latitude": 51.8476114, "longitude": 4.521291, "bronId": "L048163"}}, {"type": "Feature", "geometry": {"type": "Point", "coordinates": [4.5122025, 51.8544326]}, "properties": {"type": "inleverpunt", "locatieNaam": "Praxis 2238", "straatNaam": "Bergen", "straatNr": "1", "postcode": "2993 LR", "plaats": "Barendrecht", "merk": "Stibat", "puntType": "inzamelbak", "materialen": ["batterijen"], "uitbetaling": [], "vrijToegankelijk": false, "gemeenteBeperking": null, "openingstijden": null, "latitude": 51.8544326, "longitude": 4.5122025, "bronId": "L016012"}}, {"type": "Feature", "geometry": {"type": "Point", "coordinates": [4.5191221, 51.8451305]}, "properties": {"type": "inleverpunt", "locatieNaam": "De Haan (BP tankstation Barendrecht)", "straatNaam": "Middelweg", "straatNr": "3", "postcode": "2992 SP", "plaats": "Barendrecht", "merk": "Stibat", "puntType": "inzamelbak", "materialen": ["batterijen"], "uitbetaling": [], "vrijToegankelijk": false, "gemeenteBeperking": null, "openingstijden": null, "latitude": 51.8451305, "longitude": 4.5191221, "bronId": "L044835"}}, {"type": "Feature", "geometry": {"type": "Point", "coordinates": [4.5128857, 51.8497498]}, "properties": {"type": "inleverpunt", "locatieNaam": "Ikea", "straatNaam": "Hamburg", "straatNr": "1", "postcode": "2993 LG", "plaats": "Barendrecht", "merk": "Stibat", "puntType": "inzamelbak", "materialen": ["batterijen"], "uitbetaling": [], "vrijToegankelijk": false, "gemeenteBeperking": null, "openingstijden": null, "latitude": 51.8497498, "longitude": 4.5128857, "bronId": "L025016"}}, {"type": "Feature", "geometry": {"type": "Point", "coordinates": [4.5117444, 51.8506893]}, "properties": {"type": "inleverpunt", "locatieNaam": "Authentic Outdoors", "straatNaam": "Aalborg", "straatNr": "1", "postcode": "2993 LP", "plaats": "Barendrecht", "merk": "Stibat", "puntType": "inzamelbak", "materialen": ["batterijen"], "uitbetaling": [], "vrijToegankelijk": false, "gemeenteBeperking": null, "openingstijden": null, "latitude": 51.8506893, "longitude": 4.5117444, "bronId": "L026020"}}, {"type": "Feature", "geometry": {"type": "Point", "coordinates": [4.5121389, 51.8473368]}, "properties": {"type": "inleverpunt", "locatieNaam": "Afvalaanbiedstation Barendrecht", "straatNaam": "Londen", "straatNr": "15", "postcode": "2993 LA", "plaats": "Barendrecht", "merk": "Stibat", "puntType": "inzamelbak", "materialen": ["batterijen"], "uitbetaling": [], "vrijToegankelijk": false, "gemeenteBeperking": null, "openingstijden": null, "latitude": 51.8473368, "longitude": 4.5121389, "bronId": "L035646"}}, {"type": "Feature", "geometry": {"type": "Point", "coordinates": [4.5098589, 51.8488233]}, "properties": {"type": "inleverpunt", "locatieNaam": "Karwei", "straatNaam": "Rostock", "straatNr": "3", "postcode": "2993 LH", "plaats": "Barendrecht", "merk": "Stibat", "puntType": "inzamelbak", "materialen": ["batterijen"], "uitbetaling": [], "vrijToegankelijk": false, "gemeenteBeperking": null, "openingstijden": null, "latitude": 51.8488233, "longitude": 4.5098589, "bronId": "L006840"}}, {"type": "Feature", "geometry": {"type": "Point", "coordinates": [4.4988784, 51.8470941]}, "properties": {"type": "inleverpunt", "locatieNaam": "Action", "straatNaam": "Van Beuningenhaven", "straatNr": "41-43", "postcode": "2993 EH", "plaats": "Barendrecht", "merk": "Stibat", "puntType": "inzamelbak", "materialen": ["batterijen"], "uitbetaling": [], "vrijToegankelijk": false, "gemeenteBeperking": null, "openingstijden": null, "latitude": 51.8470941, "longitude": 4.4988784, "bronId": "L036602"}}, {"type": "Feature", "geometry": {"type": "Point", "coordinates": [4.4987244, 51.8468227]}, "properties": {"type": "inleverpunt", "locatieNaam": "Zeeman", "straatNaam": "Van Beuningenhaven", "straatNr": "11-12", "postcode": "2993 EH", "plaats": "Barendrecht", "merk": "Stibat", "puntType": "inzamelbak", "materialen": ["batterijen"], "uitbetaling": [], "vrijToegankelijk": false, "gemeenteBeperking": null, "openingstijden": null, "latitude": 51.8468227, "longitude": 4.4987244, "bronId": "L038234"}}, {"type": "Feature", "geometry": {"type": "Point", "coordinates": [4.5001902, 51.8478221]}, "properties": {"type": "inleverpunt", "locatieNaam": "Hans Anders", "straatNaam": "Van Beuningenhaven", "straatNr": "30", "postcode": "2993 EH", "plaats": "Barendrecht", "merk": "Stibat", "puntType": "inzamelbak", "materialen": ["batterijen"], "uitbetaling": [], "vrijToegankelijk": false, "gemeenteBeperking": null, "openingstijden": null, "latitude": 51.8478221, "longitude": 4.5001902, "bronId": "L037749"}}, {"type": "Feature", "geometry": {"type": "Point", "coordinates": [4.4999742, 51.8478064]}, "properties": {"type": "inleverpunt", "locatieNaam": "Bruna", "straatNaam": "Van Beuningenhaven", "straatNr": "35", "postcode": "2993 EH", "plaats": "Barendrecht", "merk": "Stibat", "puntType": "inzamelbak", "materialen": ["batterijen"], "uitbetaling": [], "vrijToegankelijk": false, "gemeenteBeperking": null, "openingstijden": null, "latitude": 51.8478064, "longitude": 4.4999742, "bronId": "L045186"}}, {"type": "Feature", "geometry": {"type": "Point", "coordinates": [4.4998823, 51.847527]}, "properties": {"type": "inleverpunt", "locatieNaam": "Lidl", "straatNaam": "Van Beuningenhaven", "straatNr": "32-37", "postcode": "2993 EH", "plaats": "Barendrecht", "merk": "Stibat", "puntType": "inzamelbak", "materialen": ["batterijen"], "uitbetaling": [], "vrijToegankelijk": false, "gemeenteBeperking": null, "openingstijden": null, "latitude": 51.847527, "longitude": 4.4998823, "bronId": "L049600"}}, {"type": "Feature", "geometry": {"type": "Point", "coordinates": [4.4995835, 51.8476728]}, "properties": {"type": "inleverpunt", "locatieNaam": "HEMA Van Beuningenhaven", "straatNaam": "Van Beuningenhaven", "straatNr": "26", "postcode": "2993 EH", "plaats": "Barendrecht", "merk": "Stibat", "puntType": "inzamelbak", "materialen": ["batterijen"], "uitbetaling": [], "vrijToegankelijk": false, "gemeenteBeperking": null, "openingstijden": null, "latitude": 51.8476728, "longitude": 4.4995835, "bronId": "L013465"}}, {"type": "Feature", "geometry": {"type": "Point", "coordinates": [4.4989766, 51.8475616]}, "properties": {"type": "inleverpunt", "locatieNaam": "Kruidvat", "straatNaam": "Van Beuningenhaven", "straatNr": "22", "postcode": "2993 EH", "plaats": "Barendrecht", "merk": "Stibat", "puntType": "inzamelbak", "materialen": ["batterijen"], "uitbetaling": [], "vrijToegankelijk": false, "gemeenteBeperking": null, "openingstijden": null, "latitude": 51.8475616, "longitude": 4.4989766, "bronId": "L015687"}}, {"type": "Feature", "geometry": {"type": "Point", "coordinates": [4.4988547, 51.847277]}, "properties": {"type": "inleverpunt", "locatieNaam": "6107 Etos", "straatNaam": "Van Beuningenhaven", "straatNr": "19", "postcode": "2993 EH", "plaats": "Barendrecht", "merk": "Stibat", "puntType": "inzamelbak", "materialen": ["batterijen"], "uitbetaling": [], "vrijToegankelijk": false, "gemeenteBeperking": null, "openingstijden": null, "latitude": 51.847277, "longitude": 4.4988547, "bronId": "L023353"}}, {"type": "Feature", "geometry": {"type": "Point", "coordinates": [4.4985426, 51.8472267]}, "properties": {"type": "inleverpunt", "locatieNaam": "Intertoys", "straatNaam": "Van Beuningenhaven", "straatNr": "17-18", "postcode": "2993 EH", "plaats": "Barendrecht", "merk": "Stibat", "puntType": "inzamelbak", "materialen": ["batterijen"], "uitbetaling": [], "vrijToegankelijk": false, "gemeenteBeperking": null, "openingstijden": null, "latitude": 51.8472267, "longitude": 4.4985426, "bronId": "L026872"}}, {"type": "Feature", "geometry": {"type": "Point", "coordinates": [4.4987, 51.8470274]}, "properties": {"type": "inleverpunt", "locatieNaam": "1345 Albert Heijn", "straatNaam": "Van Beuningenhaven", "straatNr": "10", "postcode": "2993 EH", "plaats": "Barendrecht", "merk": "Stibat", "puntType": "inzamelbak", "materialen": ["batterijen"], "uitbetaling": [], "vrijToegankelijk": false, "gemeenteBeperking": null, "openingstijden": null, "latitude": 51.8470274, "longitude": 4.4987, "bronId": "L006164"}}, {"type": "Feature", "geometry": {"type": "Point", "coordinates": [4.4985182, 51.8470731]}, "properties": {"type": "inleverpunt", "locatieNaam": "Jumbo", "straatNaam": "Van Beuningenhaven", "straatNr": "4", "postcode": "2993 EH", "plaats": "Barendrecht", "merk": "Stibat", "puntType": "inzamelbak", "materialen": ["batterijen"], "uitbetaling": [], "vrijToegankelijk": false, "gemeenteBeperking": null, "openingstijden": null, "latitude": 51.8470731, "longitude": 4.4985182, "bronId": "L017864"}}, {"type": "Feature", "geometry": {"type": "Point", "coordinates": [4.4971663, 51.8477218]}, "properties": {"type": "inleverpunt", "locatieNaam": "Afval loont", "straatNaam": "Van der Vormhaven", "straatNr": "1", "postcode": "2993 HC", "plaats": "Barendrecht", "merk": "Stibat", "puntType": "inzamelbak", "materialen": ["batterijen"], "uitbetaling": [], "vrijToegankelijk": false, "gemeenteBeperking": null, "openingstijden": null, "latitude": 51.8477218, "longitude": 4.4971663, "bronId": "L038353"}}, {"type": "Feature", "geometry": {"type": "Polygon", "coordinates": [[[4.538977000848477, 51.831557003808875], [4.545749000855315, 51.831945003809146], [4.548653000858228, 51.83176300380905], [4.551566000861114, 51.83087800380847], [4.55360900086312, 51.8298970038079], [4.5585920008684235, 51.83554200381151], [4.559068000868961, 51.836655003812176], [4.5586360008685345, 51.83683600381231], [4.560013000870023, 51.8387910038136], [4.566190000876424, 51.84247000381596], [4.569002000879377, 51.844815003817494], [4.571227000881742, 51.847333003819074], [4.5713050008819485, 51.849852003820686], [4.5699710008807495, 51.85262100382244], [4.565961000876683, 51.85208600382211], [4.565247000875988, 51.85251400382232], [4.564982000875759, 51.85328600382285], [4.564106000874889, 51.853473003822984], [4.5644660008752656, 51.85376800382318], [4.549383000861125, 51.87402700383593], [4.548117000859841, 51.87381800383583], [4.544939000856568, 51.872311003834874], [4.544250000855874, 51.872302003834854], [4.542579000854115, 51.87079900383386], [4.532027000843397, 51.86877700383256], [4.528199000839564, 51.86914200383273], [4.526095000837481, 51.869731003833145], [4.5218270008331505, 51.869051003832666], [4.494040000805194, 51.86896800383243], [4.4887530007997904, 51.86734800383135], [4.487175000798196, 51.86717100383125], [4.483543000794476, 51.86590500383043], [4.479916000790796, 51.86527400383], [4.4805810007911635, 51.859509003826325], [4.4798720007904205, 51.85892900382597], [4.481272000791809, 51.85856200382572], [4.480288000790639, 51.85514900382355], [4.490125000800338, 51.85131500382118], [4.48718700079724, 51.84854900381939], [4.489700000799675, 51.846776003818285], [4.489405000799358, 51.846414003818055], [4.489882000799722, 51.84421100381665], [4.489572000799402, 51.844048003816525], [4.4922270008019405, 51.841444003814914], [4.489732000799392, 51.84075500381445], [4.489094000798471, 51.835396003811006], [4.496343000805772, 51.835501003811125], [4.502188000811623, 51.83486600381076], [4.519660000828993, 51.830725003808226], [4.525478000834803, 51.8298540038077], [4.5312730008406525, 51.83019900380797], [4.538977000848477, 51.831557003808875]]]}, "properties": {"type": "boundary", "gemeente": "Barendrecht"}}]}