{"type": "FeatureCollection", "metadata": {"gemeente": "Beekdaelen", "slug": "beekdaelen", "generated_at": "2026-08-31T08:03:42.037366Z", "total_points": 58, "merken": ["StatiegeldNederland", "Stibat", "StichtingOPEN"], "bounds": [5.8171935, 50.888196, 5.9855226, 50.9684716]}, "features": [{"type": "Feature", "geometry": {"type": "Point", "coordinates": [5.8579082, 50.8901349]}, "properties": {"type": "inleverpunt", "locatieNaam": "Albert Heijn", "straatNaam": "Europaplein", "straatNr": "1", "postcode": "6336 BE", "plaats": "Hulsberg", "merk": "StatiegeldNederland", "puntType": "automaat", "materialen": ["pet-groot", "pet-klein", "blik", "glas", "krat"], "uitbetaling": ["bonnetje"], "vrijToegankelijk": true, "gemeenteBeperking": null, "openingstijden": {"ma": "08:00–21:00", "di": "08:00–21:00", "wo": "08:00–21:00", "do": "08:00–21:00", "vr": "08:00–21:00", "za": "08:00–21:00", "zo": "08:00–21:00"}, "latitude": 50.8901349, "longitude": 5.8579082, "bronId": "310293"}}, {"type": "Feature", "geometry": {"type": "Point", "coordinates": [5.9235911, 50.9414932]}, "properties": {"type": "inleverpunt", "locatieNaam": "Albert Heijn", "straatNaam": "Hoofdstraat", "straatNr": "45", "postcode": "6436 CB", "plaats": "Amstenrade", "merk": "StatiegeldNederland", "puntType": "automaat", "materialen": ["pet-groot", "pet-klein", "blik", "glas", "krat"], "uitbetaling": ["bonnetje", "donatie"], "vrijToegankelijk": true, "gemeenteBeperking": null, "openingstijden": {"ma": "08:00–20:00", "di": "08:00–20:00", "wo": "08:00–20:00", "do": "08:00–20:00", "vr": "08:00–20:00", "za": "08:00–20:00", "zo": "09:00–18:00"}, "latitude": 50.9414932, "longitude": 5.9235911, "bronId": "310404"}}, {"type": "Feature", "geometry": {"type": "Point", "coordinates": [5.9119432, 50.9554734]}, "properties": {"type": "inleverpunt", "locatieNaam": "Aldi", "straatNaam": "Provinciale weg Noord", "straatNr": "9", "postcode": "6438 AA", "plaats": "Oirsbeek", "merk": "StatiegeldNederland", "puntType": "automaat", "materialen": ["pet-groot", "pet-klein", "blik", "glas", "krat"], "uitbetaling": ["bonnetje"], "vrijToegankelijk": true, "gemeenteBeperking": null, "openingstijden": {"ma": "08:00–20:00", "di": "08:00–20:00", "wo": "08:00–20:00", "do": "08:00–20:00", "vr": "08:00–20:00", "za": "08:00–20:00", "zo": "09:00–18:00"}, "latitude": 50.9554734, "longitude": 5.9119432, "bronId": "311408"}}, {"type": "Feature", "geometry": {"type": "Point", "coordinates": [5.8916062, 50.9202011]}, "properties": {"type": "inleverpunt", "locatieNaam": "Aldi", "straatNaam": "Stationstraat", "straatNr": "5", "postcode": "6361 BH", "plaats": "Nuth", "merk": "StatiegeldNederland", "puntType": "automaat", "materialen": ["pet-groot", "pet-klein", "blik", "glas", "krat"], "uitbetaling": ["bonnetje"], "vrijToegankelijk": true, "gemeenteBeperking": null, "openingstijden": {"ma": "08:00–20:00", "di": "08:00–20:00", "wo": "08:00–20:00", "do": "08:00–20:00", "vr": "08:00–20:00", "za": "08:00–20:00", "zo": "09:00–18:00"}, "latitude": 50.9202011, "longitude": 5.8916062, "bronId": "311455"}}, {"type": "Feature", "geometry": {"type": "Point", "coordinates": [5.9079181, 50.9493588]}, "properties": {"type": "inleverpunt", "locatieNaam": "Jumbo", "straatNaam": "Markt", "straatNr": "20", "postcode": "6438 HB", "plaats": "Oirsbeek", "merk": "StatiegeldNederland", "puntType": "automaat", "materialen": ["pet-groot", "pet-klein", "blik", "glas", "krat"], "uitbetaling": ["bonnetje", "donatie"], "vrijToegankelijk": true, "gemeenteBeperking": null, "openingstijden": null, "latitude": 50.9493588, "longitude": 5.9079181, "bronId": "313875"}}, {"type": "Feature", "geometry": {"type": "Point", "coordinates": [5.884256, 50.9175408]}, "properties": {"type": "inleverpunt", "locatieNaam": "Jumbo", "straatNaam": "Markt", "straatNr": "21", "postcode": "6361 CB", "plaats": "Nuth", "merk": "StatiegeldNederland", "puntType": "automaat", "materialen": ["pet-groot", "pet-klein", "blik", "glas", "krat"], "uitbetaling": ["bonnetje", "donatie"], "vrijToegankelijk": true, "gemeenteBeperking": null, "openingstijden": {"ma": "08:00–21:00", "di": "08:00–21:00", "wo": "08:00–21:00", "do": "08:00–21:00", "vr": "08:00–21:00", "za": "08:00–21:00", "zo": "09:00–20:00"}, "latitude": 50.9175408, "longitude": 5.884256, "bronId": "313877"}}, {"type": "Feature", "geometry": {"type": "Point", "coordinates": [5.87945, 50.92339]}, "properties": {"type": "inleverpunt", "locatieNaam": "Makro", "straatNaam": "Thermiekstraat", "straatNr": "15", "postcode": "6361 HB", "plaats": "Nuth", "merk": "StatiegeldNederland", "puntType": "automaat", "materialen": ["pet-groot", "pet-klein", "blik", "krat"], "uitbetaling": ["donatie", "tikkie"], "vrijToegankelijk": true, "gemeenteBeperking": null, "openingstijden": {"ma": "08:00–21:00", "di": "08:00–21:00", "wo": "08:00–21:00", "do": "08:00–21:00", "vr": "08:00–21:00", "za": "08:00–18:00", "zo": "11:00–18:00"}, "latitude": 50.92339, "longitude": 5.87945, "bronId": "314883"}}, {"type": "Feature", "geometry": {"type": "Point", "coordinates": [5.8998346, 50.9235625]}, "properties": {"type": "inleverpunt", "locatieNaam": "Naanhof Nuth", "straatNaam": "Naanhofsweg", "straatNr": "3", "postcode": "6361 DP", "plaats": "Nuth", "merk": "StatiegeldNederland", "puntType": "automaat", "materialen": ["pet-groot", "pet-klein", "blik"], "uitbetaling": ["bonnetje", "donatie"], "vrijToegankelijk": true, "gemeenteBeperking": null, "openingstijden": null, "latitude": 50.9235625, "longitude": 5.8998346, "bronId": "315167"}}, {"type": "Feature", "geometry": {"type": "Point", "coordinates": [5.98077, 50.96844]}, "properties": {"type": "inleverpunt", "locatieNaam": "Plus", "straatNaam": "A Ge Water", "straatNr": "3", "postcode": "6451 CB", "plaats": "Schinveld", "merk": "StatiegeldNederland", "puntType": "automaat", "materialen": ["pet-groot", "pet-klein", "blik", "glas", "krat"], "uitbetaling": ["bonnetje"], "vrijToegankelijk": true, "gemeenteBeperking": null, "openingstijden": {"ma": "07:30–21:00", "di": "07:30–21:00", "wo": "07:30–21:00", "do": "07:30–21:00", "vr": "07:30–21:00", "za": "07:30–21:00", "zo": "08:00–20:00"}, "latitude": 50.96844, "longitude": 5.98077, "bronId": "315523"}}, {"type": "Feature", "geometry": {"type": "Point", "coordinates": [5.8867976, 50.9434063]}, "properties": {"type": "inleverpunt", "locatieNaam": "Plus", "straatNaam": "Scalaplein", "straatNr": "1", "postcode": "6365 BP", "plaats": "Schinnen", "merk": "StatiegeldNederland", "puntType": "automaat", "materialen": ["pet-groot", "pet-klein", "blik", "glas", "krat"], "uitbetaling": ["bonnetje", "donatie"], "vrijToegankelijk": true, "gemeenteBeperking": null, "openingstijden": {"ma": "07:30–21:00", "di": "07:30–21:00", "wo": "07:30–21:00", "do": "07:30–21:00", "vr": "07:30–21:00", "za": "07:30–21:00", "zo": "08:00–20:00"}, "latitude": 50.9434063, "longitude": 5.8867976, "bronId": "315864"}}, {"type": "Feature", "geometry": {"type": "Point", "coordinates": [5.8237875, 50.9043489]}, "properties": {"type": "inleverpunt", "locatieNaam": "Plus", "straatNaam": "Weidestraat", "straatNr": "3", "postcode": "6333 DE", "plaats": "Schimmert", "merk": "StatiegeldNederland", "puntType": "automaat", "materialen": ["pet-groot", "pet-klein", "blik", "glas", "krat"], "uitbetaling": ["bonnetje"], "vrijToegankelijk": true, "gemeenteBeperking": null, "openingstijden": {"ma": "08:00–20:00", "di": "08:00–20:00", "wo": "08:00–20:00", "do": "08:00–20:00", "vr": "08:00–20:00", "za": "08:00–20:00", "zo": "09:00–18:00"}, "latitude": 50.9043489, "longitude": 5.8237875, "bronId": "315932"}}, {"type": "Feature", "geometry": {"type": "Point", "coordinates": [5.9731362, 50.9653699]}, "properties": {"type": "inleverpunt", "locatieNaam": "Spar Express", "straatNaam": "ECHTERBAAN", "straatNr": "2", "postcode": "6451 PA", "plaats": "Schinveld", "merk": "StatiegeldNederland", "puntType": "balie", "materialen": ["pet-groot", "pet-klein", "blik"], "uitbetaling": [], "vrijToegankelijk": true, "gemeenteBeperking": null, "openingstijden": {"ma": "06:00–21:00", "di": "06:00–21:00", "wo": "06:00–21:00", "do": "06:00–21:00", "vr": "06:00–21:00", "za": "08:00–21:00", "zo": "10:00–18:00"}, "latitude": 50.9653699, "longitude": 5.9731362, "bronId": "316905"}}, {"type": "Feature", "geometry": {"type": "Point", "coordinates": [5.8903616, 50.9230092]}, "properties": {"type": "inleverpunt", "locatieNaam": "Spar Express", "straatNaam": "VAN EYNATTENWEG", "straatNr": "1", "postcode": "6361 DZ", "plaats": "Nuth", "merk": "StatiegeldNederland", "puntType": "balie", "materialen": ["pet-groot", "pet-klein", "blik"], "uitbetaling": [], "vrijToegankelijk": true, "gemeenteBeperking": null, "openingstijden": {"ma": "06:00–21:00", "di": "06:00–21:00", "wo": "06:00–21:00", "do": "06:00–21:00", "vr": "06:00–21:00", "za": "08:00–21:00", "zo": "10:00–18:00"}, "latitude": 50.9230092, "longitude": 5.8903616, "bronId": "316973"}}, {"type": "Feature", "geometry": {"type": "Point", "coordinates": [5.9757052, 50.9652829]}, "properties": {"type": "inleverpunt", "locatieNaam": "Tpc Schinveld", "straatNaam": "Duikerweg", "straatNr": "2", "postcode": "6451 EK", "plaats": "Schinveld", "merk": "StatiegeldNederland", "puntType": "balie", "materialen": ["pet-groot", "pet-klein", "blik"], "uitbetaling": [], "vrijToegankelijk": false, "gemeenteBeperking": null, "openingstijden": {"ma": "08:30–22:30", "di": "08:30–22:30", "wo": "08:30–22:30", "do": "08:30–22:30", "vr": "08:30–22:30", "za": "08:30–20:00", "zo": "08:30–20:00"}, "latitude": 50.9652829, "longitude": 5.9757052, "bronId": "317435"}}, {"type": "Feature", "geometry": {"type": "Point", "coordinates": [5.8527515, 50.8946228]}, "properties": {"type": "inleverpunt", "locatieNaam": "ViaTim", "straatNaam": "Aalbekerweg", "straatNr": "41", "postcode": "6336 XM", "plaats": "Hulsberg", "merk": "StatiegeldNederland", "puntType": "balie", "materialen": ["pet-groot", "pet-klein", "blik"], "uitbetaling": ["tikkie"], "vrijToegankelijk": true, "gemeenteBeperking": null, "openingstijden": null, "latitude": 50.8946228, "longitude": 5.8527515, "bronId": "317613"}}, {"type": "Feature", "geometry": {"type": "Point", "coordinates": [5.9015966, 50.94658]}, "properties": {"type": "inleverpunt", "locatieNaam": "Vv Alfa Sport", "straatNaam": "Oirsbekerweg", "straatNr": "90", "postcode": "6438 HC", "plaats": "Oirsbeek", "merk": "StatiegeldNederland", "puntType": "balie", "materialen": ["pet-groot", "pet-klein", "blik"], "uitbetaling": [], "vrijToegankelijk": false, "gemeenteBeperking": null, "openingstijden": null, "latitude": 50.94658, "longitude": 5.9015966, "bronId": "318275"}}, {"type": "Feature", "geometry": {"type": "Point", "coordinates": [5.8171935, 50.9007875]}, "properties": {"type": "inleverpunt", "locatieNaam": "Vv Schimmert", "straatNaam": "Waterkuilsweg", "straatNr": "3", "postcode": "6333 QQ", "plaats": "Schimmert", "merk": "StatiegeldNederland", "puntType": "balie", "materialen": ["pet-groot", "pet-klein", "blik"], "uitbetaling": [], "vrijToegankelijk": false, "gemeenteBeperking": null, "openingstijden": {"ma": "Gesloten", "di": "19:30–00:00", "wo": "Gesloten", "do": "Gesloten", "vr": "19:30–00:00", "za": "09:00–21:00", "zo": "09:00–20:00"}, "latitude": 50.9007875, "longitude": 5.8171935, "bronId": "318339"}}, {"type": "Feature", "geometry": {"type": "Point", "coordinates": [5.9367689, 50.9531424]}, "properties": {"type": "inleverpunt", "locatieNaam": "Woander Forest", "straatNaam": "Julianastraat", "straatNr": "64", "postcode": "6441 BV", "plaats": "Brunssum", "merk": "StatiegeldNederland", "puntType": "balie", "materialen": ["pet-groot", "pet-klein", "blik"], "uitbetaling": [], "vrijToegankelijk": false, "gemeenteBeperking": null, "openingstijden": null, "latitude": 50.9531424, "longitude": 5.9367689, "bronId": "318411"}}, {"type": "Feature", "geometry": {"type": "Point", "coordinates": [5.911635, 50.955391]}, "properties": {"type": "inleverpunt", "locatieNaam": "Aldi Oirsbeek", "straatNaam": "Provincialeweg Noord", "straatNr": "7", "postcode": "6438 AA", "plaats": "Oirsbeek", "merk": "StichtingOPEN", "puntType": "balie", "materialen": ["batterijen", "elektro-klein", "lampen"], "uitbetaling": [], "vrijToegankelijk": false, "gemeenteBeperking": null, "openingstijden": null, "latitude": 50.955391, "longitude": 5.911635, "bronId": "SP00027087"}}, {"type": "Feature", "geometry": {"type": "Point", "coordinates": [5.980622, 50.968388]}, "properties": {"type": "inleverpunt", "locatieNaam": "PLUS Schinveld", "straatNaam": "A ge Water", "straatNr": "3", "postcode": "6451 CB", "plaats": "Schinveld", "merk": "StichtingOPEN", "puntType": "balie", "materialen": ["batterijen", "lampen"], "uitbetaling": [], "vrijToegankelijk": false, "gemeenteBeperking": null, "openingstijden": null, "latitude": 50.968388, "longitude": 5.980622, "bronId": "SP00023978"}}, {"type": "Feature", "geometry": {"type": "Point", "coordinates": [5.90798, 50.94932]}, "properties": {"type": "inleverpunt", "locatieNaam": "Jumbo Oirsbeek", "straatNaam": "Markt", "straatNr": "20", "postcode": "6438 HB", "plaats": "Oirsbeek", "merk": "StichtingOPEN", "puntType": "balie", "materialen": ["batterijen", "elektro-klein", "lampen"], "uitbetaling": [], "vrijToegankelijk": false, "gemeenteBeperking": null, "openingstijden": null, "latitude": 50.94932, "longitude": 5.90798, "bronId": "SP00024949"}}, {"type": "Feature", "geometry": {"type": "Point", "coordinates": [5.886797, 50.943406]}, "properties": {"type": "inleverpunt", "locatieNaam": "PLUS Schinnen", "straatNaam": "Scalaplein", "straatNr": "1", "postcode": "6365 BP", "plaats": "Schinnen", "merk": "StichtingOPEN", "puntType": "balie", "materialen": ["batterijen", "lampen"], "uitbetaling": [], "vrijToegankelijk": false, "gemeenteBeperking": null, "openingstijden": null, "latitude": 50.943406, "longitude": 5.886797, "bronId": "SP00035898"}}, {"type": "Feature", "geometry": {"type": "Point", "coordinates": [5.923519, 50.941527]}, "properties": {"type": "inleverpunt", "locatieNaam": "Albert Heijn Amstenrade", "straatNaam": "Hoofdstraat", "straatNr": "45", "postcode": "6436 CB", "plaats": "Amstenrade", "merk": "StichtingOPEN", "puntType": "balie", "materialen": ["batterijen", "lampen"], "uitbetaling": [], "vrijToegankelijk": false, "gemeenteBeperking": null, "openingstijden": null, "latitude": 50.941527, "longitude": 5.923519, "bronId": "SP00025625"}}, {"type": "Feature", "geometry": {"type": "Point", "coordinates": [5.891221, 50.920922]}, "properties": {"type": "inleverpunt", "locatieNaam": "Aldi Nuth", "straatNaam": "Stationstraat", "straatNr": "7", "postcode": "6361 BH", "plaats": "Nuth", "merk": "StichtingOPEN", "puntType": "balie", "materialen": ["batterijen", "elektro-klein", "lampen"], "uitbetaling": [], "vrijToegankelijk": false, "gemeenteBeperking": null, "openingstijden": null, "latitude": 50.920922, "longitude": 5.891221, "bronId": "SP00027086"}}, {"type": "Feature", "geometry": {"type": "Point", "coordinates": [5.88316, 50.917242]}, "properties": {"type": "inleverpunt", "locatieNaam": "Kruidvat Nuth", "straatNaam": "Markt", "straatNr": "2a", "postcode": "6361 CB", "plaats": "Nuth", "merk": "StichtingOPEN", "puntType": "balie", "materialen": ["batterijen", "lampen"], "uitbetaling": [], "vrijToegankelijk": false, "gemeenteBeperking": null, "openingstijden": null, "latitude": 50.917242, "longitude": 5.88316, "bronId": "SP00024458"}}, {"type": "Feature", "geometry": {"type": "Point", "coordinates": [5.88339, 50.91689]}, "properties": {"type": "inleverpunt", "locatieNaam": "Action Nuth", "straatNaam": "Markt", "straatNr": "10", "postcode": "6361 CB", "plaats": "Nuth", "merk": "StichtingOPEN", "puntType": "balie", "materialen": ["batterijen", "lampen"], "uitbetaling": [], "vrijToegankelijk": false, "gemeenteBeperking": null, "openingstijden": null, "latitude": 50.91689, "longitude": 5.88339, "bronId": "SP00029858"}}, {"type": "Feature", "geometry": {"type": "Point", "coordinates": [5.88361, 50.916784]}, "properties": {"type": "inleverpunt", "locatieNaam": "Jumbo Nuth", "straatNaam": "Markt", "straatNr": "21", "postcode": "6361 CB", "plaats": "Nuth", "merk": "StichtingOPEN", "puntType": "balie", "materialen": ["batterijen", "lampen"], "uitbetaling": [], "vrijToegankelijk": false, "gemeenteBeperking": null, "openingstijden": null, "latitude": 50.916784, "longitude": 5.88361, "bronId": "SP00024948"}}, {"type": "Feature", "geometry": {"type": "Point", "coordinates": [5.823787, 50.904348]}, "properties": {"type": "inleverpunt", "locatieNaam": "PLUS Schimmert", "straatNaam": "Weidestraat", "straatNr": "3", "postcode": "6333 DE", "plaats": "Schimmert", "merk": "StichtingOPEN", "puntType": "balie", "materialen": ["batterijen", "lampen"], "uitbetaling": [], "vrijToegankelijk": false, "gemeenteBeperking": null, "openingstijden": null, "latitude": 50.904348, "longitude": 5.823787, "bronId": "SP00035743"}}, {"type": "Feature", "geometry": {"type": "Point", "coordinates": [5.857119, 50.889659]}, "properties": {"type": "inleverpunt", "locatieNaam": "8569 Albert Heijn Hulsberg", "straatNaam": "Europaplein", "straatNr": "1", "postcode": "6336 BE", "plaats": "Hulsberg", "merk": "StichtingOPEN", "puntType": "balie", "materialen": ["batterijen", "elektro-klein", "lampen"], "uitbetaling": [], "vrijToegankelijk": false, "gemeenteBeperking": null, "openingstijden": null, "latitude": 50.889659, "longitude": 5.857119, "bronId": "SP00022505"}}, {"type": "Feature", "geometry": {"type": "Point", "coordinates": [5.879966, 50.935992]}, "properties": {"type": "inleverpunt", "locatieNaam": "Rd4 Milieupark Schinnen", "straatNaam": "Breinderveldweg", "straatNr": "16", "postcode": "6365 CM", "plaats": "Schinnen", "merk": "StichtingOPEN", "puntType": "milieustraat", "materialen": ["batterijen", "elektro-groot", "elektro-klein", "elektro-middel", "lampen", "tl-buizen"], "uitbetaling": [], "vrijToegankelijk": false, "gemeenteBeperking": ["Beekdaelen", "Landgraaf", "Brunssum", "Heerlen", "Kerkrade", "Simpelveld", "Vaals", "Voerendaal", "Gulpen-Wittem", "Eijsden-Margraten"], "openingstijden": null, "latitude": 50.935992, "longitude": 5.879966, "bronId": "SP00004277"}}, {"type": "Feature", "geometry": {"type": "Point", "coordinates": [5.978184, 50.959961]}, "properties": {"type": "inleverpunt", "locatieNaam": "Rd4 Milieupark Brunssum", "straatNaam": "Milieuweg", "straatNr": "1", "postcode": "6442 PV", "plaats": "Brunssum", "merk": "StichtingOPEN", "puntType": "milieustraat", "materialen": ["batterijen", "elektro-groot", "elektro-klein", "elektro-middel", "lampen", "tl-buizen"], "uitbetaling": [], "vrijToegankelijk": false, "gemeenteBeperking": ["Brunssum", "Landgraaf", "Heerlen", "Kerkrade", "Simpelveld", "Vaals", "Voerendaal", "Gulpen-Wittem", "Eijsden-Margraten", "Beekdaelen"], "openingstijden": null, "latitude": 50.959961, "longitude": 5.978184, "bronId": "SP00001489"}}, {"type": "Feature", "geometry": {"type": "Point", "coordinates": [5.9116351, 50.9553919]}, "properties": {"type": "inleverpunt", "locatieNaam": "Aldi", "straatNaam": "Provincialeweg Noord", "straatNr": "7", "postcode": "6438 AA", "plaats": "Oirsbeek", "merk": "Stibat", "puntType": "inzamelbak", "materialen": ["batterijen"], "uitbetaling": [], "vrijToegankelijk": false, "gemeenteBeperking": null, "openingstijden": null, "latitude": 50.9553919, "longitude": 5.9116351, "bronId": "L041413"}}, {"type": "Feature", "geometry": {"type": "Point", "coordinates": [5.980816, 50.9684716]}, "properties": {"type": "inleverpunt", "locatieNaam": "PLUS", "straatNaam": "A Ge Water", "straatNr": "3", "postcode": "6451 CB", "plaats": "Schinveld", "merk": "Stibat", "puntType": "inzamelbak", "materialen": ["batterijen"], "uitbetaling": [], "vrijToegankelijk": false, "gemeenteBeperking": null, "openingstijden": null, "latitude": 50.9684716, "longitude": 5.980816, "bronId": "L022232"}}, {"type": "Feature", "geometry": {"type": "Point", "coordinates": [5.9730589, 50.9652211]}, "properties": {"type": "inleverpunt", "locatieNaam": "Esso", "straatNaam": "Echterbaan", "straatNr": "2", "postcode": "6451 PA", "plaats": "Schinveld", "merk": "Stibat", "puntType": "inzamelbak", "materialen": ["batterijen"], "uitbetaling": [], "vrijToegankelijk": false, "gemeenteBeperking": null, "openingstijden": null, "latitude": 50.9652211, "longitude": 5.9730589, "bronId": "L026581"}}, {"type": "Feature", "geometry": {"type": "Point", "coordinates": [5.907728, 50.949434]}, "properties": {"type": "inleverpunt", "locatieNaam": "Jumbo", "straatNaam": "Markt", "straatNr": "20", "postcode": "6438 HB", "plaats": "Oirsbeek", "merk": "Stibat", "puntType": "inzamelbak", "materialen": ["batterijen"], "uitbetaling": [], "vrijToegankelijk": false, "gemeenteBeperking": null, "openingstijden": null, "latitude": 50.949434, "longitude": 5.907728, "bronId": "L018188"}}, {"type": "Feature", "geometry": {"type": "Point", "coordinates": [5.8867976, 50.9434063]}, "properties": {"type": "inleverpunt", "locatieNaam": "Plus", "straatNaam": "Scalaplein", "straatNr": "1", "postcode": "6365 BP", "plaats": "Schinnen", "merk": "Stibat", "puntType": "inzamelbak", "materialen": ["batterijen"], "uitbetaling": [], "vrijToegankelijk": false, "gemeenteBeperking": null, "openingstijden": null, "latitude": 50.9434063, "longitude": 5.8867976, "bronId": "L047090"}}, {"type": "Feature", "geometry": {"type": "Point", "coordinates": [5.9179821, 50.9479333]}, "properties": {"type": "inleverpunt", "locatieNaam": "De Haan", "straatNaam": "Provincialeweg", "straatNr": "82A", "postcode": "6439 AA", "plaats": "Doenrade", "merk": "Stibat", "puntType": "inzamelbak", "materialen": ["batterijen"], "uitbetaling": [], "vrijToegankelijk": false, "gemeenteBeperking": null, "openingstijden": null, "latitude": 50.9479333, "longitude": 5.9179821, "bronId": "L044741"}}, {"type": "Feature", "geometry": {"type": "Point", "coordinates": [5.9855226, 50.9614539]}, "properties": {"type": "inleverpunt", "locatieNaam": "De Brenkberg B.V.", "straatNaam": "Bouwbergstraat", "straatNr": "126", "postcode": "6451 GR", "plaats": "Schinveld", "merk": "Stibat", "puntType": "inzamelbak", "materialen": ["batterijen"], "uitbetaling": [], "vrijToegankelijk": false, "gemeenteBeperking": null, "openingstijden": null, "latitude": 50.9614539, "longitude": 5.9855226, "bronId": "L010102"}}, {"type": "Feature", "geometry": {"type": "Point", "coordinates": [5.8819242, 50.9370166]}, "properties": {"type": "inleverpunt", "locatieNaam": "Milieupark Beek", "straatNaam": "Breinderveldweg", "straatNr": "16", "postcode": "6365 CM", "plaats": "Schinnen", "merk": "Stibat", "puntType": "inzamelbak", "materialen": ["batterijen"], "uitbetaling": [], "vrijToegankelijk": false, "gemeenteBeperking": null, "openingstijden": null, "latitude": 50.9370166, "longitude": 5.8819242, "bronId": "L035804"}}, {"type": "Feature", "geometry": {"type": "Point", "coordinates": [5.9235196, 50.9415275]}, "properties": {"type": "inleverpunt", "locatieNaam": "4121 Albert Heijn", "straatNaam": "Hoofdstraat", "straatNr": "45", "postcode": "6436 CB", "plaats": "Amstenrade", "merk": "Stibat", "puntType": "inzamelbak", "materialen": ["batterijen"], "uitbetaling": [], "vrijToegankelijk": false, "gemeenteBeperking": null, "openingstijden": null, "latitude": 50.9415275, "longitude": 5.9235196, "bronId": "L047361"}}, {"type": "Feature", "geometry": {"type": "Point", "coordinates": [5.9232941, 50.9405994]}, "properties": {"type": "inleverpunt", "locatieNaam": "Hoorkliniek Eikelboom", "straatNaam": "Raadhuisplein", "straatNr": "24A", "postcode": "6436 BW", "plaats": "Amstenrade", "merk": "Stibat", "puntType": "inzamelbak", "materialen": ["batterijen"], "uitbetaling": [], "vrijToegankelijk": false, "gemeenteBeperking": null, "openingstijden": null, "latitude": 50.9405994, "longitude": 5.9232941, "bronId": "L039646"}}, {"type": "Feature", "geometry": {"type": "Point", "coordinates": [5.8794558, 50.9233905]}, "properties": {"type": "inleverpunt", "locatieNaam": "Makro", "straatNaam": "Thermiekstraat", "straatNr": "15", "postcode": "6361 HB", "plaats": "Nuth", "merk": "Stibat", "puntType": "inzamelbak", "materialen": ["batterijen"], "uitbetaling": [], "vrijToegankelijk": false, "gemeenteBeperking": null, "openingstijden": null, "latitude": 50.9233905, "longitude": 5.8794558, "bronId": "L026800"}}, {"type": "Feature", "geometry": {"type": "Point", "coordinates": [5.8903605, 50.923011]}, "properties": {"type": "inleverpunt", "locatieNaam": "Esso", "straatNaam": "Van Eijnattenweg", "straatNr": "1", "postcode": "6361 DZ", "plaats": "Nuth", "merk": "Stibat", "puntType": "inzamelbak", "materialen": ["batterijen"], "uitbetaling": [], "vrijToegankelijk": false, "gemeenteBeperking": null, "openingstijden": null, "latitude": 50.923011, "longitude": 5.8903605, "bronId": "L027338"}}, {"type": "Feature", "geometry": {"type": "Point", "coordinates": [5.8912212, 50.9209227]}, "properties": {"type": "inleverpunt", "locatieNaam": "Aldi", "straatNaam": "Stationstraat", "straatNr": "7", "postcode": "6361 BH", "plaats": "Nuth", "merk": "Stibat", "puntType": "inzamelbak", "materialen": ["batterijen"], "uitbetaling": [], "vrijToegankelijk": false, "gemeenteBeperking": null, "openingstijden": null, "latitude": 50.9209227, "longitude": 5.8912212, "bronId": "L041404"}}, {"type": "Feature", "geometry": {"type": "Point", "coordinates": [5.8810132, 50.9188399]}, "properties": {"type": "inleverpunt", "locatieNaam": "Boerenbond", "straatNaam": "Platsmolenweg", "straatNr": "11", "postcode": "6361 EN", "plaats": "Nuth", "merk": "Stibat", "puntType": "inzamelbak", "materialen": ["batterijen"], "uitbetaling": [], "vrijToegankelijk": false, "gemeenteBeperking": null, "openingstijden": null, "latitude": 50.9188399, "longitude": 5.8810132, "bronId": "L029578"}}, {"type": "Feature", "geometry": {"type": "Point", "coordinates": [5.8897393, 50.9205041]}, "properties": {"type": "inleverpunt", "locatieNaam": "Petit Verbindt", "straatNaam": "Stationstraat", "straatNr": "59", "postcode": "6361 BH", "plaats": "Nuth", "merk": "Stibat", "puntType": "inzamelbak", "materialen": ["batterijen"], "uitbetaling": [], "vrijToegankelijk": false, "gemeenteBeperking": null, "openingstijden": null, "latitude": 50.9205041, "longitude": 5.8897393, "bronId": "L028786"}}, {"type": "Feature", "geometry": {"type": "Point", "coordinates": [5.8843219, 50.9178536]}, "properties": {"type": "inleverpunt", "locatieNaam": "DA", "straatNaam": "Stationstraat", "straatNr": "272", "postcode": "6361 BH", "plaats": "Nuth", "merk": "Stibat", "puntType": "inzamelbak", "materialen": ["batterijen"], "uitbetaling": [], "vrijToegankelijk": false, "gemeenteBeperking": null, "openingstijden": null, "latitude": 50.9178536, "longitude": 5.8843219, "bronId": "L024103"}}, {"type": "Feature", "geometry": {"type": "Point", "coordinates": [5.8831592, 50.9172442]}, "properties": {"type": "inleverpunt", "locatieNaam": "Jumbo", "straatNaam": "Markt", "straatNr": "21", "postcode": "6361 CB", "plaats": "Nuth", "merk": "Stibat", "puntType": "inzamelbak", "materialen": ["batterijen"], "uitbetaling": [], "vrijToegankelijk": false, "gemeenteBeperking": null, "openingstijden": null, "latitude": 50.9172442, "longitude": 5.8831592, "bronId": "L018966"}}, {"type": "Feature", "geometry": {"type": "Point", "coordinates": [5.8831743, 50.9172155]}, "properties": {"type": "inleverpunt", "locatieNaam": "Kruidvat", "straatNaam": "Markt", "straatNr": "2A", "postcode": "6361 CB", "plaats": "Nuth", "merk": "Stibat", "puntType": "inzamelbak", "materialen": ["batterijen"], "uitbetaling": [], "vrijToegankelijk": false, "gemeenteBeperking": null, "openingstijden": null, "latitude": 50.9172155, "longitude": 5.8831743, "bronId": "L015748"}}, {"type": "Feature", "geometry": {"type": "Point", "coordinates": [5.8312186, 50.9074685]}, "properties": {"type": "inleverpunt", "locatieNaam": "Camping Mareveld", "straatNaam": "Mareweg", "straatNr": "23", "postcode": "6333 BR", "plaats": "Schimmert", "merk": "Stibat", "puntType": "inzamelbak", "materialen": ["batterijen"], "uitbetaling": [], "vrijToegankelijk": false, "gemeenteBeperking": null, "openingstijden": null, "latitude": 50.9074685, "longitude": 5.8312186, "bronId": "L011727"}}, {"type": "Feature", "geometry": {"type": "Point", "coordinates": [5.8833984, 50.9168909]}, "properties": {"type": "inleverpunt", "locatieNaam": "1400 Action", "straatNaam": "Markt", "straatNr": "10", "postcode": "6361 CB", "plaats": "Nuth", "merk": "Stibat", "puntType": "inzamelbak", "materialen": ["batterijen"], "uitbetaling": [], "vrijToegankelijk": false, "gemeenteBeperking": null, "openingstijden": null, "latitude": 50.9168909, "longitude": 5.8833984, "bronId": "L040287"}}, {"type": "Feature", "geometry": {"type": "Point", "coordinates": [5.8237875, 50.9043489]}, "properties": {"type": "inleverpunt", "locatieNaam": "Plus", "straatNaam": "Weidestraat", "straatNr": "3", "postcode": "6333 DE", "plaats": "Schimmert", "merk": "Stibat", "puntType": "inzamelbak", "materialen": ["batterijen"], "uitbetaling": [], "vrijToegankelijk": false, "gemeenteBeperking": null, "openingstijden": null, "latitude": 50.9043489, "longitude": 5.8237875, "bronId": "L047095"}}, {"type": "Feature", "geometry": {"type": "Point", "coordinates": [5.8244223, 50.9028534]}, "properties": {"type": "inleverpunt", "locatieNaam": "Soons DHZ", "straatNaam": "Hoofdstraat", "straatNr": "45", "postcode": "6333 BE", "plaats": "Schimmert", "merk": "Stibat", "puntType": "inzamelbak", "materialen": ["batterijen"], "uitbetaling": [], "vrijToegankelijk": false, "gemeenteBeperking": null, "openingstijden": null, "latitude": 50.9028534, "longitude": 5.8244223, "bronId": "L039861"}}, {"type": "Feature", "geometry": {"type": "Point", "coordinates": [5.8833856, 50.9132611]}, "properties": {"type": "inleverpunt", "locatieNaam": "Harings", "straatNaam": "Bavostraat", "straatNr": "118", "postcode": "6361 CH", "plaats": "Nuth", "merk": "Stibat", "puntType": "inzamelbak", "materialen": ["batterijen"], "uitbetaling": [], "vrijToegankelijk": false, "gemeenteBeperking": null, "openingstijden": null, "latitude": 50.9132611, "longitude": 5.8833856, "bronId": "L033733"}}, {"type": "Feature", "geometry": {"type": "Point", "coordinates": [5.8246079, 50.9023692]}, "properties": {"type": "inleverpunt", "locatieNaam": "06Fix iPhoneAmbulance", "straatNaam": "Hoofdstraat", "straatNr": "24", "postcode": "6333 BJ", "plaats": "Schimmert", "merk": "Stibat", "puntType": "inzamelbak", "materialen": ["batterijen"], "uitbetaling": [], "vrijToegankelijk": false, "gemeenteBeperking": null, "openingstijden": null, "latitude": 50.9023692, "longitude": 5.8246079, "bronId": "L042867"}}, {"type": "Feature", "geometry": {"type": "Point", "coordinates": [5.8226597, 50.899706]}, "properties": {"type": "inleverpunt", "locatieNaam": "Cube Store Limburg", "straatNaam": "Torenstraat", "straatNr": "1a", "postcode": "6333 BC", "plaats": "Schimmert", "merk": "Stibat", "puntType": "inzamelbak", "materialen": ["batterijen"], "uitbetaling": [], "vrijToegankelijk": false, "gemeenteBeperking": null, "openingstijden": null, "latitude": 50.899706, "longitude": 5.8226597, "bronId": "L046511"}}, {"type": "Feature", "geometry": {"type": "Point", "coordinates": [5.8569995, 50.8897484]}, "properties": {"type": "inleverpunt", "locatieNaam": "8569 Albert Heijn", "straatNaam": "Europaplein", "straatNr": "1", "postcode": "6336 BE", "plaats": "Hulsberg", "merk": "Stibat", "puntType": "inzamelbak", "materialen": ["batterijen"], "uitbetaling": [], "vrijToegankelijk": false, "gemeenteBeperking": null, "openingstijden": null, "latitude": 50.8897484, "longitude": 5.8569995, "bronId": "L026883"}}, {"type": "Feature", "geometry": {"type": "Point", "coordinates": [5.8629377, 50.888196]}, "properties": {"type": "inleverpunt", "locatieNaam": "Camping 't Hemelke", "straatNaam": "Klimmenerweg", "straatNr": "10", "postcode": "6336 AV", "plaats": "Hulsberg", "merk": "Stibat", "puntType": "inzamelbak", "materialen": ["batterijen"], "uitbetaling": [], "vrijToegankelijk": false, "gemeenteBeperking": null, "openingstijden": null, "latitude": 50.888196, "longitude": 5.8629377, "bronId": "L003036"}}, {"type": "Feature", "geometry": {"type": "Polygon", "coordinates": [[[5.850292002136817, 50.88365300315458], [5.851542002138062, 50.882834003153974], [5.85166500213816, 50.88220000315348], [5.85697800214355, 50.88191500315315], [5.871456002158309, 50.883459003153945], [5.874613002161517, 50.883369003153845], [5.880824002167792, 50.88248200315305], [5.885860002172969, 50.88430500315422], [5.8867920021738955, 50.88373300315378], [5.8873450021744596, 50.88378800315381], [5.888801002175961, 50.884482003154275], [5.889605002176819, 50.88563600315508], [5.8905890021778, 50.885063003154656], [5.894007002181289, 50.88560200315495], [5.890390002177711, 50.888413003157034], [5.894202002181626, 50.88970200315786], [5.8970720021846, 50.891524003159105], [5.9036660021913905, 50.894238003160886], [5.901533002189277, 50.89577600316203], [5.9147070022028565, 50.90172200316596], [5.913393002201556, 50.90272500316669], [5.9163660022046205, 50.90413100316761], [5.916397002204645, 50.903942003167494], [5.917598002205881, 50.904399003167796], [5.918835002207093, 50.90319300316694], [5.920543002208828, 50.90306400316678], [5.923155002211517, 50.90424700316754], [5.923721002212112, 50.904965003168016], [5.921759002210143, 50.905563003168524], [5.923517002211931, 50.90557000316844], [5.9202860022087265, 50.90784500317019], [5.916305002204754, 50.90996500317178], [5.904207002192593, 50.913448003174565], [5.90488000219331, 50.91446500317527], [5.905816002194257, 50.914446003175236], [5.907430002195914, 50.91494000317554], [5.908249002196762, 50.91545900317589], [5.907960002196474, 50.91561600317599], [5.904104002192617, 50.91728400317729], [5.902267002190747, 50.91721900317728], [5.900520002188959, 50.91671600317697], [5.899586002188015, 50.916824003177084], [5.8959510021843915, 50.91879600317855], [5.89545600218393, 50.92003800317944], [5.898225002186854, 50.923309003181735], [5.900745002189402, 50.9229830031814], [5.901141002189871, 50.92508700318291], [5.902865002191631, 50.92529900318302], [5.905274002194152, 50.92755300318458], [5.90715700219605, 50.9271350031842], [5.91005800219899, 50.926974003184014], [5.913132002202141, 50.927894003184626], [5.914709002203781, 50.92910900318544], [5.920210002209454, 50.93171200318715], [5.918934002208211, 50.93322400318828], [5.920138002209436, 50.93334800318832], [5.923822002213232, 50.9350000031894], [5.934416002224104, 50.938636003191725], [5.933839002223522, 50.93876600319182], [5.931401002221142, 50.94155700319387], [5.936029002225999, 50.946325003197124], [5.940863002230957, 50.94789700319816], [5.9418040022319305, 50.94843000319853], [5.942643002232816, 50.94950500319924], [5.943800002233979, 50.94915500319894], [5.949572002239901, 50.95111500320022], [5.9492940022396334, 50.95155700320052], [5.952673002243091, 50.95247000320109], [5.952499002242927, 50.95278500320129], [5.95323200224369, 50.95336300320169], [5.958388002249028, 50.956674003203915], [5.962755002253527, 50.958740003205236], [5.965357002256241, 50.960925003206775], [5.965862002256805, 50.96241800320779], [5.9699900022609915, 50.96250200320775], [5.9706800022616795, 50.962142003207475], [5.969084002260025, 50.96103600320674], [5.972301002263228, 50.9592750032054], [5.973957002264914, 50.95937500320548], [5.974109002265031, 50.95833600320469], [5.980123002271209, 50.96068000320619], [5.9992420022905035, 50.95777500320366], [6.00240100229371, 50.95788000320364], [6.006054002297403, 50.95753500320326], [6.009081002300538, 50.95948500320461], [6.0130000023045405, 50.960398003205135], [6.015207002306842, 50.96236400320647], [6.021163002313162, 50.97100300321246], [6.026802002319217, 50.98130900321958], [6.026512002318986, 50.98327200322094], [6.022931002315355, 50.98327000322105], [6.0187000023110855, 50.983819003221534], [6.017226002309584, 50.983678003221456], [6.0173630023097155, 50.983402003221286], [5.984233002276085, 50.98211500322123], [5.981357002273205, 50.983217003222116], [5.979575002271387, 50.98291600322194], [5.973591002265239, 50.98045800322036], [5.967576002259102, 50.97939600321976], [5.966326002257846, 50.979769003220085], [5.9650110022565555, 50.98094000322088], [5.957392002248961, 50.98500500322397], [5.955185002246837, 50.98841700322644], [5.950134002241672, 50.9872070032257], [5.933886002225132, 50.985353003224816], [5.927651002218703, 50.982285003222756], [5.922994002213888, 50.979546003220975], [5.918554002209324, 50.977747003219825], [5.917173002207934, 50.97808300322009], [5.915590002206319, 50.977825003219934], [5.911729002202355, 50.97641000321903], [5.905601002196079, 50.97472000321799], [5.902428002192855, 50.97458200321798], [5.895353002185687, 50.974941003218355], [5.891036002181281, 50.9740940032179], [5.890248002180413, 50.972117003216546], [5.890848002181008, 50.97172500321622], [5.889364002179482, 50.97105500321579], [5.88669200217668, 50.96844800321398], [5.885266002175231, 50.96843800321405], [5.885180002175122, 50.96775800321355], [5.881484002171325, 50.96632600321262], [5.8788490021685735, 50.96418900321116], [5.877858002167557, 50.96380200321092], [5.876848002166565, 50.964783003211615], [5.873503002163103, 50.96280400321034], [5.871217002160829, 50.96419600321137], [5.870652002160297, 50.96533200321219], [5.869178002158842, 50.9665680032131], [5.867863002157454, 50.965025003212034], [5.865844002155369, 50.96396200321134], [5.861708002151248, 50.966210003212986], [5.860446002149935, 50.9653240032124], [5.858873002148382, 50.96656700321332], [5.856399002145808, 50.96475500321208], [5.855409002144857, 50.9662680032132], [5.852185002141645, 50.968027003214544], [5.8497490021391085, 50.966178003213265], [5.846970002136235, 50.964700003212265], [5.843962002133141, 50.963477003211494], [5.843266002132435, 50.96351700321154], [5.842608002131673, 50.9607530032096], [5.84088200212987, 50.95935200320863], [5.83978000212867, 50.95691800320694], [5.840283002129112, 50.954978003205525], [5.839560002128347, 50.95402000320487], [5.8401610021289, 50.95238900320372], [5.8398920021285505, 50.950191003202136], [5.841905002130523, 50.94808800320061], [5.842463002131091, 50.94809900320063], [5.844581002133182, 50.94651200319944], [5.8475610021361595, 50.94501500319833], [5.849350002137964, 50.94467400319805], [5.85020200213886, 50.94551400319861], [5.853726002142468, 50.94649800319924], [5.855310002144054, 50.94587400319873], [5.856930002145636, 50.944001003197364], [5.8561080021447305, 50.941978003195935], [5.8560890021446275, 50.93950100319418], [5.855315002143761, 50.93708700319253], [5.85554000214395, 50.93600700319169], [5.851930002140081, 50.9300020031876], [5.849889002137921, 50.92751700318585], [5.850092002138117, 50.927291003185665], [5.847201002135135, 50.92587800318472], [5.842896002130585, 50.92072900318119], [5.841498002129128, 50.91960700318042], [5.833457002120982, 50.920208003180996], [5.8334090021209235, 50.9199390031808], [5.831246002118709, 50.919392003180484], [5.831916002119318, 50.91738400317904], [5.831557002118945, 50.9171800031789], [5.819315002106461, 50.91572000317813], [5.8189450021061, 50.916128003178436], [5.8017150020885255, 50.914130003177405], [5.802329002089138, 50.913670003177046], [5.800591002087312, 50.911970003175874], [5.800429002087091, 50.910374003174766], [5.801003002087617, 50.90875500317358], [5.796557002083055, 50.90747900317276], [5.802257002088668, 50.90241200316904], [5.798667002084972, 50.9010150031681], [5.801033002087376, 50.90097100316801], [5.80197200208832, 50.90067600316778], [5.803481002089758, 50.89803700316588], [5.801488002087674, 50.89630700316468], [5.800520002086757, 50.898181003166094], [5.796563002082719, 50.897697003165845], [5.797632002083727, 50.89545900316417], [5.796711002082673, 50.89206000316176], [5.797926002083781, 50.88839500315914], [5.799842002085631, 50.885673003157144], [5.802367002088246, 50.88707900315807], [5.809866002095894, 50.88784700315845], [5.814081002100114, 50.88607300315715], [5.8149900021010446, 50.88623900315723], [5.817397002103427, 50.88448100315592], [5.8192070021052436, 50.88384300315543], [5.819193002105247, 50.884323003155764], [5.821192002107338, 50.88608100315698], [5.824430002110665, 50.88709000315758], [5.827765002114139, 50.8895440031593], [5.83311200211966, 50.89220900316107], [5.836648002123231, 50.89160000316058], [5.832716002119035, 50.88577100315649], [5.83314500211938, 50.88310700315458], [5.834191002120407, 50.88208400315387], [5.8350720021213185, 50.882469003154064], [5.835293002121534, 50.882302003153946], [5.834687002120864, 50.88064800315276], [5.835830002122053, 50.881514003153384], [5.845281002131696, 50.882765003154084], [5.848642002135144, 50.88368400315466], [5.850292002136817, 50.88365300315458]]]}, "properties": {"type": "boundary", "gemeente": "Beekdaelen"}}]}