{"type": "FeatureCollection", "metadata": {"gemeente": "Beek", "slug": "beek", "generated_at": "2026-08-31T08:03:42.037366Z", "total_points": 43, "merken": ["StatiegeldNederland", "Stibat", "StichtingOPEN"], "bounds": [5.7812153, 50.9311769, 5.8419019, 50.9503189]}, "features": [{"type": "Feature", "geometry": {"type": "Point", "coordinates": [5.7938204, 50.949956]}, "properties": {"type": "inleverpunt", "locatieNaam": "Albert Heijn", "straatNaam": "Weth. Sangersstraat", "straatNr": "174", "postcode": "6191 NA", "plaats": "Beek", "merk": "StatiegeldNederland", "puntType": "automaat", "materialen": ["pet-groot", "pet-klein", "blik", "glas", "krat"], "uitbetaling": ["bonnetje", "donatie"], "vrijToegankelijk": true, "gemeenteBeperking": null, "openingstijden": {"ma": "08:00–20:00", "di": "08:00–20:00", "wo": "08:00–20:00", "do": "08:00–21:00", "vr": "08:00–21:00", "za": "08:00–20:00", "zo": "09:00–19:00"}, "latitude": 50.949956, "longitude": 5.7938204, "bronId": "310998"}}, {"type": "Feature", "geometry": {"type": "Point", "coordinates": [5.7840776, 50.9366256]}, "properties": {"type": "inleverpunt", "locatieNaam": "BP", "straatNaam": "Rijksweg A2 -", "straatNr": "75", "postcode": "6191 SB", "plaats": "Beek", "merk": "StatiegeldNederland", "puntType": "automaat", "materialen": ["pet-groot", "pet-klein", "blik"], "uitbetaling": ["bonnetje", "donatie", "tikkie"], "vrijToegankelijk": true, "gemeenteBeperking": null, "openingstijden": null, "latitude": 50.9366256, "longitude": 5.7840776, "bronId": "311982"}}, {"type": "Feature", "geometry": {"type": "Point", "coordinates": [5.7812153, 50.9311769]}, "properties": {"type": "inleverpunt", "locatieNaam": "Cg 1533 Deloitte", "straatNaam": "Amerikalaan", "straatNr": "110", "postcode": "6199 AE", "plaats": "Maastricht", "merk": "StatiegeldNederland", "puntType": "balie", "materialen": ["pet-groot", "pet-klein", "blik"], "uitbetaling": [], "vrijToegankelijk": true, "gemeenteBeperking": null, "openingstijden": {"ma": "09:00–17:00", "di": "09:00–17:00", "wo": "09:00–17:00", "do": "09:00–17:00", "vr": "09:00–17:00", "za": "Gesloten", "zo": "Gesloten"}, "latitude": 50.9311769, "longitude": 5.7812153, "bronId": "312166"}}, {"type": "Feature", "geometry": {"type": "Point", "coordinates": [5.8039753, 50.9469017]}, "properties": {"type": "inleverpunt", "locatieNaam": "Honkbal En Softbalcl Hsv Cheetahs", "straatNaam": "Blooteweg", "straatNr": "2", "postcode": "6191 EM", "plaats": "Beek", "merk": "StatiegeldNederland", "puntType": "balie", "materialen": ["pet-groot", "pet-klein", "blik"], "uitbetaling": [], "vrijToegankelijk": false, "gemeenteBeperking": null, "openingstijden": null, "latitude": 50.9469017, "longitude": 5.8039753, "bronId": "313339"}}, {"type": "Feature", "geometry": {"type": "Point", "coordinates": [5.79222, 50.93802]}, "properties": {"type": "inleverpunt", "locatieNaam": "Jumbo", "straatNaam": "Maastrichterlaan", "straatNr": "26", "postcode": "6191 AD", "plaats": "Beek", "merk": "StatiegeldNederland", "puntType": "automaat", "materialen": ["pet-groot", "pet-klein", "blik", "glas", "krat"], "uitbetaling": ["bonnetje"], "vrijToegankelijk": true, "gemeenteBeperking": null, "openingstijden": {"ma": "08:00–21:00", "di": "08:00–21:00", "wo": "08:00–21:00", "do": "08:00–21:00", "vr": "08:00–21:00", "za": "08:00–21:00", "zo": "09:00–20:00"}, "latitude": 50.93802, "longitude": 5.79222, "bronId": "313865"}}, {"type": "Feature", "geometry": {"type": "Point", "coordinates": [5.79463, 50.94978]}, "properties": {"type": "inleverpunt", "locatieNaam": "Lidl", "straatNaam": "Wethouder Sangersstraat", "straatNr": "168", "postcode": "6191 NA", "plaats": "Beek", "merk": "StatiegeldNederland", "puntType": "automaat", "materialen": ["pet-groot", "pet-klein", "blik", "glas", "krat"], "uitbetaling": ["bonnetje", "donatie"], "vrijToegankelijk": true, "gemeenteBeperking": null, "openingstijden": {"ma": "08:00–20:00", "di": "08:00–20:00", "wo": "08:00–20:00", "do": "08:00–21:00", "vr": "08:00–20:00", "za": "08:00–20:00", "zo": "09:00–18:00"}, "latitude": 50.94978, "longitude": 5.79463, "bronId": "314786"}}, {"type": "Feature", "geometry": {"type": "Point", "coordinates": [5.796308, 50.9407672]}, "properties": {"type": "inleverpunt", "locatieNaam": "Plus", "straatNaam": "Markt", "straatNr": "62", "postcode": "6191 JK", "plaats": "Beek", "merk": "StatiegeldNederland", "puntType": "automaat", "materialen": ["pet-groot", "pet-klein", "blik", "glas", "krat"], "uitbetaling": ["bonnetje"], "vrijToegankelijk": true, "gemeenteBeperking": null, "openingstijden": {"ma": "08:00–20:30", "di": "08:00–20:30", "wo": "08:00–20:30", "do": "08:00–20:30", "vr": "08:00–20:30", "za": "08:00–20:30", "zo": "09:00–19:00"}, "latitude": 50.9407672, "longitude": 5.796308, "bronId": "315768"}}, {"type": "Feature", "geometry": {"type": "Point", "coordinates": [5.8414826, 50.9376425]}, "properties": {"type": "inleverpunt", "locatieNaam": "Spar", "straatNaam": "Bongerd", "straatNr": "8", "postcode": "6176 AW", "plaats": "Spaubeek", "merk": "StatiegeldNederland", "puntType": "automaat", "materialen": ["pet-groot", "pet-klein", "blik", "glas"], "uitbetaling": ["bonnetje", "donatie"], "vrijToegankelijk": true, "gemeenteBeperking": null, "openingstijden": {"ma": "08:00–20:00", "di": "08:00–20:00", "wo": "08:00–20:00", "do": "08:00–20:00", "vr": "08:00–20:00", "za": "08:00–20:00", "zo": "09:00–18:00"}, "latitude": 50.9376425, "longitude": 5.8414826, "bronId": "316668"}}, {"type": "Feature", "geometry": {"type": "Point", "coordinates": [5.809159, 50.9478502]}, "properties": {"type": "inleverpunt", "locatieNaam": "Vv Neerbeek", "straatNaam": "Cartylshofstraat", "straatNr": "23", "postcode": "6191 GG", "plaats": "Beek", "merk": "StatiegeldNederland", "puntType": "balie", "materialen": ["pet-groot", "pet-klein", "blik"], "uitbetaling": [], "vrijToegankelijk": false, "gemeenteBeperking": null, "openingstijden": null, "latitude": 50.9478502, "longitude": 5.809159, "bronId": "318328"}}, {"type": "Feature", "geometry": {"type": "Point", "coordinates": [5.793974, 50.950025]}, "properties": {"type": "inleverpunt", "locatieNaam": "1517 Albert Heijn Beek", "straatNaam": "Wethouder Sangersstraat", "straatNr": "174", "postcode": "6191 NA", "plaats": "Beek", "merk": "StichtingOPEN", "puntType": "balie", "materialen": ["batterijen", "elektro-klein", "lampen"], "uitbetaling": [], "vrijToegankelijk": false, "gemeenteBeperking": null, "openingstijden": null, "latitude": 50.950025, "longitude": 5.793974, "bronId": "SP00023268"}}, {"type": "Feature", "geometry": {"type": "Point", "coordinates": [5.79521, 50.95017]}, "properties": {"type": "inleverpunt", "locatieNaam": "Lidl Beek", "straatNaam": "Wethouder Sangersstraat", "straatNr": "168", "postcode": "6191 NA", "plaats": "Beek", "merk": "StichtingOPEN", "puntType": "balie", "materialen": ["batterijen", "lampen"], "uitbetaling": [], "vrijToegankelijk": false, "gemeenteBeperking": null, "openingstijden": null, "latitude": 50.95017, "longitude": 5.79521, "bronId": "SP00029973"}}, {"type": "Feature", "geometry": {"type": "Point", "coordinates": [5.792947, 50.949481]}, "properties": {"type": "inleverpunt", "locatieNaam": "Kruidvat Beek", "straatNaam": "Wethouder Sangersstraat", "straatNr": "164", "postcode": "6191 NA", "plaats": "Beek", "merk": "StichtingOPEN", "puntType": "balie", "materialen": ["batterijen", "lampen"], "uitbetaling": [], "vrijToegankelijk": false, "gemeenteBeperking": null, "openingstijden": null, "latitude": 50.949481, "longitude": 5.792947, "bronId": "SP00024925"}}, {"type": "Feature", "geometry": {"type": "Point", "coordinates": [5.794621, 50.949478]}, "properties": {"type": "inleverpunt", "locatieNaam": "Action Beek 1327", "straatNaam": "Wethouder Sangersstraat", "straatNr": "206", "postcode": "6191 NA", "plaats": "Beek", "merk": "StichtingOPEN", "puntType": "balie", "materialen": ["batterijen", "lampen"], "uitbetaling": [], "vrijToegankelijk": false, "gemeenteBeperking": null, "openingstijden": null, "latitude": 50.949478, "longitude": 5.794621, "bronId": "SP00007603"}}, {"type": "Feature", "geometry": {"type": "Point", "coordinates": [5.79386, 50.94934]}, "properties": {"type": "inleverpunt", "locatieNaam": "Xenos Beek", "straatNaam": "Wethouder Sangersstraat", "straatNr": "156", "postcode": "6191 NA", "plaats": "Beek", "merk": "StichtingOPEN", "puntType": "balie", "materialen": ["batterijen", "lampen"], "uitbetaling": [], "vrijToegankelijk": false, "gemeenteBeperking": null, "openingstijden": null, "latitude": 50.94934, "longitude": 5.79386, "bronId": "SP00029931"}}, {"type": "Feature", "geometry": {"type": "Point", "coordinates": [5.797966, 50.947976]}, "properties": {"type": "inleverpunt", "locatieNaam": "Praxis Beek - 2060", "straatNaam": "DSM-straat", "straatNr": "5", "postcode": "6191 NB", "plaats": "Beek", "merk": "StichtingOPEN", "puntType": "balie", "materialen": ["elektro-middel", "lampen", "tl-buizen"], "uitbetaling": [], "vrijToegankelijk": false, "gemeenteBeperking": null, "openingstijden": null, "latitude": 50.947976, "longitude": 5.797966, "bronId": "SP00004549"}}, {"type": "Feature", "geometry": {"type": "Point", "coordinates": [5.796294, 50.940768]}, "properties": {"type": "inleverpunt", "locatieNaam": "PLUS Beek", "straatNaam": "Markt", "straatNr": "62", "postcode": "6191 JK", "plaats": "Beek", "merk": "StichtingOPEN", "puntType": "balie", "materialen": ["batterijen", "lampen"], "uitbetaling": [], "vrijToegankelijk": false, "gemeenteBeperking": null, "openingstijden": null, "latitude": 50.940768, "longitude": 5.796294, "bronId": "SP00024109"}}, {"type": "Feature", "geometry": {"type": "Point", "coordinates": [5.792264, 50.938044]}, "properties": {"type": "inleverpunt", "locatieNaam": "Jumbo Beek", "straatNaam": "Maastrichterlaan", "straatNr": "26", "postcode": "6191 AD", "plaats": "Beek", "merk": "StichtingOPEN", "puntType": "balie", "materialen": ["batterijen", "lampen"], "uitbetaling": [], "vrijToegankelijk": false, "gemeenteBeperking": null, "openingstijden": null, "latitude": 50.938044, "longitude": 5.792264, "bronId": "SP00039390"}}, {"type": "Feature", "geometry": {"type": "Point", "coordinates": [5.841454, 50.937683]}, "properties": {"type": "inleverpunt", "locatieNaam": "Spar Spaubeek", "straatNaam": "Bongerd", "straatNr": "8", "postcode": "6176 AW", "plaats": "Spaubeek", "merk": "StichtingOPEN", "puntType": "balie", "materialen": ["batterijen", "lampen"], "uitbetaling": [], "vrijToegankelijk": false, "gemeenteBeperking": null, "openingstijden": null, "latitude": 50.937683, "longitude": 5.841454, "bronId": "SP00031422"}}, {"type": "Feature", "geometry": {"type": "Point", "coordinates": [5.7934077, 50.9503189]}, "properties": {"type": "inleverpunt", "locatieNaam": "Zeeman", "straatNaam": "Wethouder Sangersstraat", "straatNr": "232", "postcode": "6191 NA", "plaats": "Beek", "merk": "Stibat", "puntType": "inzamelbak", "materialen": ["batterijen"], "uitbetaling": [], "vrijToegankelijk": false, "gemeenteBeperking": null, "openingstijden": null, "latitude": 50.9503189, "longitude": 5.7934077, "bronId": "L019979"}}, {"type": "Feature", "geometry": {"type": "Point", "coordinates": [5.7932818, 50.9500613]}, "properties": {"type": "inleverpunt", "locatieNaam": "1327 Action", "straatNaam": "Wethouder Sangersstraat", "straatNr": "206", "postcode": "6191 NA", "plaats": "Beek Lb", "merk": "Stibat", "puntType": "inzamelbak", "materialen": ["batterijen"], "uitbetaling": [], "vrijToegankelijk": false, "gemeenteBeperking": null, "openingstijden": null, "latitude": 50.9500613, "longitude": 5.7932818, "bronId": "L035415"}}, {"type": "Feature", "geometry": {"type": "Point", "coordinates": [5.7949941, 50.9502814]}, "properties": {"type": "inleverpunt", "locatieNaam": "Specsavers", "straatNaam": "Wethouder Sangersstraat", "straatNr": "163", "postcode": "6191 NA", "plaats": "Beek", "merk": "Stibat", "puntType": "inzamelbak", "materialen": ["batterijen"], "uitbetaling": [], "vrijToegankelijk": false, "gemeenteBeperking": null, "openingstijden": null, "latitude": 50.9502814, "longitude": 5.7949941, "bronId": "L045022"}}, {"type": "Feature", "geometry": {"type": "Point", "coordinates": [5.7946026, 50.9498867]}, "properties": {"type": "inleverpunt", "locatieNaam": "Intertoys", "straatNaam": "Wethouder Sangersstraat", "straatNr": "228", "postcode": "6191 NA", "plaats": "Beek Lb", "merk": "Stibat", "puntType": "inzamelbak", "materialen": ["batterijen"], "uitbetaling": [], "vrijToegankelijk": false, "gemeenteBeperking": null, "openingstijden": null, "latitude": 50.9498867, "longitude": 5.7946026, "bronId": "L039773"}}, {"type": "Feature", "geometry": {"type": "Point", "coordinates": [5.7930699, 50.9495452]}, "properties": {"type": "inleverpunt", "locatieNaam": "1517 Albert Heijn", "straatNaam": "Wethouder Sangersstraat", "straatNr": "174", "postcode": "6191 NA", "plaats": "Beek Lb", "merk": "Stibat", "puntType": "inzamelbak", "materialen": ["batterijen"], "uitbetaling": [], "vrijToegankelijk": false, "gemeenteBeperking": null, "openingstijden": null, "latitude": 50.9495452, "longitude": 5.7930699, "bronId": "L005554"}}, {"type": "Feature", "geometry": {"type": "Point", "coordinates": [5.7930235, 50.9494459]}, "properties": {"type": "inleverpunt", "locatieNaam": "Lidl", "straatNaam": "Wethouder Sangersstraat", "straatNr": "168", "postcode": "6191 NA", "plaats": "Beek Lb", "merk": "Stibat", "puntType": "inzamelbak", "materialen": ["batterijen"], "uitbetaling": [], "vrijToegankelijk": false, "gemeenteBeperking": null, "openingstijden": null, "latitude": 50.9494459, "longitude": 5.7930235, "bronId": "L039002"}}, {"type": "Feature", "geometry": {"type": "Point", "coordinates": [5.7930197, 50.9494398]}, "properties": {"type": "inleverpunt", "locatieNaam": "Kruidvat", "straatNaam": "Wethouder Sangersstraat", "straatNr": "164", "postcode": "6191 NA", "plaats": "Beek Lb", "merk": "Stibat", "puntType": "inzamelbak", "materialen": ["batterijen"], "uitbetaling": [], "vrijToegankelijk": false, "gemeenteBeperking": null, "openingstijden": null, "latitude": 50.9494398, "longitude": 5.7930197, "bronId": "L015280"}}, {"type": "Feature", "geometry": {"type": "Point", "coordinates": [5.7951433, 50.9496158]}, "properties": {"type": "inleverpunt", "locatieNaam": "7914 Etos", "straatNaam": "Wethouder Sangersstraat", "straatNr": "182", "postcode": "6191 NA", "plaats": "Beek", "merk": "Stibat", "puntType": "inzamelbak", "materialen": ["batterijen"], "uitbetaling": [], "vrijToegankelijk": false, "gemeenteBeperking": null, "openingstijden": null, "latitude": 50.9496158, "longitude": 5.7951433, "bronId": "L025168"}}, {"type": "Feature", "geometry": {"type": "Point", "coordinates": [5.7944631, 50.9494112]}, "properties": {"type": "inleverpunt", "locatieNaam": "BelCompany", "straatNaam": "Wethouder Sangersstraat", "straatNr": "139", "postcode": "6191 NA", "plaats": "Beek Lb", "merk": "Stibat", "puntType": "inzamelbak", "materialen": ["batterijen"], "uitbetaling": [], "vrijToegankelijk": false, "gemeenteBeperking": null, "openingstijden": null, "latitude": 50.9494112, "longitude": 5.7944631, "bronId": "L015583"}}, {"type": "Feature", "geometry": {"type": "Point", "coordinates": [5.7944641, 50.949532]}, "properties": {"type": "inleverpunt", "locatieNaam": "KPN winkel", "straatNaam": "Wethouder Sangersstraat", "straatNr": "114", "postcode": "6191 NA", "plaats": "Beek Lb", "merk": "Stibat", "puntType": "inzamelbak", "materialen": ["batterijen"], "uitbetaling": [], "vrijToegankelijk": false, "gemeenteBeperking": null, "openingstijden": null, "latitude": 50.949532, "longitude": 5.7944641, "bronId": "L006379"}}, {"type": "Feature", "geometry": {"type": "Point", "coordinates": [5.7945351, 50.9494411]}, "properties": {"type": "inleverpunt", "locatieNaam": "HEMA Wethouder Sangersstraat", "straatNaam": "Wethouder Sangersstraat", "straatNr": "117", "postcode": "6191 NA", "plaats": "Beek Lb", "merk": "Stibat", "puntType": "inzamelbak", "materialen": ["batterijen"], "uitbetaling": [], "vrijToegankelijk": false, "gemeenteBeperking": null, "openingstijden": null, "latitude": 50.9494411, "longitude": 5.7945351, "bronId": "L006197"}}, {"type": "Feature", "geometry": {"type": "Point", "coordinates": [5.795248, 50.949452]}, "properties": {"type": "inleverpunt", "locatieNaam": "Hans Anders", "straatNaam": "Wethouder Sangersstraat", "straatNr": "115", "postcode": "6191 NA", "plaats": "Beek Lb", "merk": "Stibat", "puntType": "inzamelbak", "materialen": ["batterijen"], "uitbetaling": [], "vrijToegankelijk": false, "gemeenteBeperking": null, "openingstijden": null, "latitude": 50.949452, "longitude": 5.795248, "bronId": "L037751"}}, {"type": "Feature", "geometry": {"type": "Point", "coordinates": [5.79521, 50.9492117]}, "properties": {"type": "inleverpunt", "locatieNaam": "Primera", "straatNaam": "Wethouder Sangersstraat", "straatNr": "250", "postcode": "6191 NA", "plaats": "Beek", "merk": "Stibat", "puntType": "inzamelbak", "materialen": ["batterijen"], "uitbetaling": [], "vrijToegankelijk": false, "gemeenteBeperking": null, "openingstijden": null, "latitude": 50.9492117, "longitude": 5.79521, "bronId": "L022195"}}, {"type": "Feature", "geometry": {"type": "Point", "coordinates": [5.7956919, 50.9488103]}, "properties": {"type": "inleverpunt", "locatieNaam": "Xenos", "straatNaam": "Wethouder Sangersstraat", "straatNr": "125", "postcode": "6191 NA", "plaats": "Beek Lb", "merk": "Stibat", "puntType": "inzamelbak", "materialen": ["batterijen"], "uitbetaling": [], "vrijToegankelijk": false, "gemeenteBeperking": null, "openingstijden": null, "latitude": 50.9488103, "longitude": 5.7956919, "bronId": "L036921"}}, {"type": "Feature", "geometry": {"type": "Point", "coordinates": [5.7991393, 50.9485304]}, "properties": {"type": "inleverpunt", "locatieNaam": "Welkoop", "straatNaam": "Wethouder Sangersstraat", "straatNr": "392", "postcode": "6191 NA", "plaats": "Beek Lb", "merk": "Stibat", "puntType": "inzamelbak", "materialen": ["batterijen"], "uitbetaling": [], "vrijToegankelijk": false, "gemeenteBeperking": null, "openingstijden": null, "latitude": 50.9485304, "longitude": 5.7991393, "bronId": "L047070"}}, {"type": "Feature", "geometry": {"type": "Point", "coordinates": [5.7977152, 50.9479866]}, "properties": {"type": "inleverpunt", "locatieNaam": "Praxis 2060", "straatNaam": "DSM-straat", "straatNr": "5", "postcode": "6191 NB", "plaats": "Beek Lb", "merk": "Stibat", "puntType": "inzamelbak", "materialen": ["batterijen"], "uitbetaling": [], "vrijToegankelijk": false, "gemeenteBeperking": null, "openingstijden": null, "latitude": 50.9479866, "longitude": 5.7977152, "bronId": "L015303"}}, {"type": "Feature", "geometry": {"type": "Point", "coordinates": [5.7955391, 50.9412]}, "properties": {"type": "inleverpunt", "locatieNaam": "Gelissen Tweewielers", "straatNaam": "Heirstraat", "straatNr": "2A", "postcode": "6191 JT", "plaats": "Beek Lb", "merk": "Stibat", "puntType": "inzamelbak", "materialen": ["batterijen"], "uitbetaling": [], "vrijToegankelijk": false, "gemeenteBeperking": null, "openingstijden": null, "latitude": 50.9412, "longitude": 5.7955391, "bronId": "L033707"}}, {"type": "Feature", "geometry": {"type": "Point", "coordinates": [5.7962737, 50.9407803]}, "properties": {"type": "inleverpunt", "locatieNaam": "PLUS", "straatNaam": "Markt", "straatNr": "62", "postcode": "6191 JK", "plaats": "Beek Lb", "merk": "Stibat", "puntType": "inzamelbak", "materialen": ["batterijen"], "uitbetaling": [], "vrijToegankelijk": false, "gemeenteBeperking": null, "openingstijden": null, "latitude": 50.9407803, "longitude": 5.7962737, "bronId": "L019722"}}, {"type": "Feature", "geometry": {"type": "Point", "coordinates": [5.79597, 50.9407108]}, "properties": {"type": "inleverpunt", "locatieNaam": "The Read Shop Express", "straatNaam": "Markt", "straatNr": "63", "postcode": "6191 JK", "plaats": "Beek Lb", "merk": "Stibat", "puntType": "inzamelbak", "materialen": ["batterijen"], "uitbetaling": [], "vrijToegankelijk": false, "gemeenteBeperking": null, "openingstijden": null, "latitude": 50.9407108, "longitude": 5.79597, "bronId": "L032001"}}, {"type": "Feature", "geometry": {"type": "Point", "coordinates": [5.7934243, 50.9400057]}, "properties": {"type": "inleverpunt", "locatieNaam": "Lemmens 2Wielers Beek", "straatNaam": "Maastrichterlaan", "straatNr": "1", "postcode": "6191 AA", "plaats": "Beek LB", "merk": "Stibat", "puntType": "inzamelbak", "materialen": ["batterijen"], "uitbetaling": [], "vrijToegankelijk": false, "gemeenteBeperking": null, "openingstijden": null, "latitude": 50.9400057, "longitude": 5.7934243, "bronId": "L033706"}}, {"type": "Feature", "geometry": {"type": "Point", "coordinates": [5.7964476, 50.940175]}, "properties": {"type": "inleverpunt", "locatieNaam": "Drogisterij De Salamander", "straatNaam": "Markt", "straatNr": "102", "postcode": "6191 JK", "plaats": "Beek Lb", "merk": "Stibat", "puntType": "inzamelbak", "materialen": ["batterijen"], "uitbetaling": [], "vrijToegankelijk": false, "gemeenteBeperking": null, "openingstijden": null, "latitude": 50.940175, "longitude": 5.7964476, "bronId": "L024859"}}, {"type": "Feature", "geometry": {"type": "Point", "coordinates": [5.796594, 50.9390184]}, "properties": {"type": "inleverpunt", "locatieNaam": "Electro Lemmens", "straatNaam": "Burg. Janssenstraat", "straatNr": "14a", "postcode": "6191 JC", "plaats": "Beek Lb", "merk": "Stibat", "puntType": "inzamelbak", "materialen": ["batterijen"], "uitbetaling": [], "vrijToegankelijk": false, "gemeenteBeperking": null, "openingstijden": null, "latitude": 50.9390184, "longitude": 5.796594, "bronId": "L020707"}}, {"type": "Feature", "geometry": {"type": "Point", "coordinates": [5.7922641, 50.9380448]}, "properties": {"type": "inleverpunt", "locatieNaam": "Jumbo", "straatNaam": "Maastrichterlaan", "straatNr": "26", "postcode": "6191 AD", "plaats": "Beek Lb", "merk": "Stibat", "puntType": "inzamelbak", "materialen": ["batterijen"], "uitbetaling": [], "vrijToegankelijk": false, "gemeenteBeperking": null, "openingstijden": null, "latitude": 50.9380448, "longitude": 5.7922641, "bronId": "L048184"}}, {"type": "Feature", "geometry": {"type": "Point", "coordinates": [5.8419019, 50.9399705]}, "properties": {"type": "inleverpunt", "locatieNaam": "Stienen", "straatNaam": "Hoeve", "straatNr": "32", "postcode": "6176 BH", "plaats": "Spaubeek", "merk": "Stibat", "puntType": "inzamelbak", "materialen": ["batterijen"], "uitbetaling": [], "vrijToegankelijk": false, "gemeenteBeperking": null, "openingstijden": null, "latitude": 50.9399705, "longitude": 5.8419019, "bronId": "L033703"}}, {"type": "Feature", "geometry": {"type": "Point", "coordinates": [5.8414548, 50.9376837]}, "properties": {"type": "inleverpunt", "locatieNaam": "Buurt.Spaubeek", "straatNaam": "Bongerd", "straatNr": "8", "postcode": "6176 AW", "plaats": "Spaubeek", "merk": "Stibat", "puntType": "inzamelbak", "materialen": ["batterijen"], "uitbetaling": [], "vrijToegankelijk": false, "gemeenteBeperking": null, "openingstijden": null, "latitude": 50.9376837, "longitude": 5.8414548, "bronId": "L038500"}}, {"type": "Feature", "geometry": {"type": "Polygon", "coordinates": [[[5.758443002044012, 50.8985550031672], [5.7605000020461485, 50.89985800316811], [5.766978002052938, 50.90574100317218], [5.774665002060944, 50.911277003175954], [5.776488002062812, 50.911646003176166], [5.77898100206532, 50.910973003175634], [5.781097002067507, 50.911993003176335], [5.782441002068918, 50.91337600317728], [5.7881410020746635, 50.91199600317615], [5.7921930020787284, 50.91048600317502], [5.799856002086644, 50.91425100317748], [5.800347002087163, 50.914789003177894], [5.8017150020885255, 50.914130003177405], [5.8189450021061, 50.916128003178436], [5.819315002106461, 50.91572000317813], [5.831557002118945, 50.9171800031789], [5.831916002119318, 50.91738400317904], [5.831246002118709, 50.919392003180484], [5.8334090021209235, 50.9199390031808], [5.833457002120982, 50.920208003180996], [5.841498002129128, 50.91960700318042], [5.842896002130585, 50.92072900318119], [5.847201002135135, 50.92587800318472], [5.850092002138117, 50.927291003185665], [5.849889002137921, 50.92751700318585], [5.851930002140081, 50.9300020031876], [5.85554000214395, 50.93600700319169], [5.855315002143761, 50.93708700319253], [5.8560890021446275, 50.93950100319418], [5.8561080021447305, 50.941978003195935], [5.856930002145636, 50.944001003197364], [5.855310002144054, 50.94587400319873], [5.853255002141989, 50.946481003199224], [5.85020200213886, 50.94551400319861], [5.849350002137964, 50.94467400319805], [5.848461002137063, 50.9447110031981], [5.844581002133182, 50.94651200319944], [5.842463002131091, 50.94809900320063], [5.841905002130523, 50.94808800320061], [5.8398920021285505, 50.950191003202136], [5.839075002127691, 50.949302003201545], [5.839680002128279, 50.94854100320097], [5.838482002127021, 50.9473770032002], [5.838609002127124, 50.946602003199644], [5.837820002126316, 50.94639800319951], [5.833344002121796, 50.94712600320011], [5.8251110021135295, 50.9498230032022], [5.8118860021002865, 50.955143003206295], [5.802250002090231, 50.947395003201], [5.793361002081361, 50.95190400320446], [5.78820600207599, 50.94803600320178], [5.78810800207591, 50.94860600320218], [5.783736002071388, 50.94625500320061], [5.779955002067517, 50.94533900320003], [5.779037002066538, 50.94398000319908], [5.781470002068977, 50.94317500319846], [5.78373100207127, 50.94299700319826], [5.782024002069472, 50.941183003197054], [5.7792310020665685, 50.93924100319575], [5.779647002066979, 50.93898200319554], [5.777673002064807, 50.934182003192184], [5.778552002065686, 50.9338170031919], [5.777226002064311, 50.93300900319133], [5.777919002065004, 50.93268900319111], [5.776996002064036, 50.93177200319051], [5.77471700206169, 50.93090400318987], [5.772188002059021, 50.928112003187984], [5.772232002059033, 50.9271940031873], [5.773825002060594, 50.92556100318613], [5.773764002060481, 50.924076003185064], [5.771237002057744, 50.919246003181684], [5.769445002055849, 50.91713000318019], [5.766095002052366, 50.9148840031787], [5.76291300204901, 50.911481003176306], [5.758950002044811, 50.90657500317292], [5.75651900204219, 50.90228000316985], [5.754845002040429, 50.90059200316871], [5.756148002041735, 50.90010600316838], [5.755785002041345, 50.899490003167955], [5.758443002044012, 50.8985550031672]]]}, "properties": {"type": "boundary", "gemeente": "Beek"}}]}