{"type": "FeatureCollection", "metadata": {"gemeente": "Bergen (L)", "slug": "bergen-l", "generated_at": "2026-07-28T10:02:02.095237Z", "total_points": 35, "merken": ["StatiegeldNederland", "Stibat", "StichtingOPEN"], "bounds": [6.0050852, 51.567344, 6.1246203, 51.6497078]}, "features": [{"type": "Feature", "geometry": {"type": "Point", "coordinates": [6.050262, 51.6029376]}, "properties": {"type": "inleverpunt", "locatieNaam": "Albert Heijn", "straatNaam": "Raadhuisstraat", "straatNr": "7", "postcode": "5854 AX", "plaats": "Nieuw Bergen", "merk": "StatiegeldNederland", "puntType": "automaat", "materialen": ["pet-groot", "pet-klein", "blik", "glas", "krat"], "uitbetaling": ["bonnetje", "donatie"], "vrijToegankelijk": true, "gemeenteBeperking": null, "openingstijden": {"ma": "08:00–21:00", "di": "08:00–21:00", "wo": "08:00–21:00", "do": "08:00–21:00", "vr": "08:00–21:00", "za": "08:00–21:00", "zo": "09:00–20:00"}, "latitude": 51.6029376, "longitude": 6.050262, "bronId": "252656"}}, {"type": "Feature", "geometry": {"type": "Point", "coordinates": [6.1246203, 51.5872317]}, "properties": {"type": "inleverpunt", "locatieNaam": "De Wellsche Hut Well - Wezerweg", "straatNaam": "Wezerweg", "straatNr": "15", "postcode": "5855 EM", "plaats": "Well", "merk": "StatiegeldNederland", "puntType": "automaat", "materialen": ["pet-groot", "pet-klein", "blik"], "uitbetaling": ["bonnetje", "donatie"], "vrijToegankelijk": true, "gemeenteBeperking": null, "openingstijden": null, "latitude": 51.5872317, "longitude": 6.1246203, "bronId": "254413"}}, {"type": "Feature", "geometry": {"type": "Point", "coordinates": [6.054809, 51.603947]}, "properties": {"type": "inleverpunt", "locatieNaam": "Jumbo", "straatNaam": "Rembrandtplein", "straatNr": "2", "postcode": "5854 EM", "plaats": "Bergen L", "merk": "StatiegeldNederland", "puntType": "automaat", "materialen": ["pet-groot", "pet-klein", "blik", "glas", "krat"], "uitbetaling": ["bonnetje", "donatie"], "vrijToegankelijk": true, "gemeenteBeperking": null, "openingstijden": {"ma": "08:00–20:00", "di": "08:00–20:00", "wo": "08:00–20:00", "do": "08:00–20:00", "vr": "08:00–21:00", "za": "08:00–20:00", "zo": "09:00–19:00"}, "latitude": 51.603947, "longitude": 6.054809, "bronId": "255706"}}, {"type": "Feature", "geometry": {"type": "Point", "coordinates": [6.04897, 51.60351]}, "properties": {"type": "inleverpunt", "locatieNaam": "Lidl", "straatNaam": "Mosaique", "straatNr": "53", "postcode": "5854 AW", "plaats": "Nieuw Bergen", "merk": "StatiegeldNederland", "puntType": "automaat", "materialen": ["pet-groot", "pet-klein", "blik", "glas", "krat"], "uitbetaling": ["bonnetje", "donatie"], "vrijToegankelijk": true, "gemeenteBeperking": null, "openingstijden": {"ma": "08:00–20:00", "di": "08:00–20:00", "wo": "08:00–20:00", "do": "08:00–20:00", "vr": "08:00–20:00", "za": "08:00–20:00", "zo": "09:00–18:00"}, "latitude": 51.60351, "longitude": 6.04897, "bronId": "256294"}}, {"type": "Feature", "geometry": {"type": "Point", "coordinates": [6.0517294, 51.600891]}, "properties": {"type": "inleverpunt", "locatieNaam": "Optisport Den Asseldonk", "straatNaam": "Den Asseldonk", "straatNr": "2", "postcode": "5854 CC", "plaats": "Bergen Lb", "merk": "StatiegeldNederland", "puntType": "balie", "materialen": ["pet-groot", "pet-klein", "blik"], "uitbetaling": [], "vrijToegankelijk": false, "gemeenteBeperking": null, "openingstijden": null, "latitude": 51.600891, "longitude": 6.0517294, "bronId": "257005"}}, {"type": "Feature", "geometry": {"type": "Point", "coordinates": [6.053741, 51.596891]}, "properties": {"type": "inleverpunt", "locatieNaam": "Shell", "straatNaam": "Rijksweg", "straatNr": "27", "postcode": "5854 AR", "plaats": "Bergen", "merk": "StatiegeldNederland", "puntType": "balie", "materialen": ["pet-groot", "pet-klein", "blik"], "uitbetaling": [], "vrijToegankelijk": true, "gemeenteBeperking": null, "openingstijden": {"ma": "24 uur geopend", "di": "24 uur geopend", "wo": "24 uur geopend", "do": "24 uur geopend", "vr": "24 uur geopend", "za": "24 uur geopend", "zo": "24 uur geopend"}, "latitude": 51.596891, "longitude": 6.053741, "bronId": "258155"}}, {"type": "Feature", "geometry": {"type": "Point", "coordinates": [6.059334, 51.567363]}, "properties": {"type": "inleverpunt", "locatieNaam": "Spar", "straatNaam": "De Kamp", "straatNr": "5", "postcode": "5855 EG", "plaats": "Well L", "merk": "StatiegeldNederland", "puntType": "automaat", "materialen": ["pet-groot", "pet-klein", "blik", "glas", "krat"], "uitbetaling": ["bonnetje", "donatie"], "vrijToegankelijk": true, "gemeenteBeperking": null, "openingstijden": {"ma": "08:00–18:00", "di": "08:00–18:00", "wo": "08:00–18:00", "do": "08:00–18:00", "vr": "08:00–19:00", "za": "08:00–19:00", "zo": "08:00–18:00"}, "latitude": 51.567363, "longitude": 6.059334, "bronId": "258327"}}, {"type": "Feature", "geometry": {"type": "Point", "coordinates": [6.059334, 51.567363]}, "properties": {"type": "inleverpunt", "locatieNaam": "Spar", "straatNaam": "DE KAMP", "straatNr": "5", "postcode": "5855 EG", "plaats": "Well", "merk": "StatiegeldNederland", "puntType": "balie", "materialen": ["pet-groot", "pet-klein", "blik"], "uitbetaling": [], "vrijToegankelijk": true, "gemeenteBeperking": null, "openingstijden": {"ma": "08:00–18:00", "di": "08:00–18:00", "wo": "08:00–18:00", "do": "08:00–18:00", "vr": "08:00–19:00", "za": "08:00–19:00", "zo": "08:00–18:00"}, "latitude": 51.567363, "longitude": 6.059334, "bronId": "258329"}}, {"type": "Feature", "geometry": {"type": "Point", "coordinates": [6.1119282, 51.6497078]}, "properties": {"type": "inleverpunt", "locatieNaam": "Stormvogels 28", "straatNaam": "Gochsedijk", "straatNr": "9", "postcode": "5853 AA", "plaats": "Siebengewald", "merk": "StatiegeldNederland", "puntType": "balie", "materialen": ["pet-groot", "pet-klein", "blik"], "uitbetaling": [], "vrijToegankelijk": false, "gemeenteBeperking": null, "openingstijden": null, "latitude": 51.6497078, "longitude": 6.1119282, "bronId": "258744"}}, {"type": "Feature", "geometry": {"type": "Point", "coordinates": [6.0089973, 51.6381808]}, "properties": {"type": "inleverpunt", "locatieNaam": "ViaTim", "straatNaam": "Leegveldseweg", "straatNr": "10", "postcode": "5851 DK", "plaats": "Afferden L", "merk": "StatiegeldNederland", "puntType": "balie", "materialen": ["pet-groot", "pet-klein", "blik"], "uitbetaling": ["tikkie"], "vrijToegankelijk": true, "gemeenteBeperking": null, "openingstijden": null, "latitude": 51.6381808, "longitude": 6.0089973, "bronId": "259385"}}, {"type": "Feature", "geometry": {"type": "Point", "coordinates": [6.0496997, 51.6051153]}, "properties": {"type": "inleverpunt", "locatieNaam": "ViaTim", "straatNaam": "Van Straelenstraat", "straatNr": "12", "postcode": "5854 BJ", "plaats": "Bergen", "merk": "StatiegeldNederland", "puntType": "balie", "materialen": ["pet-groot", "pet-klein", "blik"], "uitbetaling": ["tikkie"], "vrijToegankelijk": true, "gemeenteBeperking": null, "openingstijden": null, "latitude": 51.6051153, "longitude": 6.0496997, "bronId": "259513"}}, {"type": "Feature", "geometry": {"type": "Point", "coordinates": [6.047847, 51.607591]}, "properties": {"type": "inleverpunt", "locatieNaam": "Hubo Bergen", "straatNaam": "De Flammert", "straatNr": "1034", "postcode": "5854 NA", "plaats": "Bergen", "merk": "StichtingOPEN", "puntType": "balie", "materialen": ["elektro-middel", "lampen", "tl-buizen"], "uitbetaling": [], "vrijToegankelijk": false, "gemeenteBeperking": null, "openingstijden": null, "latitude": 51.607591, "longitude": 6.047847, "bronId": "SP00004941"}}, {"type": "Feature", "geometry": {"type": "Point", "coordinates": [6.048845, 51.603765]}, "properties": {"type": "inleverpunt", "locatieNaam": "Kruidvat Bergen L", "straatNaam": "Mosaïque", "straatNr": "31", "postcode": "5854 AW", "plaats": "Bergen L", "merk": "StichtingOPEN", "puntType": "balie", "materialen": ["batterijen", "lampen"], "uitbetaling": [], "vrijToegankelijk": false, "gemeenteBeperking": null, "openingstijden": null, "latitude": 51.603765, "longitude": 6.048845, "bronId": "SP00024520"}}, {"type": "Feature", "geometry": {"type": "Point", "coordinates": [6.050322, 51.604055]}, "properties": {"type": "inleverpunt", "locatieNaam": "Action Nieuw Bergen 1124", "straatNaam": "Mosaique", "straatNr": "7d", "postcode": "5854 AW", "plaats": "Nieuw Bergen", "merk": "StichtingOPEN", "puntType": "balie", "materialen": ["lampen"], "uitbetaling": [], "vrijToegankelijk": false, "gemeenteBeperking": null, "openingstijden": null, "latitude": 51.604055, "longitude": 6.050322, "bronId": "SP00007586"}}, {"type": "Feature", "geometry": {"type": "Point", "coordinates": [6.047838, 51.602009]}, "properties": {"type": "inleverpunt", "locatieNaam": "Stichting Goederenbank", "straatNaam": "Lindenlaan", "straatNr": "15", "postcode": "5854 AM", "plaats": "Bergen L", "merk": "StichtingOPEN", "puntType": "balie", "materialen": ["elektro-groot", "elektro-klein"], "uitbetaling": [], "vrijToegankelijk": false, "gemeenteBeperking": null, "openingstijden": null, "latitude": 51.602009, "longitude": 6.047838, "bronId": "SP00030634"}}, {"type": "Feature", "geometry": {"type": "Point", "coordinates": [6.050262, 51.602937]}, "properties": {"type": "inleverpunt", "locatieNaam": "Albert Heijn Bergen L", "straatNaam": "Raadhuisstraat", "straatNr": "7", "postcode": "5854 AX", "plaats": "Bergen L", "merk": "StichtingOPEN", "puntType": "balie", "materialen": ["batterijen", "lampen"], "uitbetaling": [], "vrijToegankelijk": false, "gemeenteBeperking": null, "openingstijden": null, "latitude": 51.602937, "longitude": 6.050262, "bronId": "SP00025633"}}, {"type": "Feature", "geometry": {"type": "Point", "coordinates": [6.055894, 51.605091]}, "properties": {"type": "inleverpunt", "locatieNaam": "Maasduin WitgoedService", "straatNaam": "Sint Antoniusstraat", "straatNr": "6a", "postcode": "5854 CM", "plaats": "Bergen Lb", "merk": "StichtingOPEN", "puntType": "balie", "materialen": ["elektro-groot", "elektro-klein", "elektro-middel"], "uitbetaling": [], "vrijToegankelijk": false, "gemeenteBeperking": null, "openingstijden": null, "latitude": 51.605091, "longitude": 6.055894, "bronId": "SP00006708"}}, {"type": "Feature", "geometry": {"type": "Point", "coordinates": [6.05478, 51.603938]}, "properties": {"type": "inleverpunt", "locatieNaam": "Jumbo Bergen L", "straatNaam": "Rembrandtplein", "straatNr": "2", "postcode": "5854 EM", "plaats": "Bergen L", "merk": "StichtingOPEN", "puntType": "balie", "materialen": ["batterijen", "lampen"], "uitbetaling": [], "vrijToegankelijk": false, "gemeenteBeperking": null, "openingstijden": null, "latitude": 51.603938, "longitude": 6.05478, "bronId": "SP00025048"}}, {"type": "Feature", "geometry": {"type": "Point", "coordinates": [6.061596, 51.567344]}, "properties": {"type": "inleverpunt", "locatieNaam": "Spar Well", "straatNaam": "De Kamp", "straatNr": "5", "postcode": "5855 EG", "plaats": "Well L", "merk": "StichtingOPEN", "puntType": "balie", "materialen": ["batterijen", "lampen"], "uitbetaling": [], "vrijToegankelijk": false, "gemeenteBeperking": null, "openingstijden": null, "latitude": 51.567344, "longitude": 6.061596, "bronId": "SP00031503"}}, {"type": "Feature", "geometry": {"type": "Point", "coordinates": [6.0050852, 51.6422973]}, "properties": {"type": "inleverpunt", "locatieNaam": "Hengeland Camp. Recr.park", "straatNaam": "Hengeland", "straatNr": "10", "postcode": "5851 EA", "plaats": "Afferden Lb", "merk": "Stibat", "puntType": "inzamelbak", "materialen": ["batterijen"], "uitbetaling": [], "vrijToegankelijk": false, "gemeenteBeperking": null, "openingstijden": null, "latitude": 51.6422973, "longitude": 6.0050852, "bronId": "L002954"}}, {"type": "Feature", "geometry": {"type": "Point", "coordinates": [6.0358934, 51.6152118]}, "properties": {"type": "inleverpunt", "locatieNaam": "Milieupark Heukelom", "straatNaam": "Heukolom", "straatNr": "27", "postcode": "5851 AA", "plaats": "Afferden", "merk": "Stibat", "puntType": "inzamelbak", "materialen": ["batterijen"], "uitbetaling": [], "vrijToegankelijk": false, "gemeenteBeperking": null, "openingstijden": null, "latitude": 51.6152118, "longitude": 6.0358934, "bronId": "L035785"}}, {"type": "Feature", "geometry": {"type": "Point", "coordinates": [6.1076256, 51.6483352]}, "properties": {"type": "inleverpunt", "locatieNaam": "H&amp;P Supermarkt Siebengewald", "straatNaam": "Gochsedijk", "straatNr": "73", "postcode": "5853 AB", "plaats": "Siebengewald", "merk": "Stibat", "puntType": "inzamelbak", "materialen": ["batterijen"], "uitbetaling": [], "vrijToegankelijk": false, "gemeenteBeperking": null, "openingstijden": null, "latitude": 51.6483352, "longitude": 6.1076256, "bronId": "L037289"}}, {"type": "Feature", "geometry": {"type": "Point", "coordinates": [6.1071273, 51.647859]}, "properties": {"type": "inleverpunt", "locatieNaam": "Coop Siebengewald", "straatNaam": "Gochsedijk", "straatNr": "92", "postcode": "5853 AE", "plaats": "Siebengewald", "merk": "Stibat", "puntType": "inzamelbak", "materialen": ["batterijen"], "uitbetaling": [], "vrijToegankelijk": false, "gemeenteBeperking": null, "openingstijden": null, "latitude": 51.647859, "longitude": 6.1071273, "bronId": "L040937"}}, {"type": "Feature", "geometry": {"type": "Point", "coordinates": [6.1092589, 51.6485425]}, "properties": {"type": "inleverpunt", "locatieNaam": "Bike Totaal Weys", "straatNaam": "Gochsedijk", "straatNr": "110", "postcode": "5853 AE", "plaats": "Siebengewald", "merk": "Stibat", "puntType": "inzamelbak", "materialen": ["batterijen"], "uitbetaling": [], "vrijToegankelijk": false, "gemeenteBeperking": null, "openingstijden": null, "latitude": 51.6485425, "longitude": 6.1092589, "bronId": "L047865"}}, {"type": "Feature", "geometry": {"type": "Point", "coordinates": [6.0478473, 51.6075912]}, "properties": {"type": "inleverpunt", "locatieNaam": "Hubo", "straatNaam": "De Flammert", "straatNr": "1034", "postcode": "5854 NA", "plaats": "Bergen Lb", "merk": "Stibat", "puntType": "inzamelbak", "materialen": ["batterijen"], "uitbetaling": [], "vrijToegankelijk": false, "gemeenteBeperking": null, "openingstijden": null, "latitude": 51.6075912, "longitude": 6.0478473, "bronId": "L043814"}}, {"type": "Feature", "geometry": {"type": "Point", "coordinates": [6.048845, 51.6037874]}, "properties": {"type": "inleverpunt", "locatieNaam": "Kruidvat", "straatNaam": "Mosaïque", "straatNr": "31", "postcode": "5854 AW", "plaats": "Nieuw Bergen", "merk": "Stibat", "puntType": "inzamelbak", "materialen": ["batterijen"], "uitbetaling": [], "vrijToegankelijk": false, "gemeenteBeperking": null, "openingstijden": null, "latitude": 51.6037874, "longitude": 6.048845, "bronId": "L015483"}}, {"type": "Feature", "geometry": {"type": "Point", "coordinates": [6.0497631, 51.6042142]}, "properties": {"type": "inleverpunt", "locatieNaam": "1124 Action", "straatNaam": "Mosaïque", "straatNr": "9-11", "postcode": "5854 AW", "plaats": "Bergen Lb", "merk": "Stibat", "puntType": "inzamelbak", "materialen": ["batterijen"], "uitbetaling": [], "vrijToegankelijk": false, "gemeenteBeperking": null, "openingstijden": null, "latitude": 51.6042142, "longitude": 6.0497631, "bronId": "L018774"}}, {"type": "Feature", "geometry": {"type": "Point", "coordinates": [6.0490909, 51.603281]}, "properties": {"type": "inleverpunt", "locatieNaam": "Lidl", "straatNaam": "Mosaique", "straatNr": "47", "postcode": "5854 AW", "plaats": "Nieuw-Bergen", "merk": "Stibat", "puntType": "inzamelbak", "materialen": ["batterijen"], "uitbetaling": [], "vrijToegankelijk": false, "gemeenteBeperking": null, "openingstijden": null, "latitude": 51.603281, "longitude": 6.0490909, "bronId": "L017341"}}, {"type": "Feature", "geometry": {"type": "Point", "coordinates": [6.0491975, 51.6031908]}, "properties": {"type": "inleverpunt", "locatieNaam": "Primera", "straatNaam": "Mosaïque", "straatNr": "16", "postcode": "5854 AZ", "plaats": "Nieuw Bergen", "merk": "Stibat", "puntType": "inzamelbak", "materialen": ["batterijen"], "uitbetaling": [], "vrijToegankelijk": false, "gemeenteBeperking": null, "openingstijden": null, "latitude": 51.6031908, "longitude": 6.0491975, "bronId": "L035142"}}, {"type": "Feature", "geometry": {"type": "Point", "coordinates": [6.0491975, 51.6031908]}, "properties": {"type": "inleverpunt", "locatieNaam": "HEMA Nieuw-Bergen", "straatNaam": "Mosaïque", "straatNr": "8", "postcode": "5854 AZ", "plaats": "Nieuw-Bergen", "merk": "Stibat", "puntType": "inzamelbak", "materialen": ["batterijen"], "uitbetaling": [], "vrijToegankelijk": false, "gemeenteBeperking": null, "openingstijden": null, "latitude": 51.6031908, "longitude": 6.0491975, "bronId": "L047060"}}, {"type": "Feature", "geometry": {"type": "Point", "coordinates": [6.050105, 51.603048]}, "properties": {"type": "inleverpunt", "locatieNaam": "Jan Linders", "straatNaam": "Raadhuisstraat", "straatNr": "7", "postcode": "5854 AX", "plaats": "Bergen Lb", "merk": "Stibat", "puntType": "inzamelbak", "materialen": ["batterijen"], "uitbetaling": [], "vrijToegankelijk": false, "gemeenteBeperking": null, "openingstijden": null, "latitude": 51.603048, "longitude": 6.050105, "bronId": "L006837"}}, {"type": "Feature", "geometry": {"type": "Point", "coordinates": [6.050262, 51.6029376]}, "properties": {"type": "inleverpunt", "locatieNaam": "4123 Albert Heijn", "straatNaam": "Raadhuisstraat", "straatNr": "7", "postcode": "5854 AX", "plaats": "Bergen Lb", "merk": "Stibat", "puntType": "inzamelbak", "materialen": ["batterijen"], "uitbetaling": [], "vrijToegankelijk": false, "gemeenteBeperking": null, "openingstijden": null, "latitude": 51.6029376, "longitude": 6.050262, "bronId": "L047083"}}, {"type": "Feature", "geometry": {"type": "Point", "coordinates": [6.0548122, 51.6039493]}, "properties": {"type": "inleverpunt", "locatieNaam": "Jumbo", "straatNaam": "Rembrandtplein", "straatNr": "2", "postcode": "5854 EM", "plaats": "Nieuw Bergen", "merk": "Stibat", "puntType": "inzamelbak", "materialen": ["batterijen"], "uitbetaling": [], "vrijToegankelijk": false, "gemeenteBeperking": null, "openingstijden": null, "latitude": 51.6039493, "longitude": 6.0548122, "bronId": "L017261"}}, {"type": "Feature", "geometry": {"type": "Point", "coordinates": [6.0538129, 51.5967942]}, "properties": {"type": "inleverpunt", "locatieNaam": "SHELL Schimmel", "straatNaam": "Rijksweg", "straatNr": "27", "postcode": "5854 AR", "plaats": "Bergen Lb", "merk": "Stibat", "puntType": "inzamelbak", "materialen": ["batterijen"], "uitbetaling": [], "vrijToegankelijk": false, "gemeenteBeperking": null, "openingstijden": null, "latitude": 51.5967942, "longitude": 6.0538129, "bronId": "L038647"}}, {"type": "Feature", "geometry": {"type": "Point", "coordinates": [6.0604463, 51.5674978]}, "properties": {"type": "inleverpunt", "locatieNaam": "Vakantiepark Leukermeer (Spar enjoy)", "straatNaam": "De Kamp", "straatNr": "5", "postcode": "5855 EG", "plaats": "Well Lb", "merk": "Stibat", "puntType": "inzamelbak", "materialen": ["batterijen"], "uitbetaling": [], "vrijToegankelijk": false, "gemeenteBeperking": null, "openingstijden": null, "latitude": 51.5674978, "longitude": 6.0604463, "bronId": "L009417"}}, {"type": "Feature", "geometry": {"type": "Polygon", "coordinates": [[[6.1691930024792025, 51.503082003573375], [6.188363002498558, 51.50508100357415], [6.200485002510743, 51.5046990035735], [6.204045002514315, 51.50431300357315], [6.21336100252379, 51.50781800357519], [6.212024002522606, 51.5133910035789], [6.207709002518425, 51.519096003582824], [6.199929002510835, 51.52738100358859], [6.188674002499688, 51.53347900359296], [6.176902002487988, 51.538556003596696], [6.157032002468811, 51.56657600361583], [6.1469860024588225, 51.5705910036188], [6.140785002452686, 51.57415800362133], [6.130560002442607, 51.58108800362623], [6.1214850024338165, 51.592745003634164], [6.119284002431632, 51.59366700363485], [6.117085002429425, 51.59384800363502], [6.091387002403932, 51.605936003643734], [6.094355002407194, 51.615196003649714], [6.093934002406977, 51.62215400365431], [6.097229002410252, 51.62088400365337], [6.100012002413146, 51.62407900365541], [6.108040002421743, 51.64193200366683], [6.111683002425489, 51.64473000366851], [6.1094120024232685, 51.64686700367], [6.11724800243126, 51.650731003672306], [6.116527002430553, 51.651389003672726], [6.115771002429847, 51.65322700367399], [6.118087002432258, 51.6559730036757], [6.108386002422593, 51.65899100367795], [6.106039002420239, 51.659239003678174], [6.10283800241706, 51.66050500367907], [6.101966002416189, 51.6606080036792], [6.09965400241379, 51.658116003677634], [6.095035002409192, 51.65970300367883], [6.0878880024020114, 51.65985000367913], [6.087316002401451, 51.66026800367941], [6.0871960024013765, 51.66183900368045], [6.086537002400736, 51.662540003680924], [6.085345002399549, 51.66291400368118], [6.084676002398873, 51.662848003681155], [6.08309600239725, 51.66171900368045], [6.079545002393679, 51.661593003680494], [6.078987002393126, 51.66194900368073], [6.0796630023938505, 51.66346200368172], [6.078435002392616, 51.663449003681706], [6.076357002390548, 51.664176003682265], [6.075724002389931, 51.66482600368272], [6.072384002386545, 51.66383900368217], [6.036642002350875, 51.672760003689], [6.034947002349207, 51.673988003689864], [6.0323490023465975, 51.67405600368997], [6.031540002345801, 51.674583003690344], [6.034684002348969, 51.67487100369044], [6.033261002347577, 51.67611800369131], [6.031945002346256, 51.67616500369137], [6.024278002338354, 51.66981600368745], [6.0317580023456685, 51.66304800368282], [6.024672002338453, 51.66007200368104], [6.015375002329165, 51.662242003682756], [6.014235002327961, 51.66032700368156], [6.006843002320393, 51.65602700367894], [6.002015002315493, 51.65457300367811], [6.001518002315014, 51.65525400367858], [5.991464002304766, 51.65098500367608], [5.976607002289592, 51.64378300367178], [5.982122002295102, 51.64252000367079], [5.996352002309244, 51.6367190036666], [6.0015630023143824, 51.633308003664226], [6.006497002319267, 51.63067200366236], [6.010850002323548, 51.627491003660175], [6.01895000233155, 51.622637003656756], [6.022020002334551, 51.61966400365473], [6.023414002335877, 51.6172450036531], [6.02406600233646, 51.614803003651524], [6.023767002335805, 51.60324500364389], [6.0249430023368316, 51.59806400364047], [6.027244002339031, 51.594298003637924], [6.036595002348219, 51.58685900363278], [6.038473002350034, 51.584452003631114], [6.039536002351037, 51.58225000362963], [6.039785002351246, 51.58087000362872], [6.037961002349226, 51.57482900362481], [6.03755500234868, 51.570425003621885], [6.038746002349789, 51.567516003619964], [6.040712002351678, 51.56445500361785], [6.044852002355727, 51.56056900361515], [6.048355002359188, 51.55833700361363], [6.050369002361202, 51.557874003613236], [6.056509002367375, 51.55758100361289], [6.062132002372984, 51.555875003611625], [6.0689400023797075, 51.55155800360858], [6.075796002386512, 51.54825200360618], [6.078849002389555, 51.54720600360538], [6.085596002396335, 51.546862003604964], [6.102774002413673, 51.54828200360539], [6.10704200241796, 51.54791800360503], [6.111065002421973, 51.54670400360411], [6.112879002423766, 51.54552100360326], [6.113880002424733, 51.54423700360241], [6.116371002427018, 51.53668600359733], [6.118808002429352, 51.53272800359465], [6.120767002431276, 51.531043003593446], [6.131206002441627, 51.5258470035897], [6.144703002454971, 51.51750200358375], [6.150612002460858, 51.51544300358217], [6.157785002468028, 51.51362000358076], [6.161670002471887, 51.51188300357947], [6.166641002476774, 51.507864003576664], [6.1683550024784335, 51.50561400357512], [6.1691930024792025, 51.503082003573375]]]}, "properties": {"type": "boundary", "gemeente": "Bergen (L)"}}]}