{"type": "FeatureCollection", "metadata": {"gemeente": "Best", "slug": "best", "generated_at": "2026-07-28T19:03:25.026558Z", "total_points": 64, "merken": ["StatiegeldNederland", "Stibat", "StichtingOPEN"], "bounds": [5.3689317, 51.4912536, 5.4340675, 51.5184762]}, "features": [{"type": "Feature", "geometry": {"type": "Point", "coordinates": [5.3942354, 51.5112448]}, "properties": {"type": "inleverpunt", "locatieNaam": "Albert Heijn", "straatNaam": "Boterhoek", "straatNr": "21-27", "postcode": "5683 AS", "plaats": "Best", "merk": "StatiegeldNederland", "puntType": "automaat", "materialen": ["pet-groot", "pet-klein", "blik", "glas", "krat"], "uitbetaling": ["bonnetje", "donatie"], "vrijToegankelijk": true, "gemeenteBeperking": null, "openingstijden": {"ma": "08:00–21:00", "di": "08:00–21:00", "wo": "08:00–21:00", "do": "08:00–21:00", "vr": "08:00–21:00", "za": "08:00–21:00", "zo": "09:00–20:00"}, "latitude": 51.5112448, "longitude": 5.3942354, "bronId": "252047"}}, {"type": "Feature", "geometry": {"type": "Point", "coordinates": [5.3945572, 51.4959668]}, "properties": {"type": "inleverpunt", "locatieNaam": "Albert Heijn", "straatNaam": "Wilhelminaplein", "straatNr": "6-8", "postcode": "5684 VK", "plaats": "Best", "merk": "StatiegeldNederland", "puntType": "automaat", "materialen": ["pet-groot", "pet-klein", "blik", "glas", "krat"], "uitbetaling": ["bonnetje", "donatie"], "vrijToegankelijk": true, "gemeenteBeperking": null, "openingstijden": {"ma": "08:00–21:00", "di": "08:00–21:00", "wo": "08:00–21:00", "do": "08:00–21:00", "vr": "08:00–21:00", "za": "08:00–21:00", "zo": "09:00–19:00"}, "latitude": 51.4959668, "longitude": 5.3945572, "bronId": "252930"}}, {"type": "Feature", "geometry": {"type": "Point", "coordinates": [5.394523, 51.5128285]}, "properties": {"type": "inleverpunt", "locatieNaam": "Aldi", "straatNaam": "Secr. L. Janssenstraat", "straatNr": "34", "postcode": "5682 AC", "plaats": "Best", "merk": "StatiegeldNederland", "puntType": "automaat", "materialen": ["pet-groot", "pet-klein", "blik", "glas", "krat"], "uitbetaling": ["bonnetje"], "vrijToegankelijk": true, "gemeenteBeperking": null, "openingstijden": {"ma": "08:00–20:00", "di": "08:00–20:00", "wo": "08:00–20:00", "do": "08:00–20:00", "vr": "08:00–20:00", "za": "08:00–20:00", "zo": "10:00–18:00"}, "latitude": 51.5128285, "longitude": 5.394523, "bronId": "253359"}}, {"type": "Feature", "geometry": {"type": "Point", "coordinates": [5.4340675, 51.4994442]}, "properties": {"type": "inleverpunt", "locatieNaam": "Attractiepark DippieDoe / Ekersweijer Recreatie", "straatNaam": "Ekkersweijer", "straatNr": "1", "postcode": "5681 RZ", "plaats": "Best", "merk": "StatiegeldNederland", "puntType": "automaat", "materialen": ["pet-groot", "pet-klein", "blik"], "uitbetaling": ["bonnetje", "donatie", "tikkie"], "vrijToegankelijk": true, "gemeenteBeperking": null, "openingstijden": null, "latitude": 51.4994442, "longitude": 5.4340675, "bronId": "253788"}}, {"type": "Feature", "geometry": {"type": "Point", "coordinates": [5.3901079, 51.5116847]}, "properties": {"type": "inleverpunt", "locatieNaam": "Ekoplaza", "straatNaam": "HOOFDSTRAAT", "straatNr": "50", "postcode": "5683 AG", "plaats": "Best", "merk": "StatiegeldNederland", "puntType": "balie", "materialen": ["pet-groot", "pet-klein", "blik"], "uitbetaling": [], "vrijToegankelijk": true, "gemeenteBeperking": null, "openingstijden": {"ma": "11:00–18:00", "di": "09:30–18:00", "wo": "09:30–18:00", "do": "09:30–18:00", "vr": "09:30–18:00", "za": "09:30–17:00", "zo": "Gesloten"}, "latitude": 51.5116847, "longitude": 5.3901079, "bronId": "254651"}}, {"type": "Feature", "geometry": {"type": "Point", "coordinates": [5.3689317, 51.5184762]}, "properties": {"type": "inleverpunt", "locatieNaam": "Groencentrum de Mortelen BEST", "straatNaam": "Aarleseweg", "straatNr": "50", "postcode": "5684 LN", "plaats": "Best", "merk": "StatiegeldNederland", "puntType": "automaat", "materialen": ["pet-groot", "pet-klein", "blik", "krat"], "uitbetaling": ["donatie", "tikkie"], "vrijToegankelijk": true, "gemeenteBeperking": null, "openingstijden": {"ma": "09:00–20:00", "di": "09:00–20:00", "wo": "09:00–20:00", "do": "09:00–20:00", "vr": "09:00–20:00", "za": "09:00–20:00", "zo": "Gesloten"}, "latitude": 51.5184762, "longitude": 5.3689317, "bronId": "254879"}}, {"type": "Feature", "geometry": {"type": "Point", "coordinates": [5.383409, 51.5027536]}, "properties": {"type": "inleverpunt", "locatieNaam": "Korfbalvereniging Dkb", "straatNaam": "Jacob van Wassenaerstraat", "straatNr": "65", "postcode": "5684 CR", "plaats": "Best", "merk": "StatiegeldNederland", "puntType": "balie", "materialen": ["pet-groot", "pet-klein", "blik"], "uitbetaling": [], "vrijToegankelijk": false, "gemeenteBeperking": null, "openingstijden": {"ma": "Gesloten", "di": "17:45–22:15", "wo": "Gesloten", "do": "Gesloten", "vr": "17:45–22:15", "za": "08:30–17:00", "zo": "Gesloten"}, "latitude": 51.5027536, "longitude": 5.383409, "bronId": "255931"}}, {"type": "Feature", "geometry": {"type": "Point", "coordinates": [5.39445, 51.49713]}, "properties": {"type": "inleverpunt", "locatieNaam": "Lidl", "straatNaam": "Wilhelminaplein", "straatNr": "78", "postcode": "5684 VN", "plaats": "Best", "merk": "StatiegeldNederland", "puntType": "automaat", "materialen": ["pet-groot", "pet-klein", "blik", "glas", "krat"], "uitbetaling": ["bonnetje", "donatie"], "vrijToegankelijk": true, "gemeenteBeperking": null, "openingstijden": {"ma": "08:00–21:00", "di": "08:00–21:00", "wo": "08:00–21:00", "do": "08:00–21:00", "vr": "08:00–21:00", "za": "08:00–21:00", "zo": "09:00–18:00"}, "latitude": 51.49713, "longitude": 5.39445, "bronId": "256466"}}, {"type": "Feature", "geometry": {"type": "Point", "coordinates": [5.3879192, 51.4917364]}, "properties": {"type": "inleverpunt", "locatieNaam": "Makro", "straatNaam": "Brem", "straatNr": "4", "postcode": "5684 PB", "plaats": "Best", "merk": "StatiegeldNederland", "puntType": "automaat", "materialen": ["pet-groot", "pet-klein", "blik", "krat"], "uitbetaling": ["tikkie"], "vrijToegankelijk": true, "gemeenteBeperking": null, "openingstijden": {"ma": "09:00–21:00", "di": "09:00–21:00", "wo": "09:00–21:00", "do": "09:00–21:00", "vr": "09:00–21:00", "za": "09:00–18:00", "zo": "12:00–17:00"}, "latitude": 51.4917364, "longitude": 5.3879192, "bronId": "256524"}}, {"type": "Feature", "geometry": {"type": "Point", "coordinates": [5.39781, 51.5134]}, "properties": {"type": "inleverpunt", "locatieNaam": "Plus", "straatNaam": "Den Ekker 1 B", "straatNr": "", "postcode": "5683 KE", "plaats": "Best", "merk": "StatiegeldNederland", "puntType": "automaat", "materialen": ["pet-groot", "pet-klein", "blik", "glas", "krat"], "uitbetaling": ["bonnetje", "donatie"], "vrijToegankelijk": true, "gemeenteBeperking": null, "openingstijden": {"ma": "08:00–20:00", "di": "08:00–20:00", "wo": "08:00–20:00", "do": "08:00–20:00", "vr": "08:00–21:00", "za": "08:00–20:00", "zo": "09:30–18:00"}, "latitude": 51.5134, "longitude": 5.39781, "bronId": "257257"}}, {"type": "Feature", "geometry": {"type": "Point", "coordinates": [5.3729326, 51.5014572]}, "properties": {"type": "inleverpunt", "locatieNaam": "Plus", "straatNaam": "Rendierhei", "straatNr": "2", "postcode": "5685 HS", "plaats": "Best", "merk": "StatiegeldNederland", "puntType": "automaat", "materialen": ["pet-groot", "pet-klein", "blik", "glas", "krat"], "uitbetaling": ["bonnetje", "donatie"], "vrijToegankelijk": true, "gemeenteBeperking": null, "openingstijden": {"ma": "07:30–20:00", "di": "07:30–20:00", "wo": "07:30–20:00", "do": "07:30–20:00", "vr": "07:30–21:00", "za": "07:30–20:00", "zo": "09:30–18:00"}, "latitude": 51.5014572, "longitude": 5.3729326, "bronId": "257507"}}, {"type": "Feature", "geometry": {"type": "Point", "coordinates": [5.4140862, 51.5032275]}, "properties": {"type": "inleverpunt", "locatieNaam": "Shell", "straatNaam": "Eindhovenseweg Zuid", "straatNr": "63", "postcode": "5683 PW", "plaats": "Best", "merk": "StatiegeldNederland", "puntType": "balie", "materialen": ["pet-groot", "pet-klein", "blik"], "uitbetaling": [], "vrijToegankelijk": true, "gemeenteBeperking": null, "openingstijden": {"ma": "24 uur geopend", "di": "24 uur geopend", "wo": "24 uur geopend", "do": "24 uur geopend", "vr": "24 uur geopend", "za": "24 uur geopend", "zo": "24 uur geopend"}, "latitude": 51.5032275, "longitude": 5.4140862, "bronId": "258056"}}, {"type": "Feature", "geometry": {"type": "Point", "coordinates": [5.396619, 51.512995]}, "properties": {"type": "inleverpunt", "locatieNaam": "PLUS Best", "straatNaam": "Den Ekker", "straatNr": "1b", "postcode": "5683 KE", "plaats": "Best", "merk": "StichtingOPEN", "puntType": "balie", "materialen": ["batterijen", "lampen"], "uitbetaling": [], "vrijToegankelijk": false, "gemeenteBeperking": null, "openingstijden": null, "latitude": 51.512995, "longitude": 5.396619, "bronId": "SP00024027"}}, {"type": "Feature", "geometry": {"type": "Point", "coordinates": [5.394505, 51.512598]}, "properties": {"type": "inleverpunt", "locatieNaam": "Aldi Best", "straatNaam": "Secr. L. Jansenstraat", "straatNr": "34", "postcode": "5682 AC", "plaats": "Best", "merk": "StichtingOPEN", "puntType": "balie", "materialen": ["batterijen", "elektro-klein", "lampen"], "uitbetaling": [], "vrijToegankelijk": false, "gemeenteBeperking": null, "openingstijden": null, "latitude": 51.512598, "longitude": 5.394505, "bronId": "SP00026763"}}, {"type": "Feature", "geometry": {"type": "Point", "coordinates": [5.392543, 51.512243]}, "properties": {"type": "inleverpunt", "locatieNaam": "Kruidvat Best", "straatNaam": "Hoofdstraat", "straatNr": "20", "postcode": "5683 AD", "plaats": "Best", "merk": "StichtingOPEN", "puntType": "balie", "materialen": ["batterijen", "lampen"], "uitbetaling": [], "vrijToegankelijk": false, "gemeenteBeperking": null, "openingstijden": null, "latitude": 51.512243, "longitude": 5.392543, "bronId": "SP00029783"}}, {"type": "Feature", "geometry": {"type": "Point", "coordinates": [5.394445, 51.51174]}, "properties": {"type": "inleverpunt", "locatieNaam": "1278 Albert Heijn Best", "straatNaam": "Boterhoek", "straatNr": "17", "postcode": "5683 AS", "plaats": "Best", "merk": "StichtingOPEN", "puntType": "balie", "materialen": ["batterijen", "elektro-klein", "lampen"], "uitbetaling": [], "vrijToegankelijk": false, "gemeenteBeperking": null, "openingstijden": null, "latitude": 51.51174, "longitude": 5.394445, "bronId": "SP00022583"}}, {"type": "Feature", "geometry": {"type": "Point", "coordinates": [5.385686, 51.509914]}, "properties": {"type": "inleverpunt", "locatieNaam": "Rickelman", "straatNaam": "Oirschotseweg", "straatNr": "25", "postcode": "5684 NE", "plaats": "Best", "merk": "StichtingOPEN", "puntType": "balie", "materialen": ["elektro-klein", "elektro-middel"], "uitbetaling": [], "vrijToegankelijk": false, "gemeenteBeperking": null, "openingstijden": null, "latitude": 51.509914, "longitude": 5.385686, "bronId": "SP00005604"}}, {"type": "Feature", "geometry": {"type": "Point", "coordinates": [5.410058, 51.504057]}, "properties": {"type": "inleverpunt", "locatieNaam": "Hornbach Best", "straatNaam": "Zandstraat", "straatNr": "15", "postcode": "5683 PL", "plaats": "Best", "merk": "StichtingOPEN", "puntType": "balie", "materialen": ["elektro-middel", "lampen", "tl-buizen"], "uitbetaling": [], "vrijToegankelijk": false, "gemeenteBeperking": null, "openingstijden": null, "latitude": 51.504057, "longitude": 5.410058, "bronId": "SP00006933"}}, {"type": "Feature", "geometry": {"type": "Point", "coordinates": [5.372926, 51.501435]}, "properties": {"type": "inleverpunt", "locatieNaam": "PLUS Best", "straatNaam": "Rendierhei", "straatNr": "2", "postcode": "5685 HS", "plaats": "Best", "merk": "StichtingOPEN", "puntType": "balie", "materialen": ["batterijen", "lampen"], "uitbetaling": [], "vrijToegankelijk": false, "gemeenteBeperking": null, "openingstijden": null, "latitude": 51.501435, "longitude": 5.372926, "bronId": "SP00024167"}}, {"type": "Feature", "geometry": {"type": "Point", "coordinates": [5.41434, 51.50371]}, "properties": {"type": "inleverpunt", "locatieNaam": "Jumbo Best", "straatNaam": "Materiaalweg", "straatNr": "26", "postcode": "5681 RJ", "plaats": "Best", "merk": "StichtingOPEN", "puntType": "balie", "materialen": ["batterijen", "lampen"], "uitbetaling": [], "vrijToegankelijk": false, "gemeenteBeperking": null, "openingstijden": null, "latitude": 51.50371, "longitude": 5.41434, "bronId": "SP00027347"}}, {"type": "Feature", "geometry": {"type": "Point", "coordinates": [5.415764, 51.50185]}, "properties": {"type": "inleverpunt", "locatieNaam": "Decathlon Best", "straatNaam": "N.C.B.-weg", "straatNr": "14", "postcode": "5681 RH", "plaats": "Best", "merk": "StichtingOPEN", "puntType": "balie", "materialen": ["batterijen", "elektro-klein"], "uitbetaling": [], "vrijToegankelijk": false, "gemeenteBeperking": null, "openingstijden": null, "latitude": 51.50185, "longitude": 5.415764, "bronId": "SP00033926"}}, {"type": "Feature", "geometry": {"type": "Point", "coordinates": [5.399821, 51.498661]}, "properties": {"type": "inleverpunt", "locatieNaam": "Kringloopwarenhuis Het Goed Best", "straatNaam": "Sportlaan", "straatNr": "8", "postcode": "5683 CS", "plaats": "Best", "merk": "StichtingOPEN", "puntType": "balie", "materialen": ["batterijen", "elektro-groot", "elektro-klein", "elektro-middel", "lampen", "tl-buizen"], "uitbetaling": [], "vrijToegankelijk": false, "gemeenteBeperking": null, "openingstijden": null, "latitude": 51.498661, "longitude": 5.399821, "bronId": "SP00020202"}}, {"type": "Feature", "geometry": {"type": "Point", "coordinates": [5.395121, 51.497684]}, "properties": {"type": "inleverpunt", "locatieNaam": "Action Best 1162", "straatNaam": "Koningin Julianaweg", "straatNr": "9-11", "postcode": "5684 VA", "plaats": "Best", "merk": "StichtingOPEN", "puntType": "balie", "materialen": ["batterijen", "lampen"], "uitbetaling": [], "vrijToegankelijk": false, "gemeenteBeperking": null, "openingstijden": null, "latitude": 51.497684, "longitude": 5.395121, "bronId": "SP00007746"}}, {"type": "Feature", "geometry": {"type": "Point", "coordinates": [5.394174, 51.496331]}, "properties": {"type": "inleverpunt", "locatieNaam": "Kruidvat Best", "straatNaam": "Wilhelminaplein", "straatNr": "10", "postcode": "5684 VK", "plaats": "Best", "merk": "StichtingOPEN", "puntType": "balie", "materialen": ["batterijen", "lampen"], "uitbetaling": [], "vrijToegankelijk": false, "gemeenteBeperking": null, "openingstijden": null, "latitude": 51.496331, "longitude": 5.394174, "bronId": "SP00024494"}}, {"type": "Feature", "geometry": {"type": "Point", "coordinates": [5.394496, 51.496069]}, "properties": {"type": "inleverpunt", "locatieNaam": "1828 Albert Heijn Best", "straatNaam": "Wilhelminaplein", "straatNr": "6", "postcode": "5684 VK", "plaats": "Best", "merk": "StichtingOPEN", "puntType": "balie", "materialen": ["batterijen", "elektro-klein", "lampen"], "uitbetaling": [], "vrijToegankelijk": false, "gemeenteBeperking": null, "openingstijden": null, "latitude": 51.496069, "longitude": 5.394496, "bronId": "SP00022577"}}, {"type": "Feature", "geometry": {"type": "Point", "coordinates": [5.387864, 51.491912]}, "properties": {"type": "inleverpunt", "locatieNaam": "Makro Best", "straatNaam": "Brem", "straatNr": "4", "postcode": "5684 PB", "plaats": "Best", "merk": "StichtingOPEN", "puntType": "balie", "materialen": ["batterijen", "elektro-klein", "elektro-middel", "lampen", "tl-buizen"], "uitbetaling": [], "vrijToegankelijk": false, "gemeenteBeperking": null, "openingstijden": null, "latitude": 51.491912, "longitude": 5.387864, "bronId": "SP00003198"}}, {"type": "Feature", "geometry": {"type": "Point", "coordinates": [5.403025, 51.491319]}, "properties": {"type": "inleverpunt", "locatieNaam": "Milieustraat Best", "straatNaam": "De Dieze", "straatNr": "26", "postcode": "5684 PT", "plaats": "Best", "merk": "StichtingOPEN", "puntType": "milieustraat", "materialen": ["batterijen", "elektro-groot", "elektro-klein", "elektro-middel", "lampen", "tl-buizen"], "uitbetaling": [], "vrijToegankelijk": false, "gemeenteBeperking": ["Best"], "openingstijden": null, "latitude": 51.491319, "longitude": 5.403025, "bronId": "SP00004426"}}, {"type": "Feature", "geometry": {"type": "Point", "coordinates": [5.3992892, 51.515599]}, "properties": {"type": "inleverpunt", "locatieNaam": "Bike Totaal Best", "straatNaam": "Nieuwstraat", "straatNr": "75", "postcode": "5683 KB", "plaats": "Best", "merk": "Stibat", "puntType": "inzamelbak", "materialen": ["batterijen"], "uitbetaling": [], "vrijToegankelijk": false, "gemeenteBeperking": null, "openingstijden": null, "latitude": 51.515599, "longitude": 5.3992892, "bronId": "L033609"}}, {"type": "Feature", "geometry": {"type": "Point", "coordinates": [5.3959311, 51.5130189]}, "properties": {"type": "inleverpunt", "locatieNaam": "Phone House", "straatNaam": "Nieuwstraat", "straatNr": "26a", "postcode": "5683 KC", "plaats": "Best", "merk": "Stibat", "puntType": "inzamelbak", "materialen": ["batterijen"], "uitbetaling": [], "vrijToegankelijk": false, "gemeenteBeperking": null, "openingstijden": null, "latitude": 51.5130189, "longitude": 5.3959311, "bronId": "L036552"}}, {"type": "Feature", "geometry": {"type": "Point", "coordinates": [5.3969785, 51.5129842]}, "properties": {"type": "inleverpunt", "locatieNaam": "PLUS", "straatNaam": "Den Ekker", "straatNr": "1b", "postcode": "5683 KE", "plaats": "Best", "merk": "Stibat", "puntType": "inzamelbak", "materialen": ["batterijen"], "uitbetaling": [], "vrijToegankelijk": false, "gemeenteBeperking": null, "openingstijden": null, "latitude": 51.5129842, "longitude": 5.3969785, "bronId": "L020606"}}, {"type": "Feature", "geometry": {"type": "Point", "coordinates": [5.3945054, 51.5125981]}, "properties": {"type": "inleverpunt", "locatieNaam": "Aldi", "straatNaam": "Secr. L. Jansenstraat", "straatNr": "34", "postcode": "5682 AC", "plaats": "Best", "merk": "Stibat", "puntType": "inzamelbak", "materialen": ["batterijen"], "uitbetaling": [], "vrijToegankelijk": false, "gemeenteBeperking": null, "openingstijden": null, "latitude": 51.5125981, "longitude": 5.3945054, "bronId": "L041362"}}, {"type": "Feature", "geometry": {"type": "Point", "coordinates": [5.3925461, 51.5122452]}, "properties": {"type": "inleverpunt", "locatieNaam": "Kruidvat", "straatNaam": "Hoofdstraat", "straatNr": "20", "postcode": "5683 AD", "plaats": "Best", "merk": "Stibat", "puntType": "inzamelbak", "materialen": ["batterijen"], "uitbetaling": [], "vrijToegankelijk": false, "gemeenteBeperking": null, "openingstijden": null, "latitude": 51.5122452, "longitude": 5.3925461, "bronId": "L014486"}}, {"type": "Feature", "geometry": {"type": "Point", "coordinates": [5.393237, 51.512282]}, "properties": {"type": "inleverpunt", "locatieNaam": "Hans Anders", "straatNaam": "Hoofdstraat", "straatNr": "10", "postcode": "5683 AD", "plaats": "Best", "merk": "Stibat", "puntType": "inzamelbak", "materialen": ["batterijen"], "uitbetaling": [], "vrijToegankelijk": false, "gemeenteBeperking": null, "openingstijden": null, "latitude": 51.512282, "longitude": 5.393237, "bronId": "L037755"}}, {"type": "Feature", "geometry": {"type": "Point", "coordinates": [5.392321, 51.5122237]}, "properties": {"type": "inleverpunt", "locatieNaam": "Wibra", "straatNaam": "Hoofdstraat", "straatNr": "24", "postcode": "5683 AD", "plaats": "Best", "merk": "Stibat", "puntType": "inzamelbak", "materialen": ["batterijen"], "uitbetaling": [], "vrijToegankelijk": false, "gemeenteBeperking": null, "openingstijden": null, "latitude": 51.5122237, "longitude": 5.392321, "bronId": "L024492"}}, {"type": "Feature", "geometry": {"type": "Point", "coordinates": [5.393804, 51.5122613]}, "properties": {"type": "inleverpunt", "locatieNaam": "HEMA Hoofdstraat", "straatNaam": "Hoofdstraat", "straatNr": "8 F", "postcode": "5683 AD", "plaats": "Best", "merk": "Stibat", "puntType": "inzamelbak", "materialen": ["batterijen"], "uitbetaling": [], "vrijToegankelijk": false, "gemeenteBeperking": null, "openingstijden": null, "latitude": 51.5122613, "longitude": 5.393804, "bronId": "L006706"}}, {"type": "Feature", "geometry": {"type": "Point", "coordinates": [5.3974918, 51.5123955]}, "properties": {"type": "inleverpunt", "locatieNaam": "cyclepointbest", "straatNaam": "Kapelaan J A Heerenstraat", "straatNr": "11", "postcode": "5683 ED", "plaats": "Best", "merk": "Stibat", "puntType": "inzamelbak", "materialen": ["batterijen"], "uitbetaling": [], "vrijToegankelijk": false, "gemeenteBeperking": null, "openingstijden": null, "latitude": 51.5123955, "longitude": 5.3974918, "bronId": "L049269"}}, {"type": "Feature", "geometry": {"type": "Point", "coordinates": [5.3935221, 51.5120565]}, "properties": {"type": "inleverpunt", "locatieNaam": "Specsavers", "straatNaam": "Hoofdstraat", "straatNr": "7", "postcode": "5683 AA", "plaats": "Best", "merk": "Stibat", "puntType": "inzamelbak", "materialen": ["batterijen"], "uitbetaling": [], "vrijToegankelijk": false, "gemeenteBeperking": null, "openingstijden": null, "latitude": 51.5120565, "longitude": 5.3935221, "bronId": "L039872"}}, {"type": "Feature", "geometry": {"type": "Point", "coordinates": [5.3941545, 51.5120508]}, "properties": {"type": "inleverpunt", "locatieNaam": "7312 Etos", "straatNaam": "Boterhoek", "straatNr": "18 -20", "postcode": "5683 AV", "plaats": "Best", "merk": "Stibat", "puntType": "inzamelbak", "materialen": ["batterijen"], "uitbetaling": [], "vrijToegankelijk": false, "gemeenteBeperking": null, "openingstijden": null, "latitude": 51.5120508, "longitude": 5.3941545, "bronId": "L024100"}}, {"type": "Feature", "geometry": {"type": "Point", "coordinates": [5.3941537, 51.5119894]}, "properties": {"type": "inleverpunt", "locatieNaam": "Foto Aartsen", "straatNaam": "Boterhoek", "straatNr": "12", "postcode": "5683 AV", "plaats": "Best", "merk": "Stibat", "puntType": "inzamelbak", "materialen": ["batterijen"], "uitbetaling": [], "vrijToegankelijk": false, "gemeenteBeperking": null, "openingstijden": null, "latitude": 51.5119894, "longitude": 5.3941537, "bronId": "L008598"}}, {"type": "Feature", "geometry": {"type": "Point", "coordinates": [5.3930736, 51.5117655]}, "properties": {"type": "inleverpunt", "locatieNaam": "Bruna", "straatNaam": "Boterhoek", "straatNr": "94", "postcode": "5683 AW", "plaats": "Best", "merk": "Stibat", "puntType": "inzamelbak", "materialen": ["batterijen"], "uitbetaling": [], "vrijToegankelijk": false, "gemeenteBeperking": null, "openingstijden": null, "latitude": 51.5117655, "longitude": 5.3930736, "bronId": "L022097"}}, {"type": "Feature", "geometry": {"type": "Point", "coordinates": [5.3945961, 51.5118063]}, "properties": {"type": "inleverpunt", "locatieNaam": "Zeeman", "straatNaam": "Boterhoek", "straatNr": "1-3", "postcode": "5683 AS", "plaats": "Best", "merk": "Stibat", "puntType": "inzamelbak", "materialen": ["batterijen"], "uitbetaling": [], "vrijToegankelijk": false, "gemeenteBeperking": null, "openingstijden": null, "latitude": 51.5118063, "longitude": 5.3945961, "bronId": "L021872"}}, {"type": "Feature", "geometry": {"type": "Point", "coordinates": [5.3945961, 51.5118063]}, "properties": {"type": "inleverpunt", "locatieNaam": "1278 Albert Heijn", "straatNaam": "Boterhoek", "straatNr": "17", "postcode": "5683 AS", "plaats": "Best", "merk": "Stibat", "puntType": "inzamelbak", "materialen": ["batterijen"], "uitbetaling": [], "vrijToegankelijk": false, "gemeenteBeperking": null, "openingstijden": null, "latitude": 51.5118063, "longitude": 5.3945961, "bronId": "L007732"}}, {"type": "Feature", "geometry": {"type": "Point", "coordinates": [5.3947564, 51.5109083]}, "properties": {"type": "inleverpunt", "locatieNaam": "Beter Horen", "straatNaam": "Zonnewende", "straatNr": "131", "postcode": "5683 AB", "plaats": "Best", "merk": "Stibat", "puntType": "inzamelbak", "materialen": ["batterijen"], "uitbetaling": [], "vrijToegankelijk": false, "gemeenteBeperking": null, "openingstijden": null, "latitude": 51.5109083, "longitude": 5.3947564, "bronId": "L018053"}}, {"type": "Feature", "geometry": {"type": "Point", "coordinates": [5.3868411, 51.5103946]}, "properties": {"type": "inleverpunt", "locatieNaam": "Tweewielerservice van Laarhoven", "straatNaam": "Oirschotseweg", "straatNr": "7b", "postcode": "5684 NE", "plaats": "Best", "merk": "Stibat", "puntType": "inzamelbak", "materialen": ["batterijen"], "uitbetaling": [], "vrijToegankelijk": false, "gemeenteBeperking": null, "openingstijden": null, "latitude": 51.5103946, "longitude": 5.3868411, "bronId": "L038916"}}, {"type": "Feature", "geometry": {"type": "Point", "coordinates": [5.3856366, 51.5100184]}, "properties": {"type": "inleverpunt", "locatieNaam": "EP:", "straatNaam": "Oirschotseweg", "straatNr": "25", "postcode": "5684 NE", "plaats": "Best", "merk": "Stibat", "puntType": "inzamelbak", "materialen": ["batterijen"], "uitbetaling": [], "vrijToegankelijk": false, "gemeenteBeperking": null, "openingstijden": null, "latitude": 51.5100184, "longitude": 5.3856366, "bronId": "L017250"}}, {"type": "Feature", "geometry": {"type": "Point", "coordinates": [5.3899183, 51.5097148]}, "properties": {"type": "inleverpunt", "locatieNaam": "Boerenbond", "straatNaam": "Stationsstraat", "straatNr": "21", "postcode": "5683 BA", "plaats": "Best", "merk": "Stibat", "puntType": "inzamelbak", "materialen": ["batterijen"], "uitbetaling": [], "vrijToegankelijk": false, "gemeenteBeperking": null, "openingstijden": null, "latitude": 51.5097148, "longitude": 5.3899183, "bronId": "L016779"}}, {"type": "Feature", "geometry": {"type": "Point", "coordinates": [5.4102734, 51.5039223]}, "properties": {"type": "inleverpunt", "locatieNaam": "Hornbach", "straatNaam": "Zandstraat", "straatNr": "15", "postcode": "5683 PL", "plaats": "Best", "merk": "Stibat", "puntType": "inzamelbak", "materialen": ["batterijen"], "uitbetaling": [], "vrijToegankelijk": false, "gemeenteBeperking": null, "openingstijden": null, "latitude": 51.5039223, "longitude": 5.4102734, "bronId": "L038143"}}, {"type": "Feature", "geometry": {"type": "Point", "coordinates": [5.3730573, 51.5015906]}, "properties": {"type": "inleverpunt", "locatieNaam": "Kruidvat", "straatNaam": "Rendierhei", "straatNr": "11", "postcode": "5685 HS", "plaats": "Best", "merk": "Stibat", "puntType": "inzamelbak", "materialen": ["batterijen"], "uitbetaling": [], "vrijToegankelijk": false, "gemeenteBeperking": null, "openingstijden": null, "latitude": 51.5015906, "longitude": 5.3730573, "bronId": "L035348"}}, {"type": "Feature", "geometry": {"type": "Point", "coordinates": [5.3732807, 51.5013952]}, "properties": {"type": "inleverpunt", "locatieNaam": "PLUS", "straatNaam": "Rendierhei", "straatNr": "2", "postcode": "5685 HS", "plaats": "Best", "merk": "Stibat", "puntType": "inzamelbak", "materialen": ["batterijen"], "uitbetaling": [], "vrijToegankelijk": false, "gemeenteBeperking": null, "openingstijden": null, "latitude": 51.5013952, "longitude": 5.3732807, "bronId": "L015299"}}, {"type": "Feature", "geometry": {"type": "Point", "coordinates": [5.3914981, 51.502071]}, "properties": {"type": "inleverpunt", "locatieNaam": "De Haan", "straatNaam": "Willem de Zwijgerweg", "straatNr": "83", "postcode": "5684 SC", "plaats": "Best", "merk": "Stibat", "puntType": "inzamelbak", "materialen": ["batterijen"], "uitbetaling": [], "vrijToegankelijk": false, "gemeenteBeperking": null, "openingstijden": null, "latitude": 51.502071, "longitude": 5.3914981, "bronId": "L044765"}}, {"type": "Feature", "geometry": {"type": "Point", "coordinates": [5.4143341, 51.5030673]}, "properties": {"type": "inleverpunt", "locatieNaam": "Jumbo Pick Up Point", "straatNaam": "Eindhovenseweg Zuid", "straatNr": "63", "postcode": "5683 PW", "plaats": "Best", "merk": "Stibat", "puntType": "inzamelbak", "materialen": ["batterijen"], "uitbetaling": [], "vrijToegankelijk": false, "gemeenteBeperking": null, "openingstijden": null, "latitude": 51.5030673, "longitude": 5.4143341, "bronId": "L036024"}}, {"type": "Feature", "geometry": {"type": "Point", "coordinates": [5.415358, 51.5021472]}, "properties": {"type": "inleverpunt", "locatieNaam": "Karwei", "straatNaam": "N.C.B.-weg", "straatNr": "4", "postcode": "5681 RH", "plaats": "Best", "merk": "Stibat", "puntType": "inzamelbak", "materialen": ["batterijen"], "uitbetaling": [], "vrijToegankelijk": false, "gemeenteBeperking": null, "openingstijden": null, "latitude": 51.5021472, "longitude": 5.415358, "bronId": "L005963"}}, {"type": "Feature", "geometry": {"type": "Point", "coordinates": [5.4163657, 51.5019305]}, "properties": {"type": "inleverpunt", "locatieNaam": "Decathlon", "straatNaam": "N.C.B.-weg", "straatNr": "14", "postcode": "5681 RH", "plaats": "Best", "merk": "Stibat", "puntType": "inzamelbak", "materialen": ["batterijen"], "uitbetaling": [], "vrijToegankelijk": false, "gemeenteBeperking": null, "openingstijden": null, "latitude": 51.5019305, "longitude": 5.4163657, "bronId": "L031346"}}, {"type": "Feature", "geometry": {"type": "Point", "coordinates": [5.4040541, 51.5006695]}, "properties": {"type": "inleverpunt", "locatieNaam": "Polvo", "straatNaam": "Randweg", "straatNr": "9", "postcode": "5683 CL", "plaats": "Best", "merk": "Stibat", "puntType": "inzamelbak", "materialen": ["batterijen"], "uitbetaling": [], "vrijToegankelijk": false, "gemeenteBeperking": null, "openingstijden": null, "latitude": 51.5006695, "longitude": 5.4040541, "bronId": "L045160"}}, {"type": "Feature", "geometry": {"type": "Point", "coordinates": [5.3996582, 51.4987986]}, "properties": {"type": "inleverpunt", "locatieNaam": "Het Goed Best", "straatNaam": "Sportlaan", "straatNr": "8", "postcode": "5683 CS", "plaats": "Best", "merk": "Stibat", "puntType": "inzamelbak", "materialen": ["batterijen"], "uitbetaling": [], "vrijToegankelijk": false, "gemeenteBeperking": null, "openingstijden": null, "latitude": 51.4987986, "longitude": 5.3996582, "bronId": "L030632"}}, {"type": "Feature", "geometry": {"type": "Point", "coordinates": [5.3950052, 51.4984719]}, "properties": {"type": "inleverpunt", "locatieNaam": "RENARD", "straatNaam": "Koningin Julianaweg", "straatNr": "29A", "postcode": "5684 VA", "plaats": "Best", "merk": "Stibat", "puntType": "inzamelbak", "materialen": ["batterijen"], "uitbetaling": [], "vrijToegankelijk": false, "gemeenteBeperking": null, "openingstijden": null, "latitude": 51.4984719, "longitude": 5.3950052, "bronId": "L033610"}}, {"type": "Feature", "geometry": {"type": "Point", "coordinates": [5.3950921, 51.4977118]}, "properties": {"type": "inleverpunt", "locatieNaam": "1162 Action", "straatNaam": "Koningin Julianaweg", "straatNr": "9-11", "postcode": "5684 VA", "plaats": "Best", "merk": "Stibat", "puntType": "inzamelbak", "materialen": ["batterijen"], "uitbetaling": [], "vrijToegankelijk": false, "gemeenteBeperking": null, "openingstijden": null, "latitude": 51.4977118, "longitude": 5.3950921, "bronId": "L016685"}}, {"type": "Feature", "geometry": {"type": "Point", "coordinates": [5.4135785, 51.4987805]}, "properties": {"type": "inleverpunt", "locatieNaam": "Electropoint", "straatNaam": "Nieuwstraat", "straatNr": "26a", "postcode": "5683 RC", "plaats": "Best", "merk": "Stibat", "puntType": "inzamelbak", "materialen": ["batterijen"], "uitbetaling": [], "vrijToegankelijk": false, "gemeenteBeperking": null, "openingstijden": null, "latitude": 51.4987805, "longitude": 5.4135785, "bronId": "L015230"}}, {"type": "Feature", "geometry": {"type": "Point", "coordinates": [5.3942656, 51.4971189]}, "properties": {"type": "inleverpunt", "locatieNaam": "Lidl", "straatNaam": "Wilhelminaplein", "straatNr": "78", "postcode": "5684 VN", "plaats": "Best", "merk": "Stibat", "puntType": "inzamelbak", "materialen": ["batterijen"], "uitbetaling": [], "vrijToegankelijk": false, "gemeenteBeperking": null, "openingstijden": null, "latitude": 51.4971189, "longitude": 5.3942656, "bronId": "L018982"}}, {"type": "Feature", "geometry": {"type": "Point", "coordinates": [5.3941908, 51.4969089]}, "properties": {"type": "inleverpunt", "locatieNaam": "Primera", "straatNaam": "Wilhelminaplein", "straatNr": "20", "postcode": "5684 VL", "plaats": "Best", "merk": "Stibat", "puntType": "inzamelbak", "materialen": ["batterijen"], "uitbetaling": [], "vrijToegankelijk": false, "gemeenteBeperking": null, "openingstijden": null, "latitude": 51.4969089, "longitude": 5.3941908, "bronId": "L022994"}}, {"type": "Feature", "geometry": {"type": "Point", "coordinates": [5.3942929, 51.4963151]}, "properties": {"type": "inleverpunt", "locatieNaam": "Kruidvat", "straatNaam": "Wilhelminaplein", "straatNr": "10", "postcode": "5684 VK", "plaats": "Best", "merk": "Stibat", "puntType": "inzamelbak", "materialen": ["batterijen"], "uitbetaling": [], "vrijToegankelijk": false, "gemeenteBeperking": null, "openingstijden": null, "latitude": 51.4963151, "longitude": 5.3942929, "bronId": "L014866"}}, {"type": "Feature", "geometry": {"type": "Point", "coordinates": [5.3945194, 51.4960602]}, "properties": {"type": "inleverpunt", "locatieNaam": "1828 Albert Heijn", "straatNaam": "Wilhelminaplein", "straatNr": "6", "postcode": "5684 VK", "plaats": "Best", "merk": "Stibat", "puntType": "inzamelbak", "materialen": ["batterijen"], "uitbetaling": [], "vrijToegankelijk": false, "gemeenteBeperking": null, "openingstijden": null, "latitude": 51.4960602, "longitude": 5.3945194, "bronId": "L023755"}}, {"type": "Feature", "geometry": {"type": "Point", "coordinates": [5.3883153, 51.4914469]}, "properties": {"type": "inleverpunt", "locatieNaam": "Makro", "straatNaam": "Brem", "straatNr": "4", "postcode": "5684 PB", "plaats": "Best", "merk": "Stibat", "puntType": "inzamelbak", "materialen": ["batterijen"], "uitbetaling": [], "vrijToegankelijk": false, "gemeenteBeperking": null, "openingstijden": null, "latitude": 51.4914469, "longitude": 5.3883153, "bronId": "L025622"}}, {"type": "Feature", "geometry": {"type": "Point", "coordinates": [5.4031406, 51.4912536]}, "properties": {"type": "inleverpunt", "locatieNaam": "Milieustraat Best", "straatNaam": "De Dieze", "straatNr": "26", "postcode": "5684 PT", "plaats": "Best", "merk": "Stibat", "puntType": "inzamelbak", "materialen": ["batterijen"], "uitbetaling": [], "vrijToegankelijk": false, "gemeenteBeperking": null, "openingstijden": null, "latitude": 51.4912536, "longitude": 5.4031406, "bronId": "L035777"}}, {"type": "Feature", "geometry": {"type": "Polygon", "coordinates": [[[5.41170500171399, 51.484646003578206], [5.419268001721714, 51.486652003579415], [5.4297700017324875, 51.49060600358194], [5.44257100174556, 51.49392700358396], [5.440705001743755, 51.496059003585394], [5.4475080017512445, 51.51206900359595], [5.434241001738274, 51.52354100360377], [5.428237001732429, 51.529374003607735], [5.426439001730685, 51.531303003609054], [5.427505001731775, 51.531666003609296], [5.4264210017307235, 51.53274500361004], [5.42530400172958, 51.53238200360976], [5.423843001728167, 51.534055003610945], [5.423034001727344, 51.53389500361084], [5.422630001726947, 51.53422100361108], [5.423201001727531, 51.53439700361116], [5.4214970017259345, 51.53766700361334], [5.4198960017243625, 51.53882200361416], [5.416496001720983, 51.54033200361518], [5.414485001718966, 51.540672003615455], [5.412045001716576, 51.54270000361681], [5.410936001715441, 51.54226900361654], [5.405360001710039, 51.548353003620655], [5.403539001708197, 51.54825300362061], [5.396842001701362, 51.54654500361954], [5.393646001698126, 51.54639400361953], [5.3937780016982435, 51.546018003619245], [5.390611001695018, 51.54538000361886], [5.388162001692501, 51.544277003618205], [5.382792001687041, 51.543489003617765], [5.3826740016869365, 51.543782003617935], [5.36852000167262, 51.54352300361799], [5.367745001671863, 51.54425900361843], [5.365171001669288, 51.54500300361898], [5.356911001660931, 51.5447170036189], [5.368637001672279, 51.531867003610216], [5.368596001672222, 51.53149000360997], [5.367417001670999, 51.53070300360946], [5.365622001669157, 51.529980003609026], [5.355459001658839, 51.52890300360844], [5.355356001658694, 51.52786200360773], [5.353732001656984, 51.52608400360658], [5.35359200165674, 51.523508003604874], [5.354341001657379, 51.52050200360291], [5.353563001656576, 51.52010500360263], [5.352260001655263, 51.52017100360269], [5.351507001654414, 51.51800700360124], [5.35046500165336, 51.51796600360119], [5.3503450016532135, 51.517329003600814], [5.34940200165225, 51.51706000360062], [5.350456001653179, 51.51360300359833], [5.35021900165291, 51.51283700359781], [5.350927001653608, 51.51242000359751], [5.350751001653239, 51.50755300359429], [5.351318001653753, 51.506054003593306], [5.352607001655054, 51.50599200359323], [5.35333200165562, 51.50174600359043], [5.355182001657389, 51.49915900358864], [5.354693001656883, 51.49881000358843], [5.355887001657981, 51.49610700358664], [5.361296001663328, 51.492880003584375], [5.363910001665939, 51.49210300358381], [5.364611001666622, 51.49144700358337], [5.385344001687408, 51.48680400358001], [5.386610001688681, 51.48661400357985], [5.387536001689646, 51.487317003580316], [5.3899070016920545, 51.48756100358047], [5.390034001692116, 51.48581400357927], [5.392170001694255, 51.48530500357888], [5.397822001699931, 51.48423500357812], [5.402323001704468, 51.483833003577786], [5.406087001708279, 51.48388200357774], [5.41170500171399, 51.484646003578206]]]}, "properties": {"type": "boundary", "gemeente": "Best"}}]}