{"type": "FeatureCollection", "metadata": {"gemeente": "Bladel", "slug": "bladel", "generated_at": "2026-07-28T19:03:25.026558Z", "total_points": 48, "merken": ["StatiegeldNederland", "Stibat", "StichtingOPEN"], "bounds": [5.1954933, 51.3213312, 5.2782342, 51.3815036]}, "features": [{"type": "Feature", "geometry": {"type": "Point", "coordinates": [5.22097, 51.36766]}, "properties": {"type": "inleverpunt", "locatieNaam": "Albert Heijn", "straatNaam": "Sniederslaan", "straatNr": "53", "postcode": "5531 EH", "plaats": "Bladel", "merk": "StatiegeldNederland", "puntType": "automaat", "materialen": ["pet-groot", "pet-klein", "blik", "glas", "krat"], "uitbetaling": ["bonnetje", "donatie", "tikkie"], "vrijToegankelijk": true, "gemeenteBeperking": null, "openingstijden": {"ma": "08:00–21:00", "di": "08:00–21:00", "wo": "08:00–21:00", "do": "08:00–21:00", "vr": "08:00–21:00", "za": "08:00–21:00", "zo": "09:00–20:00"}, "latitude": 51.36766, "longitude": 5.22097, "bronId": "252980"}}, {"type": "Feature", "geometry": {"type": "Point", "coordinates": [5.1954933, 51.3569312]}, "properties": {"type": "inleverpunt", "locatieNaam": "Appel 2557 - Dechra", "straatNaam": "Handelsweg", "straatNr": "25", "postcode": "5531 AE", "plaats": "Bladel", "merk": "StatiegeldNederland", "puntType": "balie", "materialen": ["pet-groot", "pet-klein", "blik"], "uitbetaling": [], "vrijToegankelijk": true, "gemeenteBeperking": null, "openingstijden": {"ma": "09:00–16:00", "di": "09:00–16:00", "wo": "09:00–16:00", "do": "09:00–16:00", "vr": "09:00–16:00", "za": "Gesloten", "zo": "Gesloten"}, "latitude": 51.3569312, "longitude": 5.1954933, "bronId": "253578"}}, {"type": "Feature", "geometry": {"type": "Point", "coordinates": [5.224421, 51.3244092]}, "properties": {"type": "inleverpunt", "locatieNaam": "BP", "straatNaam": "De Vroent", "straatNr": "1", "postcode": "5531 NZ", "plaats": "Bladel", "merk": "StatiegeldNederland", "puntType": "automaat", "materialen": ["pet-groot", "pet-klein", "blik"], "uitbetaling": ["bonnetje", "donatie", "tikkie"], "vrijToegankelijk": true, "gemeenteBeperking": null, "openingstijden": {"ma": "09:00–18:00", "di": "09:00–18:00", "wo": "09:00–18:00", "do": "09:00–18:00", "vr": "09:00–18:00", "za": "09:00–17:00", "zo": "11:00–17:00"}, "latitude": 51.3244092, "longitude": 5.224421, "bronId": "253901"}}, {"type": "Feature", "geometry": {"type": "Point", "coordinates": [5.2180169, 51.3213312]}, "properties": {"type": "inleverpunt", "locatieNaam": "Esso", "straatNaam": "De Vroent", "straatNr": "4", "postcode": "5531 NZ", "plaats": "Bladel", "merk": "StatiegeldNederland", "puntType": "automaat", "materialen": ["pet-groot", "pet-klein", "blik"], "uitbetaling": ["bonnetje", "donatie", "tikkie"], "vrijToegankelijk": true, "gemeenteBeperking": null, "openingstijden": null, "latitude": 51.3213312, "longitude": 5.2180169, "bronId": "254721"}}, {"type": "Feature", "geometry": {"type": "Point", "coordinates": [5.218227, 51.366486]}, "properties": {"type": "inleverpunt", "locatieNaam": "Jumbo", "straatNaam": "Gindrapassage", "straatNr": "18", "postcode": "5531 CP", "plaats": "Bladel", "merk": "StatiegeldNederland", "puntType": "automaat", "materialen": ["pet-groot", "pet-klein", "blik", "glas", "krat"], "uitbetaling": ["bonnetje", "donatie"], "vrijToegankelijk": true, "gemeenteBeperking": null, "openingstijden": {"ma": "08:00–21:00", "di": "08:00–21:00", "wo": "08:00–21:00", "do": "08:00–21:00", "vr": "08:00–21:00", "za": "08:00–20:00", "zo": "09:00–20:00"}, "latitude": 51.366486, "longitude": 5.218227, "bronId": "255385"}}, {"type": "Feature", "geometry": {"type": "Point", "coordinates": [5.251834, 51.369247]}, "properties": {"type": "inleverpunt", "locatieNaam": "Jumbo", "straatNaam": "Markt", "straatNr": "26", "postcode": "5527 EN", "plaats": "Hapert", "merk": "StatiegeldNederland", "puntType": "automaat", "materialen": ["pet-groot", "pet-klein", "blik", "glas", "krat"], "uitbetaling": ["bonnetje", "donatie"], "vrijToegankelijk": true, "gemeenteBeperking": null, "openingstijden": {"ma": "08:00–21:00", "di": "08:00–21:00", "wo": "08:00–21:00", "do": "08:00–21:00", "vr": "08:00–21:00", "za": "08:00–20:00", "zo": "09:00–18:00"}, "latitude": 51.369247, "longitude": 5.251834, "bronId": "255566"}}, {"type": "Feature", "geometry": {"type": "Point", "coordinates": [5.2526145, 51.3795695]}, "properties": {"type": "inleverpunt", "locatieNaam": "Korfbalvereniging Kvc", "straatNaam": "Burgemeester van Woenseldreef", "straatNr": "21", "postcode": "5527 JN", "plaats": "Hapert", "merk": "StatiegeldNederland", "puntType": "balie", "materialen": ["pet-groot", "pet-klein", "blik"], "uitbetaling": [], "vrijToegankelijk": false, "gemeenteBeperking": null, "openingstijden": null, "latitude": 51.3795695, "longitude": 5.2526145, "bronId": "255936"}}, {"type": "Feature", "geometry": {"type": "Point", "coordinates": [5.25243, 51.36854]}, "properties": {"type": "inleverpunt", "locatieNaam": "Lidl", "straatNaam": "Markt", "straatNr": "66", "postcode": "5527 EN", "plaats": "Hapert", "merk": "StatiegeldNederland", "puntType": "automaat", "materialen": ["pet-groot", "pet-klein", "blik", "glas", "krat"], "uitbetaling": ["bonnetje", "donatie"], "vrijToegankelijk": true, "gemeenteBeperking": null, "openingstijden": {"ma": "08:00–21:00", "di": "08:00–21:00", "wo": "08:00–21:00", "do": "08:00–21:00", "vr": "08:00–21:00", "za": "08:00–20:00", "zo": "09:00–18:00"}, "latitude": 51.36854, "longitude": 5.25243, "bronId": "256271"}}, {"type": "Feature", "geometry": {"type": "Point", "coordinates": [5.2182385, 51.3605125]}, "properties": {"type": "inleverpunt", "locatieNaam": "Optisport Zwembad De Smagtenbocht", "straatNaam": "Bossingel", "straatNr": "3", "postcode": "5531 NH", "plaats": "Bladel", "merk": "StatiegeldNederland", "puntType": "balie", "materialen": ["pet-groot", "pet-klein", "blik"], "uitbetaling": [], "vrijToegankelijk": false, "gemeenteBeperking": null, "openingstijden": {"ma": "12:00–22:00", "di": "15:45–22:00", "wo": "10:30–19:00", "do": "09:30–21:00", "vr": "07:00–19:00", "za": "08:45–15:15", "zo": "10:00–12:30"}, "latitude": 51.3605125, "longitude": 5.2182385, "bronId": "257069"}}, {"type": "Feature", "geometry": {"type": "Point", "coordinates": [5.202475, 51.3815036]}, "properties": {"type": "inleverpunt", "locatieNaam": "Tuincentrum Groenen", "straatNaam": "Hulselseweg", "straatNr": "11", "postcode": "5531 PE", "plaats": "Bladel", "merk": "StatiegeldNederland", "puntType": "automaat", "materialen": ["pet-groot", "pet-klein", "blik"], "uitbetaling": ["bonnetje"], "vrijToegankelijk": true, "gemeenteBeperking": null, "openingstijden": null, "latitude": 51.3815036, "longitude": 5.202475, "bronId": "259053"}}, {"type": "Feature", "geometry": {"type": "Point", "coordinates": [5.268166, 51.371653]}, "properties": {"type": "inleverpunt", "locatieNaam": "Praxis Hapert - 2260", "straatNaam": "Industrieweg", "straatNr": "7a", "postcode": "5527 AJ", "plaats": "Hapert", "merk": "StichtingOPEN", "puntType": "balie", "materialen": ["elektro-middel", "lampen", "tl-buizen"], "uitbetaling": [], "vrijToegankelijk": false, "gemeenteBeperking": null, "openingstijden": null, "latitude": 51.371653, "longitude": 5.268166, "bronId": "SP00004562"}}, {"type": "Feature", "geometry": {"type": "Point", "coordinates": [5.251701, 51.369227]}, "properties": {"type": "inleverpunt", "locatieNaam": "Jumbo Hapert", "straatNaam": "Markt", "straatNr": "26", "postcode": "5527 EN", "plaats": "Hapert", "merk": "StichtingOPEN", "puntType": "balie", "materialen": ["batterijen", "lampen"], "uitbetaling": [], "vrijToegankelijk": false, "gemeenteBeperking": null, "openingstijden": null, "latitude": 51.369227, "longitude": 5.251701, "bronId": "SP00024977"}}, {"type": "Feature", "geometry": {"type": "Point", "coordinates": [5.220956, 51.367738]}, "properties": {"type": "inleverpunt", "locatieNaam": "8780 Albert Heijn (Retourette) Bladel", "straatNaam": "Bergmolen", "straatNr": "53", "postcode": "5531 EH", "plaats": "Bladel", "merk": "StichtingOPEN", "puntType": "balie", "materialen": ["batterijen", "elektro-klein", "lampen"], "uitbetaling": [], "vrijToegankelijk": false, "gemeenteBeperking": null, "openingstijden": null, "latitude": 51.367738, "longitude": 5.220956, "bronId": "SP00022530"}}, {"type": "Feature", "geometry": {"type": "Point", "coordinates": [5.218874, 51.367551]}, "properties": {"type": "inleverpunt", "locatieNaam": "Kruidvat Bladel", "straatNaam": "Sniederslaan", "straatNr": "28a", "postcode": "5531 EL", "plaats": "Bladel", "merk": "StichtingOPEN", "puntType": "balie", "materialen": ["batterijen", "lampen"], "uitbetaling": [], "vrijToegankelijk": false, "gemeenteBeperking": null, "openingstijden": null, "latitude": 51.367551, "longitude": 5.218874, "bronId": "SP00024470"}}, {"type": "Feature", "geometry": {"type": "Point", "coordinates": [5.216553, 51.366945]}, "properties": {"type": "inleverpunt", "locatieNaam": "Xenos Bladel", "straatNaam": "Sniederslaan", "straatNr": "4", "postcode": "5531 EL", "plaats": "Bladel", "merk": "StichtingOPEN", "puntType": "balie", "materialen": ["batterijen", "lampen"], "uitbetaling": [], "vrijToegankelijk": false, "gemeenteBeperking": null, "openingstijden": null, "latitude": 51.366945, "longitude": 5.216553, "bronId": "SP00025738"}}, {"type": "Feature", "geometry": {"type": "Point", "coordinates": [5.218275, 51.366543]}, "properties": {"type": "inleverpunt", "locatieNaam": "Jumbo Bladel", "straatNaam": "Gindrapassage", "straatNr": "18", "postcode": "5531 CP", "plaats": "Bladel", "merk": "StichtingOPEN", "puntType": "balie", "materialen": ["batterijen", "lampen"], "uitbetaling": [], "vrijToegankelijk": false, "gemeenteBeperking": null, "openingstijden": null, "latitude": 51.366543, "longitude": 5.218275, "bronId": "SP00024974"}}, {"type": "Feature", "geometry": {"type": "Point", "coordinates": [5.204599, 51.365058]}, "properties": {"type": "inleverpunt", "locatieNaam": "Data Impact", "straatNaam": "Postelweg", "straatNr": "8A", "postcode": "5531 MV", "plaats": "Bladel", "merk": "StichtingOPEN", "puntType": "balie", "materialen": ["elektro-klein"], "uitbetaling": [], "vrijToegankelijk": false, "gemeenteBeperking": null, "openingstijden": null, "latitude": 51.365058, "longitude": 5.204599, "bronId": "SP00041128"}}, {"type": "Feature", "geometry": {"type": "Point", "coordinates": [5.201407, 51.361366]}, "properties": {"type": "inleverpunt", "locatieNaam": "65520 Hubo Bladel", "straatNaam": "Industrieweg", "straatNr": "3", "postcode": "5531 AD", "plaats": "Bladel", "merk": "StichtingOPEN", "puntType": "balie", "materialen": ["elektro-middel", "lampen", "tl-buizen"], "uitbetaling": [], "vrijToegankelijk": false, "gemeenteBeperking": null, "openingstijden": null, "latitude": 51.361366, "longitude": 5.201407, "bronId": "SP00005187"}}, {"type": "Feature", "geometry": {"type": "Point", "coordinates": [5.199223, 51.358054]}, "properties": {"type": "inleverpunt", "locatieNaam": "Milieustraat Bladel", "straatNaam": "Nijverheidsstraat", "straatNr": "7d", "postcode": "5531 AA", "plaats": "Bladel", "merk": "StichtingOPEN", "puntType": "milieustraat", "materialen": ["batterijen", "elektro-groot", "elektro-klein", "elektro-middel", "lampen", "tl-buizen"], "uitbetaling": [], "vrijToegankelijk": false, "gemeenteBeperking": ["Bladel", "Reusel-De Mierden"], "openingstijden": null, "latitude": 51.358054, "longitude": 5.199223, "bronId": "SP00001106"}}, {"type": "Feature", "geometry": {"type": "Point", "coordinates": [5.2782342, 51.3810718]}, "properties": {"type": "inleverpunt", "locatieNaam": "Boerenbond", "straatNaam": "Dominepad", "straatNr": "6", "postcode": "5528 NC", "plaats": "Hoogeloon", "merk": "Stibat", "puntType": "inzamelbak", "materialen": ["batterijen"], "uitbetaling": [], "vrijToegankelijk": false, "gemeenteBeperking": null, "openingstijden": null, "latitude": 51.3810718, "longitude": 5.2782342, "bronId": "L018447"}}, {"type": "Feature", "geometry": {"type": "Point", "coordinates": [5.2682192, 51.371468]}, "properties": {"type": "inleverpunt", "locatieNaam": "Praxis 2260", "straatNaam": "Industrieweg", "straatNr": "7a", "postcode": "5527 AJ", "plaats": "Hapert", "merk": "Stibat", "puntType": "inzamelbak", "materialen": ["batterijen"], "uitbetaling": [], "vrijToegankelijk": false, "gemeenteBeperking": null, "openingstijden": null, "latitude": 51.371468, "longitude": 5.2682192, "bronId": "L015304"}}, {"type": "Feature", "geometry": {"type": "Point", "coordinates": [5.2516494, 51.3704971]}, "properties": {"type": "inleverpunt", "locatieNaam": "Hermans Tweewielers B.V.", "straatNaam": "Kerkstraat", "straatNr": "14", "postcode": "5527 EG", "plaats": "Hapert", "merk": "Stibat", "puntType": "inzamelbak", "materialen": ["batterijen"], "uitbetaling": [], "vrijToegankelijk": false, "gemeenteBeperking": null, "openingstijden": null, "latitude": 51.3704971, "longitude": 5.2516494, "bronId": "L032486"}}, {"type": "Feature", "geometry": {"type": "Point", "coordinates": [5.2524716, 51.3692486]}, "properties": {"type": "inleverpunt", "locatieNaam": "DA", "straatNaam": "Markt", "straatNr": "21-23", "postcode": "5527 EN", "plaats": "Hapert", "merk": "Stibat", "puntType": "inzamelbak", "materialen": ["batterijen"], "uitbetaling": [], "vrijToegankelijk": false, "gemeenteBeperking": null, "openingstijden": null, "latitude": 51.3692486, "longitude": 5.2524716, "bronId": "L026860"}}, {"type": "Feature", "geometry": {"type": "Point", "coordinates": [5.2518377, 51.3692499]}, "properties": {"type": "inleverpunt", "locatieNaam": "Jumbo", "straatNaam": "Markt", "straatNr": "26", "postcode": "5527 EN", "plaats": "Hapert", "merk": "Stibat", "puntType": "inzamelbak", "materialen": ["batterijen"], "uitbetaling": [], "vrijToegankelijk": false, "gemeenteBeperking": null, "openingstijden": null, "latitude": 51.3692499, "longitude": 5.2518377, "bronId": "L031639"}}, {"type": "Feature", "geometry": {"type": "Point", "coordinates": [5.2523744, 51.3684802]}, "properties": {"type": "inleverpunt", "locatieNaam": "Lidl", "straatNaam": "Markt", "straatNr": "66", "postcode": "5527 EN", "plaats": "Hapert", "merk": "Stibat", "puntType": "inzamelbak", "materialen": ["batterijen"], "uitbetaling": [], "vrijToegankelijk": false, "gemeenteBeperking": null, "openingstijden": null, "latitude": 51.3684802, "longitude": 5.2523744, "bronId": "L031280"}}, {"type": "Feature", "geometry": {"type": "Point", "coordinates": [5.256013, 51.3676137]}, "properties": {"type": "inleverpunt", "locatieNaam": "Europart", "straatNaam": "Nieuwstraat", "straatNr": "47", "postcode": "5527 AS", "plaats": "Hapert", "merk": "Stibat", "puntType": "inzamelbak", "materialen": ["batterijen"], "uitbetaling": [], "vrijToegankelijk": false, "gemeenteBeperking": null, "openingstijden": null, "latitude": 51.3676137, "longitude": 5.256013, "bronId": "L021731"}}, {"type": "Feature", "geometry": {"type": "Point", "coordinates": [5.2221946, 51.3680157]}, "properties": {"type": "inleverpunt", "locatieNaam": "Bike Totaal Bito", "straatNaam": "Sniederslaan", "straatNr": "63-65", "postcode": "5531 EH", "plaats": "Bladel", "merk": "Stibat", "puntType": "inzamelbak", "materialen": ["batterijen"], "uitbetaling": [], "vrijToegankelijk": false, "gemeenteBeperking": null, "openingstijden": null, "latitude": 51.3680157, "longitude": 5.2221946, "bronId": "L033580"}}, {"type": "Feature", "geometry": {"type": "Point", "coordinates": [5.2209646, 51.3677415]}, "properties": {"type": "inleverpunt", "locatieNaam": "8780 Albert Heijn (Retourette)", "straatNaam": "Sniederslaan", "straatNr": "53", "postcode": "5531 EH", "plaats": "Bladel", "merk": "Stibat", "puntType": "inzamelbak", "materialen": ["batterijen"], "uitbetaling": [], "vrijToegankelijk": false, "gemeenteBeperking": null, "openingstijden": null, "latitude": 51.3677415, "longitude": 5.2209646, "bronId": "L008097"}}, {"type": "Feature", "geometry": {"type": "Point", "coordinates": [5.220973, 51.3677098]}, "properties": {"type": "inleverpunt", "locatieNaam": "Primera", "straatNaam": "Sniederslaan", "straatNr": "51", "postcode": "5531 EH", "plaats": "Bladel", "merk": "Stibat", "puntType": "inzamelbak", "materialen": ["batterijen"], "uitbetaling": [], "vrijToegankelijk": false, "gemeenteBeperking": null, "openingstijden": null, "latitude": 51.3677098, "longitude": 5.220973, "bronId": "L038339"}}, {"type": "Feature", "geometry": {"type": "Point", "coordinates": [5.2191233, 51.3676262]}, "properties": {"type": "inleverpunt", "locatieNaam": "HEMA Sniederslaan", "straatNaam": "Sniederslaan", "straatNr": "32", "postcode": "5531 EL", "plaats": "Bladel", "merk": "Stibat", "puntType": "inzamelbak", "materialen": ["batterijen"], "uitbetaling": [], "vrijToegankelijk": false, "gemeenteBeperking": null, "openingstijden": null, "latitude": 51.3676262, "longitude": 5.2191233, "bronId": "L005860"}}, {"type": "Feature", "geometry": {"type": "Point", "coordinates": [5.2189604, 51.3675842]}, "properties": {"type": "inleverpunt", "locatieNaam": "Kruidvat", "straatNaam": "Sniederslaan", "straatNr": "28A", "postcode": "5531 EL", "plaats": "Bladel", "merk": "Stibat", "puntType": "inzamelbak", "materialen": ["batterijen"], "uitbetaling": [], "vrijToegankelijk": false, "gemeenteBeperking": null, "openingstijden": null, "latitude": 51.3675842, "longitude": 5.2189604, "bronId": "L016149"}}, {"type": "Feature", "geometry": {"type": "Point", "coordinates": [5.2188768, 51.367562]}, "properties": {"type": "inleverpunt", "locatieNaam": "Electro van den Berg", "straatNaam": "Sniederslaan", "straatNr": "28", "postcode": "5531 EL", "plaats": "Bladel", "merk": "Stibat", "puntType": "inzamelbak", "materialen": ["batterijen"], "uitbetaling": [], "vrijToegankelijk": false, "gemeenteBeperking": null, "openingstijden": null, "latitude": 51.367562, "longitude": 5.2188768, "bronId": "L014729"}}, {"type": "Feature", "geometry": {"type": "Point", "coordinates": [5.2192557, 51.3674168]}, "properties": {"type": "inleverpunt", "locatieNaam": "Intertoys", "straatNaam": "Sniederslaan", "straatNr": "33", "postcode": "5531 EG", "plaats": "Bladel", "merk": "Stibat", "puntType": "inzamelbak", "materialen": ["batterijen"], "uitbetaling": [], "vrijToegankelijk": false, "gemeenteBeperking": null, "openingstijden": null, "latitude": 51.3674168, "longitude": 5.2192557, "bronId": "L007736"}}, {"type": "Feature", "geometry": {"type": "Point", "coordinates": [5.2145341, 51.3672845]}, "properties": {"type": "inleverpunt", "locatieNaam": "G.G. Office V.O.F. / PrintXperts", "straatNaam": "Van Dissellaan", "straatNr": "4A", "postcode": "5531 BR", "plaats": "Bladel", "merk": "Stibat", "puntType": "inzamelbak", "materialen": ["batterijen"], "uitbetaling": [], "vrijToegankelijk": false, "gemeenteBeperking": null, "openingstijden": null, "latitude": 51.3672845, "longitude": 5.2145341, "bronId": "L020519"}}, {"type": "Feature", "geometry": {"type": "Point", "coordinates": [5.2167245, 51.3669917]}, "properties": {"type": "inleverpunt", "locatieNaam": "Hans Anders", "straatNaam": "Sniederslaan", "straatNr": "6", "postcode": "5531 EL", "plaats": "Bladel", "merk": "Stibat", "puntType": "inzamelbak", "materialen": ["batterijen"], "uitbetaling": [], "vrijToegankelijk": false, "gemeenteBeperking": null, "openingstijden": null, "latitude": 51.3669917, "longitude": 5.2167245, "bronId": "L041019"}}, {"type": "Feature", "geometry": {"type": "Point", "coordinates": [5.216565, 51.3669275]}, "properties": {"type": "inleverpunt", "locatieNaam": "Xenos", "straatNaam": "Sniederslaan", "straatNr": "4", "postcode": "5531 EL", "plaats": "Bladel", "merk": "Stibat", "puntType": "inzamelbak", "materialen": ["batterijen"], "uitbetaling": [], "vrijToegankelijk": false, "gemeenteBeperking": null, "openingstijden": null, "latitude": 51.3669275, "longitude": 5.216565, "bronId": "L037033"}}, {"type": "Feature", "geometry": {"type": "Point", "coordinates": [5.2215312, 51.3679122]}, "properties": {"type": "inleverpunt", "locatieNaam": "Coen's Trading Telecom", "straatNaam": "Snierderslaan", "straatNr": "55 A", "postcode": "5531 EH", "plaats": "Bladel", "merk": "Stibat", "puntType": "inzamelbak", "materialen": ["batterijen"], "uitbetaling": [], "vrijToegankelijk": false, "gemeenteBeperking": null, "openingstijden": null, "latitude": 51.3679122, "longitude": 5.2215312, "bronId": "L029527"}}, {"type": "Feature", "geometry": {"type": "Point", "coordinates": [5.220594, 51.3675708]}, "properties": {"type": "inleverpunt", "locatieNaam": "6010 Etos", "straatNaam": "Sniederslaan", "straatNr": "51 A", "postcode": "5531 EH", "plaats": "Bladel", "merk": "Stibat", "puntType": "inzamelbak", "materialen": ["batterijen"], "uitbetaling": [], "vrijToegankelijk": false, "gemeenteBeperking": null, "openingstijden": null, "latitude": 51.3675708, "longitude": 5.220594, "bronId": "L024397"}}, {"type": "Feature", "geometry": {"type": "Point", "coordinates": [5.2168795, 51.3667845]}, "properties": {"type": "inleverpunt", "locatieNaam": "Zeeman", "straatNaam": "Sniederslaan", "straatNr": "11", "postcode": "5531 EG", "plaats": "Bladel", "merk": "Stibat", "puntType": "inzamelbak", "materialen": ["batterijen"], "uitbetaling": [], "vrijToegankelijk": false, "gemeenteBeperking": null, "openingstijden": null, "latitude": 51.3667845, "longitude": 5.2168795, "bronId": "L019530"}}, {"type": "Feature", "geometry": {"type": "Point", "coordinates": [5.2166292, 51.3667419]}, "properties": {"type": "inleverpunt", "locatieNaam": "Schoonenberg Hoorcomfort", "straatNaam": "Sniederslaan", "straatNr": "7b", "postcode": "5531 EG", "plaats": "Bladel", "merk": "Stibat", "puntType": "inzamelbak", "materialen": ["batterijen"], "uitbetaling": [], "vrijToegankelijk": false, "gemeenteBeperking": null, "openingstijden": null, "latitude": 51.3667419, "longitude": 5.2166292, "bronId": "L007251"}}, {"type": "Feature", "geometry": {"type": "Point", "coordinates": [5.2180246, 51.3666401]}, "properties": {"type": "inleverpunt", "locatieNaam": "Van Boxtel hoorwinkel", "straatNaam": "Gindrapassage", "straatNr": "15", "postcode": "5531 CP", "plaats": "Bladel", "merk": "Stibat", "puntType": "inzamelbak", "materialen": ["batterijen"], "uitbetaling": [], "vrijToegankelijk": false, "gemeenteBeperking": null, "openingstijden": null, "latitude": 51.3666401, "longitude": 5.2180246, "bronId": "L031537"}}, {"type": "Feature", "geometry": {"type": "Point", "coordinates": [5.2182306, 51.366489]}, "properties": {"type": "inleverpunt", "locatieNaam": "Jumbo", "straatNaam": "Gindrapassage", "straatNr": "18", "postcode": "5531 CP", "plaats": "Bladel", "merk": "Stibat", "puntType": "inzamelbak", "materialen": ["batterijen"], "uitbetaling": [], "vrijToegankelijk": false, "gemeenteBeperking": null, "openingstijden": null, "latitude": 51.366489, "longitude": 5.2182306, "bronId": "L006741"}}, {"type": "Feature", "geometry": {"type": "Point", "coordinates": [5.2026918, 51.3636512]}, "properties": {"type": "inleverpunt", "locatieNaam": "Vissers Mechanisatie Bladel BV", "straatNaam": "Rond Deel", "straatNr": "6", "postcode": "5531 AH", "plaats": "Bladel", "merk": "Stibat", "puntType": "inzamelbak", "materialen": ["batterijen"], "uitbetaling": [], "vrijToegankelijk": false, "gemeenteBeperking": null, "openingstijden": null, "latitude": 51.3636512, "longitude": 5.2026918, "bronId": "L045602"}}, {"type": "Feature", "geometry": {"type": "Point", "coordinates": [5.2054514, 51.3634656]}, "properties": {"type": "inleverpunt", "locatieNaam": "Libra Computers", "straatNaam": "Postelweg", "straatNr": "41", "postcode": "5531 MV", "plaats": "Bladel", "merk": "Stibat", "puntType": "inzamelbak", "materialen": ["batterijen"], "uitbetaling": [], "vrijToegankelijk": false, "gemeenteBeperking": null, "openingstijden": null, "latitude": 51.3634656, "longitude": 5.2054514, "bronId": "L032147"}}, {"type": "Feature", "geometry": {"type": "Point", "coordinates": [5.2136395, 51.362963]}, "properties": {"type": "inleverpunt", "locatieNaam": "Europart", "straatNaam": "Steenslag", "straatNr": "5", "postcode": "5531 MC", "plaats": "Bladel", "merk": "Stibat", "puntType": "inzamelbak", "materialen": ["batterijen"], "uitbetaling": [], "vrijToegankelijk": false, "gemeenteBeperking": null, "openingstijden": null, "latitude": 51.362963, "longitude": 5.2136395, "bronId": "L036353"}}, {"type": "Feature", "geometry": {"type": "Point", "coordinates": [5.2012614, 51.361256]}, "properties": {"type": "inleverpunt", "locatieNaam": "Hubo (de Houtwinkel)", "straatNaam": "Industrieweg", "straatNr": "3", "postcode": "5531 AD", "plaats": "Bladel", "merk": "Stibat", "puntType": "inzamelbak", "materialen": ["batterijen"], "uitbetaling": [], "vrijToegankelijk": false, "gemeenteBeperking": null, "openingstijden": null, "latitude": 51.361256, "longitude": 5.2012614, "bronId": "L038263"}}, {"type": "Feature", "geometry": {"type": "Point", "coordinates": [5.1996106, 51.3581108]}, "properties": {"type": "inleverpunt", "locatieNaam": "Gemeentelijke milieustraat Bladel", "straatNaam": "Nijverheidsstraat", "straatNr": "7d", "postcode": "5531 AA", "plaats": "Bladel", "merk": "Stibat", "puntType": "inzamelbak", "materialen": ["batterijen"], "uitbetaling": [], "vrijToegankelijk": false, "gemeenteBeperking": null, "openingstijden": null, "latitude": 51.3581108, "longitude": 5.1996106, "bronId": "L035770"}}, {"type": "Feature", "geometry": {"type": "Point", "coordinates": [5.2497117, 51.3439478]}, "properties": {"type": "inleverpunt", "locatieNaam": "Het Vennenbos", "straatNaam": "Schouwberg", "straatNr": "7", "postcode": "5527 JH", "plaats": "Hapert", "merk": "Stibat", "puntType": "inzamelbak", "materialen": ["batterijen"], "uitbetaling": [], "vrijToegankelijk": false, "gemeenteBeperking": null, "openingstijden": null, "latitude": 51.3439478, "longitude": 5.2497117, "bronId": "L011398"}}, {"type": "Feature", "geometry": {"type": "Polygon", "coordinates": [[[5.263411001557288, 51.319282003468494], [5.285973001580845, 51.33633900347988], [5.2752990015710886, 51.36272300349786], [5.279766001576122, 51.375329003506366], [5.285915001582717, 51.38447000351246], [5.287624001584487, 51.385455003513144], [5.290408001587336, 51.386107003513594], [5.289240001586266, 51.388909003515465], [5.298886001596065, 51.389687003515895], [5.302712001599982, 51.390711003516536], [5.306283001603607, 51.39095900351667], [5.306368001603682, 51.390637003516424], [5.3108660016082405, 51.39071500351641], [5.310444001608025, 51.39605500352005], [5.313650001611406, 51.399441003522284], [5.308918001606791, 51.40392100352535], [5.307197001605146, 51.40625200352696], [5.3028470016007905, 51.40753100352787], [5.300027001597946, 51.407794003528075], [5.298028001595895, 51.40715000352768], [5.2961160015939805, 51.40772900352808], [5.290149001587795, 51.40408100352572], [5.288515001586143, 51.4041200035257], [5.2864530015840785, 51.40478200352618], [5.2848230015824145, 51.40441900352598], [5.283347001580938, 51.40493100352633], [5.2818980015794486, 51.40437000352595], [5.278387001576068, 51.408650003528905], [5.276393001574074, 51.409348003529416], [5.272904001570546, 51.40947000352952], [5.248776001546644, 51.422558003538605], [5.249446001547339, 51.422954003538834], [5.24478300154275, 51.4262540035411], [5.243381001541304, 51.42548300354061], [5.237705001535681, 51.42855900354276], [5.22988200152765, 51.425898003541036], [5.229381001527126, 51.42547200354073], [5.223537001521193, 51.42508300354055], [5.223141001520908, 51.427921003542465], [5.219543001517306, 51.428919003543164], [5.217571001515371, 51.430429003544205], [5.217407001515248, 51.43150500354493], [5.215771001513701, 51.43418000354667], [5.209937001507792, 51.43417100354677], [5.209218001507164, 51.43650100354838], [5.2066760015045155, 51.434696003547145], [5.205020001502824, 51.43433400354696], [5.195420001492955, 51.43078300354464], [5.191025001488482, 51.4302250035443], [5.190769001488205, 51.42974500354398], [5.190852001487811, 51.41821100353622], [5.194771001491023, 51.39985600352384], [5.200959001496887, 51.390066003517134], [5.1974030014930355, 51.384018003513134], [5.197612001493219, 51.38333900351261], [5.199269001494857, 51.382308003511945], [5.1959490014914085, 51.38028400351058], [5.1969790014924175, 51.379465003510035], [5.193057001488391, 51.37817100350918], [5.188317001483563, 51.37753400350882], [5.187988001483104, 51.37451300350676], [5.185567001480703, 51.37580900350766], [5.183203001478307, 51.37578500350767], [5.184347001479427, 51.374763003506935], [5.190659001485704, 51.37190500350497], [5.19167200148653, 51.367066003501684], [5.192155001487008, 51.366788003501476], [5.190605001485414, 51.36622700350112], [5.192138001486909, 51.364797003500136], [5.197471001492225, 51.36270100349868], [5.195392001490102, 51.3622910034984], [5.19633200149103, 51.361636003497956], [5.1919340014865725, 51.361633003497985], [5.191988001486357, 51.35509200349355], [5.192339001486531, 51.350737003490615], [5.194494001488729, 51.351076003490824], [5.195114001489304, 51.34968800348985], [5.1962930014905035, 51.34984200348996], [5.196069001490199, 51.34799600348872], [5.19386500148785, 51.34522600348686], [5.204698001498016, 51.3254380034733], [5.200255001493402, 51.322661003471424], [5.241118001534137, 51.305665003459424], [5.242535001535587, 51.30600400345966], [5.243969001537177, 51.30938700346192], [5.259449001552958, 51.31147700346322], [5.25921800155282, 51.313885003464875], [5.2609630015547175, 51.31709700346702], [5.263411001557288, 51.319282003468494]]]}, "properties": {"type": "boundary", "gemeente": "Bladel"}}]}