{"type": "FeatureCollection", "metadata": {"gemeente": "Borger-Odoorn", "slug": "borger-odoorn", "generated_at": "2026-07-28T10:02:02.095237Z", "total_points": 54, "merken": ["StatiegeldNederland", "Stibat", "StichtingOPEN"], "bounds": [6.746399, 52.8286512, 6.9966553, 52.9770095]}, "features": [{"type": "Feature", "geometry": {"type": "Point", "coordinates": [6.7919586, 52.923409]}, "properties": {"type": "inleverpunt", "locatieNaam": "Albert Heijn", "straatNaam": "Hoofdstraat", "straatNr": "35", "postcode": "9531 AB", "plaats": "Borger", "merk": "StatiegeldNederland", "puntType": "automaat", "materialen": ["pet-groot", "pet-klein", "blik", "glas", "krat"], "uitbetaling": ["bonnetje", "donatie"], "vrijToegankelijk": true, "gemeenteBeperking": null, "openingstijden": {"ma": "08:00–21:00", "di": "08:00–21:00", "wo": "08:00–21:00", "do": "08:00–21:00", "vr": "08:00–21:00", "za": "08:00–21:00", "zo": "08:00–20:00"}, "latitude": 52.923409, "longitude": 6.7919586, "bronId": "252325"}}, {"type": "Feature", "geometry": {"type": "Point", "coordinates": [6.7981784, 52.9238023]}, "properties": {"type": "inleverpunt", "locatieNaam": "Aldi", "straatNaam": "Buinerstraat", "straatNr": "8", "postcode": "9531 CG", "plaats": "Borger", "merk": "StatiegeldNederland", "puntType": "automaat", "materialen": ["pet-groot", "pet-klein", "blik", "glas", "krat"], "uitbetaling": ["bonnetje"], "vrijToegankelijk": true, "gemeenteBeperking": null, "openingstijden": {"ma": "07:00–20:00", "di": "07:00–20:00", "wo": "07:00–20:00", "do": "07:00–20:00", "vr": "07:00–20:00", "za": "07:00–20:00", "zo": "09:00–18:00"}, "latitude": 52.9238023, "longitude": 6.7981784, "bronId": "253036"}}, {"type": "Feature", "geometry": {"type": "Point", "coordinates": [6.9538325, 52.9741843]}, "properties": {"type": "inleverpunt", "locatieNaam": "Aldi", "straatNaam": "Parklaan", "straatNr": "71-73", "postcode": "9521 GB", "plaats": "Nieuw-Buinen", "merk": "StatiegeldNederland", "puntType": "automaat", "materialen": ["pet-groot", "pet-klein", "blik", "glas", "krat"], "uitbetaling": ["bonnetje"], "vrijToegankelijk": true, "gemeenteBeperking": null, "openingstijden": {"ma": "08:00–20:00", "di": "08:00–20:00", "wo": "08:00–20:00", "do": "08:00–20:00", "vr": "08:00–20:00", "za": "08:00–20:00", "zo": "10:00–18:00"}, "latitude": 52.9741843, "longitude": 6.9538325, "bronId": "253314"}}, {"type": "Feature", "geometry": {"type": "Point", "coordinates": [6.747366, 52.9316674]}, "properties": {"type": "inleverpunt", "locatieNaam": "Bospark Lunsbergen", "straatNaam": "Rolderstraat", "straatNr": "11a", "postcode": "9531 TC", "plaats": "Borger", "merk": "StatiegeldNederland", "puntType": "automaat", "materialen": ["pet-groot", "pet-klein", "blik", "glas"], "uitbetaling": ["bonnetje"], "vrijToegankelijk": true, "gemeenteBeperking": null, "openingstijden": null, "latitude": 52.9316674, "longitude": 6.747366, "bronId": "253891"}}, {"type": "Feature", "geometry": {"type": "Point", "coordinates": [6.7923802, 52.9215104]}, "properties": {"type": "inleverpunt", "locatieNaam": "De Leme Natuurvoeding", "straatNaam": "Hoofdstraat", "straatNr": "61a", "postcode": "9531 AC", "plaats": "Borger", "merk": "StatiegeldNederland", "puntType": "balie", "materialen": ["pet-groot", "pet-klein", "blik"], "uitbetaling": [], "vrijToegankelijk": true, "gemeenteBeperking": null, "openingstijden": {"ma": "Gesloten", "di": "09:00–18:00", "wo": "09:00–18:00", "do": "09:00–18:00", "vr": "09:00–18:00", "za": "09:00–17:00", "zo": "Gesloten"}, "latitude": 52.9215104, "longitude": 6.7923802, "bronId": "254284"}}, {"type": "Feature", "geometry": {"type": "Point", "coordinates": [6.7868117, 52.9576852]}, "properties": {"type": "inleverpunt", "locatieNaam": "Drouwenerzand Attractiepark", "straatNaam": "Gasselterstraat", "straatNr": "7", "postcode": "9533 PC", "plaats": "Drouwen", "merk": "StatiegeldNederland", "puntType": "automaat", "materialen": ["pet-groot", "pet-klein", "blik"], "uitbetaling": ["donatie", "tikkie"], "vrijToegankelijk": true, "gemeenteBeperking": null, "openingstijden": null, "latitude": 52.9576852, "longitude": 6.7868117, "bronId": "254604"}}, {"type": "Feature", "geometry": {"type": "Point", "coordinates": [6.9085293, 52.9461833]}, "properties": {"type": "inleverpunt", "locatieNaam": "Horeca Groothandel Sloots", "straatNaam": "Zuiderdiep", "straatNr": "217", "postcode": "9521 AE", "plaats": "Nieuw Buinen", "merk": "StatiegeldNederland", "puntType": "automaat", "materialen": ["pet-groot", "pet-klein", "blik"], "uitbetaling": ["bonnetje", "donatie"], "vrijToegankelijk": true, "gemeenteBeperking": null, "openingstijden": {"ma": "08:30–20:00", "di": "08:30–20:00", "wo": "08:30–20:00", "do": "08:30–20:00", "vr": "08:30–20:00", "za": "08:30–18:00", "zo": "08:30–13:00"}, "latitude": 52.9461833, "longitude": 6.9085293, "bronId": "255113"}}, {"type": "Feature", "geometry": {"type": "Point", "coordinates": [6.8667146, 52.8828483]}, "properties": {"type": "inleverpunt", "locatieNaam": "Landwinkel Exloo", "straatNaam": "Hoofdstraat", "straatNr": "49", "postcode": "7875 AB", "plaats": "Exloo", "merk": "StatiegeldNederland", "puntType": "balie", "materialen": ["pet-groot", "pet-klein", "blik"], "uitbetaling": [], "vrijToegankelijk": true, "gemeenteBeperking": null, "openingstijden": {"ma": "08:00–19:00", "di": "08:00–19:00", "wo": "08:00–19:00", "do": "08:00–19:00", "vr": "08:00–19:00", "za": "08:00–17:00", "zo": "Gesloten"}, "latitude": 52.8828483, "longitude": 6.8667146, "bronId": "256020"}}, {"type": "Feature", "geometry": {"type": "Point", "coordinates": [6.79, 52.9233333]}, "properties": {"type": "inleverpunt", "locatieNaam": "Nettorama", "straatNaam": "Grote Brink", "straatNr": "11", "postcode": "9531 AK", "plaats": "Borger", "merk": "StatiegeldNederland", "puntType": "automaat", "materialen": ["pet-groot", "pet-klein", "blik", "glas", "krat"], "uitbetaling": ["bonnetje"], "vrijToegankelijk": true, "gemeenteBeperking": null, "openingstijden": {"ma": "08:00–21:00", "di": "08:00–21:00", "wo": "08:00–21:00", "do": "08:00–21:00", "vr": "08:00–21:00", "za": "08:00–21:00", "zo": "09:00–18:00"}, "latitude": 52.9233333, "longitude": 6.79, "bronId": "256862"}}, {"type": "Feature", "geometry": {"type": "Point", "coordinates": [6.8481948, 52.8538408]}, "properties": {"type": "inleverpunt", "locatieNaam": "Plus", "straatNaam": "Exloerweg", "straatNr": "11", "postcode": "7873 BW", "plaats": "Odoorn", "merk": "StatiegeldNederland", "puntType": "automaat", "materialen": ["pet-groot", "pet-klein", "blik", "glas", "krat"], "uitbetaling": ["bonnetje"], "vrijToegankelijk": true, "gemeenteBeperking": null, "openingstijden": {"ma": "08:00–20:00", "di": "08:00–20:00", "wo": "08:00–20:00", "do": "08:00–20:00", "vr": "08:00–20:00", "za": "08:00–20:00", "zo": "10:00–17:00"}, "latitude": 52.8538408, "longitude": 6.8481948, "bronId": "257304"}}, {"type": "Feature", "geometry": {"type": "Point", "coordinates": [6.8481363, 52.8539763]}, "properties": {"type": "inleverpunt", "locatieNaam": "Plus Coop Odoorn", "straatNaam": "Exloërweg", "straatNr": "11", "postcode": "7873 BW", "plaats": "Odoorn", "merk": "StatiegeldNederland", "puntType": "automaat", "materialen": ["pet-groot", "pet-klein", "blik", "krat"], "uitbetaling": ["retourpinnen"], "vrijToegankelijk": true, "gemeenteBeperking": null, "openingstijden": {"ma": "09:00–17:00", "di": "09:00–17:00", "wo": "09:00–17:00", "do": "09:00–17:00", "vr": "09:00–17:00", "za": "Gesloten", "zo": "Gesloten"}, "latitude": 52.8539763, "longitude": 6.8481363, "bronId": "257697"}}, {"type": "Feature", "geometry": {"type": "Point", "coordinates": [6.9481496, 52.8763503]}, "properties": {"type": "inleverpunt", "locatieNaam": "Supermarkt Van Klinken Valthermond", "straatNaam": "Noorderdiep", "straatNr": "316", "postcode": "7876 CP", "plaats": "Valthermond", "merk": "StatiegeldNederland", "puntType": "automaat", "materialen": ["pet-groot", "pet-klein", "blik"], "uitbetaling": ["bonnetje", "donatie", "tikkie"], "vrijToegankelijk": true, "gemeenteBeperking": null, "openingstijden": {"ma": "10:00–17:00", "di": "10:00–17:00", "wo": "10:00–17:00", "do": "10:00–17:00", "vr": "10:00–17:00", "za": "10:00–17:00", "zo": "10:00–17:00"}, "latitude": 52.8763503, "longitude": 6.9481496, "bronId": "258788"}}, {"type": "Feature", "geometry": {"type": "Point", "coordinates": [6.8050073, 52.9183683]}, "properties": {"type": "inleverpunt", "locatieNaam": "Sv Borger", "straatNaam": "De Drift", "straatNr": "6", "postcode": "9531 TK", "plaats": "Borger", "merk": "StatiegeldNederland", "puntType": "balie", "materialen": ["pet-groot", "pet-klein", "blik"], "uitbetaling": [], "vrijToegankelijk": false, "gemeenteBeperking": null, "openingstijden": {"ma": "09:00–11:30", "di": "Gesloten", "wo": "Gesloten", "do": "Gesloten", "vr": "09:00–11:30", "za": "Gesloten", "zo": "Gesloten"}, "latitude": 52.9183683, "longitude": 6.8050073, "bronId": "258801"}}, {"type": "Feature", "geometry": {"type": "Point", "coordinates": [6.8038257, 52.9241074]}, "properties": {"type": "inleverpunt", "locatieNaam": "Tpv Borger", "straatNaam": "Drift", "straatNr": "1", "postcode": "9531 TK", "plaats": "Borger", "merk": "StatiegeldNederland", "puntType": "balie", "materialen": ["pet-groot", "pet-klein", "blik"], "uitbetaling": [], "vrijToegankelijk": false, "gemeenteBeperking": null, "openingstijden": {"ma": "08:00–17:00", "di": "08:00–17:00", "wo": "08:00–17:00", "do": "08:00–17:00", "vr": "08:00–17:00", "za": "08:00–17:00", "zo": "08:00–17:00"}, "latitude": 52.9241074, "longitude": 6.8038257, "bronId": "259038"}}, {"type": "Feature", "geometry": {"type": "Point", "coordinates": [6.8789078, 52.9359003]}, "properties": {"type": "inleverpunt", "locatieNaam": "V.v. Buinerveen", "straatNaam": "Noorderstraat", "straatNr": "7a", "postcode": "9524 PA", "plaats": "Buinerveen", "merk": "StatiegeldNederland", "puntType": "balie", "materialen": ["pet-groot", "pet-klein", "blik"], "uitbetaling": [], "vrijToegankelijk": false, "gemeenteBeperking": null, "openingstijden": null, "latitude": 52.9359003, "longitude": 6.8789078, "bronId": "259108"}}, {"type": "Feature", "geometry": {"type": "Point", "coordinates": [6.9513348, 52.8766816]}, "properties": {"type": "inleverpunt", "locatieNaam": "ViaTim", "straatNaam": "Rooilaan", "straatNr": "115", "postcode": "7876 GP", "plaats": "Valthermond", "merk": "StatiegeldNederland", "puntType": "balie", "materialen": ["pet-groot", "pet-klein", "blik"], "uitbetaling": ["tikkie"], "vrijToegankelijk": true, "gemeenteBeperking": null, "openingstijden": null, "latitude": 52.8766816, "longitude": 6.9513348, "bronId": "259469"}}, {"type": "Feature", "geometry": {"type": "Point", "coordinates": [6.790515, 52.923517]}, "properties": {"type": "inleverpunt", "locatieNaam": "Boni Borger", "straatNaam": "Grote Brink", "straatNr": "11a", "postcode": "9531 AK", "plaats": "Borger", "merk": "StichtingOPEN", "puntType": "balie", "materialen": ["batterijen", "lampen"], "uitbetaling": [], "vrijToegankelijk": false, "gemeenteBeperking": null, "openingstijden": null, "latitude": 52.923517, "longitude": 6.790515, "bronId": "SP00023736"}}, {"type": "Feature", "geometry": {"type": "Point", "coordinates": [6.791792, 52.92342]}, "properties": {"type": "inleverpunt", "locatieNaam": "8572 Albert Heijn Borger", "straatNaam": "Hoofdstraat", "straatNr": "35", "postcode": "9531 AB", "plaats": "Borger", "merk": "StichtingOPEN", "puntType": "balie", "materialen": ["batterijen", "elektro-klein", "lampen"], "uitbetaling": [], "vrijToegankelijk": false, "gemeenteBeperking": null, "openingstijden": null, "latitude": 52.92342, "longitude": 6.791792, "bronId": "SP00023163"}}, {"type": "Feature", "geometry": {"type": "Point", "coordinates": [6.79176, 52.92363]}, "properties": {"type": "inleverpunt", "locatieNaam": "Kruidvat Borger", "straatNaam": "Hoofdstraat", "straatNr": "29h", "postcode": "9531 AB", "plaats": "Borger", "merk": "StichtingOPEN", "puntType": "balie", "materialen": ["batterijen", "lampen"], "uitbetaling": [], "vrijToegankelijk": false, "gemeenteBeperking": null, "openingstijden": null, "latitude": 52.92363, "longitude": 6.79176, "bronId": "SP00029661"}}, {"type": "Feature", "geometry": {"type": "Point", "coordinates": [6.790334, 52.925069]}, "properties": {"type": "inleverpunt", "locatieNaam": "66850 Hubo Borger", "straatNaam": "Hoofdstraat", "straatNr": "26", "postcode": "9531 AG", "plaats": "Borger", "merk": "StichtingOPEN", "puntType": "balie", "materialen": ["batterijen", "elektro-klein", "elektro-middel", "lampen", "tl-buizen"], "uitbetaling": [], "vrijToegankelijk": false, "gemeenteBeperking": null, "openingstijden": null, "latitude": 52.925069, "longitude": 6.790334, "bronId": "SP00005213"}}, {"type": "Feature", "geometry": {"type": "Point", "coordinates": [6.798061, 52.923834]}, "properties": {"type": "inleverpunt", "locatieNaam": "Aldi Borger", "straatNaam": "Buinerstraat", "straatNr": "8", "postcode": "9531 CG", "plaats": "Borger", "merk": "StichtingOPEN", "puntType": "balie", "materialen": ["batterijen", "elektro-klein", "lampen"], "uitbetaling": [], "vrijToegankelijk": false, "gemeenteBeperking": null, "openingstijden": null, "latitude": 52.923834, "longitude": 6.798061, "bronId": "SP00027035"}}, {"type": "Feature", "geometry": {"type": "Point", "coordinates": [6.86675, 52.88297]}, "properties": {"type": "inleverpunt", "locatieNaam": "Spar Exloo", "straatNaam": "Hoofdstraat", "straatNr": "49", "postcode": "7875 AB", "plaats": "Exloo", "merk": "StichtingOPEN", "puntType": "balie", "materialen": ["batterijen", "lampen"], "uitbetaling": [], "vrijToegankelijk": false, "gemeenteBeperking": null, "openingstijden": null, "latitude": 52.88297, "longitude": 6.86675, "bronId": "SP00030037"}}, {"type": "Feature", "geometry": {"type": "Point", "coordinates": [6.926756, 52.906048]}, "properties": {"type": "inleverpunt", "locatieNaam": "Attent 2e Exloërmond", "straatNaam": "Zuiderdiep", "straatNr": "54", "postcode": "9571 BC", "plaats": "2e Exloërmond", "merk": "StichtingOPEN", "puntType": "balie", "materialen": ["batterijen", "lampen"], "uitbetaling": [], "vrijToegankelijk": false, "gemeenteBeperking": null, "openingstijden": null, "latitude": 52.906048, "longitude": 6.926756, "bronId": "SP00025824"}}, {"type": "Feature", "geometry": {"type": "Point", "coordinates": [6.953823, 52.974245]}, "properties": {"type": "inleverpunt", "locatieNaam": "Aldi Nieuw-Buinen", "straatNaam": "Parklaan", "straatNr": "71-73", "postcode": "9521 GB", "plaats": "Nieuw-Buinen", "merk": "StichtingOPEN", "puntType": "balie", "materialen": ["batterijen", "elektro-klein", "lampen"], "uitbetaling": [], "vrijToegankelijk": false, "gemeenteBeperking": null, "openingstijden": null, "latitude": 52.974245, "longitude": 6.953823, "bronId": "SP00027006"}}, {"type": "Feature", "geometry": {"type": "Point", "coordinates": [6.917404, 52.905678]}, "properties": {"type": "inleverpunt", "locatieNaam": "Afvalbrengpunt Borger Odoorn", "straatNaam": "Zuiderkijl", "straatNr": "9", "postcode": "9571 TC", "plaats": "2e Exloërmond", "merk": "StichtingOPEN", "puntType": "milieustraat", "materialen": ["batterijen", "elektro-groot", "elektro-klein", "elektro-middel", "lampen", "tl-buizen"], "uitbetaling": [], "vrijToegankelijk": false, "gemeenteBeperking": ["Borger-Odoorn"], "openingstijden": null, "latitude": 52.905678, "longitude": 6.917404, "bronId": "SP00030667"}}, {"type": "Feature", "geometry": {"type": "Point", "coordinates": [6.8575597, 52.8286512]}, "properties": {"type": "inleverpunt", "locatieNaam": "Vakantiecentrum De Fruithof", "straatNaam": "Melkweg", "straatNr": "2", "postcode": "7871 PE", "plaats": "Klijndijk", "merk": "Stibat", "puntType": "inzamelbak", "materialen": ["batterijen"], "uitbetaling": [], "vrijToegankelijk": false, "gemeenteBeperking": null, "openingstijden": null, "latitude": 52.8286512, "longitude": 6.8575597, "bronId": "L004665"}}, {"type": "Feature", "geometry": {"type": "Point", "coordinates": [6.8462433, 52.8504184]}, "properties": {"type": "inleverpunt", "locatieNaam": "2Wielerhuis", "straatNaam": "Hoofdstraat", "straatNr": "22", "postcode": "7873 BC", "plaats": "Odoorn", "merk": "Stibat", "puntType": "inzamelbak", "materialen": ["batterijen"], "uitbetaling": [], "vrijToegankelijk": false, "gemeenteBeperking": null, "openingstijden": null, "latitude": 52.8504184, "longitude": 6.8462433, "bronId": "L034836"}}, {"type": "Feature", "geometry": {"type": "Point", "coordinates": [6.8485777, 52.8508491]}, "properties": {"type": "inleverpunt", "locatieNaam": "D.I.O.", "straatNaam": "Valtherweg", "straatNr": "5", "postcode": "7873 AA", "plaats": "Odoorn", "merk": "Stibat", "puntType": "inzamelbak", "materialen": ["batterijen"], "uitbetaling": [], "vrijToegankelijk": false, "gemeenteBeperking": null, "openingstijden": null, "latitude": 52.8508491, "longitude": 6.8485777, "bronId": "L025188"}}, {"type": "Feature", "geometry": {"type": "Point", "coordinates": [6.8468348, 52.8525604]}, "properties": {"type": "inleverpunt", "locatieNaam": "Plus", "straatNaam": "Exloerweg", "straatNr": "11", "postcode": "7873 BW", "plaats": "Odoorn", "merk": "Stibat", "puntType": "inzamelbak", "materialen": ["batterijen"], "uitbetaling": [], "vrijToegankelijk": false, "gemeenteBeperking": null, "openingstijden": null, "latitude": 52.8525604, "longitude": 6.8468348, "bronId": "L014978"}}, {"type": "Feature", "geometry": {"type": "Point", "coordinates": [6.8329506, 52.8699662]}, "properties": {"type": "inleverpunt", "locatieNaam": "t Vlintenholt", "straatNaam": "Borgerderweg", "straatNr": "17", "postcode": "7873 TC", "plaats": "Odoorn", "merk": "Stibat", "puntType": "inzamelbak", "materialen": ["batterijen"], "uitbetaling": [], "vrijToegankelijk": false, "gemeenteBeperking": null, "openingstijden": null, "latitude": 52.8699662, "longitude": 6.8329506, "bronId": "L004652"}}, {"type": "Feature", "geometry": {"type": "Point", "coordinates": [6.746399, 52.9317166]}, "properties": {"type": "inleverpunt", "locatieNaam": "Roompot Bospark Lunsbergen (Spar)", "straatNaam": "Rolderstraat", "straatNr": "11a", "postcode": "9531 TC", "plaats": "Borger", "merk": "Stibat", "puntType": "inzamelbak", "materialen": ["batterijen"], "uitbetaling": [], "vrijToegankelijk": false, "gemeenteBeperking": null, "openingstijden": null, "latitude": 52.9317166, "longitude": 6.746399, "bronId": "L003202"}}, {"type": "Feature", "geometry": {"type": "Point", "coordinates": [6.8046138, 52.9098827]}, "properties": {"type": "inleverpunt", "locatieNaam": "Het Land van Bartje", "straatNaam": "Buinerweg", "straatNr": "8", "postcode": "9536 PG", "plaats": "Ees", "merk": "Stibat", "puntType": "inzamelbak", "materialen": ["batterijen"], "uitbetaling": [], "vrijToegankelijk": false, "gemeenteBeperking": null, "openingstijden": null, "latitude": 52.9098827, "longitude": 6.8046138, "bronId": "L011824"}}, {"type": "Feature", "geometry": {"type": "Point", "coordinates": [6.7923644, 52.9212126]}, "properties": {"type": "inleverpunt", "locatieNaam": "Egberts Fietsen", "straatNaam": "Hoofdstraat", "straatNr": "63-A", "postcode": "9531 AC", "plaats": "Borger", "merk": "Stibat", "puntType": "inzamelbak", "materialen": ["batterijen"], "uitbetaling": [], "vrijToegankelijk": false, "gemeenteBeperking": null, "openingstijden": null, "latitude": 52.9212126, "longitude": 6.7923644, "bronId": "L034257"}}, {"type": "Feature", "geometry": {"type": "Point", "coordinates": [6.7926546, 52.9221813]}, "properties": {"type": "inleverpunt", "locatieNaam": "HEMA Borger", "straatNaam": "Oosteresstraat", "straatNr": "1A", "postcode": "9531 CD", "plaats": "Borger", "merk": "Stibat", "puntType": "inzamelbak", "materialen": ["batterijen"], "uitbetaling": [], "vrijToegankelijk": false, "gemeenteBeperking": null, "openingstijden": null, "latitude": 52.9221813, "longitude": 6.7926546, "bronId": "L046844"}}, {"type": "Feature", "geometry": {"type": "Point", "coordinates": [6.7909352, 52.9235569]}, "properties": {"type": "inleverpunt", "locatieNaam": "Bruna", "straatNaam": "Grote Brink", "straatNr": "5", "postcode": "9531 AK", "plaats": "Borger", "merk": "Stibat", "puntType": "inzamelbak", "materialen": ["batterijen"], "uitbetaling": [], "vrijToegankelijk": false, "gemeenteBeperking": null, "openingstijden": null, "latitude": 52.9235569, "longitude": 6.7909352, "bronId": "L022106"}}, {"type": "Feature", "geometry": {"type": "Point", "coordinates": [6.7911578, 52.9235923]}, "properties": {"type": "inleverpunt", "locatieNaam": "8397 Etos", "straatNaam": "Grote Brink", "straatNr": "1", "postcode": "9531 AK", "plaats": "Borger", "merk": "Stibat", "puntType": "inzamelbak", "materialen": ["batterijen"], "uitbetaling": [], "vrijToegankelijk": false, "gemeenteBeperking": null, "openingstijden": null, "latitude": 52.9235923, "longitude": 6.7911578, "bronId": "L026985"}}, {"type": "Feature", "geometry": {"type": "Point", "coordinates": [6.7918279, 52.9233512]}, "properties": {"type": "inleverpunt", "locatieNaam": "8572 Albert Heijn", "straatNaam": "Hoofdstraat", "straatNr": "35", "postcode": "9531 AB", "plaats": "Borger", "merk": "Stibat", "puntType": "inzamelbak", "materialen": ["batterijen"], "uitbetaling": [], "vrijToegankelijk": false, "gemeenteBeperking": null, "openingstijden": null, "latitude": 52.9233512, "longitude": 6.7918279, "bronId": "L005808"}}, {"type": "Feature", "geometry": {"type": "Point", "coordinates": [6.7917644, 52.9236297]}, "properties": {"type": "inleverpunt", "locatieNaam": "Kruidvat", "straatNaam": "Hoofdstraat", "straatNr": "29-H", "postcode": "9531 AB", "plaats": "Borger", "merk": "Stibat", "puntType": "inzamelbak", "materialen": ["batterijen"], "uitbetaling": [], "vrijToegankelijk": false, "gemeenteBeperking": null, "openingstijden": null, "latitude": 52.9236297, "longitude": 6.7917644, "bronId": "L039946"}}, {"type": "Feature", "geometry": {"type": "Point", "coordinates": [6.7904313, 52.9250776]}, "properties": {"type": "inleverpunt", "locatieNaam": "Hubo", "straatNaam": "Hoofdstraat", "straatNr": "26", "postcode": "9531 AG", "plaats": "Borger", "merk": "Stibat", "puntType": "inzamelbak", "materialen": ["batterijen"], "uitbetaling": [], "vrijToegankelijk": false, "gemeenteBeperking": null, "openingstijden": null, "latitude": 52.9250776, "longitude": 6.7904313, "bronId": "L009980"}}, {"type": "Feature", "geometry": {"type": "Point", "coordinates": [6.7940341, 52.924376]}, "properties": {"type": "inleverpunt", "locatieNaam": "Radio Vogelzang", "straatNaam": "Torenlaan", "straatNr": "12", "postcode": "9531 JJ", "plaats": "Borger", "merk": "Stibat", "puntType": "inzamelbak", "materialen": ["batterijen"], "uitbetaling": [], "vrijToegankelijk": false, "gemeenteBeperking": null, "openingstijden": null, "latitude": 52.924376, "longitude": 6.7940341, "bronId": "L036000"}}, {"type": "Feature", "geometry": {"type": "Point", "coordinates": [6.7980616, 52.9238341]}, "properties": {"type": "inleverpunt", "locatieNaam": "Aldi", "straatNaam": "Buinerstraat", "straatNr": "8", "postcode": "9531 CG", "plaats": "Borger", "merk": "Stibat", "puntType": "inzamelbak", "materialen": ["batterijen"], "uitbetaling": [], "vrijToegankelijk": false, "gemeenteBeperking": null, "openingstijden": null, "latitude": 52.9238341, "longitude": 6.7980616, "bronId": "L041589"}}, {"type": "Feature", "geometry": {"type": "Point", "coordinates": [6.8054304, 52.9224672]}, "properties": {"type": "inleverpunt", "locatieNaam": "Roompot recreatiecentrum Hunzedal", "straatNaam": "De Drift", "straatNr": "3", "postcode": "9531 TK", "plaats": "Borger", "merk": "Stibat", "puntType": "inzamelbak", "materialen": ["batterijen"], "uitbetaling": [], "vrijToegankelijk": false, "gemeenteBeperking": null, "openingstijden": null, "latitude": 52.9224672, "longitude": 6.8054304, "bronId": "L005148"}}, {"type": "Feature", "geometry": {"type": "Point", "coordinates": [6.7975353, 52.9563404]}, "properties": {"type": "inleverpunt", "locatieNaam": "Kampeercentrum Alinghoek", "straatNaam": "Alinghoek", "straatNr": "16", "postcode": "9533 PE", "plaats": "Drouwen", "merk": "Stibat", "puntType": "inzamelbak", "materialen": ["batterijen"], "uitbetaling": [], "vrijToegankelijk": false, "gemeenteBeperking": null, "openingstijden": null, "latitude": 52.9563404, "longitude": 6.7975353, "bronId": "L009757"}}, {"type": "Feature", "geometry": {"type": "Point", "coordinates": [6.9480329, 52.8761724]}, "properties": {"type": "inleverpunt", "locatieNaam": "Supermark Van Klinken", "straatNaam": "Noorderdiep", "straatNr": "316", "postcode": "7876 CP", "plaats": "Valthermond", "merk": "Stibat", "puntType": "inzamelbak", "materialen": ["batterijen"], "uitbetaling": [], "vrijToegankelijk": false, "gemeenteBeperking": null, "openingstijden": null, "latitude": 52.8761724, "longitude": 6.9480329, "bronId": "L029945"}}, {"type": "Feature", "geometry": {"type": "Point", "coordinates": [6.9169558, 52.903667]}, "properties": {"type": "inleverpunt", "locatieNaam": "Alons B.V. (Uw Groene Vakwinkel)", "straatNaam": "Noorderkijl", "straatNr": "1", "postcode": "9571 AR", "plaats": "Tweede Exloërmond", "merk": "Stibat", "puntType": "inzamelbak", "materialen": ["batterijen"], "uitbetaling": [], "vrijToegankelijk": false, "gemeenteBeperking": null, "openingstijden": null, "latitude": 52.903667, "longitude": 6.9169558, "bronId": "L021858"}}, {"type": "Feature", "geometry": {"type": "Point", "coordinates": [6.9163318, 52.9066808]}, "properties": {"type": "inleverpunt", "locatieNaam": "Afvalbrengpunt 2e Exloërmond", "straatNaam": "Zuiderkijl", "straatNr": "9", "postcode": "9571 TC", "plaats": "2e Exloërmond", "merk": "Stibat", "puntType": "inzamelbak", "materialen": ["batterijen"], "uitbetaling": [], "vrijToegankelijk": false, "gemeenteBeperking": null, "openingstijden": null, "latitude": 52.9066808, "longitude": 6.9163318, "bronId": "L035914"}}, {"type": "Feature", "geometry": {"type": "Point", "coordinates": [6.9319017, 52.9081951]}, "properties": {"type": "inleverpunt", "locatieNaam": "Richard's Bike Shop", "straatNaam": "Middenlaan", "straatNr": "44", "postcode": "9571 CJ", "plaats": "2e Exloermond", "merk": "Stibat", "puntType": "inzamelbak", "materialen": ["batterijen"], "uitbetaling": [], "vrijToegankelijk": false, "gemeenteBeperking": null, "openingstijden": null, "latitude": 52.9081951, "longitude": 6.9319017, "bronId": "L028274"}}, {"type": "Feature", "geometry": {"type": "Point", "coordinates": [6.9354622, 52.909065]}, "properties": {"type": "inleverpunt", "locatieNaam": "Dierenspeciaalzaak 't Vossie", "straatNaam": "Zuiderdiep", "straatNr": "121", "postcode": "9571 BG", "plaats": "2e Exloermond", "merk": "Stibat", "puntType": "inzamelbak", "materialen": ["batterijen"], "uitbetaling": [], "vrijToegankelijk": false, "gemeenteBeperking": null, "openingstijden": null, "latitude": 52.909065, "longitude": 6.9354622, "bronId": "L047425"}}, {"type": "Feature", "geometry": {"type": "Point", "coordinates": [6.9142355, 52.9483884]}, "properties": {"type": "inleverpunt", "locatieNaam": "Vos Systems", "straatNaam": "Zuiderdiep", "straatNr": "261", "postcode": "9521 AH", "plaats": "Nieuw Buinen", "merk": "Stibat", "puntType": "inzamelbak", "materialen": ["batterijen"], "uitbetaling": [], "vrijToegankelijk": false, "gemeenteBeperking": null, "openingstijden": null, "latitude": 52.9483884, "longitude": 6.9142355, "bronId": "L039363"}}, {"type": "Feature", "geometry": {"type": "Point", "coordinates": [6.9602146, 52.9188357]}, "properties": {"type": "inleverpunt", "locatieNaam": "Altaflex Fiets + Techniek", "straatNaam": "Zuiderdiep", "straatNr": "258", "postcode": "9571 BP", "plaats": "2e Exloermond", "merk": "Stibat", "puntType": "inzamelbak", "materialen": ["batterijen"], "uitbetaling": [], "vrijToegankelijk": false, "gemeenteBeperking": null, "openingstijden": null, "latitude": 52.9188357, "longitude": 6.9602146, "bronId": "L034262"}}, {"type": "Feature", "geometry": {"type": "Point", "coordinates": [6.9966553, 52.8977987]}, "properties": {"type": "inleverpunt", "locatieNaam": "Het Verlaat", "straatNaam": "Zuiderdiep", "straatNr": "510a", "postcode": "7876 BE", "plaats": "Valthermond", "merk": "Stibat", "puntType": "inzamelbak", "materialen": ["batterijen"], "uitbetaling": [], "vrijToegankelijk": false, "gemeenteBeperking": null, "openingstijden": null, "latitude": 52.8977987, "longitude": 6.9966553, "bronId": "L004437"}}, {"type": "Feature", "geometry": {"type": "Point", "coordinates": [6.9538238, 52.9742458]}, "properties": {"type": "inleverpunt", "locatieNaam": "Aldi", "straatNaam": "Parklaan", "straatNr": "71-73", "postcode": "9521 GB", "plaats": "Nieuw-Buinen", "merk": "Stibat", "puntType": "inzamelbak", "materialen": ["batterijen"], "uitbetaling": [], "vrijToegankelijk": false, "gemeenteBeperking": null, "openingstijden": null, "latitude": 52.9742458, "longitude": 6.9538238, "bronId": "L041588"}}, {"type": "Feature", "geometry": {"type": "Point", "coordinates": [6.954843, 52.9756642]}, "properties": {"type": "inleverpunt", "locatieNaam": "Onrust Ho DHZ en machines", "straatNaam": "Drentse Poort", "straatNr": "1b", "postcode": "9521 JA", "plaats": "Nieuw Buinen", "merk": "Stibat", "puntType": "inzamelbak", "materialen": ["batterijen"], "uitbetaling": [], "vrijToegankelijk": false, "gemeenteBeperking": null, "openingstijden": null, "latitude": 52.9756642, "longitude": 6.954843, "bronId": "L028351"}}, {"type": "Feature", "geometry": {"type": "Point", "coordinates": [6.953613, 52.9770095]}, "properties": {"type": "inleverpunt", "locatieNaam": "Te Velde Kampeerartikelen", "straatNaam": "Drentse Poort", "straatNr": "7", "postcode": "9521 JA", "plaats": "Nieuw Buinen", "merk": "Stibat", "puntType": "inzamelbak", "materialen": ["batterijen"], "uitbetaling": [], "vrijToegankelijk": false, "gemeenteBeperking": null, "openingstijden": null, "latitude": 52.9770095, "longitude": 6.953613, "bronId": "L027706"}}, {"type": "Feature", "geometry": {"type": "Polygon", "coordinates": [[[6.883485003215197, 52.82387900434486], [6.90835900323959, 52.834499004349354], [6.948784003279167, 52.84872700435496], [6.949913003280269, 52.848803004354934], [6.950462003280807, 52.84919200435514], [6.950389003280743, 52.849880004355505], [6.951239003281577, 52.850247004355644], [6.950356003280715, 52.8506260043559], [6.9504580032808185, 52.851094004356156], [6.952275003282594, 52.851308004356156], [6.9518550032821915, 52.85223800435671], [6.95094800328131, 52.85252000435684], [6.951737003282082, 52.853274004357274], [6.951356003281717, 52.85398300435766], [6.95214800328249, 52.85412500435771], [6.952075003282427, 52.85531600435836], [6.952621003282965, 52.855484004358374], [6.952639003282984, 52.855938004358634], [6.953897003284215, 52.85628700435878], [6.9537720032841, 52.856917004359104], [6.954639003284943, 52.857115004359144], [6.954406003284724, 52.85817100435978], [6.955097003285403, 52.85873500436002], [6.955884003286172, 52.85879400436004], [6.9554750032857795, 52.85931500436033], [6.95649200328677, 52.85966300436047], [6.957615003287879, 52.86190500436162], [6.958907003289152, 52.862990004362125], [6.961575003291763, 52.86432900436272], [6.9644950032946165, 52.86494900436288], [6.966638003296698, 52.863868004362196], [7.007589003336672, 52.873011004364905], [7.014799003343699, 52.87298700436453], [7.045571003373903, 52.91590900438586], [7.026113003354991, 52.919161004388656], [7.015974003345154, 52.924576004392115], [6.935685003267479, 52.99335300443283], [6.8377680031720125, 52.97789400442964], [6.788759003124084, 52.962775004424074], [6.727712003064417, 52.95472000442275], [6.731422003067838, 52.937555004413476], [6.724175003060757, 52.93728800441365], [6.72634700306276, 52.927409004408275], [6.727002003063263, 52.91588800440212], [6.728483003064594, 52.90602100439678], [6.73749200307303, 52.87490600437961], [6.740446003075874, 52.87098400437734], [6.745106003080443, 52.87185100437762], [6.747294003082566, 52.870305004376696], [6.75340100308843, 52.861584004371686], [6.752704003087744, 52.86125200437155], [6.753157003088179, 52.860404004371055], [6.75300800308802, 52.85904000437029], [6.769140003103712, 52.85147200436549], [6.765601003100229, 52.84992600436478], [6.816376003149619, 52.82568200434922], [6.823470003156508, 52.82127100434645], [6.823853003156888, 52.82168200434664], [6.839117003171713, 52.81219900434074], [6.840714003173253, 52.81017600433956], [6.849806003182088, 52.80463400433606], [6.852761003185005, 52.807330004337395], [6.855622003187849, 52.81157700433958], [6.858512003190691, 52.81370300434057], [6.865064003197118, 52.815816004341414], [6.869025003201027, 52.81930700434311], [6.883485003215197, 52.82387900434486]]]}, "properties": {"type": "boundary", "gemeente": "Borger-Odoorn"}}]}