{"type": "FeatureCollection", "metadata": {"gemeente": "Boxtel", "slug": "boxtel", "generated_at": "2026-07-28T19:03:25.026558Z", "total_points": 68, "merken": ["StatiegeldNederland", "Stibat", "StichtingOPEN"], "bounds": [5.2842705, 51.555384, 5.3736314, 51.6156509]}, "features": [{"type": "Feature", "geometry": {"type": "Point", "coordinates": [5.3223131, 51.5861421]}, "properties": {"type": "inleverpunt", "locatieNaam": "Albert Heijn", "straatNaam": "Prins Hendrikstraat", "straatNr": "62", "postcode": "5281 CN", "plaats": "Boxtel", "merk": "StatiegeldNederland", "puntType": "automaat", "materialen": ["pet-groot", "pet-klein", "blik", "glas", "krat"], "uitbetaling": ["bonnetje", "donatie"], "vrijToegankelijk": true, "gemeenteBeperking": null, "openingstijden": {"ma": "07:30–21:00", "di": "07:30–21:00", "wo": "07:30–21:00", "do": "07:30–21:00", "vr": "07:30–21:00", "za": "07:30–21:00", "zo": "09:00–20:00"}, "latitude": 51.5861421, "longitude": 5.3223131, "bronId": "252648"}}, {"type": "Feature", "geometry": {"type": "Point", "coordinates": [5.3310704, 51.5856536]}, "properties": {"type": "inleverpunt", "locatieNaam": "Aldi", "straatNaam": "Brederodeweg", "straatNr": "24", "postcode": "5281 AC", "plaats": "Boxtel", "merk": "StatiegeldNederland", "puntType": "automaat", "materialen": ["pet-groot", "pet-klein", "blik", "glas", "krat"], "uitbetaling": ["bonnetje"], "vrijToegankelijk": true, "gemeenteBeperking": null, "openingstijden": {"ma": "08:00–20:00", "di": "08:00–20:00", "wo": "08:00–20:00", "do": "08:00–20:00", "vr": "08:00–20:00", "za": "08:00–20:00", "zo": "10:00–18:00"}, "latitude": 51.5856536, "longitude": 5.3310704, "bronId": "253031"}}, {"type": "Feature", "geometry": {"type": "Point", "coordinates": [5.3165179, 51.5836218]}, "properties": {"type": "inleverpunt", "locatieNaam": "Appel 2080 - Distrifresh", "straatNaam": "Van Salmstraat", "straatNr": "64", "postcode": "5281 RS", "plaats": "Boxtel", "merk": "StatiegeldNederland", "puntType": "balie", "materialen": ["pet-groot", "pet-klein", "blik"], "uitbetaling": [], "vrijToegankelijk": true, "gemeenteBeperking": null, "openingstijden": {"ma": "24 uur geopend", "di": "24 uur geopend", "wo": "24 uur geopend", "do": "24 uur geopend", "vr": "24 uur geopend", "za": "Gesloten", "zo": "Gesloten"}, "latitude": 51.5836218, "longitude": 5.3165179, "bronId": "253529"}}, {"type": "Feature", "geometry": {"type": "Point", "coordinates": [5.3241342, 51.5792103]}, "properties": {"type": "inleverpunt", "locatieNaam": "Appel 2337 - Vion Slachterij", "straatNaam": "Boseind", "straatNr": "10", "postcode": "5281 RM", "plaats": "Boxtel", "merk": "StatiegeldNederland", "puntType": "balie", "materialen": ["pet-groot", "pet-klein", "blik"], "uitbetaling": [], "vrijToegankelijk": true, "gemeenteBeperking": null, "openingstijden": {"ma": "08:00–18:00", "di": "08:00–18:00", "wo": "08:00–18:00", "do": "08:00–18:00", "vr": "08:00–18:00", "za": "Gesloten", "zo": "Gesloten"}, "latitude": 51.5792103, "longitude": 5.3241342, "bronId": "253537"}}, {"type": "Feature", "geometry": {"type": "Point", "coordinates": [5.3215347, 51.578253]}, "properties": {"type": "inleverpunt", "locatieNaam": "Appel 2505 - Vion Hk", "straatNaam": "Boseind", "straatNr": "15", "postcode": "5281 RM", "plaats": "Boxtel", "merk": "StatiegeldNederland", "puntType": "balie", "materialen": ["pet-groot", "pet-klein", "blik"], "uitbetaling": [], "vrijToegankelijk": true, "gemeenteBeperking": null, "openingstijden": {"ma": "08:00–18:00", "di": "08:00–18:00", "wo": "08:00–18:00", "do": "08:00–18:00", "vr": "08:00–18:00", "za": "Gesloten", "zo": "Gesloten"}, "latitude": 51.578253, "longitude": 5.3215347, "bronId": "253565"}}, {"type": "Feature", "geometry": {"type": "Point", "coordinates": [5.3215347, 51.578253]}, "properties": {"type": "inleverpunt", "locatieNaam": "Appel 5059 - Vion Ict", "straatNaam": "Boseind", "straatNr": "15", "postcode": "5281 RM", "plaats": "Boxtel", "merk": "StatiegeldNederland", "puntType": "balie", "materialen": ["pet-groot", "pet-klein", "blik"], "uitbetaling": [], "vrijToegankelijk": true, "gemeenteBeperking": null, "openingstijden": {"ma": "08:00–18:00", "di": "08:00–18:00", "wo": "08:00–18:00", "do": "08:00–18:00", "vr": "08:00–18:00", "za": "Gesloten", "zo": "Gesloten"}, "latitude": 51.578253, "longitude": 5.3215347, "bronId": "253682"}}, {"type": "Feature", "geometry": {"type": "Point", "coordinates": [5.3699978, 51.571502]}, "properties": {"type": "inleverpunt", "locatieNaam": "Boon‘s Markt", "straatNaam": "Nieuwstraat", "straatNr": "59", "postcode": "5298 CK", "plaats": "Liempde", "merk": "StatiegeldNederland", "puntType": "automaat", "materialen": ["pet-groot", "pet-klein", "blik", "glas", "krat"], "uitbetaling": ["bonnetje", "donatie"], "vrijToegankelijk": true, "gemeenteBeperking": null, "openingstijden": {"ma": "08:00–20:00", "di": "08:00–20:00", "wo": "08:00–20:00", "do": "08:00–20:00", "vr": "08:00–20:00", "za": "08:00–20:00", "zo": "10:00–18:00"}, "latitude": 51.571502, "longitude": 5.3699978, "bronId": "253868"}}, {"type": "Feature", "geometry": {"type": "Point", "coordinates": [5.3344184, 51.5992293]}, "properties": {"type": "inleverpunt", "locatieNaam": "J.r.c. Ducks", "straatNaam": "Voetboog", "straatNr": "20", "postcode": "5283 WL", "plaats": "Boxtel", "merk": "StatiegeldNederland", "puntType": "balie", "materialen": ["pet-groot", "pet-klein", "blik"], "uitbetaling": [], "vrijToegankelijk": false, "gemeenteBeperking": null, "openingstijden": null, "latitude": 51.5992293, "longitude": 5.3344184, "bronId": "255185"}}, {"type": "Feature", "geometry": {"type": "Point", "coordinates": [5.334548, 51.587163]}, "properties": {"type": "inleverpunt", "locatieNaam": "Jumbo", "straatNaam": "Oosterhof", "straatNr": "5", "postcode": "5283 BV", "plaats": "Boxtel", "merk": "StatiegeldNederland", "puntType": "automaat", "materialen": ["pet-groot", "pet-klein", "blik", "glas", "krat"], "uitbetaling": ["bonnetje", "donatie"], "vrijToegankelijk": true, "gemeenteBeperking": null, "openingstijden": {"ma": "08:00–21:00", "di": "08:00–21:00", "wo": "08:00–21:00", "do": "08:00–21:00", "vr": "08:00–21:00", "za": "08:00–21:00", "zo": "09:00–20:00"}, "latitude": 51.587163, "longitude": 5.334548, "bronId": "255636"}}, {"type": "Feature", "geometry": {"type": "Point", "coordinates": [5.33051, 51.58613]}, "properties": {"type": "inleverpunt", "locatieNaam": "Lidl", "straatNaam": "Fellenoord", "straatNr": "19-21", "postcode": "5281 CA", "plaats": "Boxtel", "merk": "StatiegeldNederland", "puntType": "automaat", "materialen": ["pet-groot", "pet-klein", "blik", "glas", "krat"], "uitbetaling": ["bonnetje", "donatie"], "vrijToegankelijk": true, "gemeenteBeperking": null, "openingstijden": {"ma": "08:00–21:00", "di": "08:00–21:00", "wo": "08:00–21:00", "do": "08:00–21:00", "vr": "08:00–21:00", "za": "08:00–21:00", "zo": "09:00–18:00"}, "latitude": 51.58613, "longitude": 5.33051, "bronId": "256152"}}, {"type": "Feature", "geometry": {"type": "Point", "coordinates": [5.3097309, 51.5851379]}, "properties": {"type": "inleverpunt", "locatieNaam": "Markies 6358 Yuverta Mbo Box", "straatNaam": "Schouwrooij", "straatNr": "2", "postcode": "5281 RE", "plaats": "Boxtel", "merk": "StatiegeldNederland", "puntType": "balie", "materialen": ["pet-groot", "pet-klein", "blik"], "uitbetaling": [], "vrijToegankelijk": true, "gemeenteBeperking": null, "openingstijden": {"ma": "08:00–17:00", "di": "08:00–17:00", "wo": "08:00–17:00", "do": "08:00–17:00", "vr": "08:00–17:00", "za": "Gesloten", "zo": "Gesloten"}, "latitude": 51.5851379, "longitude": 5.3097309, "bronId": "256572"}}, {"type": "Feature", "geometry": {"type": "Point", "coordinates": [5.3332012, 51.5930247]}, "properties": {"type": "inleverpunt", "locatieNaam": "Optisport Zwembad Dommelbad", "straatNaam": "Schijndelseweg 1 a", "straatNr": "", "postcode": "5283 AB", "plaats": "Boxtel", "merk": "StatiegeldNederland", "puntType": "balie", "materialen": ["pet-groot", "pet-klein", "blik"], "uitbetaling": [], "vrijToegankelijk": false, "gemeenteBeperking": null, "openingstijden": null, "latitude": 51.5930247, "longitude": 5.3332012, "bronId": "257077"}}, {"type": "Feature", "geometry": {"type": "Point", "coordinates": [5.31594, 51.59826]}, "properties": {"type": "inleverpunt", "locatieNaam": "Plus", "straatNaam": "Van Beekstraat", "straatNr": "3", "postcode": "5282 RV", "plaats": "Boxtel", "merk": "StatiegeldNederland", "puntType": "automaat", "materialen": ["pet-groot", "pet-klein", "blik", "glas", "krat"], "uitbetaling": ["bonnetje", "donatie"], "vrijToegankelijk": true, "gemeenteBeperking": null, "openingstijden": {"ma": "08:00–20:00", "di": "08:00–20:00", "wo": "08:00–20:00", "do": "08:00–20:00", "vr": "08:00–20:00", "za": "08:00–20:00", "zo": "09:00–20:00"}, "latitude": 51.59826, "longitude": 5.31594, "bronId": "257557"}}, {"type": "Feature", "geometry": {"type": "Point", "coordinates": [5.2842705, 51.6156509]}, "properties": {"type": "inleverpunt", "locatieNaam": "R.k.v.v. Essche Boys", "straatNaam": "Haarenseweg", "straatNr": "12", "postcode": "5296 KH", "plaats": "Esch", "merk": "StatiegeldNederland", "puntType": "balie", "materialen": ["pet-groot", "pet-klein", "blik"], "uitbetaling": [], "vrijToegankelijk": false, "gemeenteBeperking": null, "openingstijden": {"ma": "Gesloten", "di": "Gesloten", "wo": "Gesloten", "do": "18:30–00:00", "vr": "Gesloten", "za": "09:00–19:00", "zo": "09:00–19:00"}, "latitude": 51.6156509, "longitude": 5.2842705, "bronId": "257750"}}, {"type": "Feature", "geometry": {"type": "Point", "coordinates": [5.31847, 51.57714]}, "properties": {"type": "inleverpunt", "locatieNaam": "Shell", "straatNaam": "Industrieweg", "straatNr": "18", "postcode": "5281 RW", "plaats": "Boxtel", "merk": "StatiegeldNederland", "puntType": "balie", "materialen": ["pet-groot", "pet-klein", "blik"], "uitbetaling": [], "vrijToegankelijk": true, "gemeenteBeperking": null, "openingstijden": {"ma": "24 uur geopend", "di": "24 uur geopend", "wo": "24 uur geopend", "do": "24 uur geopend", "vr": "24 uur geopend", "za": "24 uur geopend", "zo": "24 uur geopend"}, "latitude": 51.57714, "longitude": 5.31847, "bronId": "258089"}}, {"type": "Feature", "geometry": {"type": "Point", "coordinates": [5.361725, 51.555384]}, "properties": {"type": "inleverpunt", "locatieNaam": "Spar Express", "straatNaam": "RIJKSWEG A2 OOSTZIJDE", "straatNr": "", "postcode": "5298 MG", "plaats": "Liempde", "merk": "StatiegeldNederland", "puntType": "balie", "materialen": ["pet-groot", "pet-klein", "blik"], "uitbetaling": [], "vrijToegankelijk": true, "gemeenteBeperking": null, "openingstijden": {"ma": "24 uur geopend", "di": "24 uur geopend", "wo": "24 uur geopend", "do": "24 uur geopend", "vr": "24 uur geopend", "za": "24 uur geopend", "zo": "24 uur geopend"}, "latitude": 51.555384, "longitude": 5.361725, "bronId": "258565"}}, {"type": "Feature", "geometry": {"type": "Point", "coordinates": [5.3567255, 51.5607444]}, "properties": {"type": "inleverpunt", "locatieNaam": "Spar Express", "straatNaam": "RIJKSWEG A2 WESTZIJDE", "straatNr": "", "postcode": "5298 PG", "plaats": "Liempde", "merk": "StatiegeldNederland", "puntType": "balie", "materialen": ["pet-groot", "pet-klein", "blik"], "uitbetaling": [], "vrijToegankelijk": true, "gemeenteBeperking": null, "openingstijden": {"ma": "24 uur geopend", "di": "24 uur geopend", "wo": "24 uur geopend", "do": "24 uur geopend", "vr": "24 uur geopend", "za": "24 uur geopend", "zo": "24 uur geopend"}, "latitude": 51.5607444, "longitude": 5.3567255, "bronId": "258566"}}, {"type": "Feature", "geometry": {"type": "Point", "coordinates": [5.3175733, 51.5711388]}, "properties": {"type": "inleverpunt", "locatieNaam": "ViaTim", "straatNaam": "Pastoor Mandersstraat", "straatNr": "4", "postcode": "5281 EB", "plaats": "Boxtel", "merk": "StatiegeldNederland", "puntType": "balie", "materialen": ["pet-groot", "pet-klein", "blik"], "uitbetaling": ["tikkie"], "vrijToegankelijk": true, "gemeenteBeperking": null, "openingstijden": null, "latitude": 51.5711388, "longitude": 5.3175733, "bronId": "259443"}}, {"type": "Feature", "geometry": {"type": "Point", "coordinates": [5.290173, 51.609777]}, "properties": {"type": "inleverpunt", "locatieNaam": "Spar Esch", "straatNaam": "Looiershof", "straatNr": "40", "postcode": "5296 NS", "plaats": "Esch", "merk": "StichtingOPEN", "puntType": "balie", "materialen": ["batterijen", "lampen"], "uitbetaling": [], "vrijToegankelijk": false, "gemeenteBeperking": null, "openingstijden": null, "latitude": 51.609777, "longitude": 5.290173, "bronId": "SP00022379"}}, {"type": "Feature", "geometry": {"type": "Point", "coordinates": [5.3243, 51.603169]}, "properties": {"type": "inleverpunt", "locatieNaam": "Intratuin Boxtel", "straatNaam": "Vuurijzer", "straatNr": "4", "postcode": "5283 PV", "plaats": "Boxtel", "merk": "StichtingOPEN", "puntType": "balie", "materialen": ["batterijen", "elektro-klein", "elektro-middel", "lampen", "tl-buizen"], "uitbetaling": [], "vrijToegankelijk": false, "gemeenteBeperking": null, "openingstijden": null, "latitude": 51.603169, "longitude": 5.3243, "bronId": "SP00034427"}}, {"type": "Feature", "geometry": {"type": "Point", "coordinates": [5.323739, 51.60237]}, "properties": {"type": "inleverpunt", "locatieNaam": "GAMMA Boxtel", "straatNaam": "Vuurijzer", "straatNr": "2", "postcode": "5283 PV", "plaats": "Boxtel", "merk": "StichtingOPEN", "puntType": "balie", "materialen": ["batterijen", "elektro-klein", "lampen", "tl-buizen"], "uitbetaling": [], "vrijToegankelijk": false, "gemeenteBeperking": null, "openingstijden": null, "latitude": 51.60237, "longitude": 5.323739, "bronId": "SP00003047"}}, {"type": "Feature", "geometry": {"type": "Point", "coordinates": [5.316081, 51.598593]}, "properties": {"type": "inleverpunt", "locatieNaam": "PLUS Boxtel", "straatNaam": "van Beekstraat", "straatNr": "3", "postcode": "5282 RV", "plaats": "Boxtel", "merk": "StichtingOPEN", "puntType": "balie", "materialen": ["batterijen", "lampen"], "uitbetaling": [], "vrijToegankelijk": false, "gemeenteBeperking": null, "openingstijden": null, "latitude": 51.598593, "longitude": 5.316081, "bronId": "SP00024194"}}, {"type": "Feature", "geometry": {"type": "Point", "coordinates": [5.316736, 51.598262]}, "properties": {"type": "inleverpunt", "locatieNaam": "EP Rickelman Boxtel", "straatNaam": "Van Beekstraat", "straatNr": "915", "postcode": "5282 RV", "plaats": "Boxtel", "merk": "StichtingOPEN", "puntType": "balie", "materialen": ["elektro-klein", "elektro-middel"], "uitbetaling": [], "vrijToegankelijk": false, "gemeenteBeperking": null, "openingstijden": null, "latitude": 51.598262, "longitude": 5.316736, "bronId": "SP00032109"}}, {"type": "Feature", "geometry": {"type": "Point", "coordinates": [5.32989, 51.59088]}, "properties": {"type": "inleverpunt", "locatieNaam": "Aldi Boxtel", "straatNaam": "Brederodeweg", "straatNr": "24", "postcode": "5281 AC", "plaats": "Boxtel", "merk": "StichtingOPEN", "puntType": "balie", "materialen": ["batterijen", "elektro-klein", "lampen"], "uitbetaling": [], "vrijToegankelijk": false, "gemeenteBeperking": null, "openingstijden": null, "latitude": 51.59088, "longitude": 5.32989, "bronId": "SP00029847"}}, {"type": "Feature", "geometry": {"type": "Point", "coordinates": [5.309029, 51.588358]}, "properties": {"type": "inleverpunt", "locatieNaam": "Aldi Boxtel", "straatNaam": "Kapelweg", "straatNr": "3", "postcode": "5281 LP", "plaats": "Boxtel", "merk": "StichtingOPEN", "puntType": "balie", "materialen": ["batterijen", "elektro-klein", "lampen"], "uitbetaling": [], "vrijToegankelijk": false, "gemeenteBeperking": null, "openingstijden": null, "latitude": 51.588358, "longitude": 5.309029, "bronId": "SP00026765"}}, {"type": "Feature", "geometry": {"type": "Point", "coordinates": [5.32504, 51.58805]}, "properties": {"type": "inleverpunt", "locatieNaam": "Kruidvat Boxtel", "straatNaam": "Rechterstraat", "straatNr": "4", "postcode": "5281 BV", "plaats": "Boxtel", "merk": "StichtingOPEN", "puntType": "balie", "materialen": ["batterijen", "lampen"], "uitbetaling": [], "vrijToegankelijk": false, "gemeenteBeperking": null, "openingstijden": null, "latitude": 51.58805, "longitude": 5.32504, "bronId": "SP00029524"}}, {"type": "Feature", "geometry": {"type": "Point", "coordinates": [5.33501, 51.587613]}, "properties": {"type": "inleverpunt", "locatieNaam": "Aldi Boxtel", "straatNaam": "Oosterhof", "straatNr": "7-9", "postcode": "5283 BV", "plaats": "Boxtel", "merk": "StichtingOPEN", "puntType": "balie", "materialen": ["batterijen", "elektro-klein", "lampen"], "uitbetaling": [], "vrijToegankelijk": false, "gemeenteBeperking": null, "openingstijden": null, "latitude": 51.587613, "longitude": 5.33501, "bronId": "SP00026766"}}, {"type": "Feature", "geometry": {"type": "Point", "coordinates": [5.334824, 51.58757]}, "properties": {"type": "inleverpunt", "locatieNaam": "Jumbo Boxtel", "straatNaam": "Oosterhof", "straatNr": "19", "postcode": "5283 BV", "plaats": "Boxtel", "merk": "StichtingOPEN", "puntType": "balie", "materialen": ["batterijen", "lampen"], "uitbetaling": [], "vrijToegankelijk": false, "gemeenteBeperking": null, "openingstijden": null, "latitude": 51.58757, "longitude": 5.334824, "bronId": "SP00025040"}}, {"type": "Feature", "geometry": {"type": "Point", "coordinates": [5.328377, 51.587048]}, "properties": {"type": "inleverpunt", "locatieNaam": "Expert van Erp Boxtel", "straatNaam": "Rechterstraat", "straatNr": "62", "postcode": "5281 BX", "plaats": "Boxtel", "merk": "StichtingOPEN", "puntType": "balie", "materialen": ["elektro-middel", "lampen"], "uitbetaling": [], "vrijToegankelijk": false, "gemeenteBeperking": null, "openingstijden": null, "latitude": 51.587048, "longitude": 5.328377, "bronId": "SP00006436"}}, {"type": "Feature", "geometry": {"type": "Point", "coordinates": [5.322315, 51.584142]}, "properties": {"type": "inleverpunt", "locatieNaam": "8648 Albert Heijn Boxtel", "straatNaam": "Prins Hendrikstraat", "straatNr": "62", "postcode": "5281 CN", "plaats": "Boxtel", "merk": "StichtingOPEN", "puntType": "balie", "materialen": ["batterijen", "elektro-klein", "lampen"], "uitbetaling": [], "vrijToegankelijk": false, "gemeenteBeperking": null, "openingstijden": null, "latitude": 51.584142, "longitude": 5.322315, "bronId": "SP00022607"}}, {"type": "Feature", "geometry": {"type": "Point", "coordinates": [5.311689, 51.580886]}, "properties": {"type": "inleverpunt", "locatieNaam": "Van Dongen Technische Installaties", "straatNaam": "Industrieweg", "straatNr": "1", "postcode": "5281 RW", "plaats": "Boxtel", "merk": "StichtingOPEN", "puntType": "balie", "materialen": ["lampen"], "uitbetaling": [], "vrijToegankelijk": false, "gemeenteBeperking": null, "openingstijden": null, "latitude": 51.580886, "longitude": 5.311689, "bronId": "SP00003507"}}, {"type": "Feature", "geometry": {"type": "Point", "coordinates": [5.315875, 51.578929]}, "properties": {"type": "inleverpunt", "locatieNaam": "Boxtel Keukens v.o.f.", "straatNaam": "Industrieweg", "straatNr": "15", "postcode": "5281 RW", "plaats": "Boxtel", "merk": "StichtingOPEN", "puntType": "balie", "materialen": ["elektro-groot", "elektro-klein", "elektro-middel"], "uitbetaling": [], "vrijToegankelijk": false, "gemeenteBeperking": null, "openingstijden": null, "latitude": 51.578929, "longitude": 5.315875, "bronId": "SP00003356"}}, {"type": "Feature", "geometry": {"type": "Point", "coordinates": [5.316604, 51.582078]}, "properties": {"type": "inleverpunt", "locatieNaam": "Milieustraat Boxtel", "straatNaam": "Kruisbroeksestraat", "straatNr": "4", "postcode": "5281 RV", "plaats": "Boxtel", "merk": "StichtingOPEN", "puntType": "milieustraat", "materialen": ["batterijen", "elektro-groot", "elektro-klein", "elektro-middel", "lampen", "tl-buizen"], "uitbetaling": [], "vrijToegankelijk": false, "gemeenteBeperking": ["Boxtel"], "openingstijden": null, "latitude": 51.582078, "longitude": 5.316604, "bronId": "SP00004235"}}, {"type": "Feature", "geometry": {"type": "Point", "coordinates": [5.313666, 51.57953]}, "properties": {"type": "inleverpunt", "locatieNaam": "Kringloop Het Goed Boxtel", "straatNaam": "Industrieweg", "straatNr": "6", "postcode": "5281 RW", "plaats": "Boxtel", "merk": "StichtingOPEN", "puntType": "milieustraat", "materialen": ["batterijen", "elektro-groot", "elektro-klein", "elektro-middel", "lampen", "tl-buizen"], "uitbetaling": [], "vrijToegankelijk": false, "gemeenteBeperking": ["Boxtel"], "openingstijden": null, "latitude": 51.57953, "longitude": 5.313666, "bronId": "SP00005141"}}, {"type": "Feature", "geometry": {"type": "Point", "coordinates": [5.3239963, 51.6029983]}, "properties": {"type": "inleverpunt", "locatieNaam": "Tuincentrum Overvecht", "straatNaam": "Vuurijzer", "straatNr": "4", "postcode": "5283 PV", "plaats": "Boxtel", "merk": "Stibat", "puntType": "inzamelbak", "materialen": ["batterijen"], "uitbetaling": [], "vrijToegankelijk": false, "gemeenteBeperking": null, "openingstijden": null, "latitude": 51.6029983, "longitude": 5.3239963, "bronId": "L024406"}}, {"type": "Feature", "geometry": {"type": "Point", "coordinates": [5.3235021, 51.602617]}, "properties": {"type": "inleverpunt", "locatieNaam": "Gamma", "straatNaam": "Vuurijzer", "straatNr": "2", "postcode": "5283 PV", "plaats": "Boxtel", "merk": "Stibat", "puntType": "inzamelbak", "materialen": ["batterijen"], "uitbetaling": [], "vrijToegankelijk": false, "gemeenteBeperking": null, "openingstijden": null, "latitude": 51.602617, "longitude": 5.3235021, "bronId": "L006929"}}, {"type": "Feature", "geometry": {"type": "Point", "coordinates": [5.3254691, 51.6026126]}, "properties": {"type": "inleverpunt", "locatieNaam": "Van Den Tillaard Gereedschappen en IJzerwaren", "straatNaam": "Duit", "straatNr": "8", "postcode": "5283 PW", "plaats": "Boxtel", "merk": "Stibat", "puntType": "inzamelbak", "materialen": ["batterijen"], "uitbetaling": [], "vrijToegankelijk": false, "gemeenteBeperking": null, "openingstijden": null, "latitude": 51.6026126, "longitude": 5.3254691, "bronId": "L023346"}}, {"type": "Feature", "geometry": {"type": "Point", "coordinates": [5.3161946, 51.5982928]}, "properties": {"type": "inleverpunt", "locatieNaam": "EP:", "straatNaam": "Van beekstraat", "straatNr": "7-15", "postcode": "5282 RV", "plaats": "Boxtel", "merk": "Stibat", "puntType": "inzamelbak", "materialen": ["batterijen"], "uitbetaling": [], "vrijToegankelijk": false, "gemeenteBeperking": null, "openingstijden": null, "latitude": 51.5982928, "longitude": 5.3161946, "bronId": "L014637"}}, {"type": "Feature", "geometry": {"type": "Point", "coordinates": [5.316339, 51.5982929]}, "properties": {"type": "inleverpunt", "locatieNaam": "PLUS", "straatNaam": "Van Beekstraat", "straatNr": "3", "postcode": "5282 RV", "plaats": "Boxtel", "merk": "Stibat", "puntType": "inzamelbak", "materialen": ["batterijen"], "uitbetaling": [], "vrijToegankelijk": false, "gemeenteBeperking": null, "openingstijden": null, "latitude": 51.5982929, "longitude": 5.316339, "bronId": "L010771"}}, {"type": "Feature", "geometry": {"type": "Point", "coordinates": [5.2865178, 51.5973394]}, "properties": {"type": "inleverpunt", "locatieNaam": "Camping Dennenoord", "straatNaam": "Dennendreef", "straatNr": "5", "postcode": "5282 HK", "plaats": "Boxtel", "merk": "Stibat", "puntType": "inzamelbak", "materialen": ["batterijen"], "uitbetaling": [], "vrijToegankelijk": false, "gemeenteBeperking": null, "openingstijden": null, "latitude": 51.5973394, "longitude": 5.2865178, "bronId": "L005458"}}, {"type": "Feature", "geometry": {"type": "Point", "coordinates": [5.314304, 51.5892761]}, "properties": {"type": "inleverpunt", "locatieNaam": "1064 Action", "straatNaam": "van Hornstraat", "straatNr": "18", "postcode": "5282 NC", "plaats": "Boxtel", "merk": "Stibat", "puntType": "inzamelbak", "materialen": ["batterijen"], "uitbetaling": [], "vrijToegankelijk": false, "gemeenteBeperking": null, "openingstijden": null, "latitude": 51.5892761, "longitude": 5.314304, "bronId": "L028714"}}, {"type": "Feature", "geometry": {"type": "Point", "coordinates": [5.3238863, 51.5886884]}, "properties": {"type": "inleverpunt", "locatieNaam": "Jack Leijten Fiets &amp; Service", "straatNaam": "Molenstraat", "straatNr": "5", "postcode": "5281 JM", "plaats": "Boxtel", "merk": "Stibat", "puntType": "inzamelbak", "materialen": ["batterijen"], "uitbetaling": [], "vrijToegankelijk": false, "gemeenteBeperking": null, "openingstijden": null, "latitude": 51.5886884, "longitude": 5.3238863, "bronId": "L031123"}}, {"type": "Feature", "geometry": {"type": "Point", "coordinates": [5.3236821, 51.5883626]}, "properties": {"type": "inleverpunt", "locatieNaam": "Xenos", "straatNaam": "Stationsstraat", "straatNr": "8", "postcode": "5281 GD", "plaats": "Boxtel", "merk": "Stibat", "puntType": "inzamelbak", "materialen": ["batterijen"], "uitbetaling": [], "vrijToegankelijk": false, "gemeenteBeperking": null, "openingstijden": null, "latitude": 51.5883626, "longitude": 5.3236821, "bronId": "L037023"}}, {"type": "Feature", "geometry": {"type": "Point", "coordinates": [5.3241277, 51.5880768]}, "properties": {"type": "inleverpunt", "locatieNaam": "Beter Horen", "straatNaam": "Prins Hendrikstraat", "straatNr": "6a", "postcode": "5281 CM", "plaats": "Boxtel", "merk": "Stibat", "puntType": "inzamelbak", "materialen": ["batterijen"], "uitbetaling": [], "vrijToegankelijk": false, "gemeenteBeperking": null, "openingstijden": null, "latitude": 51.5880768, "longitude": 5.3241277, "bronId": "L018410"}}, {"type": "Feature", "geometry": {"type": "Point", "coordinates": [5.3250415, 51.5880509]}, "properties": {"type": "inleverpunt", "locatieNaam": "Kruidvat", "straatNaam": "Rechterstraat", "straatNr": "4", "postcode": "5281 BV", "plaats": "Boxtel", "merk": "Stibat", "puntType": "inzamelbak", "materialen": ["batterijen"], "uitbetaling": [], "vrijToegankelijk": false, "gemeenteBeperking": null, "openingstijden": null, "latitude": 51.5880509, "longitude": 5.3250415, "bronId": "L014045"}}, {"type": "Feature", "geometry": {"type": "Point", "coordinates": [5.3252291, 51.588042]}, "properties": {"type": "inleverpunt", "locatieNaam": "Belcompany", "straatNaam": "Rechterstraat", "straatNr": "6", "postcode": "5281 BV", "plaats": "Boxtel", "merk": "Stibat", "puntType": "inzamelbak", "materialen": ["batterijen"], "uitbetaling": [], "vrijToegankelijk": false, "gemeenteBeperking": null, "openingstijden": null, "latitude": 51.588042, "longitude": 5.3252291, "bronId": "L025422"}}, {"type": "Feature", "geometry": {"type": "Point", "coordinates": [5.3254023, 51.5880151]}, "properties": {"type": "inleverpunt", "locatieNaam": "HEMA Rechterstraat", "straatNaam": "Rechterstraat", "straatNr": "8-12", "postcode": "5281 BV", "plaats": "Boxtel", "merk": "Stibat", "puntType": "inzamelbak", "materialen": ["batterijen"], "uitbetaling": [], "vrijToegankelijk": false, "gemeenteBeperking": null, "openingstijden": null, "latitude": 51.5880151, "longitude": 5.3254023, "bronId": "L006538"}}, {"type": "Feature", "geometry": {"type": "Point", "coordinates": [5.326297, 51.5879976]}, "properties": {"type": "inleverpunt", "locatieNaam": "Bruna", "straatNaam": "Rechterstraat", "straatNr": "19", "postcode": "5281 BS", "plaats": "Boxtel", "merk": "Stibat", "puntType": "inzamelbak", "materialen": ["batterijen"], "uitbetaling": [], "vrijToegankelijk": false, "gemeenteBeperking": null, "openingstijden": null, "latitude": 51.5879976, "longitude": 5.326297, "bronId": "L024375"}}, {"type": "Feature", "geometry": {"type": "Point", "coordinates": [5.3261529, 51.5878537]}, "properties": {"type": "inleverpunt", "locatieNaam": "Zeeman", "straatNaam": "Rechterstraat", "straatNr": "20", "postcode": "5281 BW", "plaats": "Boxtel", "merk": "Stibat", "puntType": "inzamelbak", "materialen": ["batterijen"], "uitbetaling": [], "vrijToegankelijk": false, "gemeenteBeperking": null, "openingstijden": null, "latitude": 51.5878537, "longitude": 5.3261529, "bronId": "L020343"}}, {"type": "Feature", "geometry": {"type": "Point", "coordinates": [5.3270331, 51.5878092]}, "properties": {"type": "inleverpunt", "locatieNaam": "Phone House", "straatNaam": "Rechterstraat", "straatNr": "37", "postcode": "5281 BS", "plaats": "Boxtel", "merk": "Stibat", "puntType": "inzamelbak", "materialen": ["batterijen"], "uitbetaling": [], "vrijToegankelijk": false, "gemeenteBeperking": null, "openingstijden": null, "latitude": 51.5878092, "longitude": 5.3270331, "bronId": "L024557"}}, {"type": "Feature", "geometry": {"type": "Point", "coordinates": [5.326219, 51.587747]}, "properties": {"type": "inleverpunt", "locatieNaam": "Hans Anders", "straatNaam": "Rechterstraat", "straatNr": "22", "postcode": "5281 BW", "plaats": "Boxtel", "merk": "Stibat", "puntType": "inzamelbak", "materialen": ["batterijen"], "uitbetaling": [], "vrijToegankelijk": false, "gemeenteBeperking": null, "openingstijden": null, "latitude": 51.587747, "longitude": 5.326219, "bronId": "L037764"}}, {"type": "Feature", "geometry": {"type": "Point", "coordinates": [5.3275963, 51.5874949]}, "properties": {"type": "inleverpunt", "locatieNaam": "Thuiskantoor", "straatNaam": "Rechterstraat", "straatNr": "46", "postcode": "5281 BW", "plaats": "Boxtel", "merk": "Stibat", "puntType": "inzamelbak", "materialen": ["batterijen"], "uitbetaling": [], "vrijToegankelijk": false, "gemeenteBeperking": null, "openingstijden": null, "latitude": 51.5874949, "longitude": 5.3275963, "bronId": "L027921"}}, {"type": "Feature", "geometry": {"type": "Point", "coordinates": [5.3347216, 51.5876579]}, "properties": {"type": "inleverpunt", "locatieNaam": "Jumbo", "straatNaam": "Oosterhof", "straatNr": "5", "postcode": "5283 BV", "plaats": "Boxtel", "merk": "Stibat", "puntType": "inzamelbak", "materialen": ["batterijen"], "uitbetaling": [], "vrijToegankelijk": false, "gemeenteBeperking": null, "openingstijden": null, "latitude": 51.5876579, "longitude": 5.3347216, "bronId": "L029228"}}, {"type": "Feature", "geometry": {"type": "Point", "coordinates": [5.3350129, 51.5876153]}, "properties": {"type": "inleverpunt", "locatieNaam": "Drogisterij Henk van der Doelen", "straatNaam": "Oosterhof", "straatNr": "7", "postcode": "5283 BV", "plaats": "Boxtel", "merk": "Stibat", "puntType": "inzamelbak", "materialen": ["batterijen"], "uitbetaling": [], "vrijToegankelijk": false, "gemeenteBeperking": null, "openingstijden": null, "latitude": 51.5876153, "longitude": 5.3350129, "bronId": "L024813"}}, {"type": "Feature", "geometry": {"type": "Point", "coordinates": [5.3285346, 51.5872257]}, "properties": {"type": "inleverpunt", "locatieNaam": "Expert", "straatNaam": "Rechterstraat", "straatNr": "62", "postcode": "5281 BX", "plaats": "Boxtel", "merk": "Stibat", "puntType": "inzamelbak", "materialen": ["batterijen"], "uitbetaling": [], "vrijToegankelijk": false, "gemeenteBeperking": null, "openingstijden": null, "latitude": 51.5872257, "longitude": 5.3285346, "bronId": "L009986"}}, {"type": "Feature", "geometry": {"type": "Point", "coordinates": [5.3222688, 51.586176]}, "properties": {"type": "inleverpunt", "locatieNaam": "6209 Etos", "straatNaam": "Prins Hendrikstraat", "straatNr": "62", "postcode": "5281 CN", "plaats": "Boxtel", "merk": "Stibat", "puntType": "inzamelbak", "materialen": ["batterijen"], "uitbetaling": [], "vrijToegankelijk": false, "gemeenteBeperking": null, "openingstijden": null, "latitude": 51.586176, "longitude": 5.3222688, "bronId": "L023242"}}, {"type": "Feature", "geometry": {"type": "Point", "coordinates": [5.3222688, 51.586176]}, "properties": {"type": "inleverpunt", "locatieNaam": "8648 Albert Heijn", "straatNaam": "Prins Hendrikstraat", "straatNr": "62", "postcode": "5281 CN", "plaats": "Boxtel", "merk": "Stibat", "puntType": "inzamelbak", "materialen": ["batterijen"], "uitbetaling": [], "vrijToegankelijk": false, "gemeenteBeperking": null, "openingstijden": null, "latitude": 51.586176, "longitude": 5.3222688, "bronId": "L016650"}}, {"type": "Feature", "geometry": {"type": "Point", "coordinates": [5.3306109, 51.5861991]}, "properties": {"type": "inleverpunt", "locatieNaam": "Lidl", "straatNaam": "Fellenoord", "straatNr": "31", "postcode": "5281 CA", "plaats": "Boxtel", "merk": "Stibat", "puntType": "inzamelbak", "materialen": ["batterijen"], "uitbetaling": [], "vrijToegankelijk": false, "gemeenteBeperking": null, "openingstijden": null, "latitude": 51.5861991, "longitude": 5.3306109, "bronId": "L029689"}}, {"type": "Feature", "geometry": {"type": "Point", "coordinates": [5.3310775, 51.5856631]}, "properties": {"type": "inleverpunt", "locatieNaam": "Aldi", "straatNaam": "Brederodeweg", "straatNr": "24", "postcode": "5281 AC", "plaats": "Boxtel", "merk": "Stibat", "puntType": "inzamelbak", "materialen": ["batterijen"], "uitbetaling": [], "vrijToegankelijk": false, "gemeenteBeperking": null, "openingstijden": null, "latitude": 51.5856631, "longitude": 5.3310775, "bronId": "L041332"}}, {"type": "Feature", "geometry": {"type": "Point", "coordinates": [5.3199625, 51.5851628]}, "properties": {"type": "inleverpunt", "locatieNaam": "Bike Totaal Verhoeven", "straatNaam": "Stationsstraat", "straatNr": "103", "postcode": "5281 GC", "plaats": "Boxtel", "merk": "Stibat", "puntType": "inzamelbak", "materialen": ["batterijen"], "uitbetaling": [], "vrijToegankelijk": false, "gemeenteBeperking": null, "openingstijden": null, "latitude": 51.5851628, "longitude": 5.3199625, "bronId": "L039878"}}, {"type": "Feature", "geometry": {"type": "Point", "coordinates": [5.3314952, 51.5850609]}, "properties": {"type": "inleverpunt", "locatieNaam": "Texaco", "straatNaam": "Brederodeweg", "straatNr": "26", "postcode": "5281 AC", "plaats": "Boxtel", "merk": "Stibat", "puntType": "inzamelbak", "materialen": ["batterijen"], "uitbetaling": [], "vrijToegankelijk": false, "gemeenteBeperking": null, "openingstijden": null, "latitude": 51.5850609, "longitude": 5.3314952, "bronId": "L020077"}}, {"type": "Feature", "geometry": {"type": "Point", "coordinates": [5.311395, 51.5827992]}, "properties": {"type": "inleverpunt", "locatieNaam": "Fienieg Bikes &amp; Repair", "straatNaam": "Mijlstraat", "straatNr": "33", "postcode": "5281 LJ", "plaats": "Boxtel", "merk": "Stibat", "puntType": "inzamelbak", "materialen": ["batterijen"], "uitbetaling": [], "vrijToegankelijk": false, "gemeenteBeperking": null, "openingstijden": null, "latitude": 51.5827992, "longitude": 5.311395, "bronId": "L042408"}}, {"type": "Feature", "geometry": {"type": "Point", "coordinates": [5.315239, 51.5815104]}, "properties": {"type": "inleverpunt", "locatieNaam": "Milieustraat Boxtel", "straatNaam": "Kruisbroeksestraat", "straatNr": "22", "postcode": "5281 RT", "plaats": "Boxtel", "merk": "Stibat", "puntType": "inzamelbak", "materialen": ["batterijen"], "uitbetaling": [], "vrijToegankelijk": false, "gemeenteBeperking": null, "openingstijden": null, "latitude": 51.5815104, "longitude": 5.315239, "bronId": "L035758"}}, {"type": "Feature", "geometry": {"type": "Point", "coordinates": [5.3138866, 51.5796311]}, "properties": {"type": "inleverpunt", "locatieNaam": "Kringloop Het Goed", "straatNaam": "Industrieweg", "straatNr": "6", "postcode": "5281 RW", "plaats": "Boxtel", "merk": "Stibat", "puntType": "inzamelbak", "materialen": ["batterijen"], "uitbetaling": [], "vrijToegankelijk": false, "gemeenteBeperking": null, "openingstijden": null, "latitude": 51.5796311, "longitude": 5.3138866, "bronId": "L031814"}}, {"type": "Feature", "geometry": {"type": "Point", "coordinates": [5.3184742, 51.5771588]}, "properties": {"type": "inleverpunt", "locatieNaam": "Esso", "straatNaam": "Industrieweg", "straatNr": "18", "postcode": "5281 RW", "plaats": "Boxtel", "merk": "Stibat", "puntType": "inzamelbak", "materialen": ["batterijen"], "uitbetaling": [], "vrijToegankelijk": false, "gemeenteBeperking": null, "openingstijden": null, "latitude": 51.5771588, "longitude": 5.3184742, "bronId": "L041735"}}, {"type": "Feature", "geometry": {"type": "Point", "coordinates": [5.370029, 51.5715169]}, "properties": {"type": "inleverpunt", "locatieNaam": "Boon's Markt", "straatNaam": "Nieuwstraat", "straatNr": "59", "postcode": "5298 CK", "plaats": "Liempde", "merk": "Stibat", "puntType": "inzamelbak", "materialen": ["batterijen"], "uitbetaling": [], "vrijToegankelijk": false, "gemeenteBeperking": null, "openingstijden": null, "latitude": 51.5715169, "longitude": 5.370029, "bronId": "L047932"}}, {"type": "Feature", "geometry": {"type": "Point", "coordinates": [5.3713611, 51.5701399]}, "properties": {"type": "inleverpunt", "locatieNaam": "Uw Eigen Drogist", "straatNaam": "Nieuwstraat", "straatNr": "35", "postcode": "5298 CJ", "plaats": "Liempde", "merk": "Stibat", "puntType": "inzamelbak", "materialen": ["batterijen"], "uitbetaling": [], "vrijToegankelijk": false, "gemeenteBeperking": null, "openingstijden": null, "latitude": 51.5701399, "longitude": 5.3713611, "bronId": "L016254"}}, {"type": "Feature", "geometry": {"type": "Point", "coordinates": [5.3736314, 51.5693613]}, "properties": {"type": "inleverpunt", "locatieNaam": "Uw Groene Vakwinkel / 't Liempds Pakhuis", "straatNaam": "Dorpsstraat", "straatNr": "22", "postcode": "5298 CB", "plaats": "Liempde", "merk": "Stibat", "puntType": "inzamelbak", "materialen": ["batterijen"], "uitbetaling": [], "vrijToegankelijk": false, "gemeenteBeperking": null, "openingstijden": null, "latitude": 51.5693613, "longitude": 5.3736314, "bronId": "L020516"}}, {"type": "Feature", "geometry": {"type": "Polygon", "coordinates": [[[5.36852000167262, 51.54352300361799], [5.3826740016869365, 51.543782003617935], [5.382792001687041, 51.543489003617765], [5.388162001692501, 51.544277003618205], [5.390611001695018, 51.54538000361886], [5.3937780016982435, 51.546018003619245], [5.393646001698126, 51.54639400361953], [5.396842001701362, 51.54654500361954], [5.4042330017088975, 51.54829200362064], [5.404018001708751, 51.55011800362185], [5.404392001709131, 51.55014600362189], [5.404535001709331, 51.55157000362281], [5.404247001709151, 51.55443100362471], [5.402810001707827, 51.557778003626915], [5.405201001710409, 51.5620280036297], [5.401606001706773, 51.561915003629714], [5.4000840017052525, 51.562403003630024], [5.399126001704319, 51.56328300363061], [5.39781000170309, 51.56589400363235], [5.399476001704782, 51.56609800363246], [5.398682001704047, 51.567757003633616], [5.39961900170504, 51.56899700363439], [5.398932001704436, 51.57129500363592], [5.399344001704886, 51.572195003636516], [5.399801001705354, 51.57235400363662], [5.401029001706575, 51.57182700363627], [5.402499001708055, 51.57171400363615], [5.402015001707648, 51.57384200363756], [5.403866001709597, 51.57586800363888], [5.4020920017078105, 51.57601900363901], [5.400345001706029, 51.57564200363878], [5.396304001701988, 51.576617003639456], [5.395552001701229, 51.576575003639476], [5.392811001698411, 51.57540000363875], [5.391570001697176, 51.57591100363904], [5.393682001699468, 51.57994500364172], [5.392617001698399, 51.58014100364184], [5.389868001695683, 51.58170500364291], [5.389140001694935, 51.58133400364269], [5.3896560016954345, 51.58084200364232], [5.388949001694722, 51.580827003642355], [5.387826001693648, 51.58245400364345], [5.389159001695003, 51.58268000364357], [5.38966700169555, 51.583484003644124], [5.385690001691633, 51.586096003645864], [5.382750001688711, 51.58735800364673], [5.381443001687402, 51.58760200364691], [5.385260001691336, 51.589587003648205], [5.386624001692693, 51.589088003647824], [5.389056001695153, 51.58911800364784], [5.389591001695713, 51.58967100364818], [5.3874260016935605, 51.59049800364876], [5.387226001693384, 51.59119100364919], [5.386157001692283, 51.59061400364884], [5.384460001690686, 51.593677003650896], [5.381443001687738, 51.596204003652595], [5.383972001690324, 51.59707100365313], [5.383149001689509, 51.597450003653385], [5.38456900169103, 51.59962800365482], [5.386212001692741, 51.6008690036556], [5.380947001687498, 51.602913003657015], [5.374139001680578, 51.60173000365632], [5.360219001666521, 51.601753003656526], [5.352929001659112, 51.60069100365592], [5.350985001657279, 51.60396600365808], [5.345867001652063, 51.602738003657414], [5.342835001648901, 51.60022400365576], [5.341386001647486, 51.601468003656585], [5.340834001647041, 51.6043500036585], [5.335968001642079, 51.603085003657725], [5.334522001640732, 51.605993003659655], [5.331938001638171, 51.6072820036605], [5.331995001638278, 51.608487003661345], [5.333833001640116, 51.60807700366102], [5.334979001641303, 51.60869800366144], [5.334339001640684, 51.60945700366192], [5.332949001639294, 51.609780003662166], [5.3330400016394135, 51.61047900366264], [5.332152001638527, 51.61075200366281], [5.332131001638521, 51.61113600366305], [5.334863001641381, 51.61364000366467], [5.339048001645615, 51.61386100366478], [5.340468001647079, 51.614590003665235], [5.341274001647941, 51.61582000366604], [5.343177001649905, 51.61686800366669], [5.343364001650122, 51.61760700366717], [5.3418930016487405, 51.620241003668916], [5.3433840016503, 51.62155600366978], [5.343995001650969, 51.622983003670676], [5.338405001645292, 51.622127003670194], [5.317732001624918, 51.63463400367868], [5.315086001622209, 51.633771003678135], [5.308993001616046, 51.633485003678025], [5.308275001615304, 51.63303500367774], [5.306193001613078, 51.629949003675705], [5.3068060016136105, 51.627825003674346], [5.304333001610998, 51.62492400367246], [5.299646001606295, 51.625709003673016], [5.297029001603622, 51.62498300367258], [5.295013001601501, 51.62280600367119], [5.29466700160109, 51.62133500367021], [5.290923001597312, 51.621327003670274], [5.285521001591923, 51.62292800367137], [5.282078001588424, 51.62246300367113], [5.280759001587102, 51.62272700367131], [5.280791001587075, 51.62128300367033], [5.279797001586045, 51.62063300366992], [5.2797190015859465, 51.62011400366961], [5.277683001583854, 51.61920000366898], [5.2783420015844795, 51.61829700366842], [5.2776110015837325, 51.61799300366818], [5.275831001581842, 51.61576100366679], [5.272386001578352, 51.615514003666625], [5.272405001578359, 51.61518700366644], [5.271392001577348, 51.61545600366663], [5.270804001576711, 51.61443700366594], [5.271747001577602, 51.612836003664874], [5.269710001575552, 51.61310300366509], [5.268263001574051, 51.61210100366449], [5.270113001575901, 51.611586003664115], [5.269240001574938, 51.60960900366277], [5.273078001578787, 51.60895000366235], [5.27285500157854, 51.60838300366193], [5.2765030015821885, 51.607551003661364], [5.2760820015817185, 51.60643400366064], [5.27874400158434, 51.604790003659524], [5.275665001581215, 51.60440500365933], [5.272788001578239, 51.602669003658185], [5.268655001573993, 51.60091200365712], [5.263066001568312, 51.60000600365657], [5.260235001565347, 51.59747300365494], [5.256979001561991, 51.59582800365388], [5.255380001560275, 51.59342400365231], [5.250732001555486, 51.59114600365085], [5.248679001553392, 51.59060000365051], [5.248228001552904, 51.58980200364998], [5.247640001552307, 51.58974200364998], [5.246178001550409, 51.579478003643196], [5.261884001565512, 51.56058700363053], [5.26890000157233, 51.55372700362595], [5.308396001611942, 51.54598000362036], [5.325444001629391, 51.55135200362369], [5.329465001633443, 51.55108200362346], [5.33042500163442, 51.551280003623575], [5.33306200163708, 51.551129003623466], [5.334054001638063, 51.55065800362313], [5.334103001638072, 51.54960400362243], [5.33735000164122, 51.5463200036202], [5.3439320016478025, 51.54447100361891], [5.350846001654781, 51.544236003618664], [5.353384001657377, 51.54503500361917], [5.358406001662441, 51.54466400361885], [5.365171001669288, 51.54500300361898], [5.367745001671863, 51.54425900361843], [5.36852000167262, 51.54352300361799]]]}, "properties": {"type": "boundary", "gemeente": "Boxtel"}}]}