{"type": "FeatureCollection", "metadata": {"gemeente": "Bronckhorst", "slug": "bronckhorst", "generated_at": "2026-08-10T03:59:13.840938Z", "total_points": 83, "merken": ["StatiegeldNederland", "Stibat", "StichtingOPEN"], "bounds": [6.1340059, 51.9996517, 6.4407631, 52.116251]}, "features": [{"type": "Feature", "geometry": {"type": "Point", "coordinates": [6.3144083, 52.1034389]}, "properties": {"type": "inleverpunt", "locatieNaam": "Albert Heijn", "straatNaam": "Dorpsstraat", "straatNr": "18", "postcode": "7251 BB", "plaats": "Vorden", "merk": "StatiegeldNederland", "puntType": "automaat", "materialen": ["pet-groot", "pet-klein", "blik", "glas", "krat"], "uitbetaling": ["bonnetje", "donatie"], "vrijToegankelijk": true, "gemeenteBeperking": null, "openingstijden": {"ma": "08:00–20:00", "di": "08:00–20:00", "wo": "08:00–20:00", "do": "08:00–20:00", "vr": "08:00–21:00", "za": "08:00–20:00", "zo": "10:00–17:00"}, "latitude": 52.1034389, "longitude": 6.3144083, "bronId": "268389"}}, {"type": "Feature", "geometry": {"type": "Point", "coordinates": [6.3084526, 52.053422]}, "properties": {"type": "inleverpunt", "locatieNaam": "Albert Heijn", "straatNaam": "Raadhuisstraat", "straatNr": "24", "postcode": "7255 BN", "plaats": "Hengelo (Gld)", "merk": "StatiegeldNederland", "puntType": "automaat", "materialen": ["pet-groot", "pet-klein", "blik", "glas", "krat"], "uitbetaling": ["bonnetje"], "vrijToegankelijk": true, "gemeenteBeperking": null, "openingstijden": {"ma": "08:00–21:00", "di": "08:00–21:00", "wo": "08:00–21:00", "do": "08:00–21:00", "vr": "08:00–21:00", "za": "08:00–20:00", "zo": "10:00–17:00"}, "latitude": 52.053422, "longitude": 6.3084526, "bronId": "268878"}}, {"type": "Feature", "geometry": {"type": "Point", "coordinates": [6.316129, 52.103535]}, "properties": {"type": "inleverpunt", "locatieNaam": "Aldi", "straatNaam": "De Bleek", "straatNr": "4", "postcode": "7251 SG", "plaats": "Vorden", "merk": "StatiegeldNederland", "puntType": "automaat", "materialen": ["pet-groot", "pet-klein", "blik", "glas", "krat"], "uitbetaling": ["bonnetje"], "vrijToegankelijk": true, "gemeenteBeperking": null, "openingstijden": {"ma": "08:00–20:00", "di": "08:00–20:00", "wo": "08:00–20:00", "do": "08:00–20:00", "vr": "08:00–20:00", "za": "08:00–20:00", "zo": "10:00–17:00"}, "latitude": 52.103535, "longitude": 6.316129, "bronId": "269276"}}, {"type": "Feature", "geometry": {"type": "Point", "coordinates": [6.3493086, 52.0068626]}, "properties": {"type": "inleverpunt", "locatieNaam": "Aldi", "straatNaam": "Markt", "straatNr": "5", "postcode": "7021 AA", "plaats": "Zelhem", "merk": "StatiegeldNederland", "puntType": "automaat", "materialen": ["pet-groot", "pet-klein", "blik", "glas", "krat"], "uitbetaling": ["bonnetje"], "vrijToegankelijk": true, "gemeenteBeperking": null, "openingstijden": {"ma": "08:00–20:00", "di": "08:00–20:00", "wo": "08:00–20:00", "do": "08:00–20:00", "vr": "08:00–20:00", "za": "08:00–20:00", "zo": "10:00–17:00"}, "latitude": 52.0068626, "longitude": 6.3493086, "bronId": "269467"}}, {"type": "Feature", "geometry": {"type": "Point", "coordinates": [6.3093687, 52.0480222]}, "properties": {"type": "inleverpunt", "locatieNaam": "Aldi", "straatNaam": "Zuivelweg", "straatNr": "7", "postcode": "7255 XA", "plaats": "Hengelo Gld.", "merk": "StatiegeldNederland", "puntType": "automaat", "materialen": ["pet-groot", "pet-klein", "blik", "glas", "krat"], "uitbetaling": ["bonnetje"], "vrijToegankelijk": true, "gemeenteBeperking": null, "openingstijden": {"ma": "08:00–20:00", "di": "08:00–20:00", "wo": "08:00–20:00", "do": "08:00–20:00", "vr": "08:00–20:00", "za": "08:00–20:00", "zo": "10:00–17:00"}, "latitude": 52.0480222, "longitude": 6.3093687, "bronId": "269680"}}, {"type": "Feature", "geometry": {"type": "Point", "coordinates": [6.3528667, 51.9996517]}, "properties": {"type": "inleverpunt", "locatieNaam": "C.k.v. S.e.v.", "straatNaam": "Halseweg", "straatNr": "31a", "postcode": "7021 HV", "plaats": "Zelhem", "merk": "StatiegeldNederland", "puntType": "balie", "materialen": ["pet-groot", "pet-klein", "blik"], "uitbetaling": [], "vrijToegankelijk": false, "gemeenteBeperking": null, "openingstijden": {"ma": "08:00–12:30, 13:00–17:15", "di": "08:00–12:30, 13:00–17:15", "wo": "08:00–12:30, 13:00–17:15", "do": "08:00–12:30, 13:00–17:15", "vr": "08:00–12:30, 13:00–17:00", "za": "08:30–12:30", "zo": "Gesloten"}, "latitude": 51.9996517, "longitude": 6.3528667, "bronId": "270191"}}, {"type": "Feature", "geometry": {"type": "Point", "coordinates": [6.3470465, 52.0071798]}, "properties": {"type": "inleverpunt", "locatieNaam": "Jumbo", "straatNaam": "Bergstraat", "straatNr": "1", "postcode": "7021 XG", "plaats": "Zelhem", "merk": "StatiegeldNederland", "puntType": "automaat", "materialen": ["pet-groot", "pet-klein", "blik", "glas", "krat"], "uitbetaling": ["bonnetje", "donatie"], "vrijToegankelijk": true, "gemeenteBeperking": null, "openingstijden": {"ma": "08:00–20:00", "di": "08:00–20:00", "wo": "08:00–20:00", "do": "08:00–21:00", "vr": "08:00–21:00", "za": "08:00–20:00", "zo": "10:00–18:00"}, "latitude": 52.0071798, "longitude": 6.3470465, "bronId": "271673"}}, {"type": "Feature", "geometry": {"type": "Point", "coordinates": [6.2982915, 52.0337447]}, "properties": {"type": "inleverpunt", "locatieNaam": "Omnivereniging Keijenborg", "straatNaam": "Pastoor thuisstraat", "straatNr": "24", "postcode": "7256 AX", "plaats": "Keijenborg", "merk": "StatiegeldNederland", "puntType": "balie", "materialen": ["pet-groot", "pet-klein", "blik"], "uitbetaling": [], "vrijToegankelijk": false, "gemeenteBeperking": null, "openingstijden": {"ma": "08:00–22:00", "di": "08:00–22:00", "wo": "08:00–22:00", "do": "08:00–22:00", "vr": "08:00–22:00", "za": "08:00–22:00", "zo": "08:00–22:00"}, "latitude": 52.0337447, "longitude": 6.2982915, "bronId": "273455"}}, {"type": "Feature", "geometry": {"type": "Point", "coordinates": [6.1879589, 52.0621567]}, "properties": {"type": "inleverpunt", "locatieNaam": "Plus", "straatNaam": "Dorpsstraat", "straatNr": "14-16", "postcode": "7221 BP", "plaats": "Steenderen", "merk": "StatiegeldNederland", "puntType": "automaat", "materialen": ["pet-groot", "pet-klein", "blik", "glas", "krat"], "uitbetaling": ["bonnetje"], "vrijToegankelijk": true, "gemeenteBeperking": null, "openingstijden": {"ma": "08:00–20:00", "di": "08:00–20:00", "wo": "08:00–20:00", "do": "08:00–20:00", "vr": "08:00–20:00", "za": "08:00–20:00", "zo": "10:00–17:00"}, "latitude": 52.0621567, "longitude": 6.1879589, "bronId": "273731"}}, {"type": "Feature", "geometry": {"type": "Point", "coordinates": [6.3533538, 52.0061831]}, "properties": {"type": "inleverpunt", "locatieNaam": "Plus", "straatNaam": "Halseweg", "straatNr": "2", "postcode": "7021 CZ", "plaats": "Zelhem", "merk": "StatiegeldNederland", "puntType": "automaat", "materialen": ["pet-groot", "pet-klein", "blik", "glas", "krat"], "uitbetaling": ["bonnetje", "donatie"], "vrijToegankelijk": true, "gemeenteBeperking": null, "openingstijden": {"ma": "08:00–20:00", "di": "08:00–20:00", "wo": "08:00–20:00", "do": "08:00–20:00", "vr": "08:00–20:00", "za": "08:00–20:00", "zo": "09:00–18:00"}, "latitude": 52.0061831, "longitude": 6.3533538, "bronId": "273783"}}, {"type": "Feature", "geometry": {"type": "Point", "coordinates": [6.3060536, 52.0537379]}, "properties": {"type": "inleverpunt", "locatieNaam": "Plus", "straatNaam": "Raadhuisstraat", "straatNr": "53", "postcode": "7255 BL", "plaats": "Hengelo (Gld)", "merk": "StatiegeldNederland", "puntType": "automaat", "materialen": ["pet-groot", "pet-klein", "blik", "glas", "krat"], "uitbetaling": ["bonnetje", "donatie"], "vrijToegankelijk": true, "gemeenteBeperking": null, "openingstijden": {"ma": "08:00–20:00", "di": "08:00–20:00", "wo": "08:00–20:00", "do": "08:00–21:00", "vr": "08:00–21:00", "za": "08:00–20:00", "zo": "10:00–17:00"}, "latitude": 52.0537379, "longitude": 6.3060536, "bronId": "273957"}}, {"type": "Feature", "geometry": {"type": "Point", "coordinates": [6.3091652, 52.1051033]}, "properties": {"type": "inleverpunt", "locatieNaam": "Plus", "straatNaam": "Zutphenseweg", "straatNr": "26", "postcode": "7251 DK", "plaats": "Vorden", "merk": "StatiegeldNederland", "puntType": "automaat", "materialen": ["pet-groot", "pet-klein", "blik", "glas", "krat"], "uitbetaling": ["bonnetje"], "vrijToegankelijk": true, "gemeenteBeperking": null, "openingstijden": {"ma": "08:00–20:00", "di": "08:00–20:00", "wo": "08:00–20:00", "do": "08:00–20:00", "vr": "08:00–21:00", "za": "08:00–20:00", "zo": "10:00–18:00"}, "latitude": 52.1051033, "longitude": 6.3091652, "bronId": "274066"}}, {"type": "Feature", "geometry": {"type": "Point", "coordinates": [6.3240234, 52.0376828]}, "properties": {"type": "inleverpunt", "locatieNaam": "Rv En Pc De Gompert", "straatNaam": "Gompertsdijk", "straatNr": "11A", "postcode": "7255 PM", "plaats": "Hengelo", "merk": "StatiegeldNederland", "puntType": "balie", "materialen": ["pet-groot", "pet-klein", "blik"], "uitbetaling": [], "vrijToegankelijk": false, "gemeenteBeperking": null, "openingstijden": {"ma": "24 uur geopend", "di": "24 uur geopend", "wo": "24 uur geopend", "do": "24 uur geopend", "vr": "24 uur geopend", "za": "24 uur geopend", "zo": "24 uur geopend"}, "latitude": 52.0376828, "longitude": 6.3240234, "bronId": "274367"}}, {"type": "Feature", "geometry": {"type": "Point", "coordinates": [6.234121, 52.005701]}, "properties": {"type": "inleverpunt", "locatieNaam": "Spar", "straatNaam": "Dorpsstraat", "straatNr": "20", "postcode": "6999 AD", "plaats": "Hummelo", "merk": "StatiegeldNederland", "puntType": "automaat", "materialen": ["pet-groot", "pet-klein", "blik", "glas", "krat"], "uitbetaling": ["bonnetje"], "vrijToegankelijk": true, "gemeenteBeperking": null, "openingstijden": {"ma": "08:00–20:00", "di": "08:00–20:00", "wo": "08:00–20:00", "do": "08:00–20:00", "vr": "08:00–20:00", "za": "08:00–20:00", "zo": "09:00–18:00"}, "latitude": 52.005701, "longitude": 6.234121, "bronId": "274803"}}, {"type": "Feature", "geometry": {"type": "Point", "coordinates": [6.2645042, 52.0818256]}, "properties": {"type": "inleverpunt", "locatieNaam": "Sportvereniging Sv Socii", "straatNaam": "Lankhorsterstraat", "straatNr": "3a", "postcode": "7234 SH", "plaats": "Wichmond", "merk": "StatiegeldNederland", "puntType": "balie", "materialen": ["pet-groot", "pet-klein", "blik"], "uitbetaling": [], "vrijToegankelijk": false, "gemeenteBeperking": null, "openingstijden": null, "latitude": 52.0818256, "longitude": 6.2645042, "bronId": "275119"}}, {"type": "Feature", "geometry": {"type": "Point", "coordinates": [6.3033709, 52.0438304]}, "properties": {"type": "inleverpunt", "locatieNaam": "V. En Av Pax", "straatNaam": "Elderinkweg", "straatNr": "5", "postcode": "7255 KA", "plaats": "Hengelo", "merk": "StatiegeldNederland", "puntType": "balie", "materialen": ["pet-groot", "pet-klein", "blik"], "uitbetaling": [], "vrijToegankelijk": false, "gemeenteBeperking": null, "openingstijden": {"ma": "08:30–23:00", "di": "08:30–23:00", "wo": "08:30–23:00", "do": "08:30–23:00", "vr": "08:30–23:00", "za": "08:30–23:00", "zo": "08:30–23:00"}, "latitude": 52.0438304, "longitude": 6.3033709, "bronId": "275583"}}, {"type": "Feature", "geometry": {"type": "Point", "coordinates": [6.187958, 52.062156]}, "properties": {"type": "inleverpunt", "locatieNaam": "Plus Steenderen", "straatNaam": "Dorpsstraat", "straatNr": "14", "postcode": "7221 BP", "plaats": "Steenderen", "merk": "StichtingOPEN", "puntType": "balie", "materialen": ["batterijen", "elektro-klein", "lampen"], "uitbetaling": [], "vrijToegankelijk": false, "gemeenteBeperking": null, "openingstijden": null, "latitude": 52.062156, "longitude": 6.187958, "bronId": "SP00036575"}}, {"type": "Feature", "geometry": {"type": "Point", "coordinates": [6.220859, 52.052436]}, "properties": {"type": "inleverpunt", "locatieNaam": "Toldijk Welkoop", "straatNaam": "Zutphen-Emmerikseweg", "straatNr": "35", "postcode": "7227 DG", "plaats": "Toldijk", "merk": "StichtingOPEN", "puntType": "balie", "materialen": ["elektro-middel", "lampen", "tl-buizen"], "uitbetaling": [], "vrijToegankelijk": false, "gemeenteBeperking": null, "openingstijden": null, "latitude": 52.052436, "longitude": 6.220859, "bronId": "SP00006771"}}, {"type": "Feature", "geometry": {"type": "Point", "coordinates": [6.224199, 52.06344]}, "properties": {"type": "inleverpunt", "locatieNaam": "Eliesen Electro", "straatNaam": "Zutphen-Emmerikseweg", "straatNr": "46", "postcode": "7223 DG", "plaats": "Baak", "merk": "StichtingOPEN", "puntType": "balie", "materialen": ["elektro-middel", "lampen"], "uitbetaling": [], "vrijToegankelijk": false, "gemeenteBeperking": null, "openingstijden": null, "latitude": 52.06344, "longitude": 6.224199, "bronId": "SP00002558"}}, {"type": "Feature", "geometry": {"type": "Point", "coordinates": [6.234117, 52.005681]}, "properties": {"type": "inleverpunt", "locatieNaam": "Spar Hummelo", "straatNaam": "Dorpsstraat", "straatNr": "20", "postcode": "6999 AD", "plaats": "Hummelo", "merk": "StichtingOPEN", "puntType": "balie", "materialen": ["batterijen", "lampen"], "uitbetaling": [], "vrijToegankelijk": false, "gemeenteBeperking": null, "openingstijden": null, "latitude": 52.005681, "longitude": 6.234117, "bronId": "SP00022418"}}, {"type": "Feature", "geometry": {"type": "Point", "coordinates": [6.282262, 52.044048]}, "properties": {"type": "inleverpunt", "locatieNaam": "Kinderboerderij Feltsigt", "straatNaam": "Bekveldseweg", "straatNr": "5", "postcode": "7255 KG", "plaats": "Hengelo", "merk": "StichtingOPEN", "puntType": "balie", "materialen": ["elektro-klein"], "uitbetaling": [], "vrijToegankelijk": false, "gemeenteBeperking": null, "openingstijden": null, "latitude": 52.044048, "longitude": 6.282262, "bronId": "SP00006078"}}, {"type": "Feature", "geometry": {"type": "Point", "coordinates": [6.308586, 52.104832]}, "properties": {"type": "inleverpunt", "locatieNaam": "Dutch PC Vorden", "straatNaam": "Zutphenseweg", "straatNr": "29", "postcode": "7251 DG", "plaats": "Vorden", "merk": "StichtingOPEN", "puntType": "balie", "materialen": ["elektro-klein", "elektro-middel"], "uitbetaling": [], "vrijToegankelijk": false, "gemeenteBeperking": null, "openingstijden": null, "latitude": 52.104832, "longitude": 6.308586, "bronId": "SP00001609"}}, {"type": "Feature", "geometry": {"type": "Point", "coordinates": [6.306023, 52.053687]}, "properties": {"type": "inleverpunt", "locatieNaam": "PLUS Hengelo (Gld)", "straatNaam": "Raadhuisstraat", "straatNr": "53", "postcode": "7255 BL", "plaats": "Hengelo (Gld)", "merk": "StichtingOPEN", "puntType": "balie", "materialen": ["batterijen", "lampen"], "uitbetaling": [], "vrijToegankelijk": false, "gemeenteBeperking": null, "openingstijden": null, "latitude": 52.053687, "longitude": 6.306023, "bronId": "SP00024162"}}, {"type": "Feature", "geometry": {"type": "Point", "coordinates": [6.306936, 52.053763]}, "properties": {"type": "inleverpunt", "locatieNaam": "Action Hengelo 1126", "straatNaam": "Raadhuisstraat", "straatNr": "49", "postcode": "7255 BL", "plaats": "Hengelo (gld)", "merk": "StichtingOPEN", "puntType": "balie", "materialen": ["batterijen", "lampen"], "uitbetaling": [], "vrijToegankelijk": false, "gemeenteBeperking": null, "openingstijden": null, "latitude": 52.053763, "longitude": 6.306936, "bronId": "SP00007716"}}, {"type": "Feature", "geometry": {"type": "Point", "coordinates": [6.307164, 52.053919]}, "properties": {"type": "inleverpunt", "locatieNaam": "Kruidvat Hengelo (Gld)", "straatNaam": "Raadhuisstraat", "straatNr": "51b", "postcode": "7255 BL", "plaats": "Hengelo (Gld)", "merk": "StichtingOPEN", "puntType": "balie", "materialen": ["batterijen", "lampen"], "uitbetaling": [], "vrijToegankelijk": false, "gemeenteBeperking": null, "openingstijden": null, "latitude": 52.053919, "longitude": 6.307164, "bronId": "SP00024912"}}, {"type": "Feature", "geometry": {"type": "Point", "coordinates": [6.307706, 52.053573]}, "properties": {"type": "inleverpunt", "locatieNaam": "8724 Albert Heijn Hengelo (Gld)", "straatNaam": "Raadhuisstraat", "straatNr": "24", "postcode": "7255 BN", "plaats": "Hengelo (Gld)", "merk": "StichtingOPEN", "puntType": "balie", "materialen": ["batterijen", "elektro-klein", "lampen"], "uitbetaling": [], "vrijToegankelijk": false, "gemeenteBeperking": null, "openingstijden": null, "latitude": 52.053573, "longitude": 6.307706, "bronId": "SP00022830"}}, {"type": "Feature", "geometry": {"type": "Point", "coordinates": [6.308988, 52.052287]}, "properties": {"type": "inleverpunt", "locatieNaam": "Enorm Arendsen", "straatNaam": "Kerkstraat", "straatNr": "2", "postcode": "7255 CB", "plaats": "Hengelo (gld)", "merk": "StichtingOPEN", "puntType": "balie", "materialen": ["batterijen", "elektro-middel", "lampen", "tl-buizen"], "uitbetaling": [], "vrijToegankelijk": false, "gemeenteBeperking": null, "openingstijden": null, "latitude": 52.052287, "longitude": 6.308988, "bronId": "SP00004827"}}, {"type": "Feature", "geometry": {"type": "Point", "coordinates": [6.309368, 52.048022]}, "properties": {"type": "inleverpunt", "locatieNaam": "Aldi Hengelo", "straatNaam": "Zuivelweg", "straatNr": "7", "postcode": "7255 XA", "plaats": "Hengelo", "merk": "StichtingOPEN", "puntType": "balie", "materialen": ["batterijen", "elektro-klein", "lampen"], "uitbetaling": [], "vrijToegankelijk": false, "gemeenteBeperking": null, "openingstijden": null, "latitude": 52.048022, "longitude": 6.309368, "bronId": "SP00026978"}}, {"type": "Feature", "geometry": {"type": "Point", "coordinates": [6.314437, 52.103428]}, "properties": {"type": "inleverpunt", "locatieNaam": "4069 Albert Heijn Vorden", "straatNaam": "Dorpsstraat", "straatNr": "18", "postcode": "7251 BB", "plaats": "Vorden", "merk": "StichtingOPEN", "puntType": "balie", "materialen": ["batterijen", "elektro-klein", "lampen"], "uitbetaling": [], "vrijToegankelijk": false, "gemeenteBeperking": null, "openingstijden": null, "latitude": 52.103428, "longitude": 6.314437, "bronId": "SP00023313"}}, {"type": "Feature", "geometry": {"type": "Point", "coordinates": [6.316128, 52.103534]}, "properties": {"type": "inleverpunt", "locatieNaam": "Aldi Vorden", "straatNaam": "De Bleek", "straatNr": "4", "postcode": "7251 SG", "plaats": "Vorden", "merk": "StichtingOPEN", "puntType": "balie", "materialen": ["batterijen", "elektro-klein", "lampen"], "uitbetaling": [], "vrijToegankelijk": false, "gemeenteBeperking": null, "openingstijden": null, "latitude": 52.103534, "longitude": 6.316128, "bronId": "SP00026953"}}, {"type": "Feature", "geometry": {"type": "Point", "coordinates": [6.316291, 52.103971]}, "properties": {"type": "inleverpunt", "locatieNaam": "Kruidvat Vorden", "straatNaam": "Dorpsstraat", "straatNr": "11a", "postcode": "7251 BC", "plaats": "Vorden", "merk": "StichtingOPEN", "puntType": "balie", "materialen": ["batterijen", "lampen"], "uitbetaling": [], "vrijToegankelijk": false, "gemeenteBeperking": null, "openingstijden": null, "latitude": 52.103971, "longitude": 6.316291, "bronId": "SP00029800"}}, {"type": "Feature", "geometry": {"type": "Point", "coordinates": [6.317702, 52.105571]}, "properties": {"type": "inleverpunt", "locatieNaam": "Welkoop Vorden", "straatNaam": "Stationsweg", "straatNr": "16", "postcode": "7251 EM", "plaats": "Vorden", "merk": "StichtingOPEN", "puntType": "balie", "materialen": ["lampen", "tl-buizen"], "uitbetaling": [], "vrijToegankelijk": false, "gemeenteBeperking": null, "openingstijden": null, "latitude": 52.105571, "longitude": 6.317702, "bronId": "SP00026216"}}, {"type": "Feature", "geometry": {"type": "Point", "coordinates": [6.346952, 52.007206]}, "properties": {"type": "inleverpunt", "locatieNaam": "Jumbo Zelhem", "straatNaam": "Bergstraat", "straatNr": "1", "postcode": "7021 XG", "plaats": "Zelhem", "merk": "StichtingOPEN", "puntType": "balie", "materialen": ["batterijen", "lampen"], "uitbetaling": [], "vrijToegankelijk": false, "gemeenteBeperking": null, "openingstijden": null, "latitude": 52.007206, "longitude": 6.346952, "bronId": "SP00025182"}}, {"type": "Feature", "geometry": {"type": "Point", "coordinates": [6.347817, 52.007126]}, "properties": {"type": "inleverpunt", "locatieNaam": "Kruidvat Zelhem", "straatNaam": "Magnoliaweg", "straatNr": "1c", "postcode": "7021 ZX", "plaats": "Zelhem", "merk": "StichtingOPEN", "puntType": "balie", "materialen": ["batterijen", "lampen"], "uitbetaling": [], "vrijToegankelijk": false, "gemeenteBeperking": null, "openingstijden": null, "latitude": 52.007126, "longitude": 6.347817, "bronId": "SP00024613"}}, {"type": "Feature", "geometry": {"type": "Point", "coordinates": [6.349308, 52.006862]}, "properties": {"type": "inleverpunt", "locatieNaam": "Aldi Zelhem", "straatNaam": "Markt", "straatNr": "5", "postcode": "7021 AA", "plaats": "Zelhem", "merk": "StichtingOPEN", "puntType": "balie", "materialen": ["batterijen", "elektro-klein", "lampen"], "uitbetaling": [], "vrijToegankelijk": false, "gemeenteBeperking": null, "openingstijden": null, "latitude": 52.006862, "longitude": 6.349308, "bronId": "SP00026973"}}, {"type": "Feature", "geometry": {"type": "Point", "coordinates": [6.351851, 52.005666]}, "properties": {"type": "inleverpunt", "locatieNaam": "Expert Zelhem", "straatNaam": "Kerkweg", "straatNr": "3", "postcode": "7021 CM", "plaats": "Zelhem", "merk": "StichtingOPEN", "puntType": "balie", "materialen": ["batterijen", "elektro-groot", "elektro-klein", "elektro-middel", "lampen", "tl-buizen"], "uitbetaling": [], "vrijToegankelijk": false, "gemeenteBeperking": null, "openingstijden": null, "latitude": 52.005666, "longitude": 6.351851, "bronId": "SP00002542"}}, {"type": "Feature", "geometry": {"type": "Point", "coordinates": [6.351238, 52.001733]}, "properties": {"type": "inleverpunt", "locatieNaam": "66470 Hubo Zelhem", "straatNaam": "Brinkweg", "straatNr": "11", "postcode": "7021 BV", "plaats": "Zelhem", "merk": "StichtingOPEN", "puntType": "balie", "materialen": ["elektro-middel", "lampen", "tl-buizen"], "uitbetaling": [], "vrijToegankelijk": false, "gemeenteBeperking": null, "openingstijden": null, "latitude": 52.001733, "longitude": 6.351238, "bronId": "SP00004687"}}, {"type": "Feature", "geometry": {"type": "Point", "coordinates": [6.353353, 52.006183]}, "properties": {"type": "inleverpunt", "locatieNaam": "Coop Zelhem", "straatNaam": "Halseweg", "straatNr": "2", "postcode": "7021 CZ", "plaats": "Zelhem", "merk": "StichtingOPEN", "puntType": "balie", "materialen": ["batterijen", "lampen"], "uitbetaling": [], "vrijToegankelijk": false, "gemeenteBeperking": null, "openingstijden": null, "latitude": 52.006183, "longitude": 6.353353, "bronId": "SP00024312"}}, {"type": "Feature", "geometry": {"type": "Point", "coordinates": [6.1340059, 52.036945]}, "properties": {"type": "inleverpunt", "locatieNaam": "Dorado Beach B.V.", "straatNaam": "Pipeluursweg", "straatNr": "8", "postcode": "7225 ND", "plaats": "Olburgen", "merk": "Stibat", "puntType": "inzamelbak", "materialen": ["batterijen"], "uitbetaling": [], "vrijToegankelijk": false, "gemeenteBeperking": null, "openingstijden": null, "latitude": 52.036945, "longitude": 6.1340059, "bronId": "L008608"}}, {"type": "Feature", "geometry": {"type": "Point", "coordinates": [6.1864269, 52.0649189]}, "properties": {"type": "inleverpunt", "locatieNaam": "Euronics", "straatNaam": "Bronkhorsterweg", "straatNr": "4", "postcode": "7221 AC", "plaats": "Steenderen", "merk": "Stibat", "puntType": "inzamelbak", "materialen": ["batterijen"], "uitbetaling": [], "vrijToegankelijk": false, "gemeenteBeperking": null, "openingstijden": null, "latitude": 52.0649189, "longitude": 6.1864269, "bronId": "L016889"}}, {"type": "Feature", "geometry": {"type": "Point", "coordinates": [6.1879589, 52.0621567]}, "properties": {"type": "inleverpunt", "locatieNaam": "PLUS", "straatNaam": "Dorpsstraat", "straatNr": "14", "postcode": "7221 BP", "plaats": "Steenderen", "merk": "Stibat", "puntType": "inzamelbak", "materialen": ["batterijen"], "uitbetaling": [], "vrijToegankelijk": false, "gemeenteBeperking": null, "openingstijden": null, "latitude": 52.0621567, "longitude": 6.1879589, "bronId": "L047354"}}, {"type": "Feature", "geometry": {"type": "Point", "coordinates": [6.1884399, 52.0608942]}, "properties": {"type": "inleverpunt", "locatieNaam": "Geschenkenhuis Beuseker", "straatNaam": "Landlustweg", "straatNr": "2", "postcode": "7221 BS", "plaats": "Steenderen", "merk": "Stibat", "puntType": "inzamelbak", "materialen": ["batterijen"], "uitbetaling": [], "vrijToegankelijk": false, "gemeenteBeperking": null, "openingstijden": null, "latitude": 52.0608942, "longitude": 6.1884399, "bronId": "L036844"}}, {"type": "Feature", "geometry": {"type": "Point", "coordinates": [6.1887807, 52.0610223]}, "properties": {"type": "inleverpunt", "locatieNaam": "Drogisterij de Vijzel", "straatNaam": "Dorpsstraat", "straatNr": "7", "postcode": "7221 BM", "plaats": "Steenderen", "merk": "Stibat", "puntType": "inzamelbak", "materialen": ["batterijen"], "uitbetaling": [], "vrijToegankelijk": false, "gemeenteBeperking": null, "openingstijden": null, "latitude": 52.0610223, "longitude": 6.1887807, "bronId": "L027124"}}, {"type": "Feature", "geometry": {"type": "Point", "coordinates": [6.2208152, 52.0524458]}, "properties": {"type": "inleverpunt", "locatieNaam": "Welkoop", "straatNaam": "Zutphen Emmerikseweg", "straatNr": "35", "postcode": "7227 DG", "plaats": "Toldijk", "merk": "Stibat", "puntType": "inzamelbak", "materialen": ["batterijen"], "uitbetaling": [], "vrijToegankelijk": false, "gemeenteBeperking": null, "openingstijden": null, "latitude": 52.0524458, "longitude": 6.2208152, "bronId": "L017785"}}, {"type": "Feature", "geometry": {"type": "Point", "coordinates": [6.22387, 52.0634462]}, "properties": {"type": "inleverpunt", "locatieNaam": "Expert", "straatNaam": "Emmerikseweg", "straatNr": "46", "postcode": "7223 DG", "plaats": "Baak", "merk": "Stibat", "puntType": "inzamelbak", "materialen": ["batterijen"], "uitbetaling": [], "vrijToegankelijk": false, "gemeenteBeperking": null, "openingstijden": null, "latitude": 52.0634462, "longitude": 6.22387, "bronId": "L009935"}}, {"type": "Feature", "geometry": {"type": "Point", "coordinates": [6.2342369, 52.0056765]}, "properties": {"type": "inleverpunt", "locatieNaam": "Spar", "straatNaam": "Dorpsstraat", "straatNr": "20", "postcode": "6999 AD", "plaats": "Hummelo", "merk": "Stibat", "puntType": "inzamelbak", "materialen": ["batterijen"], "uitbetaling": [], "vrijToegankelijk": false, "gemeenteBeperking": null, "openingstijden": null, "latitude": 52.0056765, "longitude": 6.2342369, "bronId": "L007094"}}, {"type": "Feature", "geometry": {"type": "Point", "coordinates": [6.2491729, 52.0776561]}, "properties": {"type": "inleverpunt", "locatieNaam": "Wielerwerkplaats", "straatNaam": "Rozenstraat", "straatNr": "9", "postcode": "7223 KA", "plaats": "Baak", "merk": "Stibat", "puntType": "inzamelbak", "materialen": ["batterijen"], "uitbetaling": [], "vrijToegankelijk": false, "gemeenteBeperking": null, "openingstijden": null, "latitude": 52.0776561, "longitude": 6.2491729, "bronId": "L048849"}}, {"type": "Feature", "geometry": {"type": "Point", "coordinates": [6.3085601, 52.1047233]}, "properties": {"type": "inleverpunt", "locatieNaam": "Elektro World Klein Brinke", "straatNaam": "Zutphenseweg", "straatNr": "29", "postcode": "7251 DG", "plaats": "Vorden", "merk": "Stibat", "puntType": "inzamelbak", "materialen": ["batterijen"], "uitbetaling": [], "vrijToegankelijk": false, "gemeenteBeperking": null, "openingstijden": null, "latitude": 52.1047233, "longitude": 6.3085601, "bronId": "L015068"}}, {"type": "Feature", "geometry": {"type": "Point", "coordinates": [6.3092993, 52.1050654]}, "properties": {"type": "inleverpunt", "locatieNaam": "PLUS", "straatNaam": "Zutphenseweg", "straatNr": "26", "postcode": "7251 DK", "plaats": "Vorden", "merk": "Stibat", "puntType": "inzamelbak", "materialen": ["batterijen"], "uitbetaling": [], "vrijToegankelijk": false, "gemeenteBeperking": null, "openingstijden": null, "latitude": 52.1050654, "longitude": 6.3092993, "bronId": "L043659"}}, {"type": "Feature", "geometry": {"type": "Point", "coordinates": [6.3061686, 52.0538656]}, "properties": {"type": "inleverpunt", "locatieNaam": "PLUS", "straatNaam": "Raadhuisstraat", "straatNr": "53", "postcode": "7255 BL", "plaats": "Hengelo Gld", "merk": "Stibat", "puntType": "inzamelbak", "materialen": ["batterijen"], "uitbetaling": [], "vrijToegankelijk": false, "gemeenteBeperking": null, "openingstijden": null, "latitude": 52.0538656, "longitude": 6.3061686, "bronId": "L019602"}}, {"type": "Feature", "geometry": {"type": "Point", "coordinates": [6.3068675, 52.0538533]}, "properties": {"type": "inleverpunt", "locatieNaam": "1126 Action", "straatNaam": "Raadhuisstraat", "straatNr": "49", "postcode": "7255 BL", "plaats": "Hengelo Gld", "merk": "Stibat", "puntType": "inzamelbak", "materialen": ["batterijen"], "uitbetaling": [], "vrijToegankelijk": false, "gemeenteBeperking": null, "openingstijden": null, "latitude": 52.0538533, "longitude": 6.3068675, "bronId": "L017835"}}, {"type": "Feature", "geometry": {"type": "Point", "coordinates": [6.3071667, 52.0539558]}, "properties": {"type": "inleverpunt", "locatieNaam": "Kruidvat", "straatNaam": "Raadhuisstraat", "straatNr": "51 B+C", "postcode": "7255 BL", "plaats": "Hengelo", "merk": "Stibat", "puntType": "inzamelbak", "materialen": ["batterijen"], "uitbetaling": [], "vrijToegankelijk": false, "gemeenteBeperking": null, "openingstijden": null, "latitude": 52.0539558, "longitude": 6.3071667, "bronId": "L016174"}}, {"type": "Feature", "geometry": {"type": "Point", "coordinates": [6.3058511, 52.0406672]}, "properties": {"type": "inleverpunt", "locatieNaam": "BP Benzinestation", "straatNaam": "Molenenk", "straatNr": "2", "postcode": "7255 AX", "plaats": "Hengelo Gld", "merk": "Stibat", "puntType": "inzamelbak", "materialen": ["batterijen"], "uitbetaling": [], "vrijToegankelijk": false, "gemeenteBeperking": null, "openingstijden": null, "latitude": 52.0406672, "longitude": 6.3058511, "bronId": "L026515"}}, {"type": "Feature", "geometry": {"type": "Point", "coordinates": [6.3062299, 52.0420746]}, "properties": {"type": "inleverpunt", "locatieNaam": "BouwCenter HCI B.V. / Bouwshop", "straatNaam": "Kruisbergseweg", "straatNr": "13", "postcode": "7255 AG", "plaats": "Hengelo Gld", "merk": "Stibat", "puntType": "inzamelbak", "materialen": ["batterijen"], "uitbetaling": [], "vrijToegankelijk": false, "gemeenteBeperking": null, "openingstijden": null, "latitude": 52.0420746, "longitude": 6.3062299, "bronId": "L038924"}}, {"type": "Feature", "geometry": {"type": "Point", "coordinates": [6.3114329, 52.1042771]}, "properties": {"type": "inleverpunt", "locatieNaam": "HEMA Vorden", "straatNaam": "Zutphenseweg", "straatNr": "3", "postcode": "7251 DG", "plaats": "Vorden", "merk": "Stibat", "puntType": "inzamelbak", "materialen": ["batterijen"], "uitbetaling": [], "vrijToegankelijk": false, "gemeenteBeperking": null, "openingstijden": null, "latitude": 52.1042771, "longitude": 6.3114329, "bronId": "L046962"}}, {"type": "Feature", "geometry": {"type": "Point", "coordinates": [6.3118282, 52.1026697]}, "properties": {"type": "inleverpunt", "locatieNaam": "Bruna", "straatNaam": "Raadhuisstraat", "straatNr": "20", "postcode": "7251 AB", "plaats": "Vorden", "merk": "Stibat", "puntType": "inzamelbak", "materialen": ["batterijen"], "uitbetaling": [], "vrijToegankelijk": false, "gemeenteBeperking": null, "openingstijden": null, "latitude": 52.1026697, "longitude": 6.3118282, "bronId": "L023450"}}, {"type": "Feature", "geometry": {"type": "Point", "coordinates": [6.3083149, 52.0520177]}, "properties": {"type": "inleverpunt", "locatieNaam": "HEMA Hengelo (Gld)", "straatNaam": "Raadhuisstraat", "straatNr": "21b", "postcode": "7255 BK", "plaats": "Hengelo", "merk": "Stibat", "puntType": "inzamelbak", "materialen": ["batterijen"], "uitbetaling": [], "vrijToegankelijk": false, "gemeenteBeperking": null, "openingstijden": null, "latitude": 52.0520177, "longitude": 6.3083149, "bronId": "L046873"}}, {"type": "Feature", "geometry": {"type": "Point", "coordinates": [6.3087389, 52.0526547]}, "properties": {"type": "inleverpunt", "locatieNaam": "DA", "straatNaam": "Kerkstraat", "straatNr": "1", "postcode": "7255 CB", "plaats": "Hengelo", "merk": "Stibat", "puntType": "inzamelbak", "materialen": ["batterijen"], "uitbetaling": [], "vrijToegankelijk": false, "gemeenteBeperking": null, "openingstijden": null, "latitude": 52.0526547, "longitude": 6.3087389, "bronId": "L026479"}}, {"type": "Feature", "geometry": {"type": "Point", "coordinates": [6.3088051, 52.0521875]}, "properties": {"type": "inleverpunt", "locatieNaam": "8724 Albert Heijn", "straatNaam": "Raadhuisstraat", "straatNr": "24", "postcode": "7255 BN", "plaats": "Hengelo Gld", "merk": "Stibat", "puntType": "inzamelbak", "materialen": ["batterijen"], "uitbetaling": [], "vrijToegankelijk": false, "gemeenteBeperking": null, "openingstijden": null, "latitude": 52.0521875, "longitude": 6.3088051, "bronId": "L006176"}}, {"type": "Feature", "geometry": {"type": "Point", "coordinates": [6.3127383, 52.1042979]}, "properties": {"type": "inleverpunt", "locatieNaam": "Telego", "straatNaam": "Kerkstraat", "straatNr": "1b", "postcode": "7251 BC", "plaats": "Vorden", "merk": "Stibat", "puntType": "inzamelbak", "materialen": ["batterijen"], "uitbetaling": [], "vrijToegankelijk": false, "gemeenteBeperking": null, "openingstijden": null, "latitude": 52.1042979, "longitude": 6.3127383, "bronId": "L042146"}}, {"type": "Feature", "geometry": {"type": "Point", "coordinates": [6.3093419, 52.0524024]}, "properties": {"type": "inleverpunt", "locatieNaam": "BMS rc Tuning", "straatNaam": "Kerkstraat", "straatNr": "6", "postcode": "7255 CB", "plaats": "Hengelo Gld", "merk": "Stibat", "puntType": "inzamelbak", "materialen": ["batterijen"], "uitbetaling": [], "vrijToegankelijk": false, "gemeenteBeperking": null, "openingstijden": null, "latitude": 52.0524024, "longitude": 6.3093419, "bronId": "L031281"}}, {"type": "Feature", "geometry": {"type": "Point", "coordinates": [6.3133961, 52.1041199]}, "properties": {"type": "inleverpunt", "locatieNaam": "Kruidvat", "straatNaam": "Kerkstraat", "straatNr": "11a", "postcode": "7251 BC", "plaats": "Vorden", "merk": "Stibat", "puntType": "inzamelbak", "materialen": ["batterijen"], "uitbetaling": [], "vrijToegankelijk": false, "gemeenteBeperking": null, "openingstijden": null, "latitude": 52.1041199, "longitude": 6.3133961, "bronId": "L017530"}}, {"type": "Feature", "geometry": {"type": "Point", "coordinates": [6.3093687, 52.0480222]}, "properties": {"type": "inleverpunt", "locatieNaam": "Aldi", "straatNaam": "Zuivelweg", "straatNr": "7", "postcode": "7255 XA", "plaats": "Hengelo Gld.", "merk": "Stibat", "puntType": "inzamelbak", "materialen": ["batterijen"], "uitbetaling": [], "vrijToegankelijk": false, "gemeenteBeperking": null, "openingstijden": null, "latitude": 52.0480222, "longitude": 6.3093687, "bronId": "L041466"}}, {"type": "Feature", "geometry": {"type": "Point", "coordinates": [6.3140331, 52.1035401]}, "properties": {"type": "inleverpunt", "locatieNaam": "Bike Totaal Bleumink", "straatNaam": "Dorpsstraat", "straatNr": "12", "postcode": "7251 BB", "plaats": "Vorden", "merk": "Stibat", "puntType": "inzamelbak", "materialen": ["batterijen"], "uitbetaling": [], "vrijToegankelijk": false, "gemeenteBeperking": null, "openingstijden": null, "latitude": 52.1035401, "longitude": 6.3140331, "bronId": "L033890"}}, {"type": "Feature", "geometry": {"type": "Point", "coordinates": [6.3105227, 52.0524496]}, "properties": {"type": "inleverpunt", "locatieNaam": "Enorm", "straatNaam": "Kerkstraat", "straatNr": "2", "postcode": "7255 CB", "plaats": "Hengelo Gld", "merk": "Stibat", "puntType": "inzamelbak", "materialen": ["batterijen"], "uitbetaling": [], "vrijToegankelijk": false, "gemeenteBeperking": null, "openingstijden": null, "latitude": 52.0524496, "longitude": 6.3105227, "bronId": "L036633"}}, {"type": "Feature", "geometry": {"type": "Point", "coordinates": [6.314484, 52.1034647]}, "properties": {"type": "inleverpunt", "locatieNaam": "4069 Albert Heijn", "straatNaam": "Dorpsstraat", "straatNr": "18", "postcode": "7251 BB", "plaats": "Vorden", "merk": "Stibat", "puntType": "inzamelbak", "materialen": ["batterijen"], "uitbetaling": [], "vrijToegankelijk": false, "gemeenteBeperking": null, "openingstijden": null, "latitude": 52.1034647, "longitude": 6.314484, "bronId": "L035330"}}, {"type": "Feature", "geometry": {"type": "Point", "coordinates": [6.3161288, 52.1035346]}, "properties": {"type": "inleverpunt", "locatieNaam": "Aldi", "straatNaam": "De Bleek", "straatNr": "4", "postcode": "7251 SG", "plaats": "Vorden", "merk": "Stibat", "puntType": "inzamelbak", "materialen": ["batterijen"], "uitbetaling": [], "vrijToegankelijk": false, "gemeenteBeperking": null, "openingstijden": null, "latitude": 52.1035346, "longitude": 6.3161288, "bronId": "L041465"}}, {"type": "Feature", "geometry": {"type": "Point", "coordinates": [6.3177026, 52.1055714]}, "properties": {"type": "inleverpunt", "locatieNaam": "Welkoop", "straatNaam": "Stationsweg", "straatNr": "16", "postcode": "7251 EM", "plaats": "Vorden", "merk": "Stibat", "puntType": "inzamelbak", "materialen": ["batterijen"], "uitbetaling": [], "vrijToegankelijk": false, "gemeenteBeperking": null, "openingstijden": null, "latitude": 52.1055714, "longitude": 6.3177026, "bronId": "L016850"}}, {"type": "Feature", "geometry": {"type": "Point", "coordinates": [6.3208616, 52.1058801]}, "properties": {"type": "inleverpunt", "locatieNaam": "Stichting Veiling-Commissie Vorden Kringloop de Werf", "straatNaam": "Enkweg", "straatNr": "11", "postcode": "7251 EV", "plaats": "Vorden", "merk": "Stibat", "puntType": "inzamelbak", "materialen": ["batterijen"], "uitbetaling": [], "vrijToegankelijk": false, "gemeenteBeperking": null, "openingstijden": null, "latitude": 52.1058801, "longitude": 6.3208616, "bronId": "L047542"}}, {"type": "Feature", "geometry": {"type": "Point", "coordinates": [6.3371097, 52.116251]}, "properties": {"type": "inleverpunt", "locatieNaam": "Camping De Reehorst", "straatNaam": "Enserinckweg", "straatNr": "12", "postcode": "7251 KA", "plaats": "Vorden", "merk": "Stibat", "puntType": "inzamelbak", "materialen": ["batterijen"], "uitbetaling": [], "vrijToegankelijk": false, "gemeenteBeperking": null, "openingstijden": null, "latitude": 52.116251, "longitude": 6.3371097, "bronId": "L004633"}}, {"type": "Feature", "geometry": {"type": "Point", "coordinates": [6.3548585, 52.0597922]}, "properties": {"type": "inleverpunt", "locatieNaam": "Camping Kom-es-an", "straatNaam": "Handwijzersdijk", "straatNr": "4", "postcode": "7255 MJ", "plaats": "Hengelo Gld", "merk": "Stibat", "puntType": "inzamelbak", "materialen": ["batterijen"], "uitbetaling": [], "vrijToegankelijk": false, "gemeenteBeperking": null, "openingstijden": null, "latitude": 52.0597922, "longitude": 6.3548585, "bronId": "L004146"}}, {"type": "Feature", "geometry": {"type": "Point", "coordinates": [6.3542462, 52.0531413]}, "properties": {"type": "inleverpunt", "locatieNaam": "Slotboom Tweewielers", "straatNaam": "Kieftendorp", "straatNr": "11", "postcode": "7255 MG", "plaats": "Hengelo gld.", "merk": "Stibat", "puntType": "inzamelbak", "materialen": ["batterijen"], "uitbetaling": [], "vrijToegankelijk": false, "gemeenteBeperking": null, "openingstijden": null, "latitude": 52.0531413, "longitude": 6.3542462, "bronId": "L033891"}}, {"type": "Feature", "geometry": {"type": "Point", "coordinates": [6.3469553, 52.0072084]}, "properties": {"type": "inleverpunt", "locatieNaam": "Jumbo", "straatNaam": "Bergstraat", "straatNr": "1", "postcode": "7021 XG", "plaats": "Zelhem", "merk": "Stibat", "puntType": "inzamelbak", "materialen": ["batterijen"], "uitbetaling": [], "vrijToegankelijk": false, "gemeenteBeperking": null, "openingstijden": null, "latitude": 52.0072084, "longitude": 6.3469553, "bronId": "L030904"}}, {"type": "Feature", "geometry": {"type": "Point", "coordinates": [6.3471862, 52.0070852]}, "properties": {"type": "inleverpunt", "locatieNaam": "The Read Shop Express", "straatNaam": "Magnoliaweg", "straatNr": "1 B", "postcode": "7021 ZX", "plaats": "Zelhem", "merk": "Stibat", "puntType": "inzamelbak", "materialen": ["batterijen"], "uitbetaling": [], "vrijToegankelijk": false, "gemeenteBeperking": null, "openingstijden": null, "latitude": 52.0070852, "longitude": 6.3471862, "bronId": "L036384"}}, {"type": "Feature", "geometry": {"type": "Point", "coordinates": [6.3477213, 52.0070736]}, "properties": {"type": "inleverpunt", "locatieNaam": "Kruidvat", "straatNaam": "Magnoliaweg", "straatNr": "1c", "postcode": "7021 ZX", "plaats": "Zelhem", "merk": "Stibat", "puntType": "inzamelbak", "materialen": ["batterijen"], "uitbetaling": [], "vrijToegankelijk": false, "gemeenteBeperking": null, "openingstijden": null, "latitude": 52.0070736, "longitude": 6.3477213, "bronId": "L015693"}}, {"type": "Feature", "geometry": {"type": "Point", "coordinates": [6.348313, 52.0067235]}, "properties": {"type": "inleverpunt", "locatieNaam": "HEMA Zelhem", "straatNaam": "Smidstraat", "straatNr": "7-9", "postcode": "7021 AB", "plaats": "Zelhem", "merk": "Stibat", "puntType": "inzamelbak", "materialen": ["batterijen"], "uitbetaling": [], "vrijToegankelijk": false, "gemeenteBeperking": null, "openingstijden": null, "latitude": 52.0067235, "longitude": 6.348313, "bronId": "L046916"}}, {"type": "Feature", "geometry": {"type": "Point", "coordinates": [6.3493086, 52.0068626]}, "properties": {"type": "inleverpunt", "locatieNaam": "Aldi", "straatNaam": "Markt", "straatNr": "5", "postcode": "7021 AA", "plaats": "Zelhem", "merk": "Stibat", "puntType": "inzamelbak", "materialen": ["batterijen"], "uitbetaling": [], "vrijToegankelijk": false, "gemeenteBeperking": null, "openingstijden": null, "latitude": 52.0068626, "longitude": 6.3493086, "bronId": "L041452"}}, {"type": "Feature", "geometry": {"type": "Point", "coordinates": [6.3502563, 52.0057832]}, "properties": {"type": "inleverpunt", "locatieNaam": "Fietshuis Jansen", "straatNaam": "Stationstraat", "straatNr": "20", "postcode": "7021 CK", "plaats": "Zelhem", "merk": "Stibat", "puntType": "inzamelbak", "materialen": ["batterijen"], "uitbetaling": [], "vrijToegankelijk": false, "gemeenteBeperking": null, "openingstijden": null, "latitude": 52.0057832, "longitude": 6.3502563, "bronId": "L033850"}}, {"type": "Feature", "geometry": {"type": "Point", "coordinates": [6.3505584, 52.0031283]}, "properties": {"type": "inleverpunt", "locatieNaam": "Welkoop", "straatNaam": "Dr Grashuisstraat", "straatNr": "11", "postcode": "7021 CL", "plaats": "Zelhem", "merk": "Stibat", "puntType": "inzamelbak", "materialen": ["batterijen"], "uitbetaling": [], "vrijToegankelijk": false, "gemeenteBeperking": null, "openingstijden": null, "latitude": 52.0031283, "longitude": 6.3505584, "bronId": "L019236"}}, {"type": "Feature", "geometry": {"type": "Point", "coordinates": [6.3518403, 52.0056592]}, "properties": {"type": "inleverpunt", "locatieNaam": "Expert", "straatNaam": "Kerkweg", "straatNr": "3", "postcode": "7021 CM", "plaats": "Zelhem", "merk": "Stibat", "puntType": "inzamelbak", "materialen": ["batterijen"], "uitbetaling": [], "vrijToegankelijk": false, "gemeenteBeperking": null, "openingstijden": null, "latitude": 52.0056592, "longitude": 6.3518403, "bronId": "L009729"}}, {"type": "Feature", "geometry": {"type": "Point", "coordinates": [6.3533565, 52.0061852]}, "properties": {"type": "inleverpunt", "locatieNaam": "Plus", "straatNaam": "Halseweg", "straatNr": "2", "postcode": "7021 CZ", "plaats": "Zelhem", "merk": "Stibat", "puntType": "inzamelbak", "materialen": ["batterijen"], "uitbetaling": [], "vrijToegankelijk": false, "gemeenteBeperking": null, "openingstijden": null, "latitude": 52.0061852, "longitude": 6.3533565, "bronId": "L006488"}}, {"type": "Feature", "geometry": {"type": "Point", "coordinates": [6.3865897, 52.0112301]}, "properties": {"type": "inleverpunt", "locatieNaam": "Camping \"De Betteld\"", "straatNaam": "Aaltenseweg", "straatNr": "11", "postcode": "7021 HR", "plaats": "Zelhem", "merk": "Stibat", "puntType": "inzamelbak", "materialen": ["batterijen"], "uitbetaling": [], "vrijToegankelijk": false, "gemeenteBeperking": null, "openingstijden": null, "latitude": 52.0112301, "longitude": 6.3865897, "bronId": "L011838"}}, {"type": "Feature", "geometry": {"type": "Point", "coordinates": [6.4407631, 52.0082347]}, "properties": {"type": "inleverpunt", "locatieNaam": "De Heide Smid bv", "straatNaam": "Halle-Heideweg", "straatNr": "16", "postcode": "7025 CL", "plaats": "Halle", "merk": "Stibat", "puntType": "inzamelbak", "materialen": ["batterijen"], "uitbetaling": [], "vrijToegankelijk": false, "gemeenteBeperking": null, "openingstijden": null, "latitude": 52.0082347, "longitude": 6.4407631, "bronId": "L031415"}}, {"type": "Feature", "geometry": {"type": "Polygon", "coordinates": [[[6.249671002572992, 51.97594700387582], [6.252926002576329, 51.9791150038777], [6.252862002576284, 51.97995200387816], [6.254357002577796, 51.98062200387853], [6.256870002580317, 51.981003003878726], [6.256641002580111, 51.98193400387931], [6.257299002580788, 51.98252800387966], [6.247949002571484, 51.98408600388093], [6.250721002574338, 51.98732900388286], [6.2522000025758, 51.98678800388249], [6.2543670025779985, 51.988070003883195], [6.259362002582975, 51.987462003882634], [6.263927002587468, 51.984793003880824], [6.267088002590596, 51.98377400388009], [6.268944002592458, 51.98397700388016], [6.270475002593972, 51.983423003879736], [6.273661002597174, 51.9841930038801], [6.274651002598191, 51.98528800388079], [6.276949002600489, 51.98533500388071], [6.278945002602474, 51.984913003880386], [6.291898002615625, 51.99334600388524], [6.293826002617523, 51.9921920038844], [6.29434100261799, 51.990316003883244], [6.29564000261924, 51.98845500388203], [6.298262002621894, 51.98980300388277], [6.304010002627673, 51.99154600388365], [6.306139002629841, 51.99303200388449], [6.308638002632327, 51.992668003884184], [6.310518002634213, 51.99307500388437], [6.31255200263627, 51.99404100388491], [6.319133002642843, 51.994261003884816], [6.322539002646223, 51.9934180038842], [6.3264550026500945, 51.9918890038831], [6.327942002651524, 51.98969700388164], [6.335658002659128, 51.98564600387886], [6.3322160026556205, 51.98286400387726], [6.330989002654336, 51.98036900387576], [6.327728002651006, 51.97728700387394], [6.328137002651405, 51.97711800387381], [6.327342002650599, 51.97643500387343], [6.327519002650755, 51.975749003872984], [6.33737500266057, 51.97468500387196], [6.343503002666693, 51.974869003871845], [6.353506002676679, 51.974675003871354], [6.3700290026932125, 51.97625100387177], [6.369105002692271, 51.97549600387133], [6.369806002692925, 51.97362600387013], [6.366324002689407, 51.971806003869126], [6.3653360026883705, 51.969741003867874], [6.365674002688699, 51.969378003867625], [6.368284002691281, 51.96853700386699], [6.373456002696479, 51.96985800386765], [6.3755240026985325, 51.96940200386728], [6.376674002699666, 51.96882900386687], [6.381392002704353, 51.9679790038662], [6.382094002705065, 51.96835500386641], [6.3846500027076045, 51.96800400386608], [6.386958002709932, 51.96880900386652], [6.388053002711014, 51.96840700386616], [6.390378002713332, 51.96832800386607], [6.390704002713675, 51.969023003866496], [6.390205002713181, 51.96921600386663], [6.390269002713258, 51.96984400386703], [6.3908210027138335, 51.970738003867574], [6.389406002712439, 51.97163400386817], [6.389668002712715, 51.972163003868495], [6.389046002712098, 51.97231800386858], [6.389494002712579, 51.973835003869546], [6.3889430027120335, 51.97382300386955], [6.3893170027124135, 51.97432300386987], [6.388325002711473, 51.97611700387098], [6.385839002708989, 51.97617000387115], [6.380878002704074, 51.97773800387228], [6.390306002713543, 51.98025900387353], [6.392130002715347, 51.97941800387292], [6.393340002716569, 51.980231003873385], [6.394228002717444, 51.97971700387302], [6.395664002718887, 51.98017200387326], [6.397840002721048, 51.979642003872854], [6.39914300272238, 51.98101100387366], [6.402497002725753, 51.98216800387424], [6.416104002739107, 51.97260500386778], [6.42490200274788, 51.97240300386733], [6.425588002748566, 51.972594003867414], [6.4265620027495345, 51.97240700386726], [6.426923002749884, 51.971997003866974], [6.430123002753073, 51.971828003866754], [6.432366002755319, 51.97218500386695], [6.434806002757751, 51.972123003866756], [6.434746002757664, 51.97098400386607], [6.4370370027599435, 51.97071700386578], [6.437534002760466, 51.971708003866446], [6.439061002761984, 51.97155500386625], [6.439351002762286, 51.97210100386661], [6.441293002764217, 51.97173000386626], [6.441336002764235, 51.97085700386571], [6.445492002768372, 51.970386003865265], [6.447202002770061, 51.96970400386478], [6.449564002772436, 51.97036900386512], [6.449138002772019, 51.97082100386542], [6.451791002774687, 51.97179700386591], [6.45315900277605, 51.9716660038658], [6.456888002779788, 51.97252400386618], [6.45707900277999, 51.97305600386646], [6.458631002781535, 51.97289800386634], [6.459790002782698, 51.97317300386649], [6.460824002783753, 51.97435400386715], [6.461513002784438, 51.974272003867085], [6.461057002783995, 51.97464600386734], [6.461448002784394, 51.97514700386762], [6.463192002786136, 51.975223003867605], [6.462595002785561, 51.976215003868255], [6.466710002789686, 51.97705600386864], [6.466929002789922, 51.97778500386907], [6.467850002790849, 51.97821900386932], [6.466927002789938, 51.97862200386961], [6.4687330027917955, 51.98109800387106], [6.471557002794668, 51.98369700387257], [6.47211400279522, 51.983537003872456], [6.475773002798969, 51.98813600387519], [6.460058002783462, 51.995151003880146], [6.4600600027834965, 51.99645000388096], [6.459208002782677, 51.99775200388179], [6.467488002790997, 52.00075700388337], [6.461116002784743, 52.005139003886335], [6.4602680027839225, 52.006171003887005], [6.465632002789306, 52.00769500388774], [6.4636870027874025, 52.00939400388888], [6.4618690027856545, 52.01203400389059], [6.461886002785698, 52.01320100389129], [6.462700002786511, 52.013325003891346], [6.460305002784149, 52.01456400389219], [6.461539002785402, 52.01540900389269], [6.460667002784541, 52.015828003892985], [6.462058002785951, 52.0169150038936], [6.459187002783129, 52.01872200389482], [6.462185002786186, 52.02170100389657], [6.438539002762695, 52.02501000389953], [6.437195002761368, 52.025559003899915], [6.436941002761118, 52.02572500390004], [6.438155002762337, 52.025992003900164], [6.437768002761963, 52.02659700390053], [6.440027002764226, 52.0271480039008], [6.436192002760484, 52.03067900390313], [6.435419002759707, 52.030382003902986], [6.432451002756858, 52.03507300390598], [6.43494800275934, 52.03477100390574], [6.433327002757775, 52.03699600390715], [6.4337530027582215, 52.037947003907725], [6.430799002755296, 52.03862900390826], [6.432682002757212, 52.04055700390936], [6.4286100027531665, 52.041116003909856], [6.427192002751802, 52.043190003911214], [6.424537002749139, 52.04244700391085], [6.4237340027483745, 52.04401900391185], [6.425713002750365, 52.04479200391226], [6.42323700274796, 52.04748100391403], [6.420363002745073, 52.046458003913486], [6.418747002743487, 52.0475460039142], [6.419244002743988, 52.04782300391438], [6.419088002743844, 52.04825200391463], [6.418203002742968, 52.0486120039149], [6.416366002741183, 52.05048300391614], [6.415867002740679, 52.050241003916], [6.414921002739772, 52.05171600391694], [6.413294002738233, 52.055434003919295], [6.413396002738362, 52.05662500392006], [6.414100002739092, 52.05775000392069], [6.413635002738631, 52.057831003920754], [6.41322300273833, 52.06261800392374], [6.410750002735936, 52.065671003925665], [6.406002002731459, 52.07665100393268], [6.406675002732136, 52.07684800393272], [6.404974002730474, 52.07837700393374], [6.402896002728421, 52.07915400393429], [6.403065002728629, 52.08074900393525], [6.400539002726184, 52.08381100393726], [6.402304002727999, 52.086258003938674], [6.401924002727641, 52.087212003939285], [6.402653002728383, 52.08789400393969], [6.404969002730712, 52.08880700394016], [6.411560002737292, 52.08950200394033], [6.4125810027383014, 52.089105003940055], [6.413393002739092, 52.088280003939516], [6.418744002744499, 52.091707003941394], [6.422936002748777, 52.09626100394406], [6.42399900274985, 52.09690800394439], [6.418422002744376, 52.100439003946775], [6.3915300027178885, 52.113051003955505], [6.393047002719427, 52.114342003956274], [6.393628002720008, 52.114369003956256], [6.393416002719803, 52.11465200395643], [6.396489002722921, 52.11714800395785], [6.39634500272278, 52.117406003957996], [6.398389002724823, 52.11764800395807], [6.395993002722477, 52.11940000395925], [6.391822002718425, 52.12372800396204], [6.395843002722593, 52.13083200396623], [6.392529002719308, 52.131529003966776], [6.383146002709901, 52.12857900396533], [6.3829650027097085, 52.12805700396502], [6.383535002710256, 52.127299003964545], [6.379872002706581, 52.126099003963915], [6.379190002705898, 52.12589200396385], [6.378355002705086, 52.12678300396439], [6.377480002704219, 52.12692500396454], [6.37278000269951, 52.125633003963934], [6.3687910026954935, 52.12384700396294], [6.361216002688021, 52.12678200396504], [6.362184002688995, 52.127303003965295], [6.357722002684623, 52.130299003967274], [6.357721002684745, 52.135527003970495], [6.328314002655512, 52.13771200397292], [6.3072860026343855, 52.13045200396922], [6.3023270026294265, 52.12983600396901], [6.298485002625571, 52.12867100396843], [6.293868002620952, 52.127943003968156], [6.294070002621147, 52.12775200396803], [6.293488002620554, 52.12727400396775], [6.291112002618166, 52.12644600396734], [6.292150002619177, 52.125473003966725], [6.288465002615506, 52.12553800396686], [6.284419002611442, 52.12413800396616], [6.283729002610734, 52.12339200396573], [6.282995002610009, 52.12364900396593], [6.27748700260447, 52.12172900396494], [6.272687002599495, 52.1140620039604], [6.269843002596597, 52.11164300395902], [6.266610002593376, 52.11183000395923], [6.261710002588463, 52.1106660039587], [6.257839002584593, 52.11027700395861], [6.2512710025780684, 52.11120400395937], [6.245085002571934, 52.112558003960416], [6.242240002569096, 52.11254900396053], [6.235921002562823, 52.11371700396147], [6.235172002562051, 52.112764003960876], [6.233877002560768, 52.11312600396118], [6.2317050025585505, 52.111094003960005], [6.232416002559249, 52.11074700395975], [6.228013002554828, 52.10953600395917], [6.226638002553452, 52.109410003959134], [6.225827002552576, 52.106827003957555], [6.224051002550807, 52.106970003957706], [6.22208500254884, 52.10667700395759], [6.224621002551225, 52.10108000395408], [6.224491002551071, 52.10004900395347], [6.220159002546753, 52.10032700395379], [6.219223002545621, 52.09255000394902], [6.219953002546302, 52.09087400394798], [6.221696002547989, 52.088775003946644], [6.220637002546938, 52.0890170039468], [6.220233002546551, 52.089605003947185], [6.2194010025456965, 52.08874300394668], [6.218162002544485, 52.08959200394722], [6.218804002545197, 52.09237300394896], [6.216751002543173, 52.09332600394959], [6.216894002543346, 52.094510003950305], [6.218243002544704, 52.095041003950584], [6.219193002545683, 52.096231003951274], [6.218495002545029, 52.097783003952294], [6.217899002544436, 52.09788100395235], [6.215321002541787, 52.09488600395063], [6.2118940025383145, 52.09290300394952], [6.210534002536945, 52.09245200394927], [6.206830002533251, 52.09242100394939], [6.203043002529501, 52.09358900395023], [6.199888002526356, 52.09380700395045], [6.197812002524277, 52.093512003950316], [6.192440002518873, 52.091810003949476], [6.189575002515996, 52.09130800394925], [6.185614002512038, 52.09110800394927], [6.180132002506577, 52.09152900394966], [6.176979002503414, 52.090916003949424], [6.17517800250159, 52.08990400394884], [6.173989002500365, 52.08851200394806], [6.172766002499076, 52.08592200394648], [6.171376002497531, 52.080048003942906], [6.168161002494217, 52.07620000394064], [6.166169002492199, 52.07515500394003], [6.161785002487786, 52.07379600393939], [6.159593002485568, 52.07274700393881], [6.1567270024826435, 52.07051300393751], [6.151228002477081, 52.06794500393611], [6.147885002473654, 52.06468700393417], [6.141153002466865, 52.06231400393295], [6.139458002465147, 52.061366003932434], [6.137164002462787, 52.05889000393097], [6.134724002460299, 52.05710700392994], [6.129436002454945, 52.05456300392851], [6.120109002445536, 52.05134300392683], [6.115715002441074, 52.048713003925336], [6.1129010024381945, 52.04637600392398], [6.111310002436542, 52.044159003922694], [6.110813002435986, 52.04203500392137], [6.111167002436291, 52.0403290039203], [6.112319002437393, 52.03850100391912], [6.113996002439031, 52.0372320039183], [6.116848002441847, 52.035881003917346], [6.119989002444959, 52.034911003916655], [6.124156002449106, 52.03421300391609], [6.12800800245295, 52.03401100391586], [6.131506002456454, 52.034198003915876], [6.13979200246478, 52.03583200391663], [6.143092002468121, 52.037368003917436], [6.1465400024716645, 52.04097500391957], [6.149943002475095, 52.04205400392016], [6.15306300247821, 52.04194900392], [6.1555940024807105, 52.04109100391936], [6.1573680024824515, 52.039712003918495], [6.158957002483977, 52.037389003916985], [6.160885002485907, 52.03761500391707], [6.167191002492189, 52.03696600391647], [6.172328002497356, 52.03821900391704], [6.175539002500595, 52.0393780039177], [6.175913002500874, 52.035778003915425], [6.175513002500475, 52.035790003915494], [6.175057002499907, 52.03170100391293], [6.177082002501927, 52.03150400391277], [6.1757320025005304, 52.02979300391175], [6.173233002497978, 52.027775003910556], [6.175362002500096, 52.027384003910235], [6.1746530024993405, 52.02559300390918], [6.176818002501495, 52.02528900390891], [6.174516002499123, 52.02270300390738], [6.177231002501806, 52.0215620039066], [6.17729600250184, 52.02033800390584], [6.176558002501101, 52.02035500390588], [6.176547002501061, 52.01922800390515], [6.172966002497463, 52.018534003904854], [6.173575002498045, 52.01757400390423], [6.170753002495203, 52.0167440039038], [6.167454002491894, 52.01635900390369], [6.164512002488971, 52.01697000390414], [6.164238002488681, 52.01635600390378], [6.164745002489136, 52.01440100390256], [6.161184002485558, 52.0138280039023], [6.161325002485606, 52.010296003900095], [6.160517002484799, 52.01036200390017], [6.159776002483964, 52.006980003898086], [6.159355002483533, 52.00651400389777], [6.158764002482946, 52.00670400389792], [6.15868500248285, 52.00605300389758], [6.156659002480832, 52.006365003897756], [6.153947002478043, 52.00352400389616], [6.153957002478045, 52.00326800389599], [6.154353002478445, 52.00330200389599], [6.157745002481859, 52.00418600389642], [6.158856002482964, 52.00396400389623], [6.159195002483287, 52.00328200389581], [6.158464002482512, 52.001812003894905], [6.1595650024835775, 52.00046400389401], [6.159251002483239, 51.999740003893585], [6.163044002487034, 51.999618003893374], [6.164317002488287, 51.998986003893], [6.159962002483903, 51.997878003892424], [6.159573002483466, 51.99612500389135], [6.160507002484348, 51.994186003890114], [6.161889002485704, 51.99324900388946], [6.161975002485778, 51.99279600388918], [6.160517002483955, 51.97952200388093], [6.162597002486043, 51.97979100388103], [6.168431002491877, 51.979805003880884], [6.171698002495174, 51.98082700388142], [6.179253002502691, 51.979366003880266], [6.182192002505621, 51.97918900388005], [6.183692002507133, 51.9796730038803], [6.18516700250861, 51.979762003880296], [6.18846000251189, 51.97917300387984], [6.190987002514411, 51.979056003879684], [6.20513400252859, 51.98024800387996], [6.211603002535006, 51.978397003878584], [6.213425002536832, 51.97849900387862], [6.215204002538634, 51.979455003879146], [6.21799200254142, 51.979358003878964], [6.224512002547911, 51.978404003878175], [6.229800002553139, 51.976207003876624], [6.23002500255337, 51.976427003876765], [6.229280002552634, 51.97677700387699], [6.231119002554522, 51.978649003878104], [6.230131002553547, 51.979091003878395], [6.231730002555193, 51.98107700387956], [6.22947100255294, 51.98121700387978], [6.224750002548284, 51.98347200388132], [6.222417002545969, 51.984148003881835], [6.2239430025475375, 51.98581900388281], [6.228087002551733, 51.987795003883946], [6.22872100255235, 51.987172003883515], [6.231805002555407, 51.98634200388286], [6.232580002556185, 51.986507003882956], [6.232313002555976, 51.98859300388427], [6.235770002559338, 51.985083003881975], [6.234236002557761, 51.983425003880974], [6.235182002558681, 51.98229200388025], [6.236513002559999, 51.981995003880044], [6.237076002560539, 51.981078003879425], [6.238595002562064, 51.981301003879516], [6.240794002564241, 51.98057600387899], [6.24243200256589, 51.981011003879196], [6.243584002567034, 51.98070800387899], [6.244736002568164, 51.97989600387842], [6.243447002566852, 51.97899700387794], [6.243077002566448, 51.97767400387708], [6.244419002567792, 51.97784400387716], [6.245487002568846, 51.97742100387686], [6.247038002570401, 51.97741500387683], [6.247867002571217, 51.97699100387652], [6.248278002571609, 51.976272003876076], [6.249671002572992, 51.97594700387582]]]}, "properties": {"type": "boundary", "gemeente": "Bronckhorst"}}]}