{"type": "FeatureCollection", "metadata": {"gemeente": "Brunssum", "slug": "brunssum", "generated_at": "2026-07-28T09:25:50.134599Z", "total_points": 50, "merken": ["StatiegeldNederland", "Stibat", "StichtingOPEN"], "bounds": [5.9360735, 50.9300374, 5.9816158, 50.9589187]}, "features": [{"type": "Feature", "geometry": {"type": "Point", "coordinates": [5.9598983, 50.9493616]}, "properties": {"type": "inleverpunt", "locatieNaam": "Albert Heijn", "straatNaam": "Kennedylaan", "straatNr": "90", "postcode": "6441 JG", "plaats": "Brunssum", "merk": "StatiegeldNederland", "puntType": "automaat", "materialen": ["pet-groot", "pet-klein", "blik", "glas", "krat"], "uitbetaling": ["bonnetje", "donatie"], "vrijToegankelijk": true, "gemeenteBeperking": null, "openingstijden": {"ma": "08:00–22:00", "di": "08:00–22:00", "wo": "08:00–22:00", "do": "08:00–22:00", "vr": "08:00–22:00", "za": "08:00–22:00", "zo": "09:00–20:00"}, "latitude": 50.9493616, "longitude": 5.9598983, "bronId": "252387"}}, {"type": "Feature", "geometry": {"type": "Point", "coordinates": [5.971509, 50.9453162]}, "properties": {"type": "inleverpunt", "locatieNaam": "Albert Heijn", "straatNaam": "Kerkstraat", "straatNr": "40", "postcode": "6441 BE", "plaats": "Brunssum", "merk": "StatiegeldNederland", "puntType": "automaat", "materialen": ["pet-groot", "pet-klein", "blik", "glas", "krat"], "uitbetaling": ["bonnetje", "donatie"], "vrijToegankelijk": true, "gemeenteBeperking": null, "openingstijden": {"ma": "08:00–20:00", "di": "08:00–20:00", "wo": "08:00–20:00", "do": "08:00–20:00", "vr": "08:00–20:00", "za": "08:00–20:00", "zo": "09:00–20:00"}, "latitude": 50.9453162, "longitude": 5.971509, "bronId": "252399"}}, {"type": "Feature", "geometry": {"type": "Point", "coordinates": [5.9700985, 50.9465255]}, "properties": {"type": "inleverpunt", "locatieNaam": "Albert Heijn", "straatNaam": "Koutenveld", "straatNr": "2", "postcode": "6441 CN", "plaats": "Brunssum", "merk": "StatiegeldNederland", "puntType": "automaat", "materialen": ["pet-groot", "pet-klein", "blik", "glas", "krat"], "uitbetaling": ["bonnetje", "donatie"], "vrijToegankelijk": true, "gemeenteBeperking": null, "openingstijden": {"ma": "08:00–20:00", "di": "08:00–20:00", "wo": "08:00–20:00", "do": "08:00–20:00", "vr": "08:00–20:00", "za": "08:00–20:00", "zo": "12:00–18:00"}, "latitude": 50.9465255, "longitude": 5.9700985, "bronId": "252433"}}, {"type": "Feature", "geometry": {"type": "Point", "coordinates": [5.974137, 50.9300374]}, "properties": {"type": "inleverpunt", "locatieNaam": "Aldi", "straatNaam": "Akerstraat", "straatNr": "128", "postcode": "6445 CT", "plaats": "Brunssum", "merk": "StatiegeldNederland", "puntType": "automaat", "materialen": ["pet-groot", "pet-klein", "blik", "glas", "krat"], "uitbetaling": ["bonnetje"], "vrijToegankelijk": true, "gemeenteBeperking": null, "openingstijden": {"ma": "08:00–20:00", "di": "08:00–20:00", "wo": "08:00–20:00", "do": "08:00–20:00", "vr": "08:00–20:00", "za": "08:00–20:00", "zo": "08:00–18:00"}, "latitude": 50.9300374, "longitude": 5.974137, "bronId": "252997"}}, {"type": "Feature", "geometry": {"type": "Point", "coordinates": [5.9593064, 50.9492606]}, "properties": {"type": "inleverpunt", "locatieNaam": "Aldi", "straatNaam": "Kennedylaan", "straatNr": "92A", "postcode": "6441 JG", "plaats": "Brunssum", "merk": "StatiegeldNederland", "puntType": "automaat", "materialen": ["pet-groot", "pet-klein", "blik", "glas", "krat"], "uitbetaling": ["bonnetje"], "vrijToegankelijk": true, "gemeenteBeperking": null, "openingstijden": {"ma": "08:00–20:00", "di": "08:00–20:00", "wo": "08:00–20:00", "do": "08:00–20:00", "vr": "08:00–20:00", "za": "08:00–20:00", "zo": "09:00–18:00"}, "latitude": 50.9492606, "longitude": 5.9593064, "bronId": "253202"}}, {"type": "Feature", "geometry": {"type": "Point", "coordinates": [5.9697218, 50.9381081]}, "properties": {"type": "inleverpunt", "locatieNaam": "Lidl", "straatNaam": "Rumpenerstraat", "straatNr": "116-126", "postcode": "6443 CH", "plaats": "Brunssum", "merk": "StatiegeldNederland", "puntType": "automaat", "materialen": ["pet-groot", "pet-klein", "blik", "glas", "krat"], "uitbetaling": ["bonnetje", "donatie"], "vrijToegankelijk": true, "gemeenteBeperking": null, "openingstijden": {"ma": "08:00–21:00", "di": "08:00–21:00", "wo": "08:00–21:00", "do": "08:00–21:00", "vr": "08:00–21:00", "za": "08:00–20:00", "zo": "09:00–19:00"}, "latitude": 50.9381081, "longitude": 5.9697218, "bronId": "256370"}}, {"type": "Feature", "geometry": {"type": "Point", "coordinates": [5.9731856, 50.9378555]}, "properties": {"type": "inleverpunt", "locatieNaam": "Lukoil Brunssum", "straatNaam": "Prins Hendriklaan", "straatNr": "243", "postcode": "6445 AD", "plaats": "Brunssum", "merk": "StatiegeldNederland", "puntType": "balie", "materialen": ["pet-groot", "pet-klein", "blik"], "uitbetaling": [], "vrijToegankelijk": true, "gemeenteBeperking": null, "openingstijden": {"ma": "07:00–21:00", "di": "07:00–21:00", "wo": "07:00–21:00", "do": "07:00–21:00", "vr": "07:00–21:00", "za": "08:00–21:00", "zo": "09:00–21:00"}, "latitude": 50.9378555, "longitude": 5.9731856, "bronId": "256512"}}, {"type": "Feature", "geometry": {"type": "Point", "coordinates": [5.9502291, 50.9355922]}, "properties": {"type": "inleverpunt", "locatieNaam": "Plus", "straatNaam": "Orionplein", "straatNr": "1", "postcode": "6446 TL", "plaats": "Brunssum", "merk": "StatiegeldNederland", "puntType": "automaat", "materialen": ["pet-groot", "pet-klein", "blik", "glas", "krat"], "uitbetaling": ["bonnetje", "donatie"], "vrijToegankelijk": true, "gemeenteBeperking": null, "openingstijden": {"ma": "07:30–21:00", "di": "07:30–21:00", "wo": "07:30–21:00", "do": "07:30–21:00", "vr": "07:30–21:00", "za": "07:30–21:00", "zo": "08:00–20:00"}, "latitude": 50.9355922, "longitude": 5.9502291, "bronId": "257461"}}, {"type": "Feature", "geometry": {"type": "Point", "coordinates": [5.936132, 50.9305856]}, "properties": {"type": "inleverpunt", "locatieNaam": "Spar Express", "straatNaam": "AKERSTRAAT NOORD", "straatNr": "57", "postcode": "6446 XC", "plaats": "Brunssum", "merk": "StatiegeldNederland", "puntType": "balie", "materialen": ["pet-groot", "pet-klein", "blik"], "uitbetaling": [], "vrijToegankelijk": true, "gemeenteBeperking": null, "openingstijden": {"ma": "06:00–21:00", "di": "06:00–21:00", "wo": "06:00–21:00", "do": "06:00–21:00", "vr": "06:00–21:00", "za": "07:00–21:00", "zo": "07:00–21:00"}, "latitude": 50.9305856, "longitude": 5.936132, "bronId": "258531"}}, {"type": "Feature", "geometry": {"type": "Point", "coordinates": [5.9816158, 50.9326003]}, "properties": {"type": "inleverpunt", "locatieNaam": "Sv Langeberg", "straatNaam": "Hendrick Avercamp", "straatNr": "1", "postcode": "6445 EK", "plaats": "Brunssum", "merk": "StatiegeldNederland", "puntType": "balie", "materialen": ["pet-groot", "pet-klein", "blik"], "uitbetaling": [], "vrijToegankelijk": false, "gemeenteBeperking": null, "openingstijden": null, "latitude": 50.9326003, "longitude": 5.9816158, "bronId": "258821"}}, {"type": "Feature", "geometry": {"type": "Point", "coordinates": [5.9419208, 50.9345079]}, "properties": {"type": "inleverpunt", "locatieNaam": "Ttv Brunssum", "straatNaam": "Planeetstraat", "straatNr": "1", "postcode": "6446 LA", "plaats": "Brunssum", "merk": "StatiegeldNederland", "puntType": "balie", "materialen": ["pet-groot", "pet-klein", "blik"], "uitbetaling": [], "vrijToegankelijk": false, "gemeenteBeperking": null, "openingstijden": {"ma": "Gesloten", "di": "20:00–22:00", "wo": "18:30–22:00", "do": "Gesloten", "vr": "18:30–22:00", "za": "Gesloten", "zo": "Gesloten"}, "latitude": 50.9345079, "longitude": 5.9419208, "bronId": "259041"}}, {"type": "Feature", "geometry": {"type": "Point", "coordinates": [5.959378, 50.949248]}, "properties": {"type": "inleverpunt", "locatieNaam": "Aldi Brunssum", "straatNaam": "Kennedylaan", "straatNr": "92a", "postcode": "6441 JG", "plaats": "Brunssum", "merk": "StichtingOPEN", "puntType": "balie", "materialen": ["batterijen", "elektro-klein", "lampen"], "uitbetaling": [], "vrijToegankelijk": false, "gemeenteBeperking": null, "openingstijden": null, "latitude": 50.949248, "longitude": 5.959378, "bronId": "SP00027060"}}, {"type": "Feature", "geometry": {"type": "Point", "coordinates": [5.961112, 50.949564]}, "properties": {"type": "inleverpunt", "locatieNaam": "1611 Albert Heijn Brunssum", "straatNaam": "Kennedylaan", "straatNr": "90", "postcode": "6441 JG", "plaats": "Brunssum", "merk": "StichtingOPEN", "puntType": "balie", "materialen": ["batterijen", "elektro-klein", "lampen"], "uitbetaling": [], "vrijToegankelijk": false, "gemeenteBeperking": null, "openingstijden": null, "latitude": 50.949564, "longitude": 5.961112, "bronId": "SP00022511"}}, {"type": "Feature", "geometry": {"type": "Point", "coordinates": [5.972191, 50.947794]}, "properties": {"type": "inleverpunt", "locatieNaam": "Action Brunssum 1246", "straatNaam": "Kerkstraat", "straatNr": "95b", "postcode": "6441 BC", "plaats": "Brunssum", "merk": "StichtingOPEN", "puntType": "balie", "materialen": ["batterijen", "lampen"], "uitbetaling": [], "vrijToegankelijk": false, "gemeenteBeperking": null, "openingstijden": null, "latitude": 50.947794, "longitude": 5.972191, "bronId": "SP00007822"}}, {"type": "Feature", "geometry": {"type": "Point", "coordinates": [5.970774, 50.946287]}, "properties": {"type": "inleverpunt", "locatieNaam": "1074 Albert Heijn Brunssum", "straatNaam": "Koutenveld", "straatNr": "2", "postcode": "6441 CM", "plaats": "Brunssum", "merk": "StichtingOPEN", "puntType": "balie", "materialen": ["batterijen", "elektro-klein", "lampen"], "uitbetaling": [], "vrijToegankelijk": false, "gemeenteBeperking": null, "openingstijden": null, "latitude": 50.946287, "longitude": 5.970774, "bronId": "SP00023227"}}, {"type": "Feature", "geometry": {"type": "Point", "coordinates": [5.97175, 50.94596]}, "properties": {"type": "inleverpunt", "locatieNaam": "Kruidvat Brunssum", "straatNaam": "Kerkstraat", "straatNr": "190", "postcode": "6441 BK", "plaats": "Brunssum", "merk": "StichtingOPEN", "puntType": "balie", "materialen": ["batterijen", "lampen"], "uitbetaling": [], "vrijToegankelijk": false, "gemeenteBeperking": null, "openingstijden": null, "latitude": 50.94596, "longitude": 5.97175, "bronId": "SP00029677"}}, {"type": "Feature", "geometry": {"type": "Point", "coordinates": [5.972337, 50.945972]}, "properties": {"type": "inleverpunt", "locatieNaam": "Hubo Vromen", "straatNaam": "'t Winkelcentrum", "straatNr": "11", "postcode": "6441 BZ", "plaats": "Brunssum", "merk": "StichtingOPEN", "puntType": "balie", "materialen": ["elektro-middel", "lampen", "tl-buizen"], "uitbetaling": [], "vrijToegankelijk": false, "gemeenteBeperking": null, "openingstijden": null, "latitude": 50.945972, "longitude": 5.972337, "bronId": "SP00003057"}}, {"type": "Feature", "geometry": {"type": "Point", "coordinates": [5.971532, 50.945105]}, "properties": {"type": "inleverpunt", "locatieNaam": "Albert Heijn Brunssum", "straatNaam": "Kerkstraat", "straatNr": "40", "postcode": "6441 BE", "plaats": "Brunssum", "merk": "StichtingOPEN", "puntType": "balie", "materialen": ["batterijen", "lampen"], "uitbetaling": [], "vrijToegankelijk": false, "gemeenteBeperking": null, "openingstijden": null, "latitude": 50.945105, "longitude": 5.971532, "bronId": "SP00025628"}}, {"type": "Feature", "geometry": {"type": "Point", "coordinates": [5.950012, 50.935836]}, "properties": {"type": "inleverpunt", "locatieNaam": "PLUS Brunssum", "straatNaam": "Orionplein", "straatNr": "1", "postcode": "6446 TL", "plaats": "Brunssum", "merk": "StichtingOPEN", "puntType": "balie", "materialen": ["batterijen", "lampen"], "uitbetaling": [], "vrijToegankelijk": false, "gemeenteBeperking": null, "openingstijden": null, "latitude": 50.935836, "longitude": 5.950012, "bronId": "SP00024133"}}, {"type": "Feature", "geometry": {"type": "Point", "coordinates": [5.949716, 50.932822]}, "properties": {"type": "inleverpunt", "locatieNaam": "GAMMA Brunssum", "straatNaam": "Pijler", "straatNr": "38", "postcode": "6446 AX", "plaats": "Brunssum", "merk": "StichtingOPEN", "puntType": "balie", "materialen": ["batterijen", "elektro-middel", "lampen", "tl-buizen"], "uitbetaling": [], "vrijToegankelijk": false, "gemeenteBeperking": null, "openingstijden": null, "latitude": 50.932822, "longitude": 5.949716, "bronId": "SP00003005"}}, {"type": "Feature", "geometry": {"type": "Point", "coordinates": [5.947546, 50.932116]}, "properties": {"type": "inleverpunt", "locatieNaam": "Praxis Brunssum - 2222", "straatNaam": "Pijler", "straatNr": "37", "postcode": "6446 AX", "plaats": "Brunssum", "merk": "StichtingOPEN", "puntType": "balie", "materialen": ["elektro-middel", "lampen", "tl-buizen"], "uitbetaling": [], "vrijToegankelijk": false, "gemeenteBeperking": null, "openingstijden": null, "latitude": 50.932116, "longitude": 5.947546, "bronId": "SP00004576"}}, {"type": "Feature", "geometry": {"type": "Point", "coordinates": [5.974185, 50.930101]}, "properties": {"type": "inleverpunt", "locatieNaam": "Aldi Brunssum", "straatNaam": "Akerstraat", "straatNr": "128", "postcode": "6445 CT", "plaats": "Brunssum", "merk": "StichtingOPEN", "puntType": "balie", "materialen": ["batterijen", "elektro-klein", "lampen"], "uitbetaling": [], "vrijToegankelijk": false, "gemeenteBeperking": null, "openingstijden": null, "latitude": 50.930101, "longitude": 5.974185, "bronId": "SP00027059"}}, {"type": "Feature", "geometry": {"type": "Point", "coordinates": [5.9710182, 50.9577901]}, "properties": {"type": "inleverpunt", "locatieNaam": "Kringloop", "straatNaam": "Haefland", "straatNr": "7", "postcode": "6441 PA", "plaats": "BRUNSSUM", "merk": "Stibat", "puntType": "inzamelbak", "materialen": ["batterijen"], "uitbetaling": [], "vrijToegankelijk": false, "gemeenteBeperking": null, "openingstijden": null, "latitude": 50.9577901, "longitude": 5.9710182, "bronId": "L027455"}}, {"type": "Feature", "geometry": {"type": "Point", "coordinates": [5.9790195, 50.9589187]}, "properties": {"type": "inleverpunt", "locatieNaam": "Rd4 Milieupark Brunssum", "straatNaam": "Milieuweg", "straatNr": "1", "postcode": "6442 PV", "plaats": "BRUNSSUM", "merk": "Stibat", "puntType": "inzamelbak", "materialen": ["batterijen"], "uitbetaling": [], "vrijToegankelijk": false, "gemeenteBeperking": null, "openingstijden": null, "latitude": 50.9589187, "longitude": 5.9790195, "bronId": "L035807"}}, {"type": "Feature", "geometry": {"type": "Point", "coordinates": [5.9647295, 50.951581]}, "properties": {"type": "inleverpunt", "locatieNaam": "Kruidvat", "straatNaam": "Victoria", "straatNr": "10", "postcode": "6441 DR", "plaats": "BRUNSSUM", "merk": "Stibat", "puntType": "inzamelbak", "materialen": ["batterijen"], "uitbetaling": [], "vrijToegankelijk": false, "gemeenteBeperking": null, "openingstijden": null, "latitude": 50.951581, "longitude": 5.9647295, "bronId": "L014421"}}, {"type": "Feature", "geometry": {"type": "Point", "coordinates": [5.9597256, 50.9493646]}, "properties": {"type": "inleverpunt", "locatieNaam": "4179 Albert Heijn", "straatNaam": "Kennedylaan", "straatNr": "90", "postcode": "6441 JG", "plaats": "BRUNSSUM", "merk": "Stibat", "puntType": "inzamelbak", "materialen": ["batterijen"], "uitbetaling": [], "vrijToegankelijk": false, "gemeenteBeperking": null, "openingstijden": null, "latitude": 50.9493646, "longitude": 5.9597256, "bronId": "L017838"}}, {"type": "Feature", "geometry": {"type": "Point", "coordinates": [5.9593788, 50.9492488]}, "properties": {"type": "inleverpunt", "locatieNaam": "Aldi", "straatNaam": "Kennedylaan", "straatNr": "92a", "postcode": "6441 JG", "plaats": "Brunssum", "merk": "Stibat", "puntType": "inzamelbak", "materialen": ["batterijen"], "uitbetaling": [], "vrijToegankelijk": false, "gemeenteBeperking": null, "openingstijden": null, "latitude": 50.9492488, "longitude": 5.9593788, "bronId": "L041414"}}, {"type": "Feature", "geometry": {"type": "Point", "coordinates": [5.9721398, 50.9477513]}, "properties": {"type": "inleverpunt", "locatieNaam": "1246 Action", "straatNaam": "Kerkstraat", "straatNr": "95B", "postcode": "6441 BC", "plaats": "BRUNSSUM", "merk": "Stibat", "puntType": "inzamelbak", "materialen": ["batterijen"], "uitbetaling": [], "vrijToegankelijk": false, "gemeenteBeperking": null, "openingstijden": null, "latitude": 50.9477513, "longitude": 5.9721398, "bronId": "L031428"}}, {"type": "Feature", "geometry": {"type": "Point", "coordinates": [5.9701415, 50.946768]}, "properties": {"type": "inleverpunt", "locatieNaam": "1074 Albert Heijn", "straatNaam": "Koutenveld", "straatNr": "2", "postcode": "6441 CM", "plaats": "BRUNSSUM", "merk": "Stibat", "puntType": "inzamelbak", "materialen": ["batterijen"], "uitbetaling": [], "vrijToegankelijk": false, "gemeenteBeperking": null, "openingstijden": null, "latitude": 50.946768, "longitude": 5.9701415, "bronId": "L006587"}}, {"type": "Feature", "geometry": {"type": "Point", "coordinates": [5.9722158, 50.9471913]}, "properties": {"type": "inleverpunt", "locatieNaam": "Electro World van Kan", "straatNaam": "Kerkstraat", "straatNr": "258", "postcode": "6441 BL", "plaats": "BRUNSSUM", "merk": "Stibat", "puntType": "inzamelbak", "materialen": ["batterijen"], "uitbetaling": [], "vrijToegankelijk": false, "gemeenteBeperking": null, "openingstijden": null, "latitude": 50.9471913, "longitude": 5.9722158, "bronId": "L037324"}}, {"type": "Feature", "geometry": {"type": "Point", "coordinates": [5.9718827, 50.9463094]}, "properties": {"type": "inleverpunt", "locatieNaam": "HEMA Kerkstraat", "straatNaam": "Kerkstraat", "straatNr": "220-226", "postcode": "6441 BK", "plaats": "BRUNSSUM", "merk": "Stibat", "puntType": "inzamelbak", "materialen": ["batterijen"], "uitbetaling": [], "vrijToegankelijk": false, "gemeenteBeperking": null, "openingstijden": null, "latitude": 50.9463094, "longitude": 5.9718827, "bronId": "L006628"}}, {"type": "Feature", "geometry": {"type": "Point", "coordinates": [5.9715756, 50.946163]}, "properties": {"type": "inleverpunt", "locatieNaam": "Wibra", "straatNaam": "Kerkstraat", "straatNr": "55", "postcode": "6441 BB", "plaats": "BRUNSSUM", "merk": "Stibat", "puntType": "inzamelbak", "materialen": ["batterijen"], "uitbetaling": [], "vrijToegankelijk": false, "gemeenteBeperking": null, "openingstijden": null, "latitude": 50.946163, "longitude": 5.9715756, "bronId": "L023970"}}, {"type": "Feature", "geometry": {"type": "Point", "coordinates": [5.9709989, 50.9458237]}, "properties": {"type": "inleverpunt", "locatieNaam": "Schoonenberg Hoorcomfort", "straatNaam": "Schiffelerstraat", "straatNr": "1", "postcode": "6441 CN", "plaats": "BRUNSSUM", "merk": "Stibat", "puntType": "inzamelbak", "materialen": ["batterijen"], "uitbetaling": [], "vrijToegankelijk": false, "gemeenteBeperking": null, "openingstijden": null, "latitude": 50.9458237, "longitude": 5.9709989, "bronId": "L026865"}}, {"type": "Feature", "geometry": {"type": "Point", "coordinates": [5.9711964, 50.9454737]}, "properties": {"type": "inleverpunt", "locatieNaam": "Zeeman", "straatNaam": "Kerkstraat", "straatNr": "39", "postcode": "6441 BA", "plaats": "Brunssum", "merk": "Stibat", "puntType": "inzamelbak", "materialen": ["batterijen"], "uitbetaling": [], "vrijToegankelijk": false, "gemeenteBeperking": null, "openingstijden": null, "latitude": 50.9454737, "longitude": 5.9711964, "bronId": "L020388"}}, {"type": "Feature", "geometry": {"type": "Point", "coordinates": [5.971169, 50.945408]}, "properties": {"type": "inleverpunt", "locatieNaam": "Hans Anders", "straatNaam": "Kerkstraat", "straatNr": "37", "postcode": "6441 BA", "plaats": "BRUNSSUM", "merk": "Stibat", "puntType": "inzamelbak", "materialen": ["batterijen"], "uitbetaling": [], "vrijToegankelijk": false, "gemeenteBeperking": null, "openingstijden": null, "latitude": 50.945408, "longitude": 5.971169, "bronId": "L037767"}}, {"type": "Feature", "geometry": {"type": "Point", "coordinates": [5.9710826, 50.9453131]}, "properties": {"type": "inleverpunt", "locatieNaam": "Beter Horen", "straatNaam": "Kerkstraat", "straatNr": "33", "postcode": "6441 BA", "plaats": "Brunssum", "merk": "Stibat", "puntType": "inzamelbak", "materialen": ["batterijen"], "uitbetaling": [], "vrijToegankelijk": false, "gemeenteBeperking": null, "openingstijden": null, "latitude": 50.9453131, "longitude": 5.9710826, "bronId": "L017597"}}, {"type": "Feature", "geometry": {"type": "Point", "coordinates": [5.9716778, 50.9451625]}, "properties": {"type": "inleverpunt", "locatieNaam": "Wibra", "straatNaam": "Kerkstraat", "straatNr": "98", "postcode": "6441 BH", "plaats": "BRUNSSUM", "merk": "Stibat", "puntType": "inzamelbak", "materialen": ["batterijen"], "uitbetaling": [], "vrijToegankelijk": false, "gemeenteBeperking": null, "openingstijden": null, "latitude": 50.9451625, "longitude": 5.9716778, "bronId": "L046643"}}, {"type": "Feature", "geometry": {"type": "Point", "coordinates": [5.9715327, 50.9451052]}, "properties": {"type": "inleverpunt", "locatieNaam": "4124 Albert Heijn", "straatNaam": "Kerkstraat", "straatNr": "40", "postcode": "6441 BE", "plaats": "BRUNSSUM", "merk": "Stibat", "puntType": "inzamelbak", "materialen": ["batterijen"], "uitbetaling": [], "vrijToegankelijk": false, "gemeenteBeperking": null, "openingstijden": null, "latitude": 50.9451052, "longitude": 5.9715327, "bronId": "L047363"}}, {"type": "Feature", "geometry": {"type": "Point", "coordinates": [5.9710672, 50.9448598]}, "properties": {"type": "inleverpunt", "locatieNaam": "V.O.F. L. Bos", "straatNaam": "Kerkstraat", "straatNr": "24", "postcode": "6441 BE", "plaats": "BRUNSSUM", "merk": "Stibat", "puntType": "inzamelbak", "materialen": ["batterijen"], "uitbetaling": [], "vrijToegankelijk": false, "gemeenteBeperking": null, "openingstijden": null, "latitude": 50.9448598, "longitude": 5.9710672, "bronId": "L027982"}}, {"type": "Feature", "geometry": {"type": "Point", "coordinates": [5.9422325, 50.9370429]}, "properties": {"type": "inleverpunt", "locatieNaam": "PLUS", "straatNaam": "Orionplein", "straatNr": "1", "postcode": "6446 TL", "plaats": "BRUNSSUM", "merk": "Stibat", "puntType": "inzamelbak", "materialen": ["batterijen"], "uitbetaling": [], "vrijToegankelijk": false, "gemeenteBeperking": null, "openingstijden": null, "latitude": 50.9370429, "longitude": 5.9422325, "bronId": "L008628"}}, {"type": "Feature", "geometry": {"type": "Point", "coordinates": [5.9688445, 50.9403873]}, "properties": {"type": "inleverpunt", "locatieNaam": "Bikestyle", "straatNaam": "Rumpenerstraat", "straatNr": "40A", "postcode": "6443 CE", "plaats": "BRUNSSUM", "merk": "Stibat", "puntType": "inzamelbak", "materialen": ["batterijen"], "uitbetaling": [], "vrijToegankelijk": false, "gemeenteBeperking": null, "openingstijden": null, "latitude": 50.9403873, "longitude": 5.9688445, "bronId": "L033746"}}, {"type": "Feature", "geometry": {"type": "Point", "coordinates": [5.9501526, 50.9360465]}, "properties": {"type": "inleverpunt", "locatieNaam": "Trekpleister", "straatNaam": "Schildstraat", "straatNr": "47", "postcode": "6446 TA", "plaats": "BRUNSSUM", "merk": "Stibat", "puntType": "inzamelbak", "materialen": ["batterijen"], "uitbetaling": [], "vrijToegankelijk": false, "gemeenteBeperking": null, "openingstijden": null, "latitude": 50.9360465, "longitude": 5.9501526, "bronId": "L037306"}}, {"type": "Feature", "geometry": {"type": "Point", "coordinates": [5.9700934, 50.9381469]}, "properties": {"type": "inleverpunt", "locatieNaam": "Lidl", "straatNaam": "Rumpenerstraat", "straatNr": "116", "postcode": "6443 CH", "plaats": "BRUNSSUM", "merk": "Stibat", "puntType": "inzamelbak", "materialen": ["batterijen"], "uitbetaling": [], "vrijToegankelijk": false, "gemeenteBeperking": null, "openingstijden": null, "latitude": 50.9381469, "longitude": 5.9700934, "bronId": "L019216"}}, {"type": "Feature", "geometry": {"type": "Point", "coordinates": [5.9360735, 50.9305774]}, "properties": {"type": "inleverpunt", "locatieNaam": "Esso", "straatNaam": "Akerstraat-Noord", "straatNr": "57", "postcode": "6446 XC", "plaats": "BRUNSSUM", "merk": "Stibat", "puntType": "inzamelbak", "materialen": ["batterijen"], "uitbetaling": [], "vrijToegankelijk": false, "gemeenteBeperking": null, "openingstijden": null, "latitude": 50.9305774, "longitude": 5.9360735, "bronId": "L025827"}}, {"type": "Feature", "geometry": {"type": "Point", "coordinates": [5.9510557, 50.93337]}, "properties": {"type": "inleverpunt", "locatieNaam": "Total", "straatNaam": "Emmaweg", "straatNr": "1", "postcode": "6446 BB", "plaats": "BRUNSSUM", "merk": "Stibat", "puntType": "inzamelbak", "materialen": ["batterijen"], "uitbetaling": [], "vrijToegankelijk": false, "gemeenteBeperking": null, "openingstijden": null, "latitude": 50.93337, "longitude": 5.9510557, "bronId": "L021779"}}, {"type": "Feature", "geometry": {"type": "Point", "coordinates": [5.949322, 50.9326509]}, "properties": {"type": "inleverpunt", "locatieNaam": "Gamma", "straatNaam": "Pijler", "straatNr": "38", "postcode": "6446 AX", "plaats": "BRUNSSUM", "merk": "Stibat", "puntType": "inzamelbak", "materialen": ["batterijen"], "uitbetaling": [], "vrijToegankelijk": false, "gemeenteBeperking": null, "openingstijden": null, "latitude": 50.9326509, "longitude": 5.949322, "bronId": "L008244"}}, {"type": "Feature", "geometry": {"type": "Point", "coordinates": [5.9734212, 50.9378777]}, "properties": {"type": "inleverpunt", "locatieNaam": "Total", "straatNaam": "Pr. Hendriklaan", "straatNr": "243", "postcode": "6443 AD", "plaats": "BRUNSSUM", "merk": "Stibat", "puntType": "inzamelbak", "materialen": ["batterijen"], "uitbetaling": [], "vrijToegankelijk": false, "gemeenteBeperking": null, "openingstijden": null, "latitude": 50.9378777, "longitude": 5.9734212, "bronId": "L021129"}}, {"type": "Feature", "geometry": {"type": "Point", "coordinates": [5.9475461, 50.9321161]}, "properties": {"type": "inleverpunt", "locatieNaam": "Welkoop", "straatNaam": "Pijler", "straatNr": "37", "postcode": "6446 AX", "plaats": "BRUNSSUM", "merk": "Stibat", "puntType": "inzamelbak", "materialen": ["batterijen"], "uitbetaling": [], "vrijToegankelijk": false, "gemeenteBeperking": null, "openingstijden": null, "latitude": 50.9321161, "longitude": 5.9475461, "bronId": "L046672"}}, {"type": "Feature", "geometry": {"type": "Point", "coordinates": [5.9469092, 50.9316477]}, "properties": {"type": "inleverpunt", "locatieNaam": "Hans Stassar", "straatNaam": "Pijler", "straatNr": "36", "postcode": "6446 AX", "plaats": "BRUNSSUM", "merk": "Stibat", "puntType": "inzamelbak", "materialen": ["batterijen"], "uitbetaling": [], "vrijToegankelijk": false, "gemeenteBeperking": null, "openingstijden": null, "latitude": 50.9316477, "longitude": 5.9469092, "bronId": "L008346"}}, {"type": "Feature", "geometry": {"type": "Point", "coordinates": [5.9741853, 50.9301016]}, "properties": {"type": "inleverpunt", "locatieNaam": "Aldi", "straatNaam": "Akerstraat", "straatNr": "128", "postcode": "6445 CT", "plaats": "Brunssum", "merk": "Stibat", "puntType": "inzamelbak", "materialen": ["batterijen"], "uitbetaling": [], "vrijToegankelijk": false, "gemeenteBeperking": null, "openingstijden": null, "latitude": 50.9301016, "longitude": 5.9741853, "bronId": "L041415"}}, {"type": "Feature", "geometry": {"type": "Polygon", "coordinates": [[[5.943104002232544, 50.92739100318353], [5.9429260022323716, 50.92766200318372], [5.945485002234991, 50.9283700031842], [5.946049002235611, 50.929765003185125], [5.952279002242025, 50.93247800318691], [5.954238002244027, 50.93295900318718], [5.95411300224392, 50.93354800318764], [5.954894002244723, 50.93383800318781], [5.960598002250524, 50.93422200318792], [5.96391900225388, 50.93381100318755], [5.964197002254147, 50.93335800318722], [5.966405002256347, 50.93220700318638], [5.971214002261186, 50.930992003185374], [5.974720002264671, 50.92878700318371], [5.97548000226545, 50.92900300318386], [6.011696002302103, 50.92643900318109], [6.016137002306752, 50.93081100318412], [6.018202002308975, 50.93470100318677], [6.015079002306241, 50.94788300319623], [6.016853002308192, 50.95264300319952], [6.0051980022965115, 50.95677700320279], [6.006054002297403, 50.95753500320329], [6.00240100229371, 50.95788000320364], [5.9992420022905035, 50.95777500320366], [5.980123002271208, 50.96068000320622], [5.977895002268926, 50.95998900320578], [5.974728002265662, 50.958394003204724], [5.974022002264943, 50.95834100320469], [5.973957002264914, 50.95937500320545], [5.972301002263227, 50.95927500320538], [5.969084002260025, 50.96103600320674], [5.9706800022616795, 50.962142003207475], [5.9699900022609915, 50.96250200320775], [5.965862002256805, 50.96241800320779], [5.965357002256241, 50.96092500320678], [5.962755002253526, 50.95874000320526], [5.958388002249029, 50.9566740032039], [5.95323200224369, 50.95336300320169], [5.952499002242927, 50.95278500320134], [5.952673002243091, 50.95247000320109], [5.949294002239634, 50.951557003200556], [5.949572002239901, 50.95111500320022], [5.94380000223398, 50.94915500319894], [5.942643002232816, 50.94950500319924], [5.94180400223193, 50.94843000319853], [5.940863002230957, 50.94789700319816], [5.936220002226196, 50.946442003197255], [5.931401002221142, 50.94155700319387], [5.933839002223521, 50.93876600319185], [5.934416002224104, 50.93863600319175], [5.928470002218002, 50.93661200319042], [5.9301140022195895, 50.934234003188756], [5.93871100222812, 50.928507003184436], [5.94185900223127, 50.927086003183334], [5.943104002232544, 50.92739100318353]]]}, "properties": {"type": "boundary", "gemeente": "Brunssum"}}]}