{"type": "FeatureCollection", "metadata": {"gemeente": "Bunnik", "slug": "bunnik", "generated_at": "2026-07-28T19:03:25.026558Z", "total_points": 26, "merken": ["StatiegeldNederland", "Stibat", "StichtingOPEN"], "bounds": [5.1791739, 52.020357, 5.2436324, 52.0684741]}, "features": [{"type": "Feature", "geometry": {"type": "Point", "coordinates": [5.1996826, 52.0674195]}, "properties": {"type": "inleverpunt", "locatieNaam": "Albert Heijn", "straatNaam": "V. Hardenbroeklaan", "straatNr": "3", "postcode": "3981 EN", "plaats": "Bunnik", "merk": "StatiegeldNederland", "puntType": "automaat", "materialen": ["pet-groot", "pet-klein", "blik", "glas", "krat"], "uitbetaling": ["bonnetje", "donatie"], "vrijToegankelijk": true, "gemeenteBeperking": null, "openingstijden": {"ma": "08:00–21:00", "di": "08:00–21:00", "wo": "08:00–21:00", "do": "08:00–21:00", "vr": "08:00–21:00", "za": "08:00–21:00", "zo": "10:00–21:00"}, "latitude": 52.0674195, "longitude": 5.1996826, "bronId": "252826"}}, {"type": "Feature", "geometry": {"type": "Point", "coordinates": [5.2330986, 52.0507847]}, "properties": {"type": "inleverpunt", "locatieNaam": "Boni", "straatNaam": "De Meent", "straatNr": "23", "postcode": "3984 JG", "plaats": "Odijk", "merk": "StatiegeldNederland", "puntType": "automaat", "materialen": ["pet-groot", "pet-klein", "blik", "glas", "krat"], "uitbetaling": ["bonnetje"], "vrijToegankelijk": true, "gemeenteBeperking": null, "openingstijden": {"ma": "08:00–20:00", "di": "08:00–20:00", "wo": "08:00–20:00", "do": "08:00–20:00", "vr": "08:00–20:00", "za": "08:00–20:00", "zo": "12:00–17:00"}, "latitude": 52.0507847, "longitude": 5.2330986, "bronId": "253842"}}, {"type": "Feature", "geometry": {"type": "Point", "coordinates": [5.1911003, 52.0639317]}, "properties": {"type": "inleverpunt", "locatieNaam": "Brothers Horeca Management Bv", "straatNaam": "Regulierenring", "straatNr": "8", "postcode": "3981 LB", "plaats": "Bunnik", "merk": "StatiegeldNederland", "puntType": "balie", "materialen": ["pet-groot", "pet-klein", "blik"], "uitbetaling": [], "vrijToegankelijk": true, "gemeenteBeperking": null, "openingstijden": {"ma": "08:30–17:30", "di": "08:30–17:30", "wo": "08:30–17:30", "do": "08:30–17:30", "vr": "08:30–17:30", "za": "Gesloten", "zo": "Gesloten"}, "latitude": 52.0639317, "longitude": 5.1911003, "bronId": "253917"}}, {"type": "Feature", "geometry": {"type": "Point", "coordinates": [5.2072159, 52.0684741]}, "properties": {"type": "inleverpunt", "locatieNaam": "Hc Kromme Rijn", "straatNaam": "Tolhuislaan", "straatNr": "3b", "postcode": "3981 HR", "plaats": "Bunnik", "merk": "StatiegeldNederland", "puntType": "balie", "materialen": ["pet-groot", "pet-klein", "blik"], "uitbetaling": [], "vrijToegankelijk": false, "gemeenteBeperking": null, "openingstijden": {"ma": "Gesloten", "di": "16:00–18:00", "wo": "14:00–16:00", "do": "16:00–22:00", "vr": "16:00–18:00", "za": "09:00–18:00", "zo": "11:00–15:00"}, "latitude": 52.0684741, "longitude": 5.2072159, "bronId": "254950"}}, {"type": "Feature", "geometry": {"type": "Point", "coordinates": [5.23329, 52.050024]}, "properties": {"type": "inleverpunt", "locatieNaam": "Jumbo", "straatNaam": "De Meent", "straatNr": "40C", "postcode": "3984 JK", "plaats": "Odijk", "merk": "StatiegeldNederland", "puntType": "automaat", "materialen": ["pet-groot", "pet-klein", "blik", "glas", "krat"], "uitbetaling": ["bonnetje"], "vrijToegankelijk": true, "gemeenteBeperking": null, "openingstijden": {"ma": "08:00–20:00", "di": "08:00–20:00", "wo": "08:00–20:00", "do": "08:00–20:00", "vr": "08:00–21:00", "za": "08:00–19:00", "zo": "12:00–18:00"}, "latitude": 52.050024, "longitude": 5.23329, "bronId": "255299"}}, {"type": "Feature", "geometry": {"type": "Point", "coordinates": [5.1791739, 52.0615322]}, "properties": {"type": "inleverpunt", "locatieNaam": "Spar Express", "straatNaam": "RIJKSWEG A12 NR.1", "straatNr": "", "postcode": "3981 HK", "plaats": "Bunnik", "merk": "StatiegeldNederland", "puntType": "balie", "materialen": ["pet-groot", "pet-klein", "blik"], "uitbetaling": [], "vrijToegankelijk": true, "gemeenteBeperking": null, "openingstijden": {"ma": "24 uur geopend", "di": "24 uur geopend", "wo": "24 uur geopend", "do": "24 uur geopend", "vr": "24 uur geopend", "za": "24 uur geopend", "zo": "24 uur geopend"}, "latitude": 52.0615322, "longitude": 5.1791739, "bronId": "258575"}}, {"type": "Feature", "geometry": {"type": "Point", "coordinates": [5.240455, 52.020357]}, "properties": {"type": "inleverpunt", "locatieNaam": "Sv Aurora Afd Tennis", "straatNaam": "Weerdeburgselaan", "straatNr": "6A", "postcode": "3985 SE", "plaats": "Werkhoven", "merk": "StatiegeldNederland", "puntType": "balie", "materialen": ["pet-groot", "pet-klein", "blik"], "uitbetaling": [], "vrijToegankelijk": false, "gemeenteBeperking": null, "openingstijden": {"ma": "08:00–22:00", "di": "08:00–22:00", "wo": "08:00–22:00", "do": "08:00–22:00", "vr": "08:00–22:00", "za": "08:00–22:00", "zo": "08:00–22:00"}, "latitude": 52.020357, "longitude": 5.240455, "bronId": "258796"}}, {"type": "Feature", "geometry": {"type": "Point", "coordinates": [5.2382368, 52.047823]}, "properties": {"type": "inleverpunt", "locatieNaam": "Sv Odijk Tennis", "straatNaam": "Singel", "straatNr": "6", "postcode": "3984 NZ", "plaats": "Odijk", "merk": "StatiegeldNederland", "puntType": "balie", "materialen": ["pet-groot", "pet-klein", "blik"], "uitbetaling": [], "vrijToegankelijk": false, "gemeenteBeperking": null, "openingstijden": {"ma": "09:00–23:00", "di": "09:00–23:00", "wo": "09:00–23:00", "do": "09:00–23:00", "vr": "09:00–23:00", "za": "09:00–23:00", "zo": "09:00–23:00"}, "latitude": 52.047823, "longitude": 5.2382368, "bronId": "258831"}}, {"type": "Feature", "geometry": {"type": "Point", "coordinates": [5.2353128, 52.0499419]}, "properties": {"type": "inleverpunt", "locatieNaam": "ViaTim", "straatNaam": "Wethouder Hollaan", "straatNr": "5", "postcode": "3984 KA", "plaats": "Odijk", "merk": "StatiegeldNederland", "puntType": "balie", "materialen": ["pet-groot", "pet-klein", "blik"], "uitbetaling": ["tikkie"], "vrijToegankelijk": true, "gemeenteBeperking": null, "openingstijden": null, "latitude": 52.0499419, "longitude": 5.2353128, "bronId": "259533"}}, {"type": "Feature", "geometry": {"type": "Point", "coordinates": [5.232993, 52.050875]}, "properties": {"type": "inleverpunt", "locatieNaam": "Boni Odijk", "straatNaam": "De Meent", "straatNr": "23", "postcode": "3984 JG", "plaats": "Odijk", "merk": "StichtingOPEN", "puntType": "balie", "materialen": ["batterijen", "lampen"], "uitbetaling": [], "vrijToegankelijk": false, "gemeenteBeperking": null, "openingstijden": null, "latitude": 52.050875, "longitude": 5.232993, "bronId": "SP00023730"}}, {"type": "Feature", "geometry": {"type": "Point", "coordinates": [5.233393, 52.050076]}, "properties": {"type": "inleverpunt", "locatieNaam": "Jumbo Odijk", "straatNaam": "De Meent", "straatNr": "40c", "postcode": "3984 JK", "plaats": "Odijk", "merk": "StichtingOPEN", "puntType": "balie", "materialen": ["batterijen", "lampen"], "uitbetaling": [], "vrijToegankelijk": false, "gemeenteBeperking": null, "openingstijden": null, "latitude": 52.050076, "longitude": 5.233393, "bronId": "SP00025212"}}, {"type": "Feature", "geometry": {"type": "Point", "coordinates": [5.232891, 52.050307]}, "properties": {"type": "inleverpunt", "locatieNaam": "Kruidvat Odijk", "straatNaam": "De Meent", "straatNr": "24", "postcode": "3984 JJ", "plaats": "Odijk", "merk": "StichtingOPEN", "puntType": "balie", "materialen": ["batterijen", "lampen"], "uitbetaling": [], "vrijToegankelijk": false, "gemeenteBeperking": null, "openingstijden": null, "latitude": 52.050307, "longitude": 5.232891, "bronId": "SP00024642"}}, {"type": "Feature", "geometry": {"type": "Point", "coordinates": [5.202068, 52.067565]}, "properties": {"type": "inleverpunt", "locatieNaam": "Installatieburo Hevi BV", "straatNaam": "Smalleweg", "straatNr": "2c", "postcode": "3981 EG", "plaats": "Bunnik", "merk": "StichtingOPEN", "puntType": "balie", "materialen": ["elektro-middel", "lampen"], "uitbetaling": [], "vrijToegankelijk": false, "gemeenteBeperking": null, "openingstijden": null, "latitude": 52.067565, "longitude": 5.202068, "bronId": "SP00002781"}}, {"type": "Feature", "geometry": {"type": "Point", "coordinates": [5.200309, 52.067508]}, "properties": {"type": "inleverpunt", "locatieNaam": "Kruidvat Bunnik", "straatNaam": "Thea Beckmanpad", "straatNr": "1214", "postcode": "3981 EP", "plaats": "Bunnik", "merk": "StichtingOPEN", "puntType": "balie", "materialen": ["batterijen", "lampen"], "uitbetaling": [], "vrijToegankelijk": false, "gemeenteBeperking": null, "openingstijden": null, "latitude": 52.067508, "longitude": 5.200309, "bronId": "SP00024648"}}, {"type": "Feature", "geometry": {"type": "Point", "coordinates": [5.199742, 52.067364]}, "properties": {"type": "inleverpunt", "locatieNaam": "8507 Albert Heijn Bunnik", "straatNaam": "van Hardenbroeklaan", "straatNr": "3", "postcode": "3981 EN", "plaats": "Bunnik", "merk": "StichtingOPEN", "puntType": "balie", "materialen": ["batterijen"], "uitbetaling": [], "vrijToegankelijk": false, "gemeenteBeperking": null, "openingstijden": null, "latitude": 52.067364, "longitude": 5.199742, "bronId": "SP00022843"}}, {"type": "Feature", "geometry": {"type": "Point", "coordinates": [5.216471, 52.061448]}, "properties": {"type": "inleverpunt", "locatieNaam": "Recyclingstation Bunnik", "straatNaam": "Rumpsterweg", "straatNr": "4", "postcode": "3981 AK", "plaats": "Bunnik", "merk": "StichtingOPEN", "puntType": "milieustraat", "materialen": ["batterijen", "elektro-groot", "elektro-klein", "elektro-middel", "lampen", "tl-buizen"], "uitbetaling": [], "vrijToegankelijk": false, "gemeenteBeperking": ["Bunnik"], "openingstijden": null, "latitude": 52.061448, "longitude": 5.216471, "bronId": "SP00001829"}}, {"type": "Feature", "geometry": {"type": "Point", "coordinates": [5.216451, 52.0614319]}, "properties": {"type": "inleverpunt", "locatieNaam": "Gemeentewerf Bunnik", "straatNaam": "Rumpsterweg", "straatNr": "4", "postcode": "3981 AK", "plaats": "Bunnik", "merk": "Stibat", "puntType": "inzamelbak", "materialen": ["batterijen"], "uitbetaling": [], "vrijToegankelijk": false, "gemeenteBeperking": null, "openingstijden": null, "latitude": 52.0614319, "longitude": 5.216451, "bronId": "L035705"}}, {"type": "Feature", "geometry": {"type": "Point", "coordinates": [5.2316525, 52.0509908]}, "properties": {"type": "inleverpunt", "locatieNaam": "Kruidvat", "straatNaam": "De Meent", "straatNr": "24", "postcode": "3984 JJ", "plaats": "Odijk", "merk": "Stibat", "puntType": "inzamelbak", "materialen": ["batterijen"], "uitbetaling": [], "vrijToegankelijk": false, "gemeenteBeperking": null, "openingstijden": null, "latitude": 52.0509908, "longitude": 5.2316525, "bronId": "L017484"}}, {"type": "Feature", "geometry": {"type": "Point", "coordinates": [5.23349, 52.0500293]}, "properties": {"type": "inleverpunt", "locatieNaam": "Jumbo", "straatNaam": "De Meent", "straatNr": "40c", "postcode": "3984 JK", "plaats": "Odijk", "merk": "Stibat", "puntType": "inzamelbak", "materialen": ["batterijen"], "uitbetaling": [], "vrijToegankelijk": false, "gemeenteBeperking": null, "openingstijden": null, "latitude": 52.0500293, "longitude": 5.23349, "bronId": "L020421"}}, {"type": "Feature", "geometry": {"type": "Point", "coordinates": [5.2338421, 52.0493916]}, "properties": {"type": "inleverpunt", "locatieNaam": "Bikes &amp; Care", "straatNaam": "Zeisterweg", "straatNr": "17", "postcode": "3984 NH", "plaats": "Odijk", "merk": "Stibat", "puntType": "inzamelbak", "materialen": ["batterijen"], "uitbetaling": [], "vrijToegankelijk": false, "gemeenteBeperking": null, "openingstijden": null, "latitude": 52.0493916, "longitude": 5.2338421, "bronId": "L036155"}}, {"type": "Feature", "geometry": {"type": "Point", "coordinates": [5.2012989, 52.0681479]}, "properties": {"type": "inleverpunt", "locatieNaam": "HEMA Bunnik", "straatNaam": "Het Slot", "straatNr": "2A", "postcode": "3981 KC", "plaats": "Bunnik", "merk": "Stibat", "puntType": "inzamelbak", "materialen": ["batterijen"], "uitbetaling": [], "vrijToegankelijk": false, "gemeenteBeperking": null, "openingstijden": null, "latitude": 52.0681479, "longitude": 5.2012989, "bronId": "L046838"}}, {"type": "Feature", "geometry": {"type": "Point", "coordinates": [5.2017021, 52.0675864]}, "properties": {"type": "inleverpunt", "locatieNaam": "Installatieburo Hevi B.V.", "straatNaam": "Dorpsstraat", "straatNr": "21", "postcode": "3981 EA", "plaats": "Bunnik", "merk": "Stibat", "puntType": "inzamelbak", "materialen": ["batterijen"], "uitbetaling": [], "vrijToegankelijk": false, "gemeenteBeperking": null, "openingstijden": null, "latitude": 52.0675864, "longitude": 5.2017021, "bronId": "L016455"}}, {"type": "Feature", "geometry": {"type": "Point", "coordinates": [5.2004777, 52.0679074]}, "properties": {"type": "inleverpunt", "locatieNaam": "Foto van Kesteren", "straatNaam": "Het Slot", "straatNr": "31", "postcode": "3981 KB", "plaats": "Bunnik", "merk": "Stibat", "puntType": "inzamelbak", "materialen": ["batterijen"], "uitbetaling": [], "vrijToegankelijk": false, "gemeenteBeperking": null, "openingstijden": null, "latitude": 52.0679074, "longitude": 5.2004777, "bronId": "L021957"}}, {"type": "Feature", "geometry": {"type": "Point", "coordinates": [5.2003516, 52.0674663]}, "properties": {"type": "inleverpunt", "locatieNaam": "Kruidvat", "straatNaam": "Van Hardenbroeklaan", "straatNr": "12-14", "postcode": "3981 EP", "plaats": "Bunnik", "merk": "Stibat", "puntType": "inzamelbak", "materialen": ["batterijen"], "uitbetaling": [], "vrijToegankelijk": false, "gemeenteBeperking": null, "openingstijden": null, "latitude": 52.0674663, "longitude": 5.2003516, "bronId": "L016293"}}, {"type": "Feature", "geometry": {"type": "Point", "coordinates": [5.1997444, 52.0673656]}, "properties": {"type": "inleverpunt", "locatieNaam": "8507 Albert Heijn", "straatNaam": "Van Hardenbroeklaan", "straatNr": "3", "postcode": "3981 EN", "plaats": "Bunnik", "merk": "Stibat", "puntType": "inzamelbak", "materialen": ["batterijen"], "uitbetaling": [], "vrijToegankelijk": false, "gemeenteBeperking": null, "openingstijden": null, "latitude": 52.0673656, "longitude": 5.1997444, "bronId": "L017651"}}, {"type": "Feature", "geometry": {"type": "Point", "coordinates": [5.2436324, 52.0222204]}, "properties": {"type": "inleverpunt", "locatieNaam": "Nico's Fietserij", "straatNaam": "Zwaanweg", "straatNr": "50", "postcode": "3985 PL", "plaats": "Werkhoven", "merk": "Stibat", "puntType": "inzamelbak", "materialen": ["batterijen"], "uitbetaling": [], "vrijToegankelijk": false, "gemeenteBeperking": null, "openingstijden": null, "latitude": 52.0222204, "longitude": 5.2436324, "bronId": "L020998"}}, {"type": "Feature", "geometry": {"type": "Polygon", "coordinates": [[[5.272628001594166, 51.99816100391181], [5.2745830015961435, 51.99845700391194], [5.277518001599157, 52.000097003912906], [5.277587001599261, 52.000954003913485], [5.275807001597535, 52.00248300391442], [5.275702001597565, 52.005720003916494], [5.277288001599245, 52.00785600391775], [5.278447001600434, 52.008512003918185], [5.280153001602164, 52.0089110039184], [5.278653001600676, 52.009382003918745], [5.279910001601994, 52.010722003919525], [5.278774001600862, 52.01091200391967], [5.2716930015939, 52.014609003922025], [5.269884001592235, 52.018326003924386], [5.263239001585809, 52.02438000392821], [5.270867001593593, 52.02740300393003], [5.269365001592118, 52.028253003930544], [5.269298001592091, 52.02917000393116], [5.2677310015905485, 52.02992600393164], [5.265746001588568, 52.030315003931875], [5.264379001587232, 52.03117800393244], [5.263880001586766, 52.03196900393297], [5.262311001585168, 52.03144600393265], [5.257499001580388, 52.03267700393342], [5.257019001579931, 52.03333900393387], [5.257677001580627, 52.03419800393438], [5.257284001580326, 52.03645600393579], [5.2585820015816624, 52.037261003936315], [5.257797001580918, 52.03828600393692], [5.25643300157955, 52.03834200393695], [5.255128001578221, 52.03794900393674], [5.2526770015757895, 52.03860000393719], [5.250807001573943, 52.03937700393769], [5.2494940015726925, 52.0409860039387], [5.248970001572213, 52.04216800393943], [5.249838001573116, 52.0429110039399], [5.249807001573135, 52.044132003940625], [5.251040001574438, 52.04575700394163], [5.248006001571461, 52.04741300394267], [5.249908001573521, 52.05105000394492], [5.251541001575203, 52.05203400394551], [5.251312001575036, 52.05353700394645], [5.251677001575417, 52.05395800394671], [5.251375001575115, 52.053938003946726], [5.251226001575001, 52.054816003947266], [5.250096001573932, 52.05639000394828], [5.246990001570897, 52.058403003949486], [5.247423001571342, 52.05864700394968], [5.2460290015699504, 52.058844003949815], [5.245591001569495, 52.058487003949594], [5.241322001565216, 52.05864000394974], [5.21913200154299, 52.05975200395065], [5.218460001542336, 52.060239003950954], [5.225022001549117, 52.064922003953775], [5.206297001530692, 52.07368700395936], [5.200401001524909, 52.07686700396141], [5.198937001523418, 52.076314003961095], [5.198115001522595, 52.07640300396115], [5.192639001517161, 52.07791400396212], [5.187353001511817, 52.07694900396159], [5.18410100150855, 52.07684300396155], [5.181402001505815, 52.076192003961104], [5.179293001503769, 52.077902003962265], [5.173969001498435, 52.07812800396244], [5.173502001497985, 52.078478003962665], [5.171606001496089, 52.0786750039628], [5.1669170014912975, 52.0766810039616], [5.162397001486845, 52.07861000396283], [5.160719001485243, 52.08056300396409], [5.160180001484689, 52.08029600396388], [5.1604410014848465, 52.07778800396234], [5.159784001484143, 52.07674300396168], [5.158691001483012, 52.07595500396121], [5.155661001479779, 52.07145300395849], [5.156558001480567, 52.06887900395689], [5.159503001483454, 52.06726300395586], [5.158298001482158, 52.065199003954596], [5.159062001482916, 52.06497600395444], [5.156891001480669, 52.063427003953535], [5.15775500148132, 52.058342003950365], [5.153031001476509, 52.056757003949414], [5.1607440014837715, 52.04551500394239], [5.17883000150194, 52.04568700394234], [5.178931001502071, 52.04634000394273], [5.1873860015104665, 52.044160003941286], [5.18718900151026, 52.043971003941216], [5.189407001512459, 52.043336003940794], [5.191556001514606, 52.04303600394056], [5.191284001514272, 52.04158100393968], [5.189514001512411, 52.039610003938456], [5.188985001511829, 52.03840500393771], [5.189541001512329, 52.03698800393684], [5.192504001515195, 52.03440900393521], [5.1954330015182215, 52.03642700393645], [5.1994500015221385, 52.03371700393471], [5.2008930015235055, 52.03171300393348], [5.199103001521435, 52.02521900392944], [5.200256001522493, 52.02284800392796], [5.20352700152566, 52.02007600392621], [5.20199200152401, 52.01747000392458], [5.218650001540655, 52.0153480039231], [5.224036001545996, 52.01370400392203], [5.228908001550773, 52.010955003920266], [5.2294080015512865, 52.011193003920376], [5.230572001552423, 52.01035600391986], [5.23467700155635, 52.00567700391692], [5.243191001564619, 51.99879300391252], [5.254823001576369, 52.00036500391337], [5.25635800157793, 52.00083400391365], [5.259563001581158, 52.00099900391373], [5.264736001586446, 52.00322000391505], [5.266169001587875, 52.00301700391488], [5.266333001587931, 52.0002970039132], [5.2672920015888485, 51.99912000391246], [5.271092001592611, 51.99784200391164], [5.2721950015937145, 51.99774800391154], [5.272628001594166, 51.99816100391181]]]}, "properties": {"type": "boundary", "gemeente": "Bunnik"}}]}