{"type": "FeatureCollection", "metadata": {"gemeente": "Dantumadiel", "slug": "dantumadiel", "generated_at": "2026-09-07T06:58:27.146480Z", "total_points": 40, "merken": ["StatiegeldNederland", "Stibat", "StichtingOPEN"], "bounds": [5.9823911, 53.2298896, 6.0407225, 53.30524]}, "features": [{"type": "Feature", "geometry": {"type": "Point", "coordinates": [5.996158, 53.29395]}, "properties": {"type": "inleverpunt", "locatieNaam": "Albert Heijn", "straatNaam": "Conradi Veenlandstraat", "straatNr": "4", "postcode": "9104 BN", "plaats": "Damwoude", "merk": "StatiegeldNederland", "puntType": "automaat", "materialen": ["pet-groot", "pet-klein", "blik", "glas", "krat"], "uitbetaling": ["bonnetje"], "vrijToegankelijk": true, "gemeenteBeperking": null, "openingstijden": {"ma": "07:00–22:00", "di": "07:00–22:00", "wo": "07:00–22:00", "do": "07:00–22:00", "vr": "07:00–22:00", "za": "07:00–22:00", "zo": "12:00–20:00"}, "latitude": 53.29395, "longitude": 5.996158, "bronId": "327121"}}, {"type": "Feature", "geometry": {"type": "Point", "coordinates": [6.0370179, 53.2547461]}, "properties": {"type": "inleverpunt", "locatieNaam": "Aldi", "straatNaam": "Ljurkstrjitte", "straatNr": "43", "postcode": "9271 CR", "plaats": "De Westereen", "merk": "StatiegeldNederland", "puntType": "automaat", "materialen": ["pet-groot", "pet-klein", "blik", "glas", "krat"], "uitbetaling": ["bonnetje"], "vrijToegankelijk": true, "gemeenteBeperking": null, "openingstijden": {"ma": "08:00–20:00", "di": "08:00–20:00", "wo": "08:00–20:00", "do": "08:00–20:00", "vr": "08:00–20:00", "za": "08:00–20:00", "zo": "12:00–18:00"}, "latitude": 53.2547461, "longitude": 6.0370179, "bronId": "328253"}}, {"type": "Feature", "geometry": {"type": "Point", "coordinates": [5.9949463, 53.2939872]}, "properties": {"type": "inleverpunt", "locatieNaam": "Lidl", "straatNaam": "Conradi Veenlandstraat", "straatNr": "30-45", "postcode": "9104 BV", "plaats": "Damwoude", "merk": "StatiegeldNederland", "puntType": "automaat", "materialen": ["pet-groot", "pet-klein", "blik", "glas", "krat"], "uitbetaling": ["bonnetje", "donatie"], "vrijToegankelijk": true, "gemeenteBeperking": null, "openingstijden": {"ma": "08:00–21:00", "di": "08:00–21:00", "wo": "08:00–21:00", "do": "08:00–21:00", "vr": "08:00–21:00", "za": "08:00–21:00", "zo": "12:00–18:00"}, "latitude": 53.2939872, "longitude": 5.9949463, "bronId": "331206"}}, {"type": "Feature", "geometry": {"type": "Point", "coordinates": [6.0382233, 53.2543673]}, "properties": {"type": "inleverpunt", "locatieNaam": "Plus", "straatNaam": "Leeuwerikstraat", "straatNr": "63", "postcode": "9271 CR", "plaats": "De Westereen", "merk": "StatiegeldNederland", "puntType": "automaat", "materialen": ["pet-groot", "pet-klein", "blik", "glas", "krat"], "uitbetaling": ["bonnetje"], "vrijToegankelijk": true, "gemeenteBeperking": null, "openingstijden": {"ma": "08:00–21:00", "di": "08:00–21:00", "wo": "08:00–21:00", "do": "08:00–21:00", "vr": "08:00–21:00", "za": "08:00–21:00", "zo": "12:00–18:00"}, "latitude": 53.2543673, "longitude": 6.0382233, "bronId": "332572"}}, {"type": "Feature", "geometry": {"type": "Point", "coordinates": [6.0407018, 53.2618899]}, "properties": {"type": "inleverpunt", "locatieNaam": "Poiesz", "straatNaam": "Foarstrjitte", "straatNr": "49", "postcode": "9271 KG", "plaats": "De Westereen", "merk": "StatiegeldNederland", "puntType": "automaat", "materialen": ["pet-groot", "pet-klein", "blik", "glas", "krat"], "uitbetaling": ["bonnetje", "donatie"], "vrijToegankelijk": true, "gemeenteBeperking": null, "openingstijden": {"ma": "08:00–20:00", "di": "08:00–20:00", "wo": "08:00–20:00", "do": "08:00–21:00", "vr": "08:00–21:00", "za": "08:00–20:00", "zo": "12:00–18:00"}, "latitude": 53.2618899, "longitude": 6.0407018, "bronId": "332801"}}, {"type": "Feature", "geometry": {"type": "Point", "coordinates": [5.9946767, 53.2397698]}, "properties": {"type": "inleverpunt", "locatieNaam": "Poiesz", "straatNaam": "Lijsterstraat", "straatNr": "25", "postcode": "9269 NR", "plaats": "Veenwouden", "merk": "StatiegeldNederland", "puntType": "automaat", "materialen": ["pet-groot", "pet-klein", "blik", "glas", "krat"], "uitbetaling": ["bonnetje", "donatie"], "vrijToegankelijk": true, "gemeenteBeperking": null, "openingstijden": {"ma": "08:00–20:00", "di": "08:00–20:00", "wo": "08:00–20:00", "do": "08:00–21:00", "vr": "08:00–21:00", "za": "08:00–20:00", "zo": "12:00–18:00"}, "latitude": 53.2397698, "longitude": 5.9946767, "bronId": "332829"}}, {"type": "Feature", "geometry": {"type": "Point", "coordinates": [5.9907673, 53.2892146]}, "properties": {"type": "inleverpunt", "locatieNaam": "Spar", "straatNaam": "Mûnewei", "straatNr": "17", "postcode": "9104 CX", "plaats": "Damwâld", "merk": "StatiegeldNederland", "puntType": "automaat", "materialen": ["pet-groot", "pet-klein", "blik", "glas", "krat"], "uitbetaling": ["bonnetje", "donatie"], "vrijToegankelijk": true, "gemeenteBeperking": null, "openingstijden": null, "latitude": 53.2892146, "longitude": 5.9907673, "bronId": "333674"}}, {"type": "Feature", "geometry": {"type": "Point", "coordinates": [5.9823911, 53.2298896]}, "properties": {"type": "inleverpunt", "locatieNaam": "Supermarkt Westerlaan", "straatNaam": "DE WAL", "straatNr": "83", "postcode": "9269 RB", "plaats": "Veenwouden", "merk": "StatiegeldNederland", "puntType": "balie", "materialen": ["pet-groot", "pet-klein", "blik"], "uitbetaling": [], "vrijToegankelijk": true, "gemeenteBeperking": null, "openingstijden": {"ma": "08:00–20:00", "di": "08:00–20:00", "wo": "08:00–20:00", "do": "08:00–21:00", "vr": "08:00–21:00", "za": "08:00–20:00", "zo": "12:00–18:00"}, "latitude": 53.2298896, "longitude": 5.9823911, "bronId": "334062"}}, {"type": "Feature", "geometry": {"type": "Point", "coordinates": [6.0316342, 53.2593818]}, "properties": {"type": "inleverpunt", "locatieNaam": "ViaTim", "straatNaam": "Parkloane", "straatNr": "73", "postcode": "9271 AC", "plaats": "De Westereen", "merk": "StatiegeldNederland", "puntType": "balie", "materialen": ["pet-groot", "pet-klein", "blik"], "uitbetaling": ["tikkie"], "vrijToegankelijk": true, "gemeenteBeperking": null, "openingstijden": null, "latitude": 53.2593818, "longitude": 6.0316342, "bronId": "334895"}}, {"type": "Feature", "geometry": {"type": "Point", "coordinates": [5.9890397, 53.2846946]}, "properties": {"type": "inleverpunt", "locatieNaam": "Vv Broekster Boys", "straatNaam": "Lytse Loane", "straatNr": "124", "postcode": "9104 CJ", "plaats": "Damwald", "merk": "StatiegeldNederland", "puntType": "balie", "materialen": ["pet-groot", "pet-klein", "blik"], "uitbetaling": [], "vrijToegankelijk": false, "gemeenteBeperking": null, "openingstijden": null, "latitude": 53.2846946, "longitude": 5.9890397, "bronId": "335292"}}, {"type": "Feature", "geometry": {"type": "Point", "coordinates": [5.994938, 53.239697]}, "properties": {"type": "inleverpunt", "locatieNaam": "PLUS Feanwâlden", "straatNaam": "Lysterstrjitte", "straatNr": "25", "postcode": "9269 NR", "plaats": "Feanwâlden", "merk": "StichtingOPEN", "puntType": "balie", "materialen": ["batterijen", "lampen"], "uitbetaling": [], "vrijToegankelijk": false, "gemeenteBeperking": null, "openingstijden": null, "latitude": 53.239697, "longitude": 5.994938, "bronId": "SP00024103"}}, {"type": "Feature", "geometry": {"type": "Point", "coordinates": [6.012704, 53.252962]}, "properties": {"type": "inleverpunt", "locatieNaam": "Tuincentrum Tuin! Zwaagwesteinde", "straatNaam": "Boppewei", "straatNr": "17", "postcode": "9271 VH", "plaats": "De Westereen", "merk": "StichtingOPEN", "puntType": "balie", "materialen": ["elektro-middel", "lampen"], "uitbetaling": [], "vrijToegankelijk": false, "gemeenteBeperking": null, "openingstijden": null, "latitude": 53.252962, "longitude": 6.012704, "bronId": "SP00005758"}}, {"type": "Feature", "geometry": {"type": "Point", "coordinates": [6.038244, 53.254318]}, "properties": {"type": "inleverpunt", "locatieNaam": "Aldi Zwaagwesteinde", "straatNaam": "Leeuwerikstraat", "straatNr": "43", "postcode": "9271 CR", "plaats": "Zwaagwesteinde", "merk": "StichtingOPEN", "puntType": "balie", "materialen": ["batterijen", "elektro-klein", "lampen"], "uitbetaling": [], "vrijToegankelijk": false, "gemeenteBeperking": null, "openingstijden": null, "latitude": 53.254318, "longitude": 6.038244, "bronId": "SP00026934"}}, {"type": "Feature", "geometry": {"type": "Point", "coordinates": [6.040635, 53.261996]}, "properties": {"type": "inleverpunt", "locatieNaam": "Poiesz De Westereen", "straatNaam": "Foarstrjitte", "straatNr": "49", "postcode": "9271 KG", "plaats": "De Westereen", "merk": "StichtingOPEN", "puntType": "balie", "materialen": ["batterijen", "lampen"], "uitbetaling": [], "vrijToegankelijk": false, "gemeenteBeperking": null, "openingstijden": null, "latitude": 53.261996, "longitude": 6.040635, "bronId": "SP00023820"}}, {"type": "Feature", "geometry": {"type": "Point", "coordinates": [6.003639, 53.271307]}, "properties": {"type": "inleverpunt", "locatieNaam": "Van der Woude VOF", "straatNaam": "Haadwei", "straatNr": "54", "postcode": "9108 MB", "plaats": "Broeksterwoude", "merk": "StichtingOPEN", "puntType": "balie", "materialen": ["batterijen", "elektro-groot", "elektro-klein", "elektro-middel", "lampen", "tl-buizen"], "uitbetaling": [], "vrijToegankelijk": false, "gemeenteBeperking": null, "openingstijden": null, "latitude": 53.271307, "longitude": 6.003639, "bronId": "SP00037214"}}, {"type": "Feature", "geometry": {"type": "Point", "coordinates": [5.990767, 53.289214]}, "properties": {"type": "inleverpunt", "locatieNaam": "Spar Damwâld", "straatNaam": "Mûnewei", "straatNr": "1517", "postcode": "9104 CX", "plaats": "Damwâld", "merk": "StichtingOPEN", "puntType": "balie", "materialen": ["batterijen", "lampen"], "uitbetaling": [], "vrijToegankelijk": false, "gemeenteBeperking": null, "openingstijden": null, "latitude": 53.289214, "longitude": 5.990767, "bronId": "SP00022489"}}, {"type": "Feature", "geometry": {"type": "Point", "coordinates": [5.9942308, 53.2935862]}, "properties": {"type": "inleverpunt", "locatieNaam": "Bosgraaf Elektro", "straatNaam": "Conradi-Veenlandstrjitte", "straatNr": "88", "postcode": "9104 BN", "plaats": "Damwald", "merk": "StichtingOPEN", "puntType": "balie", "materialen": ["lampen"], "uitbetaling": [], "vrijToegankelijk": false, "gemeenteBeperking": null, "openingstijden": null, "latitude": 53.2935862, "longitude": 5.9942308, "bronId": "SP00003128"}}, {"type": "Feature", "geometry": {"type": "Point", "coordinates": [5.9945582, 53.2935938]}, "properties": {"type": "inleverpunt", "locatieNaam": "Kruidvat Damwâld", "straatNaam": "Conradi-Veenlandstrjitte", "straatNr": "88b", "postcode": "9104 BN", "plaats": "Damwâld", "merk": "StichtingOPEN", "puntType": "balie", "materialen": ["batterijen", "lampen"], "uitbetaling": [], "vrijToegankelijk": false, "gemeenteBeperking": null, "openingstijden": null, "latitude": 53.2935938, "longitude": 5.9945582, "bronId": "SP00024836"}}, {"type": "Feature", "geometry": {"type": "Point", "coordinates": [5.99536, 53.293433]}, "properties": {"type": "inleverpunt", "locatieNaam": "4018 Albert Heijn Damwâld", "straatNaam": "Conradi-Veenlandstrjitte", "straatNr": "4", "postcode": "9104 BN", "plaats": "Damwâld", "merk": "StichtingOPEN", "puntType": "balie", "materialen": ["batterijen", "elektro-klein", "lampen"], "uitbetaling": [], "vrijToegankelijk": false, "gemeenteBeperking": null, "openingstijden": null, "latitude": 53.293433, "longitude": 5.99536, "bronId": "SP00023210"}}, {"type": "Feature", "geometry": {"type": "Point", "coordinates": [6.001194, 53.30524]}, "properties": {"type": "inleverpunt", "locatieNaam": "Milieustraat Damwoude", "straatNaam": "Koailoane", "straatNr": "11", "postcode": "9104 AA", "plaats": "Damwald", "merk": "StichtingOPEN", "puntType": "milieustraat", "materialen": ["batterijen", "elektro-groot", "elektro-klein", "elektro-middel", "lampen", "tl-buizen"], "uitbetaling": [], "vrijToegankelijk": false, "gemeenteBeperking": ["Dantumadiel", "Noardeast-Fryslân"], "openingstijden": null, "latitude": 53.30524, "longitude": 6.001194, "bronId": "SP00002388"}}, {"type": "Feature", "geometry": {"type": "Point", "coordinates": [5.9948986, 53.2398137]}, "properties": {"type": "inleverpunt", "locatieNaam": "Poiesz", "straatNaam": "Lysterstrjitte", "straatNr": "25", "postcode": "9269 NR", "plaats": "Feanwalden", "merk": "Stibat", "puntType": "inzamelbak", "materialen": ["batterijen"], "uitbetaling": [], "vrijToegankelijk": false, "gemeenteBeperking": null, "openingstijden": null, "latitude": 53.2398137, "longitude": 5.9948986, "bronId": "L048608"}}, {"type": "Feature", "geometry": {"type": "Point", "coordinates": [5.9946314, 53.240318]}, "properties": {"type": "inleverpunt", "locatieNaam": "DA Drogisterij Lia", "straatNaam": "Lysterstrjitte", "straatNr": "47", "postcode": "9269 NR", "plaats": "Feanwalden", "merk": "Stibat", "puntType": "inzamelbak", "materialen": ["batterijen"], "uitbetaling": [], "vrijToegankelijk": false, "gemeenteBeperking": null, "openingstijden": null, "latitude": 53.240318, "longitude": 5.9946314, "bronId": "L047378"}}, {"type": "Feature", "geometry": {"type": "Point", "coordinates": [6.0127049, 53.2529622]}, "properties": {"type": "inleverpunt", "locatieNaam": "Tuincentrum Tuin", "straatNaam": "Boppewei", "straatNr": "17", "postcode": "9271 VH", "plaats": "De Westereen", "merk": "Stibat", "puntType": "inzamelbak", "materialen": ["batterijen"], "uitbetaling": [], "vrijToegankelijk": false, "gemeenteBeperking": null, "openingstijden": null, "latitude": 53.2529622, "longitude": 6.0127049, "bronId": "L042034"}}, {"type": "Feature", "geometry": {"type": "Point", "coordinates": [6.0376101, 53.2539443]}, "properties": {"type": "inleverpunt", "locatieNaam": "Schoonenberg Hoorcomfort", "straatNaam": "Ljurkstrjitte", "straatNr": "72A", "postcode": "9271 CS", "plaats": "De Westereen", "merk": "Stibat", "puntType": "inzamelbak", "materialen": ["batterijen"], "uitbetaling": [], "vrijToegankelijk": false, "gemeenteBeperking": null, "openingstijden": null, "latitude": 53.2539443, "longitude": 6.0376101, "bronId": "L031109"}}, {"type": "Feature", "geometry": {"type": "Point", "coordinates": [6.0374594, 53.2539937]}, "properties": {"type": "inleverpunt", "locatieNaam": "Primera", "straatNaam": "Ljurkstrjitte", "straatNr": "72C", "postcode": "9271 CS", "plaats": "De Westereen", "merk": "Stibat", "puntType": "inzamelbak", "materialen": ["batterijen"], "uitbetaling": [], "vrijToegankelijk": false, "gemeenteBeperking": null, "openingstijden": null, "latitude": 53.2539937, "longitude": 6.0374594, "bronId": "L022934"}}, {"type": "Feature", "geometry": {"type": "Point", "coordinates": [6.0377318, 53.2539643]}, "properties": {"type": "inleverpunt", "locatieNaam": "Kruidvat", "straatNaam": "Leeuwerikstraat", "straatNr": "72", "postcode": "9271 CS", "plaats": "Zwaagwesteinde", "merk": "Stibat", "puntType": "inzamelbak", "materialen": ["batterijen"], "uitbetaling": [], "vrijToegankelijk": false, "gemeenteBeperking": null, "openingstijden": null, "latitude": 53.2539643, "longitude": 6.0377318, "bronId": "L017071"}}, {"type": "Feature", "geometry": {"type": "Point", "coordinates": [6.0321751, 53.2552799]}, "properties": {"type": "inleverpunt", "locatieNaam": "DA", "straatNaam": "Leeuwerikstraat", "straatNr": "61", "postcode": "9271 CR", "plaats": "Zwaagwesteinde", "merk": "Stibat", "puntType": "inzamelbak", "materialen": ["batterijen"], "uitbetaling": [], "vrijToegankelijk": false, "gemeenteBeperking": null, "openingstijden": null, "latitude": 53.2552799, "longitude": 6.0321751, "bronId": "L024903"}}, {"type": "Feature", "geometry": {"type": "Point", "coordinates": [6.0382233, 53.2543673]}, "properties": {"type": "inleverpunt", "locatieNaam": "PLUS", "straatNaam": "Ljurkstrjitte", "straatNr": "63", "postcode": "9271 CR", "plaats": "De Westereen", "merk": "Stibat", "puntType": "inzamelbak", "materialen": ["batterijen"], "uitbetaling": [], "vrijToegankelijk": false, "gemeenteBeperking": null, "openingstijden": null, "latitude": 53.2543673, "longitude": 6.0382233, "bronId": "L045572"}}, {"type": "Feature", "geometry": {"type": "Point", "coordinates": [6.0369965, 53.2546788]}, "properties": {"type": "inleverpunt", "locatieNaam": "Aldi", "straatNaam": "Ljurkstrjitte", "straatNr": "43", "postcode": "9271 CR", "plaats": "De Westereen", "merk": "Stibat", "puntType": "inzamelbak", "materialen": ["batterijen"], "uitbetaling": [], "vrijToegankelijk": false, "gemeenteBeperking": null, "openingstijden": null, "latitude": 53.2546788, "longitude": 6.0369965, "bronId": "L041577"}}, {"type": "Feature", "geometry": {"type": "Point", "coordinates": [6.0324902, 53.2567517]}, "properties": {"type": "inleverpunt", "locatieNaam": "Electro World", "straatNaam": "Kerkstraat", "straatNr": "1", "postcode": "9271 AK", "plaats": "Zwaagwesteinde", "merk": "Stibat", "puntType": "inzamelbak", "materialen": ["batterijen"], "uitbetaling": [], "vrijToegankelijk": false, "gemeenteBeperking": null, "openingstijden": null, "latitude": 53.2567517, "longitude": 6.0324902, "bronId": "L016065"}}, {"type": "Feature", "geometry": {"type": "Point", "coordinates": [6.0407225, 53.26187]}, "properties": {"type": "inleverpunt", "locatieNaam": "Poiesz", "straatNaam": "Foarstrjitte", "straatNr": "49", "postcode": "9271 KG", "plaats": "De Westereen", "merk": "Stibat", "puntType": "inzamelbak", "materialen": ["batterijen"], "uitbetaling": [], "vrijToegankelijk": false, "gemeenteBeperking": null, "openingstijden": null, "latitude": 53.26187, "longitude": 6.0407225, "bronId": "L008197"}}, {"type": "Feature", "geometry": {"type": "Point", "coordinates": [5.993581, 53.2737768]}, "properties": {"type": "inleverpunt", "locatieNaam": "Haisma Tweewielers", "straatNaam": "Kavelweg", "straatNr": "14", "postcode": "9108 ME", "plaats": "Broeksterwoude", "merk": "Stibat", "puntType": "inzamelbak", "materialen": ["batterijen"], "uitbetaling": [], "vrijToegankelijk": false, "gemeenteBeperking": null, "openingstijden": null, "latitude": 53.2737768, "longitude": 5.993581, "bronId": "L034195"}}, {"type": "Feature", "geometry": {"type": "Point", "coordinates": [6.0031894, 53.2729978]}, "properties": {"type": "inleverpunt", "locatieNaam": "Total", "straatNaam": "Hoofdweg", "straatNr": "40", "postcode": "9108 MA", "plaats": "Broeksterwoude", "merk": "Stibat", "puntType": "inzamelbak", "materialen": ["batterijen"], "uitbetaling": [], "vrijToegankelijk": false, "gemeenteBeperking": null, "openingstijden": null, "latitude": 53.2729978, "longitude": 6.0031894, "bronId": "L020391"}}, {"type": "Feature", "geometry": {"type": "Point", "coordinates": [5.989128, 53.2904987]}, "properties": {"type": "inleverpunt", "locatieNaam": "Schaafsma Rijwielen", "straatNaam": "Foarwei", "straatNr": "94", "postcode": "9104 CA", "plaats": "Damwald", "merk": "Stibat", "puntType": "inzamelbak", "materialen": ["batterijen"], "uitbetaling": [], "vrijToegankelijk": false, "gemeenteBeperking": null, "openingstijden": null, "latitude": 53.2904987, "longitude": 5.989128, "bronId": "L048785"}}, {"type": "Feature", "geometry": {"type": "Point", "coordinates": [5.9942794, 53.2936987]}, "properties": {"type": "inleverpunt", "locatieNaam": "Kruidvat", "straatNaam": "Conradi-Veenlandstrjitte", "straatNr": "88B", "postcode": "9104 BN", "plaats": "Damwoude", "merk": "Stibat", "puntType": "inzamelbak", "materialen": ["batterijen"], "uitbetaling": [], "vrijToegankelijk": false, "gemeenteBeperking": null, "openingstijden": null, "latitude": 53.2936987, "longitude": 5.9942794, "bronId": "L031503"}}, {"type": "Feature", "geometry": {"type": "Point", "coordinates": [5.9952481, 53.2935809]}, "properties": {"type": "inleverpunt", "locatieNaam": "Primera", "straatNaam": "C. Veenlandstraat", "straatNr": "34", "postcode": "9104 BN", "plaats": "Damwoude", "merk": "Stibat", "puntType": "inzamelbak", "materialen": ["batterijen"], "uitbetaling": [], "vrijToegankelijk": false, "gemeenteBeperking": null, "openingstijden": null, "latitude": 53.2935809, "longitude": 5.9952481, "bronId": "L024741"}}, {"type": "Feature", "geometry": {"type": "Point", "coordinates": [5.9953335, 53.2939762]}, "properties": {"type": "inleverpunt", "locatieNaam": "DA", "straatNaam": "C.Veenlandstraat", "straatNr": "26", "postcode": "9104 BN", "plaats": "Damwoude", "merk": "Stibat", "puntType": "inzamelbak", "materialen": ["batterijen"], "uitbetaling": [], "vrijToegankelijk": false, "gemeenteBeperking": null, "openingstijden": null, "latitude": 53.2939762, "longitude": 5.9953335, "bronId": "L024907"}}, {"type": "Feature", "geometry": {"type": "Point", "coordinates": [5.9960016, 53.2939249]}, "properties": {"type": "inleverpunt", "locatieNaam": "4018 Albert Heijn", "straatNaam": "Conradi-Veenlandstrjitte", "straatNr": "4", "postcode": "9104 BN", "plaats": "Damwald", "merk": "Stibat", "puntType": "inzamelbak", "materialen": ["batterijen"], "uitbetaling": [], "vrijToegankelijk": false, "gemeenteBeperking": null, "openingstijden": null, "latitude": 53.2939249, "longitude": 5.9960016, "bronId": "L035355"}}, {"type": "Feature", "geometry": {"type": "Point", "coordinates": [5.9950484, 53.2940318]}, "properties": {"type": "inleverpunt", "locatieNaam": "Lidl", "straatNaam": "Conradi-Veenlandstraat", "straatNr": "46", "postcode": "9104 BN", "plaats": "Damwoude", "merk": "Stibat", "puntType": "inzamelbak", "materialen": ["batterijen"], "uitbetaling": [], "vrijToegankelijk": false, "gemeenteBeperking": null, "openingstijden": null, "latitude": 53.2940318, "longitude": 5.9950484, "bronId": "L019004"}}, {"type": "Feature", "geometry": {"type": "Point", "coordinates": [6.0206499, 53.3037083]}, "properties": {"type": "inleverpunt", "locatieNaam": "Milieustraat Damwoude", "straatNaam": "Kooilaan", "straatNr": "2", "postcode": "9104 AA", "plaats": "Damwoude", "merk": "Stibat", "puntType": "inzamelbak", "materialen": ["batterijen"], "uitbetaling": [], "vrijToegankelijk": false, "gemeenteBeperking": null, "openingstijden": null, "latitude": 53.3037083, "longitude": 6.0206499, "bronId": "L035900"}}, {"type": "Feature", "geometry": {"type": "Polygon", "coordinates": [[[5.9833430023417735, 53.229863004593874], [6.016680002374665, 53.24109100459851], [6.017790002375752, 53.241242004598575], [6.019894002377801, 53.2409240045983], [6.019939002377854, 53.241253004598505], [6.0207190023786215, 53.2413130045985], [6.021360002379279, 53.24253200459909], [6.023094002380977, 53.24279100459916], [6.027765002385507, 53.241395004598324], [6.028816002386567, 53.24275900459896], [6.031341002389026, 53.242214004598644], [6.038849002396373, 53.24261700459861], [6.0439660024013975, 53.243502004598874], [6.046047002403607, 53.250699004602424], [6.046710002404254, 53.25065800460239], [6.047013002404577, 53.25170700460287], [6.050115002407959, 53.26614100461003], [6.051864002409674, 53.26628600461006], [6.052801002410709, 53.27122400461248], [6.052188002410112, 53.27123200461252], [6.053309002411399, 53.27918900461646], [6.0549650024130255, 53.27948400461654], [6.05464600241273, 53.28017400461689], [6.053394002411503, 53.28001800461686], [6.054379002412728, 53.29087000462225], [6.057477002415767, 53.29142400462239], [6.06221100242039, 53.2917070046224], [6.065681002423799, 53.29247600462265], [6.073695002431618, 53.29240000462238], [6.069794002427919, 53.296920004624745], [6.071542002429618, 53.296595004624486], [6.071657002429779, 53.29862800462553], [6.070850002428996, 53.29877900462564], [6.070988002429183, 53.30096300462672], [6.0718450024300195, 53.30102900462672], [6.072288002430591, 53.30683700462958], [6.07269500243116, 53.31400800463313], [6.072207002430696, 53.31457400463341], [6.07266300243116, 53.31538300463379], [6.072051002430582, 53.31617700463417], [6.07407100243257, 53.316932004634516], [6.074985002433478, 53.31764400463482], [6.074152002432757, 53.321477004636776], [6.0748000024333955, 53.32177600463693], [6.0772230024357565, 53.32167700463678], [6.077753002436283, 53.32208700463695], [6.075989002434611, 53.324094004637985], [6.074649002433316, 53.32465200463829], [6.071570002430315, 53.32478700463846], [6.068866002427654, 53.32380200463808], [6.066307002425156, 53.32363900463803], [6.056771002415869, 53.32417900463865], [6.052196002411426, 53.32493200463916], [6.045889002405244, 53.323823004638804], [6.0441360024035395, 53.32401800463895], [6.0416670024011525, 53.324957004639494], [6.039552002399092, 53.32513500463966], [6.037966002397547, 53.3251350046397], [6.0362980023959, 53.32432300463936], [6.035363002394985, 53.324296004639386], [6.033892002393581, 53.32541600463998], [6.0329620023926775, 53.3256300046401], [6.030482002390245, 53.325055004639914], [6.0278690023877, 53.32521200464008], [6.02613600238599, 53.32449700463976], [6.023437002383357, 53.32452900463987], [6.023452002383361, 53.324024004639625], [6.022438002382369, 53.324031004639615], [6.022954002382827, 53.322108004638665], [6.022661002382523, 53.32135100463833], [6.021241002381109, 53.32033300463788], [6.021122002380708, 53.30884400463218], [6.020179002379786, 53.30873200463213], [6.020152002379746, 53.30822400463192], [6.0161000023757865, 53.308088004632005], [6.01161800237142, 53.308444004632285], [6.011567002371387, 53.30907600463263], [6.00929600236917, 53.30916000463273], [6.009254002369143, 53.30963100463294], [5.998101002358278, 53.31050000463371], [5.989624002349991, 53.310043004633755], [5.987505002347911, 53.3095890046336], [5.987631002348027, 53.30926900463341], [5.982723002343207, 53.30827800463309], [5.980384002340904, 53.30744600463274], [5.975853002336466, 53.30692700463263], [5.974564002335262, 53.30901600463366], [5.973957002334667, 53.30889300463364], [5.971975002332801, 53.311645004635054], [5.971647002332478, 53.31156100463504], [5.97066900233158, 53.31367300463612], [5.973774002334645, 53.315018004636684], [5.974300002335185, 53.31599900463716], [5.974453002335367, 53.31729700463781], [5.9731620023341305, 53.31813000463822], [5.972187002333254, 53.3210850046397], [5.970846002331967, 53.321907004640195], [5.968784002329968, 53.3225080046405], [5.963562002324882, 53.322828004640854], [5.959204002320591, 53.32149600464031], [5.957097002318526, 53.321230004640256], [5.955641002317111, 53.32141000464038], [5.95375500231526, 53.32102300464023], [5.951322002312854, 53.319853004639754], [5.9489300023104565, 53.31760100463869], [5.945956002307555, 53.31762900463878], [5.937366002299107, 53.315496004638], [5.9341830022960025, 53.315578004638155], [5.922341002284358, 53.312640004637], [5.920887002282894, 53.311099004636304], [5.918232002280287, 53.3105610046361], [5.915930002278004, 53.3091950046355], [5.907034002269226, 53.3061010046342], [5.90282700226506, 53.304048004633266], [5.8965650022588765, 53.3017420046323], [5.903454002265404, 53.294298004628445], [5.906649002268345, 53.28783900462512], [5.9038620022656, 53.28708300462482], [5.897694002259504, 53.28463400462378], [5.897788002259568, 53.283660004623286], [5.891701002253519, 53.28003800462165], [5.890228002252071, 53.27981000462159], [5.883134002245048, 53.27668000462023], [5.882585002244517, 53.27698600462037], [5.882245002244181, 53.2767820046203], [5.893196002254692, 53.26973400461648], [5.905165002266231, 53.26377900461319], [5.908071002269041, 53.262698004612545], [5.910287002271167, 53.26118200461171], [5.9129110022737015, 53.2600840046111], [5.914480002275196, 53.258630004610325], [5.922955002283452, 53.25740500460946], [5.92591400228627, 53.25473000460804], [5.926089002286396, 53.25299900460718], [5.925652002285946, 53.25220100460678], [5.942992002302855, 53.25042800460541], [5.947090002306662, 53.24285100460146], [5.948897002308376, 53.24093300460046], [5.951917002311188, 53.23551200459765], [5.955092002314172, 53.231062004595344], [5.955033002314102, 53.23059300459508], [5.95447300231355, 53.230405004595006], [5.955974002314956, 53.228056004593796], [5.961839002320695, 53.22809200459363], [5.96319000232201, 53.22784900459348], [5.966736002325483, 53.22808400459349], [5.967817002326531, 53.22769800459324], [5.97291000233152, 53.22793500459323], [5.972746002331368, 53.22828900459339], [5.9732580023318755, 53.22842400459342], [5.9833430023417735, 53.229863004593874]]]}, "properties": {"type": "boundary", "gemeente": "Dantumadiel"}}]}