{"type": "FeatureCollection", "metadata": {"gemeente": "De Fryske Marren", "slug": "de-fryske-marren", "generated_at": "2026-07-28T09:25:50.134599Z", "total_points": 134, "merken": ["StatiegeldNederland", "Stibat", "StichtingOPEN"], "bounds": [5.458765, 52.837862, 5.8724833, 53.0407137]}, "features": [{"type": "Feature", "geometry": {"type": "Point", "coordinates": [5.7106305, 52.8454576]}, "properties": {"type": "inleverpunt", "locatieNaam": "Albert Heijn", "straatNaam": "Schoolstraat", "straatNr": "12", "postcode": "8531 JW", "plaats": "Lemmer", "merk": "StatiegeldNederland", "puntType": "automaat", "materialen": ["pet-groot", "pet-klein", "blik", "glas", "krat"], "uitbetaling": ["bonnetje", "donatie"], "vrijToegankelijk": true, "gemeenteBeperking": null, "openingstijden": {"ma": "08:00–22:00", "di": "08:00–22:00", "wo": "08:00–22:00", "do": "08:00–22:00", "vr": "08:00–22:00", "za": "08:00–22:00", "zo": "08:00–20:00"}, "latitude": 52.8454576, "longitude": 5.7106305, "bronId": "252715"}}, {"type": "Feature", "geometry": {"type": "Point", "coordinates": [5.7987887, 52.9667222]}, "properties": {"type": "inleverpunt", "locatieNaam": "Albert Heijn", "straatNaam": "Sinnebuorren", "straatNr": "28", "postcode": "8501 CB", "plaats": "Joure", "merk": "StatiegeldNederland", "puntType": "automaat", "materialen": ["pet-groot", "pet-klein", "blik", "glas", "krat"], "uitbetaling": ["bonnetje"], "vrijToegankelijk": true, "gemeenteBeperking": null, "openingstijden": {"ma": "08:00–21:00", "di": "08:00–21:00", "wo": "08:00–21:00", "do": "08:00–21:00", "vr": "08:00–21:00", "za": "08:00–21:00", "zo": "09:00–19:00"}, "latitude": 52.9667222, "longitude": 5.7987887, "bronId": "252728"}}, {"type": "Feature", "geometry": {"type": "Point", "coordinates": [5.7984041, 52.9667903]}, "properties": {"type": "inleverpunt", "locatieNaam": "Aldi", "straatNaam": "Sinnebuorren", "straatNr": "10", "postcode": "8501 CB", "plaats": "Joure", "merk": "StatiegeldNederland", "puntType": "automaat", "materialen": ["pet-groot", "pet-klein", "blik", "glas", "krat"], "uitbetaling": ["bonnetje"], "vrijToegankelijk": true, "gemeenteBeperking": null, "openingstijden": {"ma": "08:00–20:00", "di": "08:00–20:00", "wo": "08:00–20:00", "do": "08:00–20:00", "vr": "08:00–20:00", "za": "08:00–20:00", "zo": "10:00–18:00"}, "latitude": 52.9667903, "longitude": 5.7984041, "bronId": "253362"}}, {"type": "Feature", "geometry": {"type": "Point", "coordinates": [5.7081138, 52.8436736]}, "properties": {"type": "inleverpunt", "locatieNaam": "Aldi", "straatNaam": "Stationsweg", "straatNr": "6", "postcode": "8531 HH", "plaats": "Lemmer", "merk": "StatiegeldNederland", "puntType": "automaat", "materialen": ["pet-groot", "pet-klein", "blik", "glas", "krat"], "uitbetaling": ["bonnetje"], "vrijToegankelijk": true, "gemeenteBeperking": null, "openingstijden": {"ma": "08:00–20:00", "di": "08:00–20:00", "wo": "08:00–20:00", "do": "08:00–20:00", "vr": "08:00–20:00", "za": "08:00–20:00", "zo": "10:00–18:00"}, "latitude": 52.8436736, "longitude": 5.7081138, "bronId": "253381"}}, {"type": "Feature", "geometry": {"type": "Point", "coordinates": [5.7137552, 52.8439364]}, "properties": {"type": "inleverpunt", "locatieNaam": "Ekoplaza", "straatNaam": "VISSERSBUREN", "straatNr": "32", "postcode": "8531 EC", "plaats": "Lemmer", "merk": "StatiegeldNederland", "puntType": "balie", "materialen": ["pet-groot", "pet-klein", "blik"], "uitbetaling": [], "vrijToegankelijk": true, "gemeenteBeperking": null, "openingstijden": {"ma": "09:00–18:00", "di": "09:00–18:00", "wo": "09:00–18:00", "do": "09:00–18:00", "vr": "09:00–18:00", "za": "09:00–17:00", "zo": "Gesloten"}, "latitude": 52.8439364, "longitude": 5.7137552, "bronId": "254695"}}, {"type": "Feature", "geometry": {"type": "Point", "coordinates": [5.740684, 52.923021]}, "properties": {"type": "inleverpunt", "locatieNaam": "Jumbo", "straatNaam": "Molewei", "straatNr": "1", "postcode": "8521 KD", "plaats": "Sint Nicolaasga", "merk": "StatiegeldNederland", "puntType": "automaat", "materialen": ["pet-groot", "pet-klein", "blik", "glas", "krat"], "uitbetaling": ["bonnetje"], "vrijToegankelijk": true, "gemeenteBeperking": null, "openingstijden": {"ma": "08:00–20:00", "di": "08:00–20:00", "wo": "08:00–20:00", "do": "08:00–20:00", "vr": "08:00–21:00", "za": "08:00–20:00", "zo": "10:00–18:00"}, "latitude": 52.923021, "longitude": 5.740684, "bronId": "255603"}}, {"type": "Feature", "geometry": {"type": "Point", "coordinates": [5.70864, 52.843464]}, "properties": {"type": "inleverpunt", "locatieNaam": "Jumbo", "straatNaam": "Stationsweg", "straatNr": "4", "postcode": "8531 HH", "plaats": "Lemmer", "merk": "StatiegeldNederland", "puntType": "automaat", "materialen": ["pet-groot", "pet-klein", "blik", "glas", "krat"], "uitbetaling": ["bonnetje"], "vrijToegankelijk": true, "gemeenteBeperking": null, "openingstijden": {"ma": "08:00–21:00", "di": "08:00–21:00", "wo": "08:00–21:00", "do": "08:00–21:00", "vr": "08:00–21:00", "za": "08:00–21:00", "zo": "08:00–18:00"}, "latitude": 52.843464, "longitude": 5.70864, "bronId": "255779"}}, {"type": "Feature", "geometry": {"type": "Point", "coordinates": [5.808165, 52.961306]}, "properties": {"type": "inleverpunt", "locatieNaam": "Jumbo", "straatNaam": "Geert Knolweg", "straatNr": "52a", "postcode": "8501 MK", "plaats": "Joure", "merk": "StatiegeldNederland", "puntType": "automaat", "materialen": ["pet-groot", "pet-klein", "blik", "glas", "krat"], "uitbetaling": ["bonnetje", "donatie", "tikkie"], "vrijToegankelijk": true, "gemeenteBeperking": null, "openingstijden": {"ma": "08:00–21:00", "di": "08:00–21:00", "wo": "08:00–21:00", "do": "08:00–21:00", "vr": "08:00–21:00", "za": "08:00–21:00", "zo": "09:00–19:00"}, "latitude": 52.961306, "longitude": 5.808165, "bronId": "255887"}}, {"type": "Feature", "geometry": {"type": "Point", "coordinates": [5.80128, 52.96536]}, "properties": {"type": "inleverpunt", "locatieNaam": "Lidl", "straatNaam": "E. A. Borgerstraat", "straatNr": "1-18", "postcode": "8501 NC", "plaats": "Joure", "merk": "StatiegeldNederland", "puntType": "automaat", "materialen": ["pet-groot", "pet-klein", "blik", "glas", "krat"], "uitbetaling": ["bonnetje", "donatie"], "vrijToegankelijk": true, "gemeenteBeperking": null, "openingstijden": {"ma": "08:00–20:00", "di": "08:00–20:00", "wo": "08:00–20:00", "do": "08:00–21:00", "vr": "08:00–21:00", "za": "08:00–20:00", "zo": "09:00–18:00"}, "latitude": 52.96536, "longitude": 5.80128, "bronId": "256139"}}, {"type": "Feature", "geometry": {"type": "Point", "coordinates": [5.70892, 52.8438]}, "properties": {"type": "inleverpunt", "locatieNaam": "Lidl", "straatNaam": "Tramweg", "straatNr": "16", "postcode": "8531 HK", "plaats": "Lemmer", "merk": "StatiegeldNederland", "puntType": "automaat", "materialen": ["pet-groot", "pet-klein", "blik", "glas", "krat"], "uitbetaling": ["bonnetje", "donatie"], "vrijToegankelijk": true, "gemeenteBeperking": null, "openingstijden": {"ma": "08:00–21:00", "di": "08:00–21:00", "wo": "08:00–21:00", "do": "08:00–21:00", "vr": "08:00–21:00", "za": "08:00–21:00", "zo": "08:00–18:00"}, "latitude": 52.8438, "longitude": 5.70892, "bronId": "256419"}}, {"type": "Feature", "geometry": {"type": "Point", "coordinates": [5.57485, 52.89863]}, "properties": {"type": "inleverpunt", "locatieNaam": "Lidl", "straatNaam": "Wilhelminastraat", "straatNr": "47", "postcode": "8561 AB", "plaats": "Balk", "merk": "StatiegeldNederland", "puntType": "automaat", "materialen": ["pet-groot", "pet-klein", "blik", "glas", "krat"], "uitbetaling": ["bonnetje", "donatie"], "vrijToegankelijk": true, "gemeenteBeperking": null, "openingstijden": {"ma": "07:30–21:00", "di": "07:30–21:00", "wo": "07:30–21:00", "do": "07:30–21:00", "vr": "07:30–21:00", "za": "07:30–21:00", "zo": "09:00–18:00"}, "latitude": 52.89863, "longitude": 5.57485, "bronId": "256467"}}, {"type": "Feature", "geometry": {"type": "Point", "coordinates": [5.7931444, 52.9706676]}, "properties": {"type": "inleverpunt", "locatieNaam": "Odin Joure", "straatNaam": "Tolhuswei", "straatNr": "2", "postcode": "8501 ZR", "plaats": "Joure", "merk": "StatiegeldNederland", "puntType": "balie", "materialen": ["pet-groot", "pet-klein", "blik"], "uitbetaling": [], "vrijToegankelijk": true, "gemeenteBeperking": null, "openingstijden": {"ma": "09:00–18:00", "di": "09:00–18:00", "wo": "09:00–18:00", "do": "09:00–18:00", "vr": "09:00–19:00", "za": "09:00–17:00", "zo": "Gesloten"}, "latitude": 52.9706676, "longitude": 5.7931444, "bronId": "256975"}}, {"type": "Feature", "geometry": {"type": "Point", "coordinates": [5.5842668, 52.8977846]}, "properties": {"type": "inleverpunt", "locatieNaam": "Plus", "straatNaam": "Bogermanstraat", "straatNr": "32", "postcode": "8561 BE", "plaats": "Balk", "merk": "StatiegeldNederland", "puntType": "automaat", "materialen": ["pet-groot", "pet-klein", "blik", "glas", "krat"], "uitbetaling": ["bonnetje", "donatie"], "vrijToegankelijk": true, "gemeenteBeperking": null, "openingstijden": {"ma": "08:00–20:00", "di": "08:00–20:00", "wo": "08:00–20:00", "do": "08:00–21:00", "vr": "08:00–21:00", "za": "08:00–21:00", "zo": "09:00–18:00"}, "latitude": 52.8977846, "longitude": 5.5842668, "bronId": "257209"}}, {"type": "Feature", "geometry": {"type": "Point", "coordinates": [5.79356, 52.96844]}, "properties": {"type": "inleverpunt", "locatieNaam": "Plus", "straatNaam": "Midstraat", "straatNr": "28-30", "postcode": "8501 AR", "plaats": "Joure", "merk": "StatiegeldNederland", "puntType": "automaat", "materialen": ["pet-groot", "pet-klein", "blik", "glas", "krat"], "uitbetaling": ["bonnetje", "donatie"], "vrijToegankelijk": true, "gemeenteBeperking": null, "openingstijden": {"ma": "08:00–20:00", "di": "08:00–20:00", "wo": "08:00–20:00", "do": "08:00–20:00", "vr": "08:00–21:00", "za": "08:00–20:00", "zo": "09:00–18:00"}, "latitude": 52.96844, "longitude": 5.79356, "bronId": "257428"}}, {"type": "Feature", "geometry": {"type": "Point", "coordinates": [5.5800365, 52.8987307]}, "properties": {"type": "inleverpunt", "locatieNaam": "Poiesz", "straatNaam": "F.D. Hoekstraplein", "straatNr": "5", "postcode": "8561 EP", "plaats": "Balk", "merk": "StatiegeldNederland", "puntType": "automaat", "materialen": ["pet-groot", "pet-klein", "blik", "glas", "krat"], "uitbetaling": ["bonnetje", "donatie"], "vrijToegankelijk": true, "gemeenteBeperking": null, "openingstijden": {"ma": "08:00–21:00", "di": "08:00–21:00", "wo": "08:00–21:00", "do": "08:00–21:00", "vr": "08:00–21:00", "za": "08:00–21:00", "zo": "09:00–20:00"}, "latitude": 52.8987307, "longitude": 5.5800365, "bronId": "257635"}}, {"type": "Feature", "geometry": {"type": "Point", "coordinates": [5.8721546, 52.95876]}, "properties": {"type": "inleverpunt", "locatieNaam": "Poiesz", "straatNaam": "Hasker Utgongen", "straatNr": "1", "postcode": "8465 SJ", "plaats": "Oudehaske", "merk": "StatiegeldNederland", "puntType": "automaat", "materialen": ["pet-groot", "pet-klein", "blik", "glas", "krat"], "uitbetaling": ["bonnetje", "donatie"], "vrijToegankelijk": true, "gemeenteBeperking": null, "openingstijden": {"ma": "08:00–21:00", "di": "08:00–21:00", "wo": "08:00–21:00", "do": "08:00–21:00", "vr": "08:00–21:00", "za": "08:00–21:00", "zo": "09:00–18:00"}, "latitude": 52.95876, "longitude": 5.8721546, "bronId": "257640"}}, {"type": "Feature", "geometry": {"type": "Point", "coordinates": [5.800904, 52.961085]}, "properties": {"type": "inleverpunt", "locatieNaam": "Poiesz", "straatNaam": "Koningin Julianalaan", "straatNr": "16", "postcode": "8501 HR", "plaats": "Joure", "merk": "StatiegeldNederland", "puntType": "automaat", "materialen": ["pet-groot", "pet-klein", "blik", "glas", "krat"], "uitbetaling": ["bonnetje", "donatie"], "vrijToegankelijk": true, "gemeenteBeperking": null, "openingstijden": {"ma": "08:00–20:00", "di": "08:00–20:00", "wo": "08:00–20:00", "do": "08:00–20:00", "vr": "08:00–20:00", "za": "08:00–20:00", "zo": "09:00–18:00"}, "latitude": 52.961085, "longitude": 5.800904, "bronId": "257660"}}, {"type": "Feature", "geometry": {"type": "Point", "coordinates": [5.7160229, 52.8431096]}, "properties": {"type": "inleverpunt", "locatieNaam": "Poiesz", "straatNaam": "Sluisweg", "straatNr": "3", "postcode": "8531 DJ", "plaats": "Lemmer", "merk": "StatiegeldNederland", "puntType": "automaat", "materialen": ["pet-groot", "pet-klein", "blik", "glas", "krat"], "uitbetaling": ["bonnetje", "donatie"], "vrijToegankelijk": true, "gemeenteBeperking": null, "openingstijden": {"ma": "08:00–20:00", "di": "08:00–20:00", "wo": "08:00–20:00", "do": "08:00–21:00", "vr": "08:00–21:00", "za": "08:00–20:00", "zo": "09:00–18:00"}, "latitude": 52.8431096, "longitude": 5.7160229, "bronId": "257686"}}, {"type": "Feature", "geometry": {"type": "Point", "coordinates": [5.7084648, 52.8538918]}, "properties": {"type": "inleverpunt", "locatieNaam": "Poiesz", "straatNaam": "Verlaet", "straatNr": "2-4", "postcode": "8532 BN", "plaats": "Lemmer", "merk": "StatiegeldNederland", "puntType": "automaat", "materialen": ["pet-groot", "pet-klein", "blik", "glas", "krat"], "uitbetaling": ["bonnetje", "donatie"], "vrijToegankelijk": true, "gemeenteBeperking": null, "openingstijden": {"ma": "08:00–21:00", "di": "08:00–21:00", "wo": "08:00–21:00", "do": "08:00–21:00", "vr": "08:00–21:00", "za": "08:00–21:00", "zo": "08:00–20:00"}, "latitude": 52.8538918, "longitude": 5.7084648, "bronId": "257694"}}, {"type": "Feature", "geometry": {"type": "Point", "coordinates": [5.5308333, 52.8527778]}, "properties": {"type": "inleverpunt", "locatieNaam": "S.v. Nok", "straatNaam": "Fonteinweg", "straatNr": "21", "postcode": "8567 JT", "plaats": "Oudemirdum", "merk": "StatiegeldNederland", "puntType": "balie", "materialen": ["pet-groot", "pet-klein", "blik"], "uitbetaling": [], "vrijToegankelijk": false, "gemeenteBeperking": null, "openingstijden": null, "latitude": 52.8527778, "longitude": 5.5308333, "bronId": "257928"}}, {"type": "Feature", "geometry": {"type": "Point", "coordinates": [5.822524, 52.872247]}, "properties": {"type": "inleverpunt", "locatieNaam": "Spar", "straatNaam": "Duimstraat", "straatNr": "51", "postcode": "8539 SC", "plaats": "Echtenerbrug", "merk": "StatiegeldNederland", "puntType": "automaat", "materialen": ["pet-groot", "pet-klein", "blik", "glas"], "uitbetaling": ["bonnetje"], "vrijToegankelijk": true, "gemeenteBeperking": null, "openingstijden": {"ma": "08:00–20:00", "di": "08:00–20:00", "wo": "08:00–20:00", "do": "08:00–20:00", "vr": "08:00–20:00", "za": "08:00–20:00", "zo": "08:00–19:00"}, "latitude": 52.872247, "longitude": 5.822524, "bronId": "258346"}}, {"type": "Feature", "geometry": {"type": "Point", "coordinates": [5.4589227, 52.8701314]}, "properties": {"type": "inleverpunt", "locatieNaam": "Spar", "straatNaam": "Sint Odulphusstraat", "straatNr": "18", "postcode": "8574 SV", "plaats": "Bakhuizen", "merk": "StatiegeldNederland", "puntType": "automaat", "materialen": ["pet-groot", "pet-klein", "blik", "glas", "krat"], "uitbetaling": ["bonnetje"], "vrijToegankelijk": true, "gemeenteBeperking": null, "openingstijden": {"ma": "08:00–19:00", "di": "08:00–19:00", "wo": "08:00–19:00", "do": "08:00–19:00", "vr": "08:00–19:00", "za": "08:00–19:00", "zo": "09:00–17:00"}, "latitude": 52.8701314, "longitude": 5.4589227, "bronId": "258466"}}, {"type": "Feature", "geometry": {"type": "Point", "coordinates": [5.8531422, 52.9295435]}, "properties": {"type": "inleverpunt", "locatieNaam": "Spar", "straatNaam": "STREEK", "straatNr": "131", "postcode": "8463 NG", "plaats": "Rotsterhaule", "merk": "StatiegeldNederland", "puntType": "balie", "materialen": ["pet-groot", "pet-klein", "blik"], "uitbetaling": [], "vrijToegankelijk": true, "gemeenteBeperking": null, "openingstijden": {"ma": "08:00–19:00", "di": "08:00–19:00", "wo": "08:00–19:00", "do": "08:00–19:00", "vr": "08:00–19:00", "za": "08:00–18:00", "zo": "Gesloten"}, "latitude": 52.9295435, "longitude": 5.8531422, "bronId": "258471"}}, {"type": "Feature", "geometry": {"type": "Point", "coordinates": [5.7236535, 52.9588527]}, "properties": {"type": "inleverpunt", "locatieNaam": "Supermarkt Langweer Langweer - Buorren", "straatNaam": "Buorren", "straatNr": "24", "postcode": "8525 EC", "plaats": "Langweer", "merk": "StatiegeldNederland", "puntType": "automaat", "materialen": ["pet-groot", "pet-klein", "blik"], "uitbetaling": ["bonnetje", "donatie"], "vrijToegankelijk": true, "gemeenteBeperking": null, "openingstijden": null, "latitude": 52.9588527, "longitude": 5.7236535, "bronId": "258772"}}, {"type": "Feature", "geometry": {"type": "Point", "coordinates": [5.86424, 53.0007276]}, "properties": {"type": "inleverpunt", "locatieNaam": "ViaTim", "straatNaam": "Rusken", "straatNr": "4", "postcode": "8467 SX", "plaats": "Vegelinsoord", "merk": "StatiegeldNederland", "puntType": "balie", "materialen": ["pet-groot", "pet-klein", "blik"], "uitbetaling": ["tikkie"], "vrijToegankelijk": true, "gemeenteBeperking": null, "openingstijden": {"ma": "16:00–21:00", "di": "16:00–21:00", "wo": "16:00–21:00", "do": "16:00–21:00", "vr": "16:00–21:00", "za": "Gesloten", "zo": "Gesloten"}, "latitude": 53.0007276, "longitude": 5.86424, "bronId": "259474"}}, {"type": "Feature", "geometry": {"type": "Point", "coordinates": [5.7060997, 52.8491214]}, "properties": {"type": "inleverpunt", "locatieNaam": "ViaTim", "straatNaam": "Urkerstraat", "straatNr": "37", "postcode": "8531 LD", "plaats": "Lemmer", "merk": "StatiegeldNederland", "puntType": "balie", "materialen": ["pet-groot", "pet-klein", "blik"], "uitbetaling": ["tikkie"], "vrijToegankelijk": true, "gemeenteBeperking": null, "openingstijden": null, "latitude": 52.8491214, "longitude": 5.7060997, "bronId": "259503"}}, {"type": "Feature", "geometry": {"type": "Point", "coordinates": [5.7352478, 52.924982]}, "properties": {"type": "inleverpunt", "locatieNaam": "Voetbalvereniging Renado", "straatNaam": "Groenendal", "straatNr": "47", "postcode": "8521 LJ", "plaats": "Sint Nicolaasga", "merk": "StatiegeldNederland", "puntType": "balie", "materialen": ["pet-groot", "pet-klein", "blik"], "uitbetaling": [], "vrijToegankelijk": false, "gemeenteBeperking": null, "openingstijden": null, "latitude": 52.924982, "longitude": 5.7352478, "bronId": "259602"}}, {"type": "Feature", "geometry": {"type": "Point", "coordinates": [5.7775897, 52.8744352]}, "properties": {"type": "inleverpunt", "locatieNaam": "Vv Easterse Bantega Combinatie", "straatNaam": "Herenweg", "straatNr": "65B", "postcode": "8536 TT", "plaats": "Oosterzee", "merk": "StatiegeldNederland", "puntType": "balie", "materialen": ["pet-groot", "pet-klein", "blik"], "uitbetaling": [], "vrijToegankelijk": false, "gemeenteBeperking": null, "openingstijden": {"ma": "Gesloten", "di": "Gesloten", "wo": "Gesloten", "do": "Gesloten", "vr": "Gesloten", "za": "09:00–17:00", "zo": "Gesloten"}, "latitude": 52.8744352, "longitude": 5.7775897, "bronId": "259771"}}, {"type": "Feature", "geometry": {"type": "Point", "coordinates": [5.533834, 52.849143]}, "properties": {"type": "inleverpunt", "locatieNaam": "Bokma Technisch bedrijf", "straatNaam": "De Brink", "straatNr": "5", "postcode": "8567 JD", "plaats": "Oudemirdum", "merk": "StichtingOPEN", "puntType": "balie", "materialen": ["batterijen", "elektro-groot", "elektro-klein", "elektro-middel", "lampen", "tl-buizen"], "uitbetaling": [], "vrijToegankelijk": false, "gemeenteBeperking": null, "openingstijden": null, "latitude": 52.849143, "longitude": 5.533834, "bronId": "SP00002633"}}, {"type": "Feature", "geometry": {"type": "Point", "coordinates": [5.458765, 52.869989]}, "properties": {"type": "inleverpunt", "locatieNaam": "Spar Bakhuizen", "straatNaam": "Sint Odulphusstraat", "straatNr": "18", "postcode": "8574 SV", "plaats": "Bakhuizen", "merk": "StichtingOPEN", "puntType": "balie", "materialen": ["batterijen", "lampen"], "uitbetaling": [], "vrijToegankelijk": false, "gemeenteBeperking": null, "openingstijden": null, "latitude": 52.869989, "longitude": 5.458765, "bronId": "SP00022472"}}, {"type": "Feature", "geometry": {"type": "Point", "coordinates": [5.718824, 52.837862]}, "properties": {"type": "inleverpunt", "locatieNaam": "Kringloop Lemmer", "straatNaam": "Lemsterpad", "straatNr": "22", "postcode": "8531 AA", "plaats": "Lemmer", "merk": "StichtingOPEN", "puntType": "balie", "materialen": ["batterijen", "elektro-groot", "elektro-klein", "elektro-middel", "lampen", "tl-buizen"], "uitbetaling": [], "vrijToegankelijk": false, "gemeenteBeperking": null, "openingstijden": null, "latitude": 52.837862, "longitude": 5.718824, "bronId": "SP00020072"}}, {"type": "Feature", "geometry": {"type": "Point", "coordinates": [5.708103, 52.843676]}, "properties": {"type": "inleverpunt", "locatieNaam": "Aldi Lemmer", "straatNaam": "Stationsweg", "straatNr": "6", "postcode": "8531 HH", "plaats": "Lemmer", "merk": "StichtingOPEN", "puntType": "balie", "materialen": ["batterijen", "elektro-klein", "lampen"], "uitbetaling": [], "vrijToegankelijk": false, "gemeenteBeperking": null, "openingstijden": null, "latitude": 52.843676, "longitude": 5.708103, "bronId": "SP00026910"}}, {"type": "Feature", "geometry": {"type": "Point", "coordinates": [5.708218, 52.843674]}, "properties": {"type": "inleverpunt", "locatieNaam": "Jumbo Lemmer", "straatNaam": "Stationsweg", "straatNr": "4", "postcode": "8531 HH", "plaats": "Lemmer", "merk": "StichtingOPEN", "puntType": "balie", "materialen": ["batterijen", "lampen"], "uitbetaling": [], "vrijToegankelijk": false, "gemeenteBeperking": null, "openingstijden": null, "latitude": 52.843674, "longitude": 5.708218, "bronId": "SP00025359"}}, {"type": "Feature", "geometry": {"type": "Point", "coordinates": [5.709393, 52.84374]}, "properties": {"type": "inleverpunt", "locatieNaam": "Action Lemmer 1019", "straatNaam": "Tramweg", "straatNr": "6", "postcode": "8531 HK", "plaats": "Lemmer", "merk": "StichtingOPEN", "puntType": "balie", "materialen": ["batterijen", "lampen"], "uitbetaling": [], "vrijToegankelijk": false, "gemeenteBeperking": null, "openingstijden": null, "latitude": 52.84374, "longitude": 5.709393, "bronId": "SP00007622"}}, {"type": "Feature", "geometry": {"type": "Point", "coordinates": [5.710299, 52.844106]}, "properties": {"type": "inleverpunt", "locatieNaam": "Expert Lemmer", "straatNaam": "Schulpen", "straatNr": "9", "postcode": "8531 HR", "plaats": "Lemmer", "merk": "StichtingOPEN", "puntType": "balie", "materialen": ["elektro-middel", "lampen"], "uitbetaling": [], "vrijToegankelijk": false, "gemeenteBeperking": null, "openingstijden": null, "latitude": 52.844106, "longitude": 5.710299, "bronId": "SP00002650"}}, {"type": "Feature", "geometry": {"type": "Point", "coordinates": [5.716591, 52.84282]}, "properties": {"type": "inleverpunt", "locatieNaam": "Poiesz Lemmer", "straatNaam": "Sluisweg", "straatNr": "3", "postcode": "8531 DJ", "plaats": "Lemmer", "merk": "StichtingOPEN", "puntType": "balie", "materialen": ["batterijen", "lampen"], "uitbetaling": [], "vrijToegankelijk": false, "gemeenteBeperking": null, "openingstijden": null, "latitude": 52.84282, "longitude": 5.716591, "bronId": "SP00023765"}}, {"type": "Feature", "geometry": {"type": "Point", "coordinates": [5.713988, 52.843939]}, "properties": {"type": "inleverpunt", "locatieNaam": "IJzerhandel Gort", "straatNaam": "Vissersburen", "straatNr": "30", "postcode": "8531 EC", "plaats": "Lemmer", "merk": "StichtingOPEN", "puntType": "balie", "materialen": ["batterijen", "elektro-klein", "elektro-middel", "lampen", "tl-buizen"], "uitbetaling": [], "vrijToegankelijk": false, "gemeenteBeperking": null, "openingstijden": null, "latitude": 52.843939, "longitude": 5.713988, "bronId": "SP00030756"}}, {"type": "Feature", "geometry": {"type": "Point", "coordinates": [5.707622, 52.853701]}, "properties": {"type": "inleverpunt", "locatieNaam": "Kruidvat Lemmer", "straatNaam": "Verlaet", "straatNr": "14", "postcode": "8532 BN", "plaats": "Lemmer", "merk": "StichtingOPEN", "puntType": "balie", "materialen": ["batterijen", "lampen"], "uitbetaling": [], "vrijToegankelijk": false, "gemeenteBeperking": null, "openingstijden": null, "latitude": 52.853701, "longitude": 5.707622, "bronId": "SP00024807"}}, {"type": "Feature", "geometry": {"type": "Point", "coordinates": [5.708425, 52.854049]}, "properties": {"type": "inleverpunt", "locatieNaam": "Poiesz Lemmer", "straatNaam": "Verlaet", "straatNr": "24", "postcode": "8532 BN", "plaats": "Lemmer", "merk": "StichtingOPEN", "puntType": "balie", "materialen": ["batterijen", "lampen"], "uitbetaling": [], "vrijToegankelijk": false, "gemeenteBeperking": null, "openingstijden": null, "latitude": 52.854049, "longitude": 5.708425, "bronId": "SP00023766"}}, {"type": "Feature", "geometry": {"type": "Point", "coordinates": [5.718737, 52.854169]}, "properties": {"type": "inleverpunt", "locatieNaam": "KARWEI Lemmer", "straatNaam": "Houtsaachmole", "straatNr": "8", "postcode": "8531 WC", "plaats": "Lemmer", "merk": "StichtingOPEN", "puntType": "balie", "materialen": ["elektro-middel", "lampen", "tl-buizen"], "uitbetaling": [], "vrijToegankelijk": false, "gemeenteBeperking": null, "openingstijden": null, "latitude": 52.854169, "longitude": 5.718737, "bronId": "SP00003638"}}, {"type": "Feature", "geometry": {"type": "Point", "coordinates": [5.7196, 52.854716]}, "properties": {"type": "inleverpunt", "locatieNaam": "Lemmer Welkoop", "straatNaam": "Houtsaachmole", "straatNr": "10", "postcode": "8531 WC", "plaats": "Lemmer", "merk": "StichtingOPEN", "puntType": "balie", "materialen": ["elektro-middel", "lampen", "tl-buizen"], "uitbetaling": [], "vrijToegankelijk": false, "gemeenteBeperking": null, "openingstijden": null, "latitude": 52.854716, "longitude": 5.7196, "bronId": "SP00006789"}}, {"type": "Feature", "geometry": {"type": "Point", "coordinates": [5.579319, 52.897567]}, "properties": {"type": "inleverpunt", "locatieNaam": "Fa. Haantjes", "straatNaam": "Van Swinderenstraat", "straatNr": "51-54", "postcode": "8561 AS", "plaats": "Balk", "merk": "StichtingOPEN", "puntType": "balie", "materialen": ["elektro-middel", "lampen"], "uitbetaling": [], "vrijToegankelijk": false, "gemeenteBeperking": null, "openingstijden": null, "latitude": 52.897567, "longitude": 5.579319, "bronId": "SP00003613"}}, {"type": "Feature", "geometry": {"type": "Point", "coordinates": [5.57994, 52.89813]}, "properties": {"type": "inleverpunt", "locatieNaam": "Kruidvat Balk", "straatNaam": "van Swinderenstraat", "straatNr": "39", "postcode": "8561 AR", "plaats": "Balk", "merk": "StichtingOPEN", "puntType": "balie", "materialen": ["batterijen", "lampen"], "uitbetaling": [], "vrijToegankelijk": false, "gemeenteBeperking": null, "openingstijden": null, "latitude": 52.89813, "longitude": 5.57994, "bronId": "SP00029660"}}, {"type": "Feature", "geometry": {"type": "Point", "coordinates": [5.584407, 52.897835]}, "properties": {"type": "inleverpunt", "locatieNaam": "Plus Balk", "straatNaam": "Bogermanstraat", "straatNr": "32", "postcode": "8561 BL", "plaats": "Balk", "merk": "StichtingOPEN", "puntType": "balie", "materialen": ["batterijen", "lampen"], "uitbetaling": [], "vrijToegankelijk": false, "gemeenteBeperking": null, "openingstijden": null, "latitude": 52.897835, "longitude": 5.584407, "bronId": "SP00023999"}}, {"type": "Feature", "geometry": {"type": "Point", "coordinates": [5.580021, 52.898826]}, "properties": {"type": "inleverpunt", "locatieNaam": "Poiesz Balk", "straatNaam": "F.D. Hoekstraplein", "straatNr": "5", "postcode": "8561 EP", "plaats": "Balk", "merk": "StichtingOPEN", "puntType": "balie", "materialen": ["batterijen", "lampen"], "uitbetaling": [], "vrijToegankelijk": false, "gemeenteBeperking": null, "openingstijden": null, "latitude": 52.898826, "longitude": 5.580021, "bronId": "SP00023769"}}, {"type": "Feature", "geometry": {"type": "Point", "coordinates": [5.585885, 52.900588]}, "properties": {"type": "inleverpunt", "locatieNaam": "65720 Hubo Balk", "straatNaam": "Meerweg", "straatNr": "25", "postcode": "8561 AV", "plaats": "Balk", "merk": "StichtingOPEN", "puntType": "balie", "materialen": ["elektro-middel", "lampen", "tl-buizen"], "uitbetaling": [], "vrijToegankelijk": false, "gemeenteBeperking": null, "openingstijden": null, "latitude": 52.900588, "longitude": 5.585885, "bronId": "SP00007923"}}, {"type": "Feature", "geometry": {"type": "Point", "coordinates": [5.822847, 52.872003]}, "properties": {"type": "inleverpunt", "locatieNaam": "MHK Keukenexpert H. Wiarda", "straatNaam": "Duimstraat", "straatNr": "26", "postcode": "8539 SE", "plaats": "Echtenerbrug", "merk": "StichtingOPEN", "puntType": "balie", "materialen": ["elektro-middel", "lampen", "tl-buizen"], "uitbetaling": [], "vrijToegankelijk": false, "gemeenteBeperking": null, "openingstijden": null, "latitude": 52.872003, "longitude": 5.822847, "bronId": "SP00002720"}}, {"type": "Feature", "geometry": {"type": "Point", "coordinates": [5.822455, 52.872253]}, "properties": {"type": "inleverpunt", "locatieNaam": "Spar Echtenerbrug", "straatNaam": "Duimstraat", "straatNr": "51", "postcode": "8539 SC", "plaats": "Echtenerbrug", "merk": "StichtingOPEN", "puntType": "balie", "materialen": ["batterijen", "lampen"], "uitbetaling": [], "vrijToegankelijk": false, "gemeenteBeperking": null, "openingstijden": null, "latitude": 52.872253, "longitude": 5.822455, "bronId": "SP00022473"}}, {"type": "Feature", "geometry": {"type": "Point", "coordinates": [5.740424, 52.923091]}, "properties": {"type": "inleverpunt", "locatieNaam": "Jumbo Sint Nicolaasga", "straatNaam": "Molewei", "straatNr": "1", "postcode": "8521 KD", "plaats": "Sint Nicolaasga", "merk": "StichtingOPEN", "puntType": "balie", "materialen": ["batterijen", "lampen"], "uitbetaling": [], "vrijToegankelijk": false, "gemeenteBeperking": null, "openingstijden": null, "latitude": 52.923091, "longitude": 5.740424, "bronId": "SP00025366"}}, {"type": "Feature", "geometry": {"type": "Point", "coordinates": [5.853142, 52.929543]}, "properties": {"type": "inleverpunt", "locatieNaam": "Spar Rotsterhaule", "straatNaam": "Streek", "straatNr": "131", "postcode": "8463 NG", "plaats": "Rotsterhaule", "merk": "StichtingOPEN", "puntType": "balie", "materialen": ["batterijen", "lampen"], "uitbetaling": [], "vrijToegankelijk": false, "gemeenteBeperking": null, "openingstijden": null, "latitude": 52.929543, "longitude": 5.853142, "bronId": "SP00025884"}}, {"type": "Feature", "geometry": {"type": "Point", "coordinates": [5.80096, 52.961179]}, "properties": {"type": "inleverpunt", "locatieNaam": "Poiesz Joure", "straatNaam": "Koningin Julianalaan", "straatNr": "16", "postcode": "8501 HR", "plaats": "Joure", "merk": "StichtingOPEN", "puntType": "balie", "materialen": ["batterijen", "lampen"], "uitbetaling": [], "vrijToegankelijk": false, "gemeenteBeperking": null, "openingstijden": null, "latitude": 52.961179, "longitude": 5.80096, "bronId": "SP00023775"}}, {"type": "Feature", "geometry": {"type": "Point", "coordinates": [5.808753, 52.961116]}, "properties": {"type": "inleverpunt", "locatieNaam": "Jumbo Joure", "straatNaam": "Geert Knolweg", "straatNr": "52a", "postcode": "8501 MK", "plaats": "Joure", "merk": "StichtingOPEN", "puntType": "balie", "materialen": ["batterijen", "lampen"], "uitbetaling": [], "vrijToegankelijk": false, "gemeenteBeperking": null, "openingstijden": null, "latitude": 52.961116, "longitude": 5.808753, "bronId": "SP00025368"}}, {"type": "Feature", "geometry": {"type": "Point", "coordinates": [5.799486, 52.965795]}, "properties": {"type": "inleverpunt", "locatieNaam": "Action Joure 1052", "straatNaam": "Roggemolenstraat", "straatNr": "2-6", "postcode": "8501 CC", "plaats": "Joure", "merk": "StichtingOPEN", "puntType": "balie", "materialen": ["lampen"], "uitbetaling": [], "vrijToegankelijk": false, "gemeenteBeperking": null, "openingstijden": null, "latitude": 52.965795, "longitude": 5.799486, "bronId": "SP00007652"}}, {"type": "Feature", "geometry": {"type": "Point", "coordinates": [5.799486, 52.965795]}, "properties": {"type": "inleverpunt", "locatieNaam": "Action Joure", "straatNaam": "Roggemolenstraat", "straatNr": "26", "postcode": "8501 CC", "plaats": "Joure", "merk": "StichtingOPEN", "puntType": "balie", "materialen": ["batterijen", "lampen"], "uitbetaling": [], "vrijToegankelijk": false, "gemeenteBeperking": null, "openingstijden": null, "latitude": 52.965795, "longitude": 5.799486, "bronId": "SP00025556"}}, {"type": "Feature", "geometry": {"type": "Point", "coordinates": [5.79631, 52.967167]}, "properties": {"type": "inleverpunt", "locatieNaam": "Electroworld Gebr. de Boer", "straatNaam": "Midstraat", "straatNr": "11912", "postcode": "8501 AJ", "plaats": "Joure", "merk": "StichtingOPEN", "puntType": "balie", "materialen": ["elektro-middel", "lampen"], "uitbetaling": [], "vrijToegankelijk": false, "gemeenteBeperking": null, "openingstijden": null, "latitude": 52.967167, "longitude": 5.79631, "bronId": "SP00002213"}}, {"type": "Feature", "geometry": {"type": "Point", "coordinates": [5.798331, 52.96689]}, "properties": {"type": "inleverpunt", "locatieNaam": "Aldi Joure", "straatNaam": "Sinnebuorren", "straatNr": "10", "postcode": "8501 CB", "plaats": "Joure", "merk": "StichtingOPEN", "puntType": "balie", "materialen": ["batterijen", "elektro-klein", "lampen"], "uitbetaling": [], "vrijToegankelijk": false, "gemeenteBeperking": null, "openingstijden": null, "latitude": 52.96689, "longitude": 5.798331, "bronId": "SP00026901"}}, {"type": "Feature", "geometry": {"type": "Point", "coordinates": [5.793466, 52.968306]}, "properties": {"type": "inleverpunt", "locatieNaam": "8749 Albert Heijn Joure", "straatNaam": "Midstraat", "straatNr": "2830", "postcode": "8501 AR", "plaats": "Joure", "merk": "StichtingOPEN", "puntType": "balie", "materialen": ["batterijen", "elektro-klein", "lampen"], "uitbetaling": [], "vrijToegankelijk": false, "gemeenteBeperking": null, "openingstijden": null, "latitude": 52.968306, "longitude": 5.793466, "bronId": "SP00023354"}}, {"type": "Feature", "geometry": {"type": "Point", "coordinates": [5.79426, 52.96832]}, "properties": {"type": "inleverpunt", "locatieNaam": "Kruidvat Joure", "straatNaam": "Midstraat", "straatNr": "55", "postcode": "8501 AE", "plaats": "Joure", "merk": "StichtingOPEN", "puntType": "balie", "materialen": ["batterijen", "lampen"], "uitbetaling": [], "vrijToegankelijk": false, "gemeenteBeperking": null, "openingstijden": null, "latitude": 52.96832, "longitude": 5.79426, "bronId": "SP00029669"}}, {"type": "Feature", "geometry": {"type": "Point", "coordinates": [5.828373, 52.962505]}, "properties": {"type": "inleverpunt", "locatieNaam": "Groenovatie B.V.", "straatNaam": "Tjeukemeer", "straatNr": "3G", "postcode": "8502 TH", "plaats": "Joure", "merk": "StichtingOPEN", "puntType": "balie", "materialen": ["lampen", "tl-buizen"], "uitbetaling": [], "vrijToegankelijk": false, "gemeenteBeperking": null, "openingstijden": null, "latitude": 52.962505, "longitude": 5.828373, "bronId": "SP00027571"}}, {"type": "Feature", "geometry": {"type": "Point", "coordinates": [5.823318, 52.964195]}, "properties": {"type": "inleverpunt", "locatieNaam": "KARWEI Joure", "straatNaam": "Firmawei", "straatNr": "2", "postcode": "8501 XL", "plaats": "Joure", "merk": "StichtingOPEN", "puntType": "balie", "materialen": ["elektro-middel", "lampen", "tl-buizen"], "uitbetaling": [], "vrijToegankelijk": false, "gemeenteBeperking": null, "openingstijden": null, "latitude": 52.964195, "longitude": 5.823318, "bronId": "SP00003697"}}, {"type": "Feature", "geometry": {"type": "Point", "coordinates": [5.871877, 52.958614]}, "properties": {"type": "inleverpunt", "locatieNaam": "Poiesz Oudehaske", "straatNaam": "Hasker Utgongen", "straatNr": "1", "postcode": "8465 SJ", "plaats": "Oudehaske", "merk": "StichtingOPEN", "puntType": "balie", "materialen": ["batterijen", "elektro-klein", "lampen"], "uitbetaling": [], "vrijToegankelijk": false, "gemeenteBeperking": null, "openingstijden": null, "latitude": 52.958614, "longitude": 5.871877, "bronId": "SP00023774"}}, {"type": "Feature", "geometry": {"type": "Point", "coordinates": [5.529068, 52.8492782]}, "properties": {"type": "inleverpunt", "locatieNaam": "Lekker makkelijk Hamstra", "straatNaam": "Jan Schotanuswei", "straatNr": "23", "postcode": "8567 LA", "plaats": "OUDEMIRDUM", "merk": "Stibat", "puntType": "inzamelbak", "materialen": ["batterijen"], "uitbetaling": [], "vrijToegankelijk": false, "gemeenteBeperking": null, "openingstijden": null, "latitude": 52.8492782, "longitude": 5.529068, "bronId": "L045918"}}, {"type": "Feature", "geometry": {"type": "Point", "coordinates": [5.5325841, 52.8497792]}, "properties": {"type": "inleverpunt", "locatieNaam": "Fietshoekje", "straatNaam": "Fonteinwei", "straatNr": "1", "postcode": "8567 JT", "plaats": "OUDEMIRDUM", "merk": "Stibat", "puntType": "inzamelbak", "materialen": ["batterijen"], "uitbetaling": [], "vrijToegankelijk": false, "gemeenteBeperking": null, "openingstijden": null, "latitude": 52.8497792, "longitude": 5.5325841, "bronId": "L034155"}}, {"type": "Feature", "geometry": {"type": "Point", "coordinates": [5.4590025, 52.8702506]}, "properties": {"type": "inleverpunt", "locatieNaam": "Spar", "straatNaam": "St. Odulphusstraat", "straatNr": "18", "postcode": "8574 SV", "plaats": "BAKHUIZEN", "merk": "Stibat", "puntType": "inzamelbak", "materialen": ["batterijen"], "uitbetaling": [], "vrijToegankelijk": false, "gemeenteBeperking": null, "openingstijden": null, "latitude": 52.8702506, "longitude": 5.4590025, "bronId": "L005918"}}, {"type": "Feature", "geometry": {"type": "Point", "coordinates": [5.7086431, 52.8434667]}, "properties": {"type": "inleverpunt", "locatieNaam": "Jumbo", "straatNaam": "Stationsweg", "straatNr": "4", "postcode": "8531 HH", "plaats": "LEMMER", "merk": "Stibat", "puntType": "inzamelbak", "materialen": ["batterijen"], "uitbetaling": [], "vrijToegankelijk": false, "gemeenteBeperking": null, "openingstijden": null, "latitude": 52.8434667, "longitude": 5.7086431, "bronId": "L030719"}}, {"type": "Feature", "geometry": {"type": "Point", "coordinates": [5.7081031, 52.8436768]}, "properties": {"type": "inleverpunt", "locatieNaam": "Aldi", "straatNaam": "Stationsweg", "straatNr": "6", "postcode": "8531 HH", "plaats": "Lemmer", "merk": "Stibat", "puntType": "inzamelbak", "materialen": ["batterijen"], "uitbetaling": [], "vrijToegankelijk": false, "gemeenteBeperking": null, "openingstijden": null, "latitude": 52.8436768, "longitude": 5.7081031, "bronId": "L041557"}}, {"type": "Feature", "geometry": {"type": "Point", "coordinates": [5.7096115, 52.8436501]}, "properties": {"type": "inleverpunt", "locatieNaam": "1019 Action", "straatNaam": "Tramweg", "straatNr": "6", "postcode": "8531 HK", "plaats": "LEMMER", "merk": "Stibat", "puntType": "inzamelbak", "materialen": ["batterijen"], "uitbetaling": [], "vrijToegankelijk": false, "gemeenteBeperking": null, "openingstijden": null, "latitude": 52.8436501, "longitude": 5.7096115, "bronId": "L017245"}}, {"type": "Feature", "geometry": {"type": "Point", "coordinates": [5.7091215, 52.8437606]}, "properties": {"type": "inleverpunt", "locatieNaam": "Uw Eigen Drogist", "straatNaam": "Tramweg", "straatNr": "14", "postcode": "8531 HK", "plaats": "LEMMER", "merk": "Stibat", "puntType": "inzamelbak", "materialen": ["batterijen"], "uitbetaling": [], "vrijToegankelijk": false, "gemeenteBeperking": null, "openingstijden": null, "latitude": 52.8437606, "longitude": 5.7091215, "bronId": "L015183"}}, {"type": "Feature", "geometry": {"type": "Point", "coordinates": [5.7089296, 52.8438575]}, "properties": {"type": "inleverpunt", "locatieNaam": "Lidl", "straatNaam": "Tramweg", "straatNr": "16", "postcode": "8531 HK", "plaats": "LEMMER", "merk": "Stibat", "puntType": "inzamelbak", "materialen": ["batterijen"], "uitbetaling": [], "vrijToegankelijk": false, "gemeenteBeperking": null, "openingstijden": null, "latitude": 52.8438575, "longitude": 5.7089296, "bronId": "L019072"}}, {"type": "Feature", "geometry": {"type": "Point", "coordinates": [5.7114844, 52.8435775]}, "properties": {"type": "inleverpunt", "locatieNaam": "Top1Toys", "straatNaam": "Schans", "straatNr": "14", "postcode": "8531 DW", "plaats": "LEMMER", "merk": "Stibat", "puntType": "inzamelbak", "materialen": ["batterijen"], "uitbetaling": [], "vrijToegankelijk": false, "gemeenteBeperking": null, "openingstijden": null, "latitude": 52.8435775, "longitude": 5.7114844, "bronId": "L015783"}}, {"type": "Feature", "geometry": {"type": "Point", "coordinates": [5.7099679, 52.8438973]}, "properties": {"type": "inleverpunt", "locatieNaam": "Hulp bij Horen", "straatNaam": "Nieuwedijk", "straatNr": "3", "postcode": "8531 HK", "plaats": "LEMMER", "merk": "Stibat", "puntType": "inzamelbak", "materialen": ["batterijen"], "uitbetaling": [], "vrijToegankelijk": false, "gemeenteBeperking": null, "openingstijden": null, "latitude": 52.8438973, "longitude": 5.7099679, "bronId": "L032053"}}, {"type": "Feature", "geometry": {"type": "Point", "coordinates": [5.7098563, 52.8440071]}, "properties": {"type": "inleverpunt", "locatieNaam": "Zeeman", "straatNaam": "Nieuwedijk", "straatNr": "5b", "postcode": "8531 HK", "plaats": "LEMMER", "merk": "Stibat", "puntType": "inzamelbak", "materialen": ["batterijen"], "uitbetaling": [], "vrijToegankelijk": false, "gemeenteBeperking": null, "openingstijden": null, "latitude": 52.8440071, "longitude": 5.7098563, "bronId": "L038195"}}, {"type": "Feature", "geometry": {"type": "Point", "coordinates": [5.7103399, 52.8440859]}, "properties": {"type": "inleverpunt", "locatieNaam": "Expert", "straatNaam": "Schulpen", "straatNr": "9", "postcode": "8531 HR", "plaats": "LEMMER", "merk": "Stibat", "puntType": "inzamelbak", "materialen": ["batterijen"], "uitbetaling": [], "vrijToegankelijk": false, "gemeenteBeperking": null, "openingstijden": null, "latitude": 52.8440859, "longitude": 5.7103399, "bronId": "L010594"}}, {"type": "Feature", "geometry": {"type": "Point", "coordinates": [5.7162511, 52.8429804]}, "properties": {"type": "inleverpunt", "locatieNaam": "Poiesz", "straatNaam": "Sluisweg", "straatNr": "3", "postcode": "8531 DJ", "plaats": "LEMMER", "merk": "Stibat", "puntType": "inzamelbak", "materialen": ["batterijen"], "uitbetaling": [], "vrijToegankelijk": false, "gemeenteBeperking": null, "openingstijden": null, "latitude": 52.8429804, "longitude": 5.7162511, "bronId": "L019680"}}, {"type": "Feature", "geometry": {"type": "Point", "coordinates": [5.7132267, 52.8437034]}, "properties": {"type": "inleverpunt", "locatieNaam": "PuurApple.nl", "straatNaam": "Vissersburen", "straatNr": "13", "postcode": "8531 EB", "plaats": "LEMMER", "merk": "Stibat", "puntType": "inzamelbak", "materialen": ["batterijen"], "uitbetaling": [], "vrijToegankelijk": false, "gemeenteBeperking": null, "openingstijden": null, "latitude": 52.8437034, "longitude": 5.7132267, "bronId": "L049521"}}, {"type": "Feature", "geometry": {"type": "Point", "coordinates": [5.7137403, 52.8436202]}, "properties": {"type": "inleverpunt", "locatieNaam": "HEMA Vissersburen", "straatNaam": "Vissersburen", "straatNr": "7", "postcode": "8531 EB", "plaats": "LEMMER", "merk": "Stibat", "puntType": "inzamelbak", "materialen": ["batterijen"], "uitbetaling": [], "vrijToegankelijk": false, "gemeenteBeperking": null, "openingstijden": null, "latitude": 52.8436202, "longitude": 5.7137403, "bronId": "L012709"}}, {"type": "Feature", "geometry": {"type": "Point", "coordinates": [5.7166931, 52.8430531]}, "properties": {"type": "inleverpunt", "locatieNaam": "Bike Totaal Rodenburg", "straatNaam": "Sluisweg", "straatNr": "2", "postcode": "8531 DJ", "plaats": "LEMMER", "merk": "Stibat", "puntType": "inzamelbak", "materialen": ["batterijen"], "uitbetaling": [], "vrijToegankelijk": false, "gemeenteBeperking": null, "openingstijden": null, "latitude": 52.8430531, "longitude": 5.7166931, "bronId": "L047434"}}, {"type": "Feature", "geometry": {"type": "Point", "coordinates": [5.7114808, 52.8441373]}, "properties": {"type": "inleverpunt", "locatieNaam": "Primera", "straatNaam": "Markt", "straatNr": "2", "postcode": "8531 EA", "plaats": "LEMMER", "merk": "Stibat", "puntType": "inzamelbak", "materialen": ["batterijen"], "uitbetaling": [], "vrijToegankelijk": false, "gemeenteBeperking": null, "openingstijden": null, "latitude": 52.8441373, "longitude": 5.7114808, "bronId": "L024246"}}, {"type": "Feature", "geometry": {"type": "Point", "coordinates": [5.7093906, 52.8448538]}, "properties": {"type": "inleverpunt", "locatieNaam": "Rijwielhandel Boek", "straatNaam": "Langestreek", "straatNr": "7", "postcode": "8531 HV", "plaats": "LEMMER", "merk": "Stibat", "puntType": "inzamelbak", "materialen": ["batterijen"], "uitbetaling": [], "vrijToegankelijk": false, "gemeenteBeperking": null, "openingstijden": null, "latitude": 52.8448538, "longitude": 5.7093906, "bronId": "L049303"}}, {"type": "Feature", "geometry": {"type": "Point", "coordinates": [5.7107023, 52.8452447]}, "properties": {"type": "inleverpunt", "locatieNaam": "Schipperland Lemmer", "straatNaam": "Lijnbaan", "straatNr": "9", "postcode": "8531 JM", "plaats": "LEMMER", "merk": "Stibat", "puntType": "inzamelbak", "materialen": ["batterijen"], "uitbetaling": [], "vrijToegankelijk": false, "gemeenteBeperking": null, "openingstijden": null, "latitude": 52.8452447, "longitude": 5.7107023, "bronId": "L038681"}}, {"type": "Feature", "geometry": {"type": "Point", "coordinates": [5.7100068, 52.8456957]}, "properties": {"type": "inleverpunt", "locatieNaam": "4104 Albert Heijn", "straatNaam": "Schoolstraat", "straatNr": "12", "postcode": "8531 JW", "plaats": "LEMMER", "merk": "Stibat", "puntType": "inzamelbak", "materialen": ["batterijen"], "uitbetaling": [], "vrijToegankelijk": false, "gemeenteBeperking": null, "openingstijden": null, "latitude": 52.8456957, "longitude": 5.7100068, "bronId": "L045437"}}, {"type": "Feature", "geometry": {"type": "Point", "coordinates": [5.5928666, 52.8696351]}, "properties": {"type": "inleverpunt", "locatieNaam": "Recreatiecentrum Sondel B.V.", "straatNaam": "Beuckenswijkstraat", "straatNr": "26", "postcode": "8565 GN", "plaats": "SONDEL", "merk": "Stibat", "puntType": "inzamelbak", "materialen": ["batterijen"], "uitbetaling": [], "vrijToegankelijk": false, "gemeenteBeperking": null, "openingstijden": null, "latitude": 52.8696351, "longitude": 5.5928666, "bronId": "L004394"}}, {"type": "Feature", "geometry": {"type": "Point", "coordinates": [5.6644563, 52.8584956]}, "properties": {"type": "inleverpunt", "locatieNaam": "Overslagstation De Steke", "straatNaam": "Schuddingsteeg", "straatNr": "2", "postcode": "8531 RZ", "plaats": "LEMMER", "merk": "Stibat", "puntType": "inzamelbak", "materialen": ["batterijen"], "uitbetaling": [], "vrijToegankelijk": false, "gemeenteBeperking": null, "openingstijden": null, "latitude": 52.8584956, "longitude": 5.6644563, "bronId": "L035888"}}, {"type": "Feature", "geometry": {"type": "Point", "coordinates": [5.7078666, 52.8537293]}, "properties": {"type": "inleverpunt", "locatieNaam": "Kruidvat", "straatNaam": "Verlaet", "straatNr": "14", "postcode": "8532 BN", "plaats": "LEMMER", "merk": "Stibat", "puntType": "inzamelbak", "materialen": ["batterijen"], "uitbetaling": [], "vrijToegankelijk": false, "gemeenteBeperking": null, "openingstijden": null, "latitude": 52.8537293, "longitude": 5.7078666, "bronId": "L016306"}}, {"type": "Feature", "geometry": {"type": "Point", "coordinates": [5.7084254, 52.8540499]}, "properties": {"type": "inleverpunt", "locatieNaam": "Poiesz", "straatNaam": "Verlaet", "straatNr": "2", "postcode": "8532 BN", "plaats": "LEMMER", "merk": "Stibat", "puntType": "inzamelbak", "materialen": ["batterijen"], "uitbetaling": [], "vrijToegankelijk": false, "gemeenteBeperking": null, "openingstijden": null, "latitude": 52.8540499, "longitude": 5.7084254, "bronId": "L007614"}}, {"type": "Feature", "geometry": {"type": "Point", "coordinates": [5.7174054, 52.8533533]}, "properties": {"type": "inleverpunt", "locatieNaam": "Karwei", "straatNaam": "Houtsaachmole", "straatNr": "8", "postcode": "8531 WC", "plaats": "LEMMER", "merk": "Stibat", "puntType": "inzamelbak", "materialen": ["batterijen"], "uitbetaling": [], "vrijToegankelijk": false, "gemeenteBeperking": null, "openingstijden": null, "latitude": 52.8533533, "longitude": 5.7174054, "bronId": "L023585"}}, {"type": "Feature", "geometry": {"type": "Point", "coordinates": [5.718428, 52.8545176]}, "properties": {"type": "inleverpunt", "locatieNaam": "Welkoop", "straatNaam": "Houtsaachmole", "straatNr": "10", "postcode": "8531 WC", "plaats": "LEMMER", "merk": "Stibat", "puntType": "inzamelbak", "materialen": ["batterijen"], "uitbetaling": [], "vrijToegankelijk": false, "gemeenteBeperking": null, "openingstijden": null, "latitude": 52.8545176, "longitude": 5.718428, "bronId": "L018872"}}, {"type": "Feature", "geometry": {"type": "Point", "coordinates": [5.569584, 52.8945526]}, "properties": {"type": "inleverpunt", "locatieNaam": "Kringloopstation Gaasterlan-Sleat", "straatNaam": "Eigen Haard", "straatNr": "11", "postcode": "8561 EX", "plaats": "BALK", "merk": "Stibat", "puntType": "inzamelbak", "materialen": ["batterijen"], "uitbetaling": [], "vrijToegankelijk": false, "gemeenteBeperking": null, "openingstijden": null, "latitude": 52.8945526, "longitude": 5.569584, "bronId": "L035889"}}, {"type": "Feature", "geometry": {"type": "Point", "coordinates": [5.5784602, 52.8973797]}, "properties": {"type": "inleverpunt", "locatieNaam": "HEMA Balk", "straatNaam": "Van Swinderenstraat", "straatNr": "62", "postcode": "8561 AS", "plaats": "Balk", "merk": "Stibat", "puntType": "inzamelbak", "materialen": ["batterijen"], "uitbetaling": [], "vrijToegankelijk": false, "gemeenteBeperking": null, "openingstijden": null, "latitude": 52.8973797, "longitude": 5.5784602, "bronId": "L046886"}}, {"type": "Feature", "geometry": {"type": "Point", "coordinates": [5.5791083, 52.8974887]}, "properties": {"type": "inleverpunt", "locatieNaam": "Bergsma Vakman", "straatNaam": "Van Swinderenstraat", "straatNr": "55-5", "postcode": "8561 AS", "plaats": "BALK", "merk": "Stibat", "puntType": "inzamelbak", "materialen": ["batterijen"], "uitbetaling": [], "vrijToegankelijk": false, "gemeenteBeperking": null, "openingstijden": null, "latitude": 52.8974887, "longitude": 5.5791083, "bronId": "L027233"}}, {"type": "Feature", "geometry": {"type": "Point", "coordinates": [5.5793911, 52.8978177]}, "properties": {"type": "inleverpunt", "locatieNaam": "Mous Rijwielen", "straatNaam": "Van Swinderenstraat", "straatNr": "45", "postcode": "8561 AR", "plaats": "Balk", "merk": "Stibat", "puntType": "inzamelbak", "materialen": ["batterijen"], "uitbetaling": [], "vrijToegankelijk": false, "gemeenteBeperking": null, "openingstijden": null, "latitude": 52.8978177, "longitude": 5.5793911, "bronId": "L034154"}}, {"type": "Feature", "geometry": {"type": "Point", "coordinates": [5.5756197, 52.8985161]}, "properties": {"type": "inleverpunt", "locatieNaam": "Lidl", "straatNaam": "Wilhelminastraat", "straatNr": "47", "postcode": "8561 AB", "plaats": "BALK", "merk": "Stibat", "puntType": "inzamelbak", "materialen": ["batterijen"], "uitbetaling": [], "vrijToegankelijk": false, "gemeenteBeperking": null, "openingstijden": null, "latitude": 52.8985161, "longitude": 5.5756197, "bronId": "L022421"}}, {"type": "Feature", "geometry": {"type": "Point", "coordinates": [5.5836019, 52.8975628]}, "properties": {"type": "inleverpunt", "locatieNaam": "Plus", "straatNaam": "Bogermanstraat", "straatNr": "32", "postcode": "8561 BL", "plaats": "BALK", "merk": "Stibat", "puntType": "inzamelbak", "materialen": ["batterijen"], "uitbetaling": [], "vrijToegankelijk": false, "gemeenteBeperking": null, "openingstijden": null, "latitude": 52.8975628, "longitude": 5.5836019, "bronId": "L036811"}}, {"type": "Feature", "geometry": {"type": "Point", "coordinates": [5.5799387, 52.898127]}, "properties": {"type": "inleverpunt", "locatieNaam": "Kruidvat", "straatNaam": "Van Swinderenstraat", "straatNr": "39", "postcode": "8561 AR", "plaats": "BALK", "merk": "Stibat", "puntType": "inzamelbak", "materialen": ["batterijen"], "uitbetaling": [], "vrijToegankelijk": false, "gemeenteBeperking": null, "openingstijden": null, "latitude": 52.898127, "longitude": 5.5799387, "bronId": "L031782"}}, {"type": "Feature", "geometry": {"type": "Point", "coordinates": [5.5809564, 52.898367]}, "properties": {"type": "inleverpunt", "locatieNaam": "6258 Etos", "straatNaam": "Van Swinderenstraat", "straatNr": "22", "postcode": "8561 AR", "plaats": "BALK", "merk": "Stibat", "puntType": "inzamelbak", "materialen": ["batterijen"], "uitbetaling": [], "vrijToegankelijk": false, "gemeenteBeperking": null, "openingstijden": null, "latitude": 52.898367, "longitude": 5.5809564, "bronId": "L028929"}}, {"type": "Feature", "geometry": {"type": "Point", "coordinates": [5.5800892, 52.8986806]}, "properties": {"type": "inleverpunt", "locatieNaam": "Poiesz", "straatNaam": "F D Hoekstraplein", "straatNr": "5", "postcode": "8561 EP", "plaats": "BALK", "merk": "Stibat", "puntType": "inzamelbak", "materialen": ["batterijen"], "uitbetaling": [], "vrijToegankelijk": false, "gemeenteBeperking": null, "openingstijden": null, "latitude": 52.8986806, "longitude": 5.5800892, "bronId": "L019902"}}, {"type": "Feature", "geometry": {"type": "Point", "coordinates": [5.5815437, 52.8986932]}, "properties": {"type": "inleverpunt", "locatieNaam": "Bruna", "straatNaam": "Van Swinderenstraat", "straatNr": "13A", "postcode": "8561 AP", "plaats": "BALK", "merk": "Stibat", "puntType": "inzamelbak", "materialen": ["batterijen"], "uitbetaling": [], "vrijToegankelijk": false, "gemeenteBeperking": null, "openingstijden": null, "latitude": 52.8986932, "longitude": 5.5815437, "bronId": "L029075"}}, {"type": "Feature", "geometry": {"type": "Point", "coordinates": [5.6218336, 52.8931432]}, "properties": {"type": "inleverpunt", "locatieNaam": "Camping 't Hop", "straatNaam": "Meerenstein", "straatNr": "1", "postcode": "8563 AV", "plaats": "WIJCKEL", "merk": "Stibat", "puntType": "inzamelbak", "materialen": ["batterijen"], "uitbetaling": [], "vrijToegankelijk": false, "gemeenteBeperking": null, "openingstijden": null, "latitude": 52.8931432, "longitude": 5.6218336, "bronId": "L005206"}}, {"type": "Feature", "geometry": {"type": "Point", "coordinates": [5.5858858, 52.9005882]}, "properties": {"type": "inleverpunt", "locatieNaam": "Hubo", "straatNaam": "Meerweg", "straatNr": "25", "postcode": "8561 AV", "plaats": "BALK", "merk": "Stibat", "puntType": "inzamelbak", "materialen": ["batterijen"], "uitbetaling": [], "vrijToegankelijk": false, "gemeenteBeperking": null, "openingstijden": null, "latitude": 52.9005882, "longitude": 5.5858858, "bronId": "L040052"}}, {"type": "Feature", "geometry": {"type": "Point", "coordinates": [5.8230386, 52.8718997]}, "properties": {"type": "inleverpunt", "locatieNaam": "Hubo", "straatNaam": "Duimstraat", "straatNr": "26", "postcode": "8539 SE", "plaats": "ECHTENERBRUG", "merk": "Stibat", "puntType": "inzamelbak", "materialen": ["batterijen"], "uitbetaling": [], "vrijToegankelijk": false, "gemeenteBeperking": null, "openingstijden": null, "latitude": 52.8718997, "longitude": 5.8230386, "bronId": "L031621"}}, {"type": "Feature", "geometry": {"type": "Point", "coordinates": [5.8221245, 52.8722533]}, "properties": {"type": "inleverpunt", "locatieNaam": "Spar", "straatNaam": "Duimstraat", "straatNr": "51", "postcode": "8539 SC", "plaats": "ECHTENERBRUG", "merk": "Stibat", "puntType": "inzamelbak", "materialen": ["batterijen"], "uitbetaling": [], "vrijToegankelijk": false, "gemeenteBeperking": null, "openingstijden": null, "latitude": 52.8722533, "longitude": 5.8221245, "bronId": "L024934"}}, {"type": "Feature", "geometry": {"type": "Point", "coordinates": [5.739379, 52.9204728]}, "properties": {"type": "inleverpunt", "locatieNaam": "Tweewielerspecialist Nota", "straatNaam": "Lemmerweg", "straatNr": "48", "postcode": "8521 JP", "plaats": "SINT NICOLAASGA", "merk": "Stibat", "puntType": "inzamelbak", "materialen": ["batterijen"], "uitbetaling": [], "vrijToegankelijk": false, "gemeenteBeperking": null, "openingstijden": null, "latitude": 52.9204728, "longitude": 5.739379, "bronId": "L020877"}}, {"type": "Feature", "geometry": {"type": "Point", "coordinates": [5.7409276, 52.9207467]}, "properties": {"type": "inleverpunt", "locatieNaam": "Electro Specialist Minnema", "straatNaam": "Kade", "straatNr": "9", "postcode": "8521 JR", "plaats": "SINT NICOLAASGA", "merk": "Stibat", "puntType": "inzamelbak", "materialen": ["batterijen"], "uitbetaling": [], "vrijToegankelijk": false, "gemeenteBeperking": null, "openingstijden": null, "latitude": 52.9207467, "longitude": 5.7409276, "bronId": "L018771"}}, {"type": "Feature", "geometry": {"type": "Point", "coordinates": [5.7412664, 52.9221926]}, "properties": {"type": "inleverpunt", "locatieNaam": "Electro World", "straatNaam": "Lemmerweg", "straatNr": "11", "postcode": "8521 JL", "plaats": "SINT NICOLAASGA", "merk": "Stibat", "puntType": "inzamelbak", "materialen": ["batterijen"], "uitbetaling": [], "vrijToegankelijk": false, "gemeenteBeperking": null, "openingstijden": null, "latitude": 52.9221926, "longitude": 5.7412664, "bronId": "L016290"}}, {"type": "Feature", "geometry": {"type": "Point", "coordinates": [5.7409416, 52.9224811]}, "properties": {"type": "inleverpunt", "locatieNaam": "D.I.O.", "straatNaam": "Gaastweg", "straatNr": "1a", "postcode": "8521 JA", "plaats": "SINT NICOLAASGA", "merk": "Stibat", "puntType": "inzamelbak", "materialen": ["batterijen"], "uitbetaling": [], "vrijToegankelijk": false, "gemeenteBeperking": null, "openingstijden": null, "latitude": 52.9224811, "longitude": 5.7409416, "bronId": "L025597"}}, {"type": "Feature", "geometry": {"type": "Point", "coordinates": [5.7407228, 52.922994]}, "properties": {"type": "inleverpunt", "locatieNaam": "Jumbo", "straatNaam": "Molewei", "straatNr": "1", "postcode": "8521 KD", "plaats": "SINT NICOLAASGA", "merk": "Stibat", "puntType": "inzamelbak", "materialen": ["batterijen"], "uitbetaling": [], "vrijToegankelijk": false, "gemeenteBeperking": null, "openingstijden": null, "latitude": 52.922994, "longitude": 5.7407228, "bronId": "L030429"}}, {"type": "Feature", "geometry": {"type": "Point", "coordinates": [5.7083838, 52.929268]}, "properties": {"type": "inleverpunt", "locatieNaam": "Recreatiepark Idskenhuizen", "straatNaam": "Mastersein", "straatNr": "12", "postcode": "8523 NK", "plaats": "IDSKENHUIZEN", "merk": "Stibat", "puntType": "inzamelbak", "materialen": ["batterijen"], "uitbetaling": [], "vrijToegankelijk": false, "gemeenteBeperking": null, "openingstijden": null, "latitude": 52.929268, "longitude": 5.7083838, "bronId": "L003103"}}, {"type": "Feature", "geometry": {"type": "Point", "coordinates": [5.8487635, 52.9175226]}, "properties": {"type": "inleverpunt", "locatieNaam": "Roffel Tweewielers", "straatNaam": "Polle", "straatNr": "7", "postcode": "8463 TJ", "plaats": "ROTSTERHAULE", "merk": "Stibat", "puntType": "inzamelbak", "materialen": ["batterijen"], "uitbetaling": [], "vrijToegankelijk": false, "gemeenteBeperking": null, "openingstijden": null, "latitude": 52.9175226, "longitude": 5.8487635, "bronId": "L049517"}}, {"type": "Feature", "geometry": {"type": "Point", "coordinates": [5.8531422, 52.9295435]}, "properties": {"type": "inleverpunt", "locatieNaam": "Spar", "straatNaam": "Streek", "straatNr": "131", "postcode": "8463 NG", "plaats": "ROTSTERHAULE", "merk": "Stibat", "puntType": "inzamelbak", "materialen": ["batterijen"], "uitbetaling": [], "vrijToegankelijk": false, "gemeenteBeperking": null, "openingstijden": null, "latitude": 52.9295435, "longitude": 5.8531422, "bronId": "L039383"}}, {"type": "Feature", "geometry": {"type": "Point", "coordinates": [5.8009783, 52.9611633]}, "properties": {"type": "inleverpunt", "locatieNaam": "Poiesz", "straatNaam": "Koningin Julianalaan", "straatNr": "16", "postcode": "8501 HR", "plaats": "JOURE", "merk": "Stibat", "puntType": "inzamelbak", "materialen": ["batterijen"], "uitbetaling": [], "vrijToegankelijk": false, "gemeenteBeperking": null, "openingstijden": null, "latitude": 52.9611633, "longitude": 5.8009783, "bronId": "L006432"}}, {"type": "Feature", "geometry": {"type": "Point", "coordinates": [5.8081679, 52.9613089]}, "properties": {"type": "inleverpunt", "locatieNaam": "Jumbo", "straatNaam": "Geert Knolweg", "straatNr": "52a", "postcode": "8501 MK", "plaats": "JOURE", "merk": "Stibat", "puntType": "inzamelbak", "materialen": ["batterijen"], "uitbetaling": [], "vrijToegankelijk": false, "gemeenteBeperking": null, "openingstijden": null, "latitude": 52.9613089, "longitude": 5.8081679, "bronId": "L028855"}}, {"type": "Feature", "geometry": {"type": "Point", "coordinates": [5.7991375, 52.9650856]}, "properties": {"type": "inleverpunt", "locatieNaam": "Bike Totaal Rodenburg", "straatNaam": "De Merk", "straatNr": "2", "postcode": "8501 AN", "plaats": "JOURE", "merk": "Stibat", "puntType": "inzamelbak", "materialen": ["batterijen"], "uitbetaling": [], "vrijToegankelijk": false, "gemeenteBeperking": null, "openingstijden": null, "latitude": 52.9650856, "longitude": 5.7991375, "bronId": "L034148"}}, {"type": "Feature", "geometry": {"type": "Point", "coordinates": [5.7980928, 52.9660708]}, "properties": {"type": "inleverpunt", "locatieNaam": "Expert", "straatNaam": "Midstrraat", "straatNr": "124-126", "postcode": "8501 AV", "plaats": "JOURE", "merk": "Stibat", "puntType": "inzamelbak", "materialen": ["batterijen"], "uitbetaling": [], "vrijToegankelijk": false, "gemeenteBeperking": null, "openingstijden": null, "latitude": 52.9660708, "longitude": 5.7980928, "bronId": "L009606"}}, {"type": "Feature", "geometry": {"type": "Point", "coordinates": [5.8014026, 52.9653743]}, "properties": {"type": "inleverpunt", "locatieNaam": "Lidl", "straatNaam": "E.A. Borgerstraat", "straatNr": "1-0018", "postcode": "8501 NC", "plaats": "JOURE", "merk": "Stibat", "puntType": "inzamelbak", "materialen": ["batterijen"], "uitbetaling": [], "vrijToegankelijk": false, "gemeenteBeperking": null, "openingstijden": null, "latitude": 52.9653743, "longitude": 5.8014026, "bronId": "L031546"}}, {"type": "Feature", "geometry": {"type": "Point", "coordinates": [5.7994866, 52.9657955]}, "properties": {"type": "inleverpunt", "locatieNaam": "1052 Action", "straatNaam": "Roggemolenstraat", "straatNr": "2-6", "postcode": "8501 CC", "plaats": "JOURE", "merk": "Stibat", "puntType": "inzamelbak", "materialen": ["batterijen"], "uitbetaling": [], "vrijToegankelijk": false, "gemeenteBeperking": null, "openingstijden": null, "latitude": 52.9657955, "longitude": 5.7994866, "bronId": "L017475"}}, {"type": "Feature", "geometry": {"type": "Point", "coordinates": [5.7977374, 52.9662608]}, "properties": {"type": "inleverpunt", "locatieNaam": "Phone House", "straatNaam": "Midstraat", "straatNr": "116", "postcode": "8501 AV", "plaats": "Joure", "merk": "Stibat", "puntType": "inzamelbak", "materialen": ["batterijen"], "uitbetaling": [], "vrijToegankelijk": false, "gemeenteBeperking": null, "openingstijden": null, "latitude": 52.9662608, "longitude": 5.7977374, "bronId": "L024204"}}, {"type": "Feature", "geometry": {"type": "Point", "coordinates": [5.79801, 52.966459]}, "properties": {"type": "inleverpunt", "locatieNaam": "Hans Anders", "straatNaam": "Midstraat", "straatNr": "151", "postcode": "8501 AK", "plaats": "JOURE", "merk": "Stibat", "puntType": "inzamelbak", "materialen": ["batterijen"], "uitbetaling": [], "vrijToegankelijk": false, "gemeenteBeperking": null, "openingstijden": null, "latitude": 52.966459, "longitude": 5.79801, "bronId": "L037850"}}, {"type": "Feature", "geometry": {"type": "Point", "coordinates": [5.7974985, 52.9666286]}, "properties": {"type": "inleverpunt", "locatieNaam": "Trekpleister", "straatNaam": "Midstraat", "straatNr": "135a", "postcode": "8501 AK", "plaats": "JOURE", "merk": "Stibat", "puntType": "inzamelbak", "materialen": ["batterijen"], "uitbetaling": [], "vrijToegankelijk": false, "gemeenteBeperking": null, "openingstijden": null, "latitude": 52.9666286, "longitude": 5.7974985, "bronId": "L017772"}}, {"type": "Feature", "geometry": {"type": "Point", "coordinates": [5.7986077, 52.9664142]}, "properties": {"type": "inleverpunt", "locatieNaam": "8749 Albert Heijn", "straatNaam": "Sinnebuorren", "straatNr": "28", "postcode": "8501 CB", "plaats": "JOURE", "merk": "Stibat", "puntType": "inzamelbak", "materialen": ["batterijen"], "uitbetaling": [], "vrijToegankelijk": false, "gemeenteBeperking": null, "openingstijden": null, "latitude": 52.9664142, "longitude": 5.7986077, "bronId": "L007374"}}, {"type": "Feature", "geometry": {"type": "Point", "coordinates": [5.7973071, 52.9667511]}, "properties": {"type": "inleverpunt", "locatieNaam": "Schoonenberg", "straatNaam": "Midstraat", "straatNr": "131", "postcode": "8501 AK", "plaats": "JOURE", "merk": "Stibat", "puntType": "inzamelbak", "materialen": ["batterijen"], "uitbetaling": [], "vrijToegankelijk": false, "gemeenteBeperking": null, "openingstijden": null, "latitude": 52.9667511, "longitude": 5.7973071, "bronId": "L046580"}}, {"type": "Feature", "geometry": {"type": "Point", "coordinates": [5.796538, 52.9669209]}, "properties": {"type": "inleverpunt", "locatieNaam": "HEMA Midstraat", "straatNaam": "Midstraat", "straatNr": "94-96", "postcode": "8501 AT", "plaats": "JOURE", "merk": "Stibat", "puntType": "inzamelbak", "materialen": ["batterijen"], "uitbetaling": [], "vrijToegankelijk": false, "gemeenteBeperking": null, "openingstijden": null, "latitude": 52.9669209, "longitude": 5.796538, "bronId": "L007632"}}, {"type": "Feature", "geometry": {"type": "Point", "coordinates": [5.7970313, 52.9668523]}, "properties": {"type": "inleverpunt", "locatieNaam": "Intertoys", "straatNaam": "Midstraat", "straatNr": "123", "postcode": "8501 AK", "plaats": "JOURE", "merk": "Stibat", "puntType": "inzamelbak", "materialen": ["batterijen"], "uitbetaling": [], "vrijToegankelijk": false, "gemeenteBeperking": null, "openingstijden": null, "latitude": 52.9668523, "longitude": 5.7970313, "bronId": "L007175"}}, {"type": "Feature", "geometry": {"type": "Point", "coordinates": [5.7968212, 52.9669648]}, "properties": {"type": "inleverpunt", "locatieNaam": "Electro World", "straatNaam": "Midstraat", "straatNr": "119", "postcode": "8501 AJ", "plaats": "JOURE", "merk": "Stibat", "puntType": "inzamelbak", "materialen": ["batterijen"], "uitbetaling": [], "vrijToegankelijk": false, "gemeenteBeperking": null, "openingstijden": null, "latitude": 52.9669648, "longitude": 5.7968212, "bronId": "L016005"}}, {"type": "Feature", "geometry": {"type": "Point", "coordinates": [5.7965398, 52.9671186]}, "properties": {"type": "inleverpunt", "locatieNaam": "8499 Etos", "straatNaam": "Midstraat", "straatNr": "111", "postcode": "8501 AJ", "plaats": "JOURE", "merk": "Stibat", "puntType": "inzamelbak", "materialen": ["batterijen"], "uitbetaling": [], "vrijToegankelijk": false, "gemeenteBeperking": null, "openingstijden": null, "latitude": 52.9671186, "longitude": 5.7965398, "bronId": "L026432"}}, {"type": "Feature", "geometry": {"type": "Point", "coordinates": [5.8196057, 52.9621308]}, "properties": {"type": "inleverpunt", "locatieNaam": "Milieuterrein Joure", "straatNaam": "Handelswei", "straatNr": "13", "postcode": "8501 XJ", "plaats": "JOURE", "merk": "Stibat", "puntType": "inzamelbak", "materialen": ["batterijen"], "uitbetaling": [], "vrijToegankelijk": false, "gemeenteBeperking": null, "openingstijden": null, "latitude": 52.9621308, "longitude": 5.8196057, "bronId": "L035887"}}, {"type": "Feature", "geometry": {"type": "Point", "coordinates": [5.7956644, 52.9673783]}, "properties": {"type": "inleverpunt", "locatieNaam": "Boekhandel Holtrop", "straatNaam": "Midstraat", "straatNr": "76", "postcode": "8501 AS", "plaats": "JOURE", "merk": "Stibat", "puntType": "inzamelbak", "materialen": ["batterijen"], "uitbetaling": [], "vrijToegankelijk": false, "gemeenteBeperking": null, "openingstijden": null, "latitude": 52.9673783, "longitude": 5.7956644, "bronId": "L047544"}}, {"type": "Feature", "geometry": {"type": "Point", "coordinates": [5.7983317, 52.9668905]}, "properties": {"type": "inleverpunt", "locatieNaam": "Aldi", "straatNaam": "Sinnebuorren", "straatNr": "10", "postcode": "8501 CB", "plaats": "Joure", "merk": "Stibat", "puntType": "inzamelbak", "materialen": ["batterijen"], "uitbetaling": [], "vrijToegankelijk": false, "gemeenteBeperking": null, "openingstijden": null, "latitude": 52.9668905, "longitude": 5.7983317, "bronId": "L041556"}}, {"type": "Feature", "geometry": {"type": "Point", "coordinates": [5.7934664, 52.9683061]}, "properties": {"type": "inleverpunt", "locatieNaam": "PLUS", "straatNaam": "Midstraat", "straatNr": "28", "postcode": "8501 AR", "plaats": "JOURE", "merk": "Stibat", "puntType": "inzamelbak", "materialen": ["batterijen"], "uitbetaling": [], "vrijToegankelijk": false, "gemeenteBeperking": null, "openingstijden": null, "latitude": 52.9683061, "longitude": 5.7934664, "bronId": "L045907"}}, {"type": "Feature", "geometry": {"type": "Point", "coordinates": [5.7942589, 52.9683215]}, "properties": {"type": "inleverpunt", "locatieNaam": "Kruidvat", "straatNaam": "Midstraat", "straatNr": "55", "postcode": "8501 AE", "plaats": "JOURE", "merk": "Stibat", "puntType": "inzamelbak", "materialen": ["batterijen"], "uitbetaling": [], "vrijToegankelijk": false, "gemeenteBeperking": null, "openingstijden": null, "latitude": 52.9683215, "longitude": 5.7942589, "bronId": "L025919"}}, {"type": "Feature", "geometry": {"type": "Point", "coordinates": [5.8296668, 52.9624422]}, "properties": {"type": "inleverpunt", "locatieNaam": "Van der Zee Joure", "straatNaam": "De Wielen", "straatNr": "4", "postcode": "8502 TK", "plaats": "JOURE", "merk": "Stibat", "puntType": "inzamelbak", "materialen": ["batterijen"], "uitbetaling": [], "vrijToegankelijk": false, "gemeenteBeperking": null, "openingstijden": null, "latitude": 52.9624422, "longitude": 5.8296668, "bronId": "L038662"}}, {"type": "Feature", "geometry": {"type": "Point", "coordinates": [5.823554, 52.9640575]}, "properties": {"type": "inleverpunt", "locatieNaam": "Karwei", "straatNaam": "Firmaweai", "straatNr": "2", "postcode": "8501 XL", "plaats": "JOURE", "merk": "Stibat", "puntType": "inzamelbak", "materialen": ["batterijen"], "uitbetaling": [], "vrijToegankelijk": false, "gemeenteBeperking": null, "openingstijden": null, "latitude": 52.9640575, "longitude": 5.823554, "bronId": "L006364"}}, {"type": "Feature", "geometry": {"type": "Point", "coordinates": [5.7943962, 52.9718617]}, "properties": {"type": "inleverpunt", "locatieNaam": "2Wielercentrum Joure", "straatNaam": "Tolhuswei", "straatNr": "5", "postcode": "8501 ZP", "plaats": "JOURE", "merk": "Stibat", "puntType": "inzamelbak", "materialen": ["batterijen"], "uitbetaling": [], "vrijToegankelijk": false, "gemeenteBeperking": null, "openingstijden": null, "latitude": 52.9718617, "longitude": 5.7943962, "bronId": "L034149"}}, {"type": "Feature", "geometry": {"type": "Point", "coordinates": [5.8724833, 52.9580815]}, "properties": {"type": "inleverpunt", "locatieNaam": "Poiesz", "straatNaam": "Hasker Utgongen", "straatNr": "1", "postcode": "8465 SJ", "plaats": "OUDEHASKE", "merk": "Stibat", "puntType": "inzamelbak", "materialen": ["batterijen"], "uitbetaling": [], "vrijToegankelijk": false, "gemeenteBeperking": null, "openingstijden": null, "latitude": 52.9580815, "longitude": 5.8724833, "bronId": "L008052"}}, {"type": "Feature", "geometry": {"type": "Point", "coordinates": [5.7811307, 53.0407137]}, "properties": {"type": "inleverpunt", "locatieNaam": "Supermarkt Feijen", "straatNaam": "Buorren", "straatNr": "106", "postcode": "8493 LJ", "plaats": "TERHERNE", "merk": "Stibat", "puntType": "inzamelbak", "materialen": ["batterijen"], "uitbetaling": [], "vrijToegankelijk": false, "gemeenteBeperking": null, "openingstijden": null, "latitude": 53.0407137, "longitude": 5.7811307, "bronId": "L018629"}}, {"type": "Feature", "geometry": {"type": "Polygon", "coordinates": [[[5.377260001729459, 52.76480500436166], [5.631353001982471, 52.80305500437825], [5.660296002012055, 52.831250004393034], [5.7031030020544735, 52.83434600439378], [5.70278000205421, 52.8359940043947], [5.703300002054734, 52.83639300439487], [5.7039590020553765, 52.83607800439469], [5.70428200205564, 52.83443100439379], [5.709636002060943, 52.834817004393905], [5.710968002062273, 52.83517600439407], [5.7119730020632895, 52.835971004394494], [5.712450002063807, 52.8373790043952], [5.711713002063087, 52.83756200439536], [5.711678002063066, 52.837987004395586], [5.7132200020645945, 52.838189004395616], [5.714839002066187, 52.83789100439544], [5.714722002066055, 52.83737500439519], [5.723801002074971, 52.835781004394114], [5.726496002077602, 52.83471400439347], [5.728663002079698, 52.83339800439268], [5.729574002080611, 52.83372700439282], [5.7274760020786255, 52.83641300439437], [5.7246820020761096, 52.84398200439855], [5.748807002099809, 52.83968000439566], [5.784382002134252, 52.817476004382705], [5.7878760021373825, 52.80723200437699], [5.789807002139182, 52.80369100437499], [5.810016002159469, 52.813884004380085], [5.817029002166483, 52.816674004381426], [5.819744002169184, 52.81727800438169], [5.818238002167775, 52.819780004383105], [5.818128002167723, 52.82166800438413], [5.819014002168644, 52.82307200438489], [5.821567002171211, 52.824690004385694], [5.824729002174364, 52.82559000438607], [5.827653002177316, 52.82759900438711], [5.8276000021772845, 52.82829100438749], [5.825778002175519, 52.829456004388184], [5.825855002175623, 52.830325004388634], [5.828708002178484, 52.831768004389374], [5.8295020021793285, 52.83379300439047], [5.833008002182877, 52.836560004391885], [5.834768002184676, 52.838539004392906], [5.835879002185848, 52.841041004394235], [5.836889002186864, 52.8417780043946], [5.840017002189992, 52.8429960043952], [5.840085002190199, 52.847652004397695], [5.84208000219225, 52.85032400439912], [5.843928002194211, 52.85487400440155], [5.850046002200429, 52.86088400440463], [5.851280002201702, 52.86268900440557], [5.855109002205583, 52.86611500440735], [5.8567960022073144, 52.86837300440848], [5.856768002207361, 52.87079100440984], [5.861755002212395, 52.87467900441181], [5.865288002215937, 52.87663200441273], [5.868054002218741, 52.87909800441403], [5.868534002219256, 52.880415004414736], [5.872171002222893, 52.882244004415575], [5.876971002227765, 52.88682800441796], [5.880513002231314, 52.88880900441893], [5.881649002232443, 52.88904700441903], [5.883499002234264, 52.888958004418946], [5.884610002235374, 52.88942600441912], [5.885224002236009, 52.89045200441968], [5.885272002236137, 52.8932590044212], [5.886119002237003, 52.89432400442173], [5.890230002241086, 52.895351004422174], [5.893721002244527, 52.89533000442206], [5.896497002247282, 52.8959160044223], [5.899261002249999, 52.89566000442212], [5.901606002252351, 52.897069004422825], [5.904601002255296, 52.89672600442254], [5.911343002261976, 52.89788100442297], [5.926305002276906, 52.904355004426016], [5.929846002280455, 52.906515004427064], [5.932944002283528, 52.907262004427416], [5.937847002288488, 52.91174000442967], [5.933327002284128, 52.915055004431565], [5.913747002265533, 52.939550004445216], [5.912975002264805, 52.94063800444585], [5.914249002266107, 52.94240900444671], [5.9141810022660595, 52.94292200444701], [5.904886002257223, 52.95416400445326], [5.905123002257494, 52.955323004453874], [5.905711002258077, 52.955515004453964], [5.9045740022569815, 52.95639600445444], [5.902305002254777, 52.957369004455046], [5.897410002250118, 52.963083004458205], [5.895633002248343, 52.96214700445778], [5.894768002247525, 52.963179004458325], [5.8916300022444075, 52.96227800445793], [5.892019002244782, 52.96203300445778], [5.891027002243797, 52.96169700445766], [5.888480002241386, 52.965090004459526], [5.886154002239116, 52.965711004459905], [5.885989002238962, 52.966111004460124], [5.88807700224103, 52.96645700446025], [5.887571002240549, 52.9670100044606], [5.886840002239828, 52.967049004460634], [5.870971002224128, 52.96444200445964], [5.869239002222551, 52.96874100446198], [5.867215002220846, 52.97862200446729], [5.873648002227199, 52.97925500446746], [5.886540002239948, 52.98136800446821], [5.887267002240667, 52.98151500446829], [5.887158002240576, 52.98204700446857], [5.885286002238814, 52.98483100447009], [5.869398002223529, 52.99682600447684], [5.866127002220397, 52.999796004478526], [5.857603002212517, 53.017008004487806], [5.848730002204009, 53.024300004491856], [5.844772002200166, 53.02607100449292], [5.838552002194163, 53.02998600449512], [5.835965002191651, 53.03099800449569], [5.835034002190762, 53.0318910044962], [5.824058002180155, 53.038117004499775], [5.818888002175137, 53.04034300450108], [5.808859002165379, 53.04375100450309], [5.800273002157063, 53.047908004505466], [5.797947002154833, 53.049809004506564], [5.795818002152838, 53.05301600450827], [5.795750002152787, 53.05345800450852], [5.796458002153491, 53.05373700450862], [5.795508002152589, 53.054866004509236], [5.798749002155817, 53.05619500450985], [5.796386002153574, 53.05883900451127], [5.788370002145566, 53.05468900450933], [5.773912002131077, 53.04592200450511], [5.769847002127077, 53.04584900450518], [5.77049800212773, 53.04624900450538], [5.770459002127707, 53.04675500450562], [5.770989002128231, 53.04691600450571], [5.770696002127961, 53.047443004505986], [5.769255002126537, 53.0472210045059], [5.768614002125891, 53.046669004505645], [5.767230002124546, 53.04729900450599], [5.767480002124767, 53.04644800450552], [5.755432002112929, 53.04683800450604], [5.736705002093974, 53.03015200449773], [5.733241002090092, 53.01543800449009], [5.748891002105257, 53.00784200448571], [5.748378002104737, 53.007351004485436], [5.742183002098574, 53.00535100448456], [5.741500002097868, 53.00429800448403], [5.7424080020987, 53.00238100448299], [5.739435002095741, 53.00130300448247], [5.737481002093806, 53.000985004482374], [5.733324002089712, 53.00094300448243], [5.731034002087471, 53.001372004482725], [5.722685002079166, 52.99884800448161], [5.721872002078325, 52.99758200448089], [5.718970002075439, 52.996729004480564], [5.716058002072517, 52.99510800447975], [5.713704002070116, 52.99260200447848], [5.71269300206903, 52.98985400447706], [5.707270002063587, 52.98667800447549], [5.7077770020640335, 52.98510900447465], [5.706113002062371, 52.984320004474306], [5.705174002061444, 52.984243004474266], [5.699208002055606, 52.98550400447506], [5.696120002052597, 52.986540004475664], [5.6917240020483355, 52.98861300447688], [5.691227002047845, 52.988655004476904], [5.689252002045835, 52.98670300447591], [5.6878270020443535, 52.98426600447465], [5.687443002043901, 52.982080004473495], [5.687520002043943, 52.98100200447296], [5.690323002046479, 52.97419300446928], [5.690907002046809, 52.96681900446536], [5.6881530020431015, 52.93687700444945], [5.688630002043482, 52.93411900444796], [5.6893260020441305, 52.93296700444734], [5.683340002038257, 52.933881004447954], [5.678820002033768, 52.93294800444758], [5.642455001998005, 52.93616700445005], [5.641383001996836, 52.932956004448364], [5.639978001995091, 52.92246900444277], [5.594259001949724, 52.91541200443992], [5.588935001944687, 52.92169500444342], [5.588261001944068, 52.92299200444414], [5.586034001941947, 52.92521200444535], [5.584293001940322, 52.92781400444681], [5.581279001937461, 52.930989004448485], [5.5802720019365255, 52.932711004449466], [5.580531001936831, 52.93404600445019], [5.5789010019352165, 52.93394200445014], [5.577259001933643, 52.935205004450864], [5.575007001931522, 52.938105004452495], [5.57281900192951, 52.942246004454724], [5.570387001927167, 52.94387600445566], [5.56902200192588, 52.94553500445654], [5.564779001921762, 52.94748100445765], [5.515507001872453, 52.92867800444853], [5.511216001868143, 52.92664600444754], [5.507604001864493, 52.92438800444638], [5.47718900183365, 52.90274000443531], [5.47696500183341, 52.90223700443504], [5.488774001844723, 52.89279000442971], [5.493845001849625, 52.88983600442806], [5.4897120018453975, 52.88603000442608], [5.4947050018502095, 52.882773004424244], [5.50182200185715, 52.88021200442272], [5.495903001851146, 52.87605400442062], [5.495517001850681, 52.87381600441938], [5.492348001847509, 52.87274700441885], [5.490171001845309, 52.87143200441819], [5.487487001842728, 52.87339800441928], [5.485165001840367, 52.87164200441838], [5.477100001832287, 52.868764004416974], [5.476178001831386, 52.86901700441711], [5.473658001828976, 52.87124100441835], [5.472340001827742, 52.87303400441937], [5.468689001824085, 52.87179400441874], [5.467718001823154, 52.872563004419185], [5.465014001820443, 52.87153700441865], [5.465053001820474, 52.871294004418544], [5.457805001813337, 52.87212100441909], [5.457320001812858, 52.8721270044191], [5.457437001812956, 52.871677004418856], [5.4504570018060825, 52.87235000441935], [5.443652001799407, 52.873721004420204], [5.432809001788722, 52.87465200442088], [5.4261020017820405, 52.873294004420245], [5.432414001788147, 52.8698700044183], [5.433352001789085, 52.87010900441839], [5.438087001793389, 52.860239004412996], [5.437292001792597, 52.86008900441291], [5.441340001796219, 52.85007200440738], [5.337842001691648, 52.795955004379394], [5.377260001729459, 52.76480500436166]]]}, "properties": {"type": "boundary", "gemeente": "De Fryske Marren"}}]}