{"type": "FeatureCollection", "metadata": {"gemeente": "Deurne", "slug": "deurne", "generated_at": "2026-09-07T06:58:27.146480Z", "total_points": 76, "merken": ["StatiegeldNederland", "Stibat", "StichtingOPEN"], "bounds": [5.7243622, 51.3667044, 5.9106666, 51.469313]}, "features": [{"type": "Feature", "geometry": {"type": "Point", "coordinates": [5.7847365, 51.4620937]}, "properties": {"type": "inleverpunt", "locatieNaam": "Albert Heijn", "straatNaam": "Helmondseweg", "straatNr": "65A", "postcode": "5751 GB", "plaats": "Deurne", "merk": "StatiegeldNederland", "puntType": "automaat", "materialen": ["pet-groot", "pet-klein", "blik", "glas", "krat"], "uitbetaling": ["bonnetje", "donatie"], "vrijToegankelijk": true, "gemeenteBeperking": null, "openingstijden": {"ma": "08:00–21:00", "di": "08:00–21:00", "wo": "08:00–21:00", "do": "08:00–21:00", "vr": "08:00–21:00", "za": "08:00–21:00", "zo": "09:00–20:00"}, "latitude": 51.4620937, "longitude": 5.7847365, "bronId": "327316"}}, {"type": "Feature", "geometry": {"type": "Point", "coordinates": [5.8194998, 51.4158311]}, "properties": {"type": "inleverpunt", "locatieNaam": "Albert Heijn", "straatNaam": "Oude Molen", "straatNr": "2", "postcode": "5757 AZ", "plaats": "Liessel", "merk": "StatiegeldNederland", "puntType": "automaat", "materialen": ["pet-groot", "pet-klein", "blik", "glas", "krat"], "uitbetaling": ["bonnetje", "donatie"], "vrijToegankelijk": true, "gemeenteBeperking": null, "openingstijden": {"ma": "08:00–20:00", "di": "08:00–20:00", "wo": "08:00–20:00", "do": "08:00–20:00", "vr": "08:00–21:00", "za": "08:00–20:00", "zo": "10:00–18:00"}, "latitude": 51.4158311, "longitude": 5.8194998, "bronId": "327616"}}, {"type": "Feature", "geometry": {"type": "Point", "coordinates": [5.7968126, 51.4623514]}, "properties": {"type": "inleverpunt", "locatieNaam": "Albert Heijn", "straatNaam": "Wolfsberg", "straatNr": "20", "postcode": "5751 GX", "plaats": "Deurne", "merk": "StatiegeldNederland", "puntType": "automaat", "materialen": ["pet-groot", "pet-klein", "blik", "glas", "krat"], "uitbetaling": ["bonnetje", "donatie"], "vrijToegankelijk": true, "gemeenteBeperking": null, "openingstijden": {"ma": "08:00–21:00", "di": "08:00–21:00", "wo": "08:00–21:00", "do": "08:00–21:00", "vr": "08:00–21:00", "za": "08:00–21:00", "zo": "09:00–19:00"}, "latitude": 51.4623514, "longitude": 5.7968126, "bronId": "327963"}}, {"type": "Feature", "geometry": {"type": "Point", "coordinates": [5.801228, 51.467501]}, "properties": {"type": "inleverpunt", "locatieNaam": "Aldi", "straatNaam": "Veldstraat", "straatNr": "5", "postcode": "5751 AA", "plaats": "Deurne", "merk": "StatiegeldNederland", "puntType": "automaat", "materialen": ["pet-groot", "pet-klein", "blik", "glas", "krat"], "uitbetaling": ["bonnetje"], "vrijToegankelijk": true, "gemeenteBeperking": null, "openingstijden": {"ma": "08:00–20:00", "di": "08:00–20:00", "wo": "08:00–20:00", "do": "08:00–20:00", "vr": "08:00–20:00", "za": "08:00–20:00", "zo": "09:00–18:00"}, "latitude": 51.467501, "longitude": 5.801228, "bronId": "328429"}}, {"type": "Feature", "geometry": {"type": "Point", "coordinates": [5.8655033, 51.3667181]}, "properties": {"type": "inleverpunt", "locatieNaam": "Alxa Retail15407", "straatNaam": "KEULSEBAAN", "straatNr": "6B", "postcode": "5758 AB", "plaats": "Neerkant", "merk": "StatiegeldNederland", "puntType": "balie", "materialen": ["pet-groot", "pet-klein", "blik"], "uitbetaling": [], "vrijToegankelijk": true, "gemeenteBeperking": null, "openingstijden": {"ma": "08:30–19:00", "di": "08:30–19:00", "wo": "08:30–19:00", "do": "08:30–19:00", "vr": "08:30–19:00", "za": "08:30–17:00", "zo": "09:00–12:30"}, "latitude": 51.3667181, "longitude": 5.8655033, "bronId": "328506"}}, {"type": "Feature", "geometry": {"type": "Point", "coordinates": [5.8651314, 51.3711341]}, "properties": {"type": "inleverpunt", "locatieNaam": "ALXA Retail - Alfredverhuur Neerkant", "straatNaam": "Dorpsstraat", "straatNr": "39", "postcode": "5758 AN", "plaats": "Neerkant", "merk": "StatiegeldNederland", "puntType": "automaat", "materialen": ["pet-groot", "pet-klein", "blik"], "uitbetaling": ["bonnetje", "donatie"], "vrijToegankelijk": true, "gemeenteBeperking": null, "openingstijden": null, "latitude": 51.3711341, "longitude": 5.8651314, "bronId": "328509"}}, {"type": "Feature", "geometry": {"type": "Point", "coordinates": [5.7243622, 51.4692641]}, "properties": {"type": "inleverpunt", "locatieNaam": "Appel 2458 - Edco Deurne", "straatNaam": "Helmondsingel", "straatNr": "139", "postcode": "5751 PA", "plaats": "Deurne", "merk": "StatiegeldNederland", "puntType": "balie", "materialen": ["pet-groot", "pet-klein", "blik"], "uitbetaling": [], "vrijToegankelijk": true, "gemeenteBeperking": null, "openingstijden": null, "latitude": 51.4692641, "longitude": 5.7243622, "bronId": "328571"}}, {"type": "Feature", "geometry": {"type": "Point", "coordinates": [5.788619, 51.4678649]}, "properties": {"type": "inleverpunt", "locatieNaam": "Appel 2591 - Voergroep Zuid", "straatNaam": "De Poort", "straatNr": "3A", "postcode": "5751 CN", "plaats": "Deurne", "merk": "StatiegeldNederland", "puntType": "balie", "materialen": ["pet-groot", "pet-klein", "blik"], "uitbetaling": [], "vrijToegankelijk": true, "gemeenteBeperking": null, "openingstijden": {"ma": "08:00–17:30", "di": "08:00–17:30", "wo": "08:00–17:30", "do": "08:00–17:30", "vr": "08:00–17:30", "za": "Gesloten", "zo": "Gesloten"}, "latitude": 51.4678649, "longitude": 5.788619, "bronId": "328609"}}, {"type": "Feature", "geometry": {"type": "Point", "coordinates": [5.792282, 51.461763]}, "properties": {"type": "inleverpunt", "locatieNaam": "Jumbo", "straatNaam": "Stationsstraat", "straatNr": "43", "postcode": "5751 HB", "plaats": "Deurne", "merk": "StatiegeldNederland", "puntType": "automaat", "materialen": ["pet-groot", "pet-klein", "blik", "glas", "krat"], "uitbetaling": ["bonnetje", "donatie"], "vrijToegankelijk": true, "gemeenteBeperking": null, "openingstijden": {"ma": "07:30–22:00", "di": "07:30–22:00", "wo": "07:30–22:00", "do": "07:30–22:00", "vr": "07:30–22:00", "za": "07:30–22:00", "zo": "07:30–22:00"}, "latitude": 51.461763, "longitude": 5.792282, "bronId": "330860"}}, {"type": "Feature", "geometry": {"type": "Point", "coordinates": [5.78297, 51.45645]}, "properties": {"type": "inleverpunt", "locatieNaam": "Lidl", "straatNaam": "Vlierdenseweg", "straatNr": "4", "postcode": "5753 AD", "plaats": "Deurne", "merk": "StatiegeldNederland", "puntType": "automaat", "materialen": ["pet-groot", "pet-klein", "blik", "glas", "krat"], "uitbetaling": ["bonnetje", "donatie"], "vrijToegankelijk": true, "gemeenteBeperking": null, "openingstijden": {"ma": "08:00–21:00", "di": "08:00–21:00", "wo": "08:00–21:00", "do": "08:00–21:00", "vr": "08:00–21:00", "za": "08:00–20:00", "zo": "09:00–18:00"}, "latitude": 51.45645, "longitude": 5.78297, "bronId": "331546"}}, {"type": "Feature", "geometry": {"type": "Point", "coordinates": [5.7843581, 51.4474316]}, "properties": {"type": "inleverpunt", "locatieNaam": "Markies 6407 Ivo Alfrink Col", "straatNaam": "Burg. Roefslaan", "straatNr": "11", "postcode": "5753 GX", "plaats": "Deurne", "merk": "StatiegeldNederland", "puntType": "balie", "materialen": ["pet-groot", "pet-klein", "blik"], "uitbetaling": [], "vrijToegankelijk": true, "gemeenteBeperking": null, "openingstijden": {"ma": "07:30–17:30", "di": "07:30–17:30", "wo": "07:30–17:30", "do": "07:30–17:30", "vr": "07:30–17:30", "za": "Gesloten", "zo": "Gesloten"}, "latitude": 51.4474316, "longitude": 5.7843581, "bronId": "331692"}}, {"type": "Feature", "geometry": {"type": "Point", "coordinates": [5.7850603, 51.4512164]}, "properties": {"type": "inleverpunt", "locatieNaam": "Plus", "straatNaam": "St. Jozefstraat", "straatNr": "36", "postcode": "5753 AV", "plaats": "Deurne", "merk": "StatiegeldNederland", "puntType": "automaat", "materialen": ["pet-groot", "pet-klein", "blik", "glas", "krat"], "uitbetaling": ["bonnetje", "donatie"], "vrijToegankelijk": true, "gemeenteBeperking": null, "openingstijden": {"ma": "07:30–20:00", "di": "07:30–20:00", "wo": "07:30–20:00", "do": "07:30–20:00", "vr": "07:30–21:00", "za": "07:30–20:00", "zo": "08:00–19:00"}, "latitude": 51.4512164, "longitude": 5.7850603, "bronId": "332701"}}, {"type": "Feature", "geometry": {"type": "Point", "coordinates": [5.81451, 51.45551]}, "properties": {"type": "inleverpunt", "locatieNaam": "Plus", "straatNaam": "Zeilbergsestraat", "straatNr": "46", "postcode": "5751 LL", "plaats": "Deurne", "merk": "StatiegeldNederland", "puntType": "automaat", "materialen": ["pet-groot", "pet-klein", "blik", "glas", "krat"], "uitbetaling": ["bonnetje", "donatie"], "vrijToegankelijk": true, "gemeenteBeperking": null, "openingstijden": {"ma": "07:30–20:00", "di": "07:30–20:00", "wo": "07:30–20:00", "do": "07:30–20:00", "vr": "07:30–21:00", "za": "07:30–20:00", "zo": "08:00–19:00"}, "latitude": 51.45551, "longitude": 5.81451, "bronId": "332768"}}, {"type": "Feature", "geometry": {"type": "Point", "coordinates": [5.79473, 51.461006]}, "properties": {"type": "inleverpunt", "locatieNaam": "Shell", "straatNaam": "Hogeweg", "straatNr": "2", "postcode": "5751 KX", "plaats": "Deurne", "merk": "StatiegeldNederland", "puntType": "balie", "materialen": ["pet-groot", "pet-klein", "blik"], "uitbetaling": [], "vrijToegankelijk": true, "gemeenteBeperking": null, "openingstijden": {"ma": "24 uur geopend", "di": "24 uur geopend", "wo": "24 uur geopend", "do": "24 uur geopend", "vr": "24 uur geopend", "za": "24 uur geopend", "zo": "24 uur geopend"}, "latitude": 51.461006, "longitude": 5.79473, "bronId": "333328"}}, {"type": "Feature", "geometry": {"type": "Point", "coordinates": [5.9086564, 51.3794105]}, "properties": {"type": "inleverpunt", "locatieNaam": "Spar Express", "straatNaam": "RIJKSWEG A67", "straatNr": "", "postcode": "5759 ZA", "plaats": "Helenaveen", "merk": "StatiegeldNederland", "puntType": "balie", "materialen": ["pet-groot", "pet-klein", "blik"], "uitbetaling": [], "vrijToegankelijk": true, "gemeenteBeperking": null, "openingstijden": {"ma": "24 uur geopend", "di": "24 uur geopend", "wo": "24 uur geopend", "do": "24 uur geopend", "vr": "24 uur geopend", "za": "24 uur geopend", "zo": "24 uur geopend"}, "latitude": 51.3794105, "longitude": 5.9086564, "bronId": "333846"}}, {"type": "Feature", "geometry": {"type": "Point", "coordinates": [5.9101885, 51.3857199]}, "properties": {"type": "inleverpunt", "locatieNaam": "Sv Helenaveen-griendtsveen", "straatNaam": "Lagebrugweg", "straatNr": "3", "postcode": "5759 PK", "plaats": "Helenaveen", "merk": "StatiegeldNederland", "puntType": "balie", "materialen": ["pet-groot", "pet-klein", "blik"], "uitbetaling": [], "vrijToegankelijk": false, "gemeenteBeperking": null, "openingstijden": null, "latitude": 51.3857199, "longitude": 5.9101885, "bronId": "334087"}}, {"type": "Feature", "geometry": {"type": "Point", "coordinates": [5.9106666, 51.3859219]}, "properties": {"type": "inleverpunt", "locatieNaam": "Tc Helenaveen", "straatNaam": "Lage Brugweg", "straatNr": "3a", "postcode": "5759 PK", "plaats": "Helenaveen", "merk": "StatiegeldNederland", "puntType": "balie", "materialen": ["pet-groot", "pet-klein", "blik"], "uitbetaling": [], "vrijToegankelijk": false, "gemeenteBeperking": null, "openingstijden": null, "latitude": 51.3859219, "longitude": 5.9106666, "bronId": "334186"}}, {"type": "Feature", "geometry": {"type": "Point", "coordinates": [5.8690886, 51.367755]}, "properties": {"type": "inleverpunt", "locatieNaam": "ViaTim", "straatNaam": "Pastoor van Erpstraat", "straatNr": "8", "postcode": "5758 BC", "plaats": "Neerkant", "merk": "StatiegeldNederland", "puntType": "balie", "materialen": ["pet-groot", "pet-klein", "blik"], "uitbetaling": ["tikkie"], "vrijToegankelijk": true, "gemeenteBeperking": null, "openingstijden": {"ma": "14:00–21:00", "di": "14:00–21:00", "wo": "14:00–21:00", "do": "14:00–21:00", "vr": "14:00–21:00", "za": "Gesloten", "zo": "Gesloten"}, "latitude": 51.367755, "longitude": 5.8690886, "bronId": "334898"}}, {"type": "Feature", "geometry": {"type": "Point", "coordinates": [5.7978216, 51.4656063]}, "properties": {"type": "inleverpunt", "locatieNaam": "Wijnhuis Deurne", "straatNaam": "Molenlaan", "straatNr": "1", "postcode": "5751 AM", "plaats": "Deurne", "merk": "StatiegeldNederland", "puntType": "balie", "materialen": ["pet-groot", "pet-klein", "blik"], "uitbetaling": [], "vrijToegankelijk": true, "gemeenteBeperking": null, "openingstijden": {"ma": "10:00–18:00", "di": "09:00–18:00", "wo": "09:00–18:00", "do": "09:00–18:00", "vr": "09:00–20:00", "za": "09:00–17:00", "zo": "Gesloten"}, "latitude": 51.4656063, "longitude": 5.7978216, "bronId": "335407"}}, {"type": "Feature", "geometry": {"type": "Point", "coordinates": [5.8653555, 51.3667044]}, "properties": {"type": "inleverpunt", "locatieNaam": "Xandra s Super Neerkant", "straatNaam": "Keulsebaan", "straatNr": "6b", "postcode": "5758 AB", "plaats": "Neerkant", "merk": "StatiegeldNederland", "puntType": "automaat", "materialen": ["pet-groot", "pet-klein", "blik"], "uitbetaling": ["bonnetje", "donatie"], "vrijToegankelijk": true, "gemeenteBeperking": null, "openingstijden": null, "latitude": 51.3667044, "longitude": 5.8653555, "bronId": "335424"}}, {"type": "Feature", "geometry": {"type": "Point", "coordinates": [5.800954, 51.469313]}, "properties": {"type": "inleverpunt", "locatieNaam": "Stichting De Ossenbeemd", "straatNaam": "Haageind", "straatNr": "31", "postcode": "5751 BB", "plaats": "Deurne", "merk": "StichtingOPEN", "puntType": "balie", "materialen": ["elektro-klein"], "uitbetaling": [], "vrijToegankelijk": false, "gemeenteBeperking": null, "openingstijden": null, "latitude": 51.469313, "longitude": 5.800954, "bronId": "SP00006884"}}, {"type": "Feature", "geometry": {"type": "Point", "coordinates": [5.78499, 51.462238]}, "properties": {"type": "inleverpunt", "locatieNaam": "Albert Heijn Deurne", "straatNaam": "Helmondseweg", "straatNr": "65a", "postcode": "5751 GB", "plaats": "Deurne", "merk": "StichtingOPEN", "puntType": "balie", "materialen": ["batterijen", "lampen"], "uitbetaling": [], "vrijToegankelijk": false, "gemeenteBeperking": null, "openingstijden": null, "latitude": 51.462238, "longitude": 5.78499, "bronId": "SP00025607"}}, {"type": "Feature", "geometry": {"type": "Point", "coordinates": [5.791503, 51.462362]}, "properties": {"type": "inleverpunt", "locatieNaam": "Action Deurne 1086", "straatNaam": "Heuvel", "straatNr": "38", "postcode": "5751 HL", "plaats": "Deurne", "merk": "StichtingOPEN", "puntType": "balie", "materialen": ["batterijen", "lampen"], "uitbetaling": [], "vrijToegankelijk": false, "gemeenteBeperking": null, "openingstijden": null, "latitude": 51.462362, "longitude": 5.791503, "bronId": "SP00007683"}}, {"type": "Feature", "geometry": {"type": "Point", "coordinates": [5.79228, 51.46176]}, "properties": {"type": "inleverpunt", "locatieNaam": "Jumbo Deurne", "straatNaam": "Stationsstraat", "straatNr": "43", "postcode": "5751 HB", "plaats": "Deurne", "merk": "StichtingOPEN", "puntType": "balie", "materialen": ["batterijen", "elektro-klein", "lampen"], "uitbetaling": [], "vrijToegankelijk": false, "gemeenteBeperking": null, "openingstijden": null, "latitude": 51.46176, "longitude": 5.79228, "bronId": "SP00029930"}}, {"type": "Feature", "geometry": {"type": "Point", "coordinates": [5.791871, 51.461573]}, "properties": {"type": "inleverpunt", "locatieNaam": "Expert Deurne", "straatNaam": "Stationsstraat", "straatNr": "47-49", "postcode": "5751 HB", "plaats": "Deurne", "merk": "StichtingOPEN", "puntType": "balie", "materialen": ["batterijen", "elektro-klein", "elektro-middel"], "uitbetaling": [], "vrijToegankelijk": false, "gemeenteBeperking": null, "openingstijden": null, "latitude": 51.461573, "longitude": 5.791871, "bronId": "SP00002467"}}, {"type": "Feature", "geometry": {"type": "Point", "coordinates": [5.796833, 51.462251]}, "properties": {"type": "inleverpunt", "locatieNaam": "1187 Albert Heijn Deurne", "straatNaam": "Wolfsberg", "straatNr": "20", "postcode": "5751 GX", "plaats": "Deurne", "merk": "StichtingOPEN", "puntType": "balie", "materialen": ["batterijen", "elektro-klein", "lampen"], "uitbetaling": [], "vrijToegankelijk": false, "gemeenteBeperking": null, "openingstijden": null, "latitude": 51.462251, "longitude": 5.796833, "bronId": "SP00022561"}}, {"type": "Feature", "geometry": {"type": "Point", "coordinates": [5.79578, 51.46189]}, "properties": {"type": "inleverpunt", "locatieNaam": "Kruidvat Deurne", "straatNaam": "Wolfsberg", "straatNr": "25", "postcode": "5751 GX", "plaats": "Deurne", "merk": "StichtingOPEN", "puntType": "balie", "materialen": ["batterijen", "lampen"], "uitbetaling": [], "vrijToegankelijk": false, "gemeenteBeperking": null, "openingstijden": null, "latitude": 51.46189, "longitude": 5.79578, "bronId": "SP00029531"}}, {"type": "Feature", "geometry": {"type": "Point", "coordinates": [5.785702, 51.457897]}, "properties": {"type": "inleverpunt", "locatieNaam": "Praxis Deurne - 2070", "straatNaam": "Stationsstraat", "straatNr": "124", "postcode": "5751 HJ", "plaats": "Deurne", "merk": "StichtingOPEN", "puntType": "balie", "materialen": ["elektro-middel", "lampen", "tl-buizen"], "uitbetaling": [], "vrijToegankelijk": false, "gemeenteBeperking": null, "openingstijden": null, "latitude": 51.457897, "longitude": 5.785702, "bronId": "SP00021889"}}, {"type": "Feature", "geometry": {"type": "Point", "coordinates": [5.804117, 51.456175]}, "properties": {"type": "inleverpunt", "locatieNaam": "Jumbo Deurne", "straatNaam": "Schelde", "straatNr": "40", "postcode": "5751 VH", "plaats": "Deurne", "merk": "StichtingOPEN", "puntType": "balie", "materialen": ["batterijen", "lampen"], "uitbetaling": [], "vrijToegankelijk": false, "gemeenteBeperking": null, "openingstijden": null, "latitude": 51.456175, "longitude": 5.804117, "bronId": "SP00024994"}}, {"type": "Feature", "geometry": {"type": "Point", "coordinates": [5.819542, 51.415979]}, "properties": {"type": "inleverpunt", "locatieNaam": "Albert Heijn Liessel", "straatNaam": "Oude Molen", "straatNr": "2", "postcode": "5757 AZ", "plaats": "Liessel", "merk": "StichtingOPEN", "puntType": "balie", "materialen": ["batterijen", "lampen"], "uitbetaling": [], "vrijToegankelijk": false, "gemeenteBeperking": null, "openingstijden": null, "latitude": 51.415979, "longitude": 5.819542, "bronId": "SP00025603"}}, {"type": "Feature", "geometry": {"type": "Point", "coordinates": [5.865795, 51.366895]}, "properties": {"type": "inleverpunt", "locatieNaam": "Attent Neerkant", "straatNaam": "Keulsebaan", "straatNr": "6b", "postcode": "5758 AB", "plaats": "Neerkant", "merk": "StichtingOPEN", "puntType": "balie", "materialen": ["batterijen", "lampen"], "uitbetaling": [], "vrijToegankelijk": false, "gemeenteBeperking": null, "openingstijden": null, "latitude": 51.366895, "longitude": 5.865795, "bronId": "SP00025805"}}, {"type": "Feature", "geometry": {"type": "Point", "coordinates": [5.804971, 51.448963]}, "properties": {"type": "inleverpunt", "locatieNaam": "Milieustraat Deurne", "straatNaam": "Indumastraat", "straatNr": "3", "postcode": "5753 RJ", "plaats": "Deurne", "merk": "StichtingOPEN", "puntType": "milieustraat", "materialen": ["batterijen", "elektro-groot", "elektro-klein", "elektro-middel", "lampen", "tl-buizen"], "uitbetaling": [], "vrijToegankelijk": false, "gemeenteBeperking": ["Deurne"], "openingstijden": null, "latitude": 51.448963, "longitude": 5.804971, "bronId": "SP00001105"}}, {"type": "Feature", "geometry": {"type": "Point", "coordinates": [5.7712395, 51.4659717]}, "properties": {"type": "inleverpunt", "locatieNaam": "Esso", "straatNaam": "Helmondsingel", "straatNr": "37", "postcode": "5751 PA", "plaats": "Deurne", "merk": "Stibat", "puntType": "inzamelbak", "materialen": ["batterijen"], "uitbetaling": [], "vrijToegankelijk": false, "gemeenteBeperking": null, "openingstijden": null, "latitude": 51.4659717, "longitude": 5.7712395, "bronId": "L023825"}}, {"type": "Feature", "geometry": {"type": "Point", "coordinates": [5.7772106, 51.4655378]}, "properties": {"type": "inleverpunt", "locatieNaam": "Wivo B.V.", "straatNaam": "Dubloen", "straatNr": "13", "postcode": "5751 PX", "plaats": "Deurne", "merk": "Stibat", "puntType": "inzamelbak", "materialen": ["batterijen"], "uitbetaling": [], "vrijToegankelijk": false, "gemeenteBeperking": null, "openingstijden": null, "latitude": 51.4655378, "longitude": 5.7772106, "bronId": "L047427"}}, {"type": "Feature", "geometry": {"type": "Point", "coordinates": [5.7897219, 51.4680847]}, "properties": {"type": "inleverpunt", "locatieNaam": "Van Boxtel hoorwinkel", "straatNaam": "Dunantweg", "straatNr": "16", "postcode": "5751 CB", "plaats": "Deurne", "merk": "Stibat", "puntType": "inzamelbak", "materialen": ["batterijen"], "uitbetaling": [], "vrijToegankelijk": false, "gemeenteBeperking": null, "openingstijden": null, "latitude": 51.4680847, "longitude": 5.7897219, "bronId": "L031449"}}, {"type": "Feature", "geometry": {"type": "Point", "coordinates": [5.7847365, 51.4620937]}, "properties": {"type": "inleverpunt", "locatieNaam": "4126 Albert Heijn", "straatNaam": "Helmondseweg", "straatNr": "65A", "postcode": "5751 GB", "plaats": "Deurne", "merk": "Stibat", "puntType": "inzamelbak", "materialen": ["batterijen"], "uitbetaling": [], "vrijToegankelijk": false, "gemeenteBeperking": null, "openingstijden": null, "latitude": 51.4620937, "longitude": 5.7847365, "bronId": "L047360"}}, {"type": "Feature", "geometry": {"type": "Point", "coordinates": [5.7967935, 51.4654713]}, "properties": {"type": "inleverpunt", "locatieNaam": "Beter Horen", "straatNaam": "Kerkstraat", "straatNr": "15a", "postcode": "5751 BG", "plaats": "Deurne", "merk": "Stibat", "puntType": "inzamelbak", "materialen": ["batterijen"], "uitbetaling": [], "vrijToegankelijk": false, "gemeenteBeperking": null, "openingstijden": null, "latitude": 51.4654713, "longitude": 5.7967935, "bronId": "L022400"}}, {"type": "Feature", "geometry": {"type": "Point", "coordinates": [5.7959926, 51.4644224]}, "properties": {"type": "inleverpunt", "locatieNaam": "Foka Foto", "straatNaam": "Kerkstraat", "straatNr": "8", "postcode": "5751 BH", "plaats": "Deurne", "merk": "Stibat", "puntType": "inzamelbak", "materialen": ["batterijen"], "uitbetaling": [], "vrijToegankelijk": false, "gemeenteBeperking": null, "openingstijden": null, "latitude": 51.4644224, "longitude": 5.7959926, "bronId": "L008742"}}, {"type": "Feature", "geometry": {"type": "Point", "coordinates": [5.7914718, 51.4625595]}, "properties": {"type": "inleverpunt", "locatieNaam": "PLUS", "straatNaam": "Zeilbergsestraat", "straatNr": "46-48", "postcode": "5751 LL", "plaats": "Deurne", "merk": "Stibat", "puntType": "inzamelbak", "materialen": ["batterijen"], "uitbetaling": [], "vrijToegankelijk": false, "gemeenteBeperking": null, "openingstijden": null, "latitude": 51.4625595, "longitude": 5.7914718, "bronId": "L021365"}}, {"type": "Feature", "geometry": {"type": "Point", "coordinates": [5.7914402, 51.4625485]}, "properties": {"type": "inleverpunt", "locatieNaam": "1086 Action", "straatNaam": "Heuvel", "straatNr": "38", "postcode": "5751 HL", "plaats": "Deurne", "merk": "Stibat", "puntType": "inzamelbak", "materialen": ["batterijen"], "uitbetaling": [], "vrijToegankelijk": false, "gemeenteBeperking": null, "openingstijden": null, "latitude": 51.4625485, "longitude": 5.7914402, "bronId": "L016824"}}, {"type": "Feature", "geometry": {"type": "Point", "coordinates": [5.7954244, 51.4636513]}, "properties": {"type": "inleverpunt", "locatieNaam": "Witgoed specialist", "straatNaam": "Molenstraat", "straatNr": "2", "postcode": "5751 LD", "plaats": "Deurne", "merk": "Stibat", "puntType": "inzamelbak", "materialen": ["batterijen"], "uitbetaling": [], "vrijToegankelijk": false, "gemeenteBeperking": null, "openingstijden": null, "latitude": 51.4636513, "longitude": 5.7954244, "bronId": "L014552"}}, {"type": "Feature", "geometry": {"type": "Point", "coordinates": [5.7940389, 51.4631978]}, "properties": {"type": "inleverpunt", "locatieNaam": "Hoorzaak van Neerven", "straatNaam": "Raadhuisstraat", "straatNr": "16", "postcode": "5751 LX", "plaats": "Deurne", "merk": "Stibat", "puntType": "inzamelbak", "materialen": ["batterijen"], "uitbetaling": [], "vrijToegankelijk": false, "gemeenteBeperking": null, "openingstijden": null, "latitude": 51.4631978, "longitude": 5.7940389, "bronId": "L021327"}}, {"type": "Feature", "geometry": {"type": "Point", "coordinates": [5.792934, 51.462265]}, "properties": {"type": "inleverpunt", "locatieNaam": "Hans Anders", "straatNaam": "Stationsstraat", "straatNr": "29", "postcode": "5751 HA", "plaats": "Deurne", "merk": "Stibat", "puntType": "inzamelbak", "materialen": ["batterijen"], "uitbetaling": [], "vrijToegankelijk": false, "gemeenteBeperking": null, "openingstijden": null, "latitude": 51.462265, "longitude": 5.792934, "bronId": "L037783"}}, {"type": "Feature", "geometry": {"type": "Point", "coordinates": [5.7963629, 51.4631998]}, "properties": {"type": "inleverpunt", "locatieNaam": "Xenos", "straatNaam": "De Wever", "straatNr": "15-21", "postcode": "5751 KT", "plaats": "Deurne", "merk": "Stibat", "puntType": "inzamelbak", "materialen": ["batterijen"], "uitbetaling": [], "vrijToegankelijk": false, "gemeenteBeperking": null, "openingstijden": null, "latitude": 51.4631998, "longitude": 5.7963629, "bronId": "L045507"}}, {"type": "Feature", "geometry": {"type": "Point", "coordinates": [5.7951561, 51.4626186]}, "properties": {"type": "inleverpunt", "locatieNaam": "Primera", "straatNaam": "De Wever", "straatNr": "4", "postcode": "5751 KT", "plaats": "Deurne", "merk": "Stibat", "puntType": "inzamelbak", "materialen": ["batterijen"], "uitbetaling": [], "vrijToegankelijk": false, "gemeenteBeperking": null, "openingstijden": null, "latitude": 51.4626186, "longitude": 5.7951561, "bronId": "L024840"}}, {"type": "Feature", "geometry": {"type": "Point", "coordinates": [5.7922823, 51.4617635]}, "properties": {"type": "inleverpunt", "locatieNaam": "Jumbo", "straatNaam": "Stationsstraat", "straatNr": "43", "postcode": "5751 HB", "plaats": "Deurne", "merk": "Stibat", "puntType": "inzamelbak", "materialen": ["batterijen"], "uitbetaling": [], "vrijToegankelijk": false, "gemeenteBeperking": null, "openingstijden": null, "latitude": 51.4617635, "longitude": 5.7922823, "bronId": "L030546"}}, {"type": "Feature", "geometry": {"type": "Point", "coordinates": [5.8033951, 51.4650614]}, "properties": {"type": "inleverpunt", "locatieNaam": "BPG Holten van de Wal", "straatNaam": "Veldstraat", "straatNr": "37", "postcode": "5751 AA", "plaats": "Deurne", "merk": "Stibat", "puntType": "inzamelbak", "materialen": ["batterijen"], "uitbetaling": [], "vrijToegankelijk": false, "gemeenteBeperking": null, "openingstijden": null, "latitude": 51.4650614, "longitude": 5.8033951, "bronId": "L009725"}}, {"type": "Feature", "geometry": {"type": "Point", "coordinates": [5.791909, 51.4615602]}, "properties": {"type": "inleverpunt", "locatieNaam": "Expert", "straatNaam": "Stationsstraat", "straatNr": "47-49", "postcode": "5751 HB", "plaats": "Deurne", "merk": "Stibat", "puntType": "inzamelbak", "materialen": ["batterijen"], "uitbetaling": [], "vrijToegankelijk": false, "gemeenteBeperking": null, "openingstijden": null, "latitude": 51.4615602, "longitude": 5.791909, "bronId": "L010493"}}, {"type": "Feature", "geometry": {"type": "Point", "coordinates": [5.7961631, 51.4627285]}, "properties": {"type": "inleverpunt", "locatieNaam": "Specsavers", "straatNaam": "Torenstraat", "straatNr": "21", "postcode": "5751 GZ", "plaats": "Deurne", "merk": "Stibat", "puntType": "inzamelbak", "materialen": ["batterijen"], "uitbetaling": [], "vrijToegankelijk": false, "gemeenteBeperking": null, "openingstijden": null, "latitude": 51.4627285, "longitude": 5.7961631, "bronId": "L031107"}}, {"type": "Feature", "geometry": {"type": "Point", "coordinates": [5.7961795, 51.4626241]}, "properties": {"type": "inleverpunt", "locatieNaam": "Wibra", "straatNaam": "Torenstraat", "straatNr": "26", "postcode": "5751 GZ", "plaats": "Deurne", "merk": "Stibat", "puntType": "inzamelbak", "materialen": ["batterijen"], "uitbetaling": [], "vrijToegankelijk": false, "gemeenteBeperking": null, "openingstijden": null, "latitude": 51.4626241, "longitude": 5.7961795, "bronId": "L047524"}}, {"type": "Feature", "geometry": {"type": "Point", "coordinates": [5.7888887, 51.4604]}, "properties": {"type": "inleverpunt", "locatieNaam": "EMC Deurne Elektrische Tweewielers", "straatNaam": "Stationsstraat", "straatNr": "82", "postcode": "5751 HH", "plaats": "Deurne", "merk": "Stibat", "puntType": "inzamelbak", "materialen": ["batterijen"], "uitbetaling": [], "vrijToegankelijk": false, "gemeenteBeperking": null, "openingstijden": null, "latitude": 51.4604, "longitude": 5.7888887, "bronId": "L038465"}}, {"type": "Feature", "geometry": {"type": "Point", "coordinates": [5.796651, 51.4624246]}, "properties": {"type": "inleverpunt", "locatieNaam": "Bruna", "straatNaam": "Wolfsberg", "straatNr": "34", "postcode": "5751 GX", "plaats": "Deurne", "merk": "Stibat", "puntType": "inzamelbak", "materialen": ["batterijen"], "uitbetaling": [], "vrijToegankelijk": false, "gemeenteBeperking": null, "openingstijden": null, "latitude": 51.4624246, "longitude": 5.796651, "bronId": "L022805"}}, {"type": "Feature", "geometry": {"type": "Point", "coordinates": [5.7959861, 51.4621033]}, "properties": {"type": "inleverpunt", "locatieNaam": "Kruidvat", "straatNaam": "Wolfsberg", "straatNr": "25", "postcode": "5751 GX", "plaats": "Deurne", "merk": "Stibat", "puntType": "inzamelbak", "materialen": ["batterijen"], "uitbetaling": [], "vrijToegankelijk": false, "gemeenteBeperking": null, "openingstijden": null, "latitude": 51.4621033, "longitude": 5.7959861, "bronId": "L014389"}}, {"type": "Feature", "geometry": {"type": "Point", "coordinates": [5.7968365, 51.4622531]}, "properties": {"type": "inleverpunt", "locatieNaam": "1187 Albert Heijn", "straatNaam": "Wolfsberg", "straatNr": "20", "postcode": "5751 GX", "plaats": "Deurne", "merk": "Stibat", "puntType": "inzamelbak", "materialen": ["batterijen"], "uitbetaling": [], "vrijToegankelijk": false, "gemeenteBeperking": null, "openingstijden": null, "latitude": 51.4622531, "longitude": 5.7968365, "bronId": "L007341"}}, {"type": "Feature", "geometry": {"type": "Point", "coordinates": [5.7969216, 51.462118]}, "properties": {"type": "inleverpunt", "locatieNaam": "6147 Etos", "straatNaam": "Wolfsberg", "straatNr": "12", "postcode": "5751 GX", "plaats": "Deurne", "merk": "Stibat", "puntType": "inzamelbak", "materialen": ["batterijen"], "uitbetaling": [], "vrijToegankelijk": false, "gemeenteBeperking": null, "openingstijden": null, "latitude": 51.462118, "longitude": 5.7969216, "bronId": "L023062"}}, {"type": "Feature", "geometry": {"type": "Point", "coordinates": [5.7961274, 51.4618152]}, "properties": {"type": "inleverpunt", "locatieNaam": "HEMA Wolfsberg", "straatNaam": "Wolfsberg", "straatNr": "15", "postcode": "5751 GX", "plaats": "Deurne", "merk": "Stibat", "puntType": "inzamelbak", "materialen": ["batterijen"], "uitbetaling": [], "vrijToegankelijk": false, "gemeenteBeperking": null, "openingstijden": null, "latitude": 51.4618152, "longitude": 5.7961274, "bronId": "L006939"}}, {"type": "Feature", "geometry": {"type": "Point", "coordinates": [5.7965874, 51.4618806]}, "properties": {"type": "inleverpunt", "locatieNaam": "Telecombinatie Deurne", "straatNaam": "Wolfsberg", "straatNr": "1", "postcode": "5751 GX", "plaats": "Deurne", "merk": "Stibat", "puntType": "inzamelbak", "materialen": ["batterijen"], "uitbetaling": [], "vrijToegankelijk": false, "gemeenteBeperking": null, "openingstijden": null, "latitude": 51.4618806, "longitude": 5.7965874, "bronId": "L038768"}}, {"type": "Feature", "geometry": {"type": "Point", "coordinates": [5.7970213, 51.4619633]}, "properties": {"type": "inleverpunt", "locatieNaam": "Zeeman", "straatNaam": "Wolfsberg", "straatNr": "2", "postcode": "5751 GX", "plaats": "Deurne", "merk": "Stibat", "puntType": "inzamelbak", "materialen": ["batterijen"], "uitbetaling": [], "vrijToegankelijk": false, "gemeenteBeperking": null, "openingstijden": null, "latitude": 51.4619633, "longitude": 5.7970213, "bronId": "L021398"}}, {"type": "Feature", "geometry": {"type": "Point", "coordinates": [5.7866326, 51.4588009]}, "properties": {"type": "inleverpunt", "locatieNaam": "Manders Rijwielhandel", "straatNaam": "Stationsstraat", "straatNr": "108", "postcode": "5751 HJ", "plaats": "Deurne", "merk": "Stibat", "puntType": "inzamelbak", "materialen": ["batterijen"], "uitbetaling": [], "vrijToegankelijk": false, "gemeenteBeperking": null, "openingstijden": null, "latitude": 51.4588009, "longitude": 5.7866326, "bronId": "L033633"}}, {"type": "Feature", "geometry": {"type": "Point", "coordinates": [5.7947219, 51.4607235]}, "properties": {"type": "inleverpunt", "locatieNaam": "Juwett Tweewielers", "straatNaam": "Oude Liesselseweg", "straatNr": "1", "postcode": "5751 WN", "plaats": "Deurne", "merk": "Stibat", "puntType": "inzamelbak", "materialen": ["batterijen"], "uitbetaling": [], "vrijToegankelijk": false, "gemeenteBeperking": null, "openingstijden": null, "latitude": 51.4607235, "longitude": 5.7947219, "bronId": "L033634"}}, {"type": "Feature", "geometry": {"type": "Point", "coordinates": [5.7857218, 51.4578894]}, "properties": {"type": "inleverpunt", "locatieNaam": "Praxis 2070", "straatNaam": "Stationsstraat", "straatNr": "124", "postcode": "5751 HJ", "plaats": "Deurne", "merk": "Stibat", "puntType": "inzamelbak", "materialen": ["batterijen"], "uitbetaling": [], "vrijToegankelijk": false, "gemeenteBeperking": null, "openingstijden": null, "latitude": 51.4578894, "longitude": 5.7857218, "bronId": "L014190"}}, {"type": "Feature", "geometry": {"type": "Point", "coordinates": [5.7830349, 51.4557459]}, "properties": {"type": "inleverpunt", "locatieNaam": "Phone House", "straatNaam": "Vlierdenseweg", "straatNr": "8-10", "postcode": "5753 AD", "plaats": "Deurne", "merk": "Stibat", "puntType": "inzamelbak", "materialen": ["batterijen"], "uitbetaling": [], "vrijToegankelijk": false, "gemeenteBeperking": null, "openingstijden": null, "latitude": 51.4557459, "longitude": 5.7830349, "bronId": "L024683"}}, {"type": "Feature", "geometry": {"type": "Point", "coordinates": [5.7829819, 51.4564521]}, "properties": {"type": "inleverpunt", "locatieNaam": "Lidl", "straatNaam": "Vlierdenseweg", "straatNr": "4", "postcode": "5753 AD", "plaats": "Deurne", "merk": "Stibat", "puntType": "inzamelbak", "materialen": ["batterijen"], "uitbetaling": [], "vrijToegankelijk": false, "gemeenteBeperking": null, "openingstijden": null, "latitude": 51.4564521, "longitude": 5.7829819, "bronId": "L018077"}}, {"type": "Feature", "geometry": {"type": "Point", "coordinates": [5.7825596, 51.4559802]}, "properties": {"type": "inleverpunt", "locatieNaam": "Kuijpers Scooters Deurne", "straatNaam": "Katoenstraat", "straatNr": "1c", "postcode": "5753 AX", "plaats": "Deurne", "merk": "Stibat", "puntType": "inzamelbak", "materialen": ["batterijen"], "uitbetaling": [], "vrijToegankelijk": false, "gemeenteBeperking": null, "openingstijden": null, "latitude": 51.4559802, "longitude": 5.7825596, "bronId": "L048816"}}, {"type": "Feature", "geometry": {"type": "Point", "coordinates": [5.7850335, 51.4511963]}, "properties": {"type": "inleverpunt", "locatieNaam": "Plus", "straatNaam": "Sint Jozefstraat", "straatNr": "36", "postcode": "5753 AV", "plaats": "Deurne", "merk": "Stibat", "puntType": "inzamelbak", "materialen": ["batterijen"], "uitbetaling": [], "vrijToegankelijk": false, "gemeenteBeperking": null, "openingstijden": null, "latitude": 51.4511963, "longitude": 5.7850335, "bronId": "L049435"}}, {"type": "Feature", "geometry": {"type": "Point", "coordinates": [5.8049651, 51.4489456]}, "properties": {"type": "inleverpunt", "locatieNaam": "Milieustraat Deurne", "straatNaam": "Indumastraat", "straatNr": "3", "postcode": "5753 RJ", "plaats": "Deurne", "merk": "Stibat", "puntType": "inzamelbak", "materialen": ["batterijen"], "uitbetaling": [], "vrijToegankelijk": false, "gemeenteBeperking": null, "openingstijden": null, "latitude": 51.4489456, "longitude": 5.8049651, "bronId": "L035783"}}, {"type": "Feature", "geometry": {"type": "Point", "coordinates": [5.8195545, 51.4159887]}, "properties": {"type": "inleverpunt", "locatieNaam": "4138 Albert Heijn", "straatNaam": "Oude Molen", "straatNr": "2", "postcode": "5757 AZ", "plaats": "Liessel", "merk": "Stibat", "puntType": "inzamelbak", "materialen": ["batterijen"], "uitbetaling": [], "vrijToegankelijk": false, "gemeenteBeperking": null, "openingstijden": null, "latitude": 51.4159887, "longitude": 5.8195545, "bronId": "L047311"}}, {"type": "Feature", "geometry": {"type": "Point", "coordinates": [5.8202225, 51.4156158]}, "properties": {"type": "inleverpunt", "locatieNaam": "Jarno Bakker Bikes &amp; Repair / Ebike center Liessel", "straatNaam": "Hoofdstraat", "straatNr": "84", "postcode": "5757 AP", "plaats": "Liessel", "merk": "Stibat", "puntType": "inzamelbak", "materialen": ["batterijen"], "uitbetaling": [], "vrijToegankelijk": false, "gemeenteBeperking": null, "openingstijden": null, "latitude": 51.4156158, "longitude": 5.8202225, "bronId": "L033636"}}, {"type": "Feature", "geometry": {"type": "Point", "coordinates": [5.8208241, 51.4153888]}, "properties": {"type": "inleverpunt", "locatieNaam": "Uw Eigen Drogist", "straatNaam": "Hoofdstraat", "straatNr": "79", "postcode": "5757 AK", "plaats": "Liessel", "merk": "Stibat", "puntType": "inzamelbak", "materialen": ["batterijen"], "uitbetaling": [], "vrijToegankelijk": false, "gemeenteBeperking": null, "openingstijden": null, "latitude": 51.4153888, "longitude": 5.8208241, "bronId": "L024549"}}, {"type": "Feature", "geometry": {"type": "Point", "coordinates": [5.8233422, 51.4126468]}, "properties": {"type": "inleverpunt", "locatieNaam": "Bikeshop Stefan Kluytmans", "straatNaam": "Hoofdstraat", "straatNr": "41", "postcode": "5757 AK", "plaats": "Liessel", "merk": "Stibat", "puntType": "inzamelbak", "materialen": ["batterijen"], "uitbetaling": [], "vrijToegankelijk": false, "gemeenteBeperking": null, "openingstijden": null, "latitude": 51.4126468, "longitude": 5.8233422, "bronId": "L033635"}}, {"type": "Feature", "geometry": {"type": "Point", "coordinates": [5.8603198, 51.373417]}, "properties": {"type": "inleverpunt", "locatieNaam": "Manders Bouwmarkt", "straatNaam": "Dorpsstraat", "straatNr": "89", "postcode": "5758 AP", "plaats": "Neerkant", "merk": "Stibat", "puntType": "inzamelbak", "materialen": ["batterijen"], "uitbetaling": [], "vrijToegankelijk": false, "gemeenteBeperking": null, "openingstijden": null, "latitude": 51.373417, "longitude": 5.8603198, "bronId": "L037319"}}, {"type": "Feature", "geometry": {"type": "Point", "coordinates": [5.9054152, 51.3843621]}, "properties": {"type": "inleverpunt", "locatieNaam": "Esso", "straatNaam": "Zinkskeslaan", "straatNr": "2", "postcode": "5759 PJ", "plaats": "Helenaveen", "merk": "Stibat", "puntType": "inzamelbak", "materialen": ["batterijen"], "uitbetaling": [], "vrijToegankelijk": false, "gemeenteBeperking": null, "openingstijden": null, "latitude": 51.3843621, "longitude": 5.9054152, "bronId": "L024874"}}, {"type": "Feature", "geometry": {"type": "Point", "coordinates": [5.8651936, 51.3711589]}, "properties": {"type": "inleverpunt", "locatieNaam": "Alfredverhuur", "straatNaam": "Dorpsstraat", "straatNr": "39", "postcode": "5758 AN", "plaats": "Neerkant", "merk": "Stibat", "puntType": "inzamelbak", "materialen": ["batterijen"], "uitbetaling": [], "vrijToegankelijk": false, "gemeenteBeperking": null, "openingstijden": null, "latitude": 51.3711589, "longitude": 5.8651936, "bronId": "L038507"}}, {"type": "Feature", "geometry": {"type": "Point", "coordinates": [5.8645743, 51.3679905]}, "properties": {"type": "inleverpunt", "locatieNaam": "Euronics", "straatNaam": "Dorpsstraat", "straatNr": "9", "postcode": "5758 AM", "plaats": "Neerkant", "merk": "Stibat", "puntType": "inzamelbak", "materialen": ["batterijen"], "uitbetaling": [], "vrijToegankelijk": false, "gemeenteBeperking": null, "openingstijden": null, "latitude": 51.3679905, "longitude": 5.8645743, "bronId": "L022614"}}, {"type": "Feature", "geometry": {"type": "Point", "coordinates": [5.8653438, 51.3667161]}, "properties": {"type": "inleverpunt", "locatieNaam": "Xandra's Super", "straatNaam": "Keulsebaan", "straatNr": "6B", "postcode": "5758 AB", "plaats": "Neerkant", "merk": "Stibat", "puntType": "inzamelbak", "materialen": ["batterijen"], "uitbetaling": [], "vrijToegankelijk": false, "gemeenteBeperking": null, "openingstijden": null, "latitude": 51.3667161, "longitude": 5.8653438, "bronId": "L042680"}}, {"type": "Feature", "geometry": {"type": "Point", "coordinates": [5.8661991, 51.3668243]}, "properties": {"type": "inleverpunt", "locatieNaam": "Fietsspecialist Jules de Corte", "straatNaam": "Keulsebaan", "straatNr": "3", "postcode": "5758 AA", "plaats": "Neerkant", "merk": "Stibat", "puntType": "inzamelbak", "materialen": ["batterijen"], "uitbetaling": [], "vrijToegankelijk": false, "gemeenteBeperking": null, "openingstijden": null, "latitude": 51.3668243, "longitude": 5.8661991, "bronId": "L025665"}}, {"type": "Feature", "geometry": {"type": "Polygon", "coordinates": [[[5.870360002173045, 51.35253500348054], [5.874543002177297, 51.35331300348098], [5.87871800218159, 51.35554300348236], [5.9312880022356635, 51.38475300350084], [5.915799002220604, 51.40278100351339], [5.871817002177741, 51.449899003546086], [5.8607240021679345, 51.49196700357448], [5.852574002160112, 51.50414400358281], [5.801338002108059, 51.493895003577165], [5.799028002105731, 51.49409700357736], [5.7947270021013475, 51.49283200357664], [5.793465002100041, 51.491860003575994], [5.789207002095711, 51.490957003575495], [5.780621002087015, 51.490142003575144], [5.778472002084848, 51.490203003575225], [5.773961002080241, 51.4886650035743], [5.768419002074657, 51.48902100357466], [5.766670002072884, 51.48877600357453], [5.764043002070199, 51.48789800357402], [5.762089002068233, 51.48813100357419], [5.75985600206597, 51.48783400357405], [5.7576350020637355, 51.48806800357425], [5.755710002061783, 51.487794003574116], [5.754220002060254, 51.487239003573755], [5.751891002057905, 51.487243003573845], [5.748063002054001, 51.48614300357317], [5.738612002044424, 51.485252003572775], [5.735743002041495, 51.48431300357224], [5.734656002040402, 51.48442100357231], [5.732474002038248, 51.485805003573304], [5.730429002036197, 51.486218003573605], [5.728617002034358, 51.48609400357358], [5.724827002030463, 51.4841140035723], [5.723356002028984, 51.48424500357243], [5.721718002027361, 51.48513100357309], [5.7229420020285175, 51.48288800357153], [5.730453002035896, 51.476904003567405], [5.733738002039101, 51.47364300356515], [5.735801002041143, 51.47238200356427], [5.736094002041414, 51.47176000356384], [5.735015002040238, 51.46918700356214], [5.723957002029097, 51.47008600356296], [5.722973002028006, 51.46729100356112], [5.7172150020222245, 51.468238003561886], [5.717931002022762, 51.462999003558366], [5.720159002024822, 51.45745300355461], [5.721950002026526, 51.454452003552575], [5.7227030020272895, 51.4545500035526], [5.724072002028657, 51.45412800355225], [5.722825002027367, 51.45317300355167], [5.7300020020343085, 51.44435600354561], [5.718179002022368, 51.44453400354596], [5.717759002021886, 51.44283600354483], [5.71843100202251, 51.441219003543736], [5.718245002022234, 51.43873400354211], [5.721778002025787, 51.43821900354166], [5.734551002038722, 51.439010003541924], [5.7388860020430625, 51.43790100354112], [5.743954002048163, 51.437367003540615], [5.755699002059926, 51.43426800353829], [5.756949002061168, 51.433613003537864], [5.758417002062601, 51.43209500353678], [5.7624150020665885, 51.4305750035357], [5.766245002070276, 51.425276003532055], [5.7709420020749675, 51.42363200353085], [5.773358002077321, 51.42113800352908], [5.77316500207711, 51.4206790035288], [5.775454002079388, 51.419611003528026], [5.776005002079917, 51.418835003527484], [5.776654002080581, 51.41909500352764], [5.776993002080909, 51.4186400035273], [5.777615002081543, 51.418782003527404], [5.778565002082482, 51.41815400352697], [5.779661002083597, 51.41843700352712], [5.779597002083516, 51.41794400352681], [5.780367002084305, 51.41823600352701], [5.780687002084606, 51.417603003526565], [5.78102600208496, 51.417857003526706], [5.781760002085692, 51.417595003526486], [5.781900002085808, 51.416941003526084], [5.782415002086337, 51.41705200352614], [5.78296000208688, 51.41693100352604], [5.782913002086825, 51.41662200352582], [5.783602002087519, 51.41660500352579], [5.783502002087394, 51.41599200352541], [5.784096002087998, 51.4160580035254], [5.784416002088302, 51.41539400352499], [5.784943002088841, 51.41564100352516], [5.784843002088725, 51.41518800352485], [5.785111002089, 51.41531800352494], [5.785258002089139, 51.415001003524694], [5.785604002089493, 51.415260003524814], [5.786033002089915, 51.41482200352458], [5.785583002089442, 51.414369003524286], [5.78657200209043, 51.41396100352397], [5.786043002089887, 51.41372500352383], [5.786643002090481, 51.41339500352357], [5.78701600209087, 51.41367600352375], [5.787050002090894, 51.41339800352358], [5.787702002091551, 51.41340700352358], [5.788120002091963, 51.41307300352335], [5.787608002091434, 51.412830003523176], [5.787882002091709, 51.41264700352306], [5.809588002113407, 51.40570300351789], [5.811742002115577, 51.40550500351772], [5.814140002117976, 51.40478100351718], [5.815320002119138, 51.40387200351654], [5.816428002120246, 51.40353400351625], [5.831877002135726, 51.39959000351326], [5.832021002135829, 51.39842800351248], [5.832700002136494, 51.39770800351199], [5.836437002140225, 51.396453003511034], [5.83827100214204, 51.395257003510174], [5.83959900214331, 51.393154003508734], [5.842690002146336, 51.39020200350666], [5.854103002157408, 51.37643000349709], [5.853235002156406, 51.37272900349461], [5.856581002159155, 51.353764003481665], [5.8660190021687235, 51.35462000348205], [5.870360002173045, 51.35253500348054]]]}, "properties": {"type": "boundary", "gemeente": "Deurne"}}]}