{"type": "FeatureCollection", "metadata": {"gemeente": "Dijk en Waard", "slug": "dijk-en-waard", "generated_at": "2026-07-28T19:03:25.026558Z", "total_points": 169, "merken": ["StatiegeldNederland", "Stibat", "StichtingOPEN"], "bounds": [4.7580776, 52.642328, 4.8574902, 52.7124]}, "features": [{"type": "Feature", "geometry": {"type": "Point", "coordinates": [4.8265637, 52.6495686]}, "properties": {"type": "inleverpunt", "locatieNaam": "Albert Heijn", "straatNaam": "Anna Clasina Op ‘T Landplantsoe", "straatNr": "", "postcode": "1705 GS", "plaats": "Heerhugowaard", "merk": "StatiegeldNederland", "puntType": "automaat", "materialen": ["pet-groot", "pet-klein", "blik", "glas", "krat"], "uitbetaling": ["bonnetje", "donatie"], "vrijToegankelijk": true, "gemeenteBeperking": null, "openingstijden": {"ma": "08:00–21:00", "di": "08:00–21:00", "wo": "08:00–21:00", "do": "08:00–21:00", "vr": "08:00–21:00", "za": "08:00–21:00", "zo": "09:00–21:00"}, "latitude": 52.6495686, "longitude": 4.8265637, "bronId": "251983"}}, {"type": "Feature", "geometry": {"type": "Point", "coordinates": [4.8106348, 52.6986362]}, "properties": {"type": "inleverpunt", "locatieNaam": "Albert Heijn", "straatNaam": "Dorpsstraat", "straatNr": "520", "postcode": "1723 HG", "plaats": "Noord-Scharwoude", "merk": "StatiegeldNederland", "puntType": "automaat", "materialen": ["pet-groot", "pet-klein", "blik", "glas", "krat"], "uitbetaling": ["bonnetje", "donatie"], "vrijToegankelijk": true, "gemeenteBeperking": null, "openingstijden": {"ma": "08:00–21:00", "di": "08:00–21:00", "wo": "08:00–21:00", "do": "08:00–21:00", "vr": "08:00–21:00", "za": "08:00–21:00", "zo": "09:00–20:00"}, "latitude": 52.6986362, "longitude": 4.8106348, "bronId": "252182"}}, {"type": "Feature", "geometry": {"type": "Point", "coordinates": [4.8306484, 52.6628958]}, "properties": {"type": "inleverpunt", "locatieNaam": "Albert Heijn", "straatNaam": "Middenwaard", "straatNr": "2", "postcode": "1703 SE", "plaats": "Heerhugowaard", "merk": "StatiegeldNederland", "puntType": "automaat", "materialen": ["pet-groot", "pet-klein", "blik", "glas", "krat"], "uitbetaling": ["bonnetje", "donatie"], "vrijToegankelijk": true, "gemeenteBeperking": null, "openingstijden": {"ma": "08:00–22:00", "di": "08:00–22:00", "wo": "08:00–22:00", "do": "08:00–22:00", "vr": "08:00–22:00", "za": "08:00–22:00", "zo": "08:00–22:00"}, "latitude": 52.6628958, "longitude": 4.8306484, "bronId": "252536"}}, {"type": "Feature", "geometry": {"type": "Point", "coordinates": [4.8139601, 52.6533439]}, "properties": {"type": "inleverpunt", "locatieNaam": "Albert Heijn", "straatNaam": "Roze Flamingo", "straatNr": "98", "postcode": "1704 WV", "plaats": "Heerhugowaard", "merk": "StatiegeldNederland", "puntType": "automaat", "materialen": ["pet-groot", "pet-klein", "blik", "glas", "krat"], "uitbetaling": ["bonnetje", "donatie"], "vrijToegankelijk": true, "gemeenteBeperking": null, "openingstijden": {"ma": "08:00–21:00", "di": "08:00–21:00", "wo": "08:00–21:00", "do": "08:00–21:00", "vr": "08:00–21:00", "za": "08:00–21:00", "zo": "09:00–21:00"}, "latitude": 52.6533439, "longitude": 4.8139601, "bronId": "252690"}}, {"type": "Feature", "geometry": {"type": "Point", "coordinates": [4.8529149, 52.6747791]}, "properties": {"type": "inleverpunt", "locatieNaam": "Aldi", "straatNaam": "Berckeheidelaan", "straatNr": "4", "postcode": "1701 VG", "plaats": "Heerhugowaard", "merk": "StatiegeldNederland", "puntType": "automaat", "materialen": ["pet-groot", "pet-klein", "blik", "glas", "krat"], "uitbetaling": ["bonnetje"], "vrijToegankelijk": true, "gemeenteBeperking": null, "openingstijden": {"ma": "08:00–20:00", "di": "08:00–20:00", "wo": "08:00–20:00", "do": "08:00–20:00", "vr": "08:00–20:00", "za": "08:00–20:00", "zo": "10:00–18:00"}, "latitude": 52.6747791, "longitude": 4.8529149, "bronId": "253013"}}, {"type": "Feature", "geometry": {"type": "Point", "coordinates": [4.8175635, 52.7062014]}, "properties": {"type": "inleverpunt", "locatieNaam": "Aldi", "straatNaam": "Oostelijke Randweg", "straatNr": "1", "postcode": "1723 LH", "plaats": "Noord-Scharwoude", "merk": "StatiegeldNederland", "puntType": "automaat", "materialen": ["pet-groot", "pet-klein", "blik", "glas", "krat"], "uitbetaling": ["bonnetje"], "vrijToegankelijk": true, "gemeenteBeperking": null, "openingstijden": {"ma": "08:00–20:00", "di": "08:00–20:00", "wo": "08:00–20:00", "do": "08:00–20:00", "vr": "08:00–20:00", "za": "08:00–20:00", "zo": "09:00–18:00"}, "latitude": 52.7062014, "longitude": 4.8175635, "bronId": "253296"}}, {"type": "Feature", "geometry": {"type": "Point", "coordinates": [4.8435883, 52.6511753]}, "properties": {"type": "inleverpunt", "locatieNaam": "Aldi", "straatNaam": "Rustenburgerweg", "straatNr": "108", "postcode": "1703 RZ", "plaats": "Heerhugowaard", "merk": "StatiegeldNederland", "puntType": "automaat", "materialen": ["pet-groot", "pet-klein", "blik", "glas", "krat"], "uitbetaling": ["bonnetje"], "vrijToegankelijk": true, "gemeenteBeperking": null, "openingstijden": {"ma": "08:00–20:00", "di": "08:00–20:00", "wo": "08:00–20:00", "do": "08:00–20:00", "vr": "08:00–20:00", "za": "08:00–19:00", "zo": "10:00–18:00"}, "latitude": 52.6511753, "longitude": 4.8435883, "bronId": "253350"}}, {"type": "Feature", "geometry": {"type": "Point", "coordinates": [4.822172, 52.6678155]}, "properties": {"type": "inleverpunt", "locatieNaam": "Appel - 2790 - Hoogheemraadschap", "straatNaam": "Stationsplein", "straatNr": "136", "postcode": "1703 WC", "plaats": "Heerhugowaard", "merk": "StatiegeldNederland", "puntType": "balie", "materialen": ["pet-groot", "pet-klein", "blik"], "uitbetaling": [], "vrijToegankelijk": true, "gemeenteBeperking": null, "openingstijden": {"ma": "09:00–17:00", "di": "09:00–17:00", "wo": "09:00–17:00", "do": "09:00–17:00", "vr": "09:00–17:00", "za": "Gesloten", "zo": "Gesloten"}, "latitude": 52.6678155, "longitude": 4.822172, "bronId": "253517"}}, {"type": "Feature", "geometry": {"type": "Point", "coordinates": [4.8277776, 52.683767]}, "properties": {"type": "inleverpunt", "locatieNaam": "Appel 5064 - Bravilo", "straatNaam": "Pascalstraat", "straatNr": "20", "postcode": "1704 RD", "plaats": "Heerhugowaard", "merk": "StatiegeldNederland", "puntType": "balie", "materialen": ["pet-groot", "pet-klein", "blik"], "uitbetaling": [], "vrijToegankelijk": true, "gemeenteBeperking": null, "openingstijden": {"ma": "08:00–17:00", "di": "08:00–17:00", "wo": "08:00–17:00", "do": "08:00–17:00", "vr": "08:00–17:00", "za": "Gesloten", "zo": "Gesloten"}, "latitude": 52.683767, "longitude": 4.8277776, "bronId": "253686"}}, {"type": "Feature", "geometry": {"type": "Point", "coordinates": [4.8038149, 52.6706809]}, "properties": {"type": "inleverpunt", "locatieNaam": "Csv Bol", "straatNaam": "Margrietstraat", "straatNr": "2", "postcode": "1721 GR", "plaats": "Broek Op Langedijk", "merk": "StatiegeldNederland", "puntType": "balie", "materialen": ["pet-groot", "pet-klein", "blik"], "uitbetaling": [], "vrijToegankelijk": false, "gemeenteBeperking": null, "openingstijden": null, "latitude": 52.6706809, "longitude": 4.8038149, "bronId": "254212"}}, {"type": "Feature", "geometry": {"type": "Point", "coordinates": [4.8539781, 52.6745545]}, "properties": {"type": "inleverpunt", "locatieNaam": "Dekamarkt", "straatNaam": "Berckheidelaan", "straatNr": "18", "postcode": "1701 VG", "plaats": "Heerhugowaard", "merk": "StatiegeldNederland", "puntType": "automaat", "materialen": ["pet-groot", "pet-klein", "blik", "glas", "krat"], "uitbetaling": ["bonnetje", "donatie"], "vrijToegankelijk": true, "gemeenteBeperking": null, "openingstijden": {"ma": "07:00–22:00", "di": "07:00–22:00", "wo": "07:00–22:00", "do": "07:00–22:00", "vr": "07:00–22:00", "za": "07:00–22:00", "zo": "09:00–19:00"}, "latitude": 52.6745545, "longitude": 4.8539781, "bronId": "254301"}}, {"type": "Feature", "geometry": {"type": "Point", "coordinates": [4.7830335, 52.6619693]}, "properties": {"type": "inleverpunt", "locatieNaam": "Dekamarkt", "straatNaam": "Bovenweg", "straatNr": "80", "postcode": "1834 CG", "plaats": "Sint Pancras", "merk": "StatiegeldNederland", "puntType": "automaat", "materialen": ["pet-groot", "pet-klein", "blik", "glas", "krat"], "uitbetaling": ["bonnetje"], "vrijToegankelijk": true, "gemeenteBeperking": null, "openingstijden": {"ma": "07:30–21:00", "di": "07:30–21:00", "wo": "07:30–21:00", "do": "07:30–21:00", "vr": "07:30–21:00", "za": "07:30–21:00", "zo": "09:00–20:00"}, "latitude": 52.6619693, "longitude": 4.7830335, "bronId": "254305"}}, {"type": "Feature", "geometry": {"type": "Point", "coordinates": [4.8433104, 52.6632578]}, "properties": {"type": "inleverpunt", "locatieNaam": "Dekamarkt", "straatNaam": "Hortensialaan", "straatNr": "1", "postcode": "1702 KC", "plaats": "Heerhugowaard", "merk": "StatiegeldNederland", "puntType": "automaat", "materialen": ["pet-groot", "pet-klein", "blik", "glas", "krat"], "uitbetaling": ["bonnetje"], "vrijToegankelijk": true, "gemeenteBeperking": null, "openingstijden": {"ma": "08:00–21:00", "di": "08:00–21:00", "wo": "08:00–21:00", "do": "08:00–21:00", "vr": "08:00–21:00", "za": "08:00–21:00", "zo": "09:00–20:00"}, "latitude": 52.6632578, "longitude": 4.8433104, "bronId": "254331"}}, {"type": "Feature", "geometry": {"type": "Point", "coordinates": [4.8044264, 52.6790035]}, "properties": {"type": "inleverpunt", "locatieNaam": "Dekamarkt", "straatNaam": "Marktplein", "straatNr": "107", "postcode": "1721 CK", "plaats": "Broek op Langedijk", "merk": "StatiegeldNederland", "puntType": "automaat", "materialen": ["pet-groot", "pet-klein", "blik", "glas", "krat"], "uitbetaling": ["bonnetje", "donatie"], "vrijToegankelijk": true, "gemeenteBeperking": null, "openingstijden": {"ma": "08:00–20:00", "di": "08:00–20:00", "wo": "08:00–20:00", "do": "08:00–21:00", "vr": "08:00–21:00", "za": "08:00–20:00", "zo": "Gesloten"}, "latitude": 52.6790035, "longitude": 4.8044264, "bronId": "254348"}}, {"type": "Feature", "geometry": {"type": "Point", "coordinates": [4.8273969, 52.6644241]}, "properties": {"type": "inleverpunt", "locatieNaam": "Dekamarkt", "straatNaam": "Middenwaard", "straatNr": "108", "postcode": "1703 SH", "plaats": "Heerhugowaard", "merk": "StatiegeldNederland", "puntType": "automaat", "materialen": ["pet-groot", "pet-klein", "blik", "glas", "krat"], "uitbetaling": ["bonnetje"], "vrijToegankelijk": true, "gemeenteBeperking": null, "openingstijden": {"ma": "08:00–20:00", "di": "08:00–20:00", "wo": "08:00–20:00", "do": "08:00–21:00", "vr": "08:00–21:00", "za": "08:00–20:00", "zo": "10:00–19:00"}, "latitude": 52.6644241, "longitude": 4.8273969, "bronId": "254353"}}, {"type": "Feature", "geometry": {"type": "Point", "coordinates": [4.8285291, 52.6639888]}, "properties": {"type": "inleverpunt", "locatieNaam": "Ekoplaza", "straatNaam": "MIDDENWAARD", "straatNr": "116", "postcode": "1703 SH", "plaats": "Heerhugowaard", "merk": "StatiegeldNederland", "puntType": "balie", "materialen": ["pet-groot", "pet-klein", "blik"], "uitbetaling": [], "vrijToegankelijk": true, "gemeenteBeperking": null, "openingstijden": {"ma": "08:30–19:00", "di": "08:30–19:00", "wo": "08:30–19:00", "do": "08:30–19:30", "vr": "08:30–19:00", "za": "08:30–19:00", "zo": "10:00–18:00"}, "latitude": 52.6639888, "longitude": 4.8285291, "bronId": "254668"}}, {"type": "Feature", "geometry": {"type": "Point", "coordinates": [4.8480011, 52.6795926]}, "properties": {"type": "inleverpunt", "locatieNaam": "Hbs De Waert", "straatNaam": "De Vork", "straatNr": "1", "postcode": "1704 BX", "plaats": "Heerhugowaard", "merk": "StatiegeldNederland", "puntType": "balie", "materialen": ["pet-groot", "pet-klein", "blik"], "uitbetaling": [], "vrijToegankelijk": false, "gemeenteBeperking": null, "openingstijden": {"ma": "Gesloten", "di": "20:00–23:00", "wo": "Gesloten", "do": "20:00–23:00", "vr": "20:00–23:00", "za": "Gesloten", "zo": "14:00–17:00"}, "latitude": 52.6795926, "longitude": 4.8480011, "bronId": "254942"}}, {"type": "Feature", "geometry": {"type": "Point", "coordinates": [4.7937009, 52.6432674]}, "properties": {"type": "inleverpunt", "locatieNaam": "Intratuin Heerhugowaard", "straatNaam": "Zuidpoort", "straatNr": "1", "postcode": "1703 RC", "plaats": "Heerhugowaard", "merk": "StatiegeldNederland", "puntType": "automaat", "materialen": ["pet-groot", "pet-klein", "blik", "krat"], "uitbetaling": ["donatie", "tikkie"], "vrijToegankelijk": true, "gemeenteBeperking": null, "openingstijden": null, "latitude": 52.6432674, "longitude": 4.7937009, "bronId": "255171"}}, {"type": "Feature", "geometry": {"type": "Point", "coordinates": [4.847974, 52.67128]}, "properties": {"type": "inleverpunt", "locatieNaam": "Jumbo", "straatNaam": "Middenweg", "straatNr": "245", "postcode": "1701 GC", "plaats": "Heerhugowaard", "merk": "StatiegeldNederland", "puntType": "automaat", "materialen": ["pet-groot", "pet-klein", "blik", "glas", "krat"], "uitbetaling": ["bonnetje", "donatie"], "vrijToegankelijk": true, "gemeenteBeperking": null, "openingstijden": {"ma": "08:00–20:00", "di": "08:00–20:00", "wo": "08:00–20:00", "do": "08:00–20:00", "vr": "08:00–20:00", "za": "08:00–20:00", "zo": "09:00–18:00"}, "latitude": 52.67128, "longitude": 4.847974, "bronId": "255590"}}, {"type": "Feature", "geometry": {"type": "Point", "coordinates": [4.82876, 52.6621]}, "properties": {"type": "inleverpunt", "locatieNaam": "Lidl", "straatNaam": "Middenwaard", "straatNr": "53", "postcode": "1703 SC", "plaats": "Heerhugowaard", "merk": "StatiegeldNederland", "puntType": "automaat", "materialen": ["pet-groot", "pet-klein", "blik", "glas", "krat"], "uitbetaling": ["bonnetje", "donatie"], "vrijToegankelijk": true, "gemeenteBeperking": null, "openingstijden": {"ma": "08:00–21:00", "di": "08:00–21:00", "wo": "08:00–21:00", "do": "08:00–21:00", "vr": "08:00–21:00", "za": "08:00–20:00", "zo": "10:00–19:00"}, "latitude": 52.6621, "longitude": 4.82876, "bronId": "256287"}}, {"type": "Feature", "geometry": {"type": "Point", "coordinates": [4.8283849, 52.6818934]}, "properties": {"type": "inleverpunt", "locatieNaam": "Loogman Carwash", "straatNaam": "Pascalstraat", "straatNr": "12", "postcode": "1704 RD", "plaats": "Heerhugowaard", "merk": "StatiegeldNederland", "puntType": "automaat", "materialen": ["pet-groot", "pet-klein", "blik", "krat"], "uitbetaling": ["donatie", "tikkie"], "vrijToegankelijk": true, "gemeenteBeperking": null, "openingstijden": {"ma": "08:00–20:00", "di": "08:00–20:00", "wo": "08:00–20:00", "do": "08:00–20:00", "vr": "08:00–20:00", "za": "08:00–18:00", "zo": "09:00–18:00"}, "latitude": 52.6818934, "longitude": 4.8283849, "bronId": "256491"}}, {"type": "Feature", "geometry": {"type": "Point", "coordinates": [4.7580776, 52.6959564]}, "properties": {"type": "inleverpunt", "locatieNaam": "Manege Beukers", "straatNaam": "Wagenweg", "straatNr": "12", "postcode": "1724 PT", "plaats": "Oudkarspel", "merk": "StatiegeldNederland", "puntType": "balie", "materialen": ["pet-groot", "pet-klein", "blik"], "uitbetaling": [], "vrijToegankelijk": false, "gemeenteBeperking": null, "openingstijden": {"ma": "08:00–22:00", "di": "08:00–22:00", "wo": "24 uur geopend", "do": "08:00–22:00", "vr": "08:00–22:00", "za": "24 uur geopend", "zo": "08:00–18:00"}, "latitude": 52.6959564, "longitude": 4.7580776, "bronId": "256540"}}, {"type": "Feature", "geometry": {"type": "Point", "coordinates": [4.827304, 52.6703946]}, "properties": {"type": "inleverpunt", "locatieNaam": "Markies 6954 Roc Horizon Hee", "straatNaam": "Umbriellaan", "straatNr": "2", "postcode": "1702 AJ", "plaats": "Heerhugowaard", "merk": "StatiegeldNederland", "puntType": "balie", "materialen": ["pet-groot", "pet-klein", "blik"], "uitbetaling": [], "vrijToegankelijk": true, "gemeenteBeperking": null, "openingstijden": {"ma": "07:30–22:00", "di": "07:30–22:00", "wo": "07:30–22:00", "do": "07:30–22:00", "vr": "07:30–17:30", "za": "Gesloten", "zo": "Gesloten"}, "latitude": 52.6703946, "longitude": 4.827304, "bronId": "256613"}}, {"type": "Feature", "geometry": {"type": "Point", "coordinates": [4.8398192, 52.680561]}, "properties": {"type": "inleverpunt", "locatieNaam": "Mhc Heerhugowaard", "straatNaam": "De Vork", "straatNr": "7", "postcode": "1704 BX", "plaats": "Heerhugowaard", "merk": "StatiegeldNederland", "puntType": "balie", "materialen": ["pet-groot", "pet-klein", "blik"], "uitbetaling": [], "vrijToegankelijk": false, "gemeenteBeperking": null, "openingstijden": {"ma": "Gesloten", "di": "Gesloten", "wo": "Gesloten", "do": "Gesloten", "vr": "Gesloten", "za": "24 uur geopend", "zo": "24 uur geopend"}, "latitude": 52.680561, "longitude": 4.8398192, "bronId": "256769"}}, {"type": "Feature", "geometry": {"type": "Point", "coordinates": [4.7926087, 52.6470221]}, "properties": {"type": "inleverpunt", "locatieNaam": "Shell", "straatNaam": "Westerweg", "straatNr": "1", "postcode": "1704 PB", "plaats": "Heerhugowaard", "merk": "StatiegeldNederland", "puntType": "balie", "materialen": ["pet-groot", "pet-klein", "blik"], "uitbetaling": [], "vrijToegankelijk": true, "gemeenteBeperking": null, "openingstijden": {"ma": "24 uur geopend", "di": "24 uur geopend", "wo": "24 uur geopend", "do": "24 uur geopend", "vr": "24 uur geopend", "za": "24 uur geopend", "zo": "24 uur geopend"}, "latitude": 52.6470221, "longitude": 4.7926087, "bronId": "258249"}}, {"type": "Feature", "geometry": {"type": "Point", "coordinates": [4.8023986, 52.7071228]}, "properties": {"type": "inleverpunt", "locatieNaam": "Sportvereniging Dts Oudkarspel", "straatNaam": "Oeverzegge", "straatNr": "1", "postcode": "1724 TZ", "plaats": "Oudkarspel", "merk": "StatiegeldNederland", "puntType": "balie", "materialen": ["pet-groot", "pet-klein", "blik"], "uitbetaling": [], "vrijToegankelijk": false, "gemeenteBeperking": null, "openingstijden": {"ma": "24 uur geopend", "di": "24 uur geopend", "wo": "24 uur geopend", "do": "24 uur geopend", "vr": "24 uur geopend", "za": "24 uur geopend", "zo": "24 uur geopend"}, "latitude": 52.7071228, "longitude": 4.8023986, "bronId": "258646"}}, {"type": "Feature", "geometry": {"type": "Point", "coordinates": [4.837332, 52.66552]}, "properties": {"type": "inleverpunt", "locatieNaam": "Supermarkt Kikkers B.v.", "straatNaam": "Middenweg", "straatNr": "135B", "postcode": "1702 HA", "plaats": "Heerhugowaard", "merk": "StatiegeldNederland", "puntType": "balie", "materialen": ["pet-groot", "pet-klein", "blik"], "uitbetaling": [], "vrijToegankelijk": true, "gemeenteBeperking": null, "openingstijden": {"ma": "10:00–20:00", "di": "10:00–20:00", "wo": "10:00–20:00", "do": "10:00–20:00", "vr": "10:00–20:00", "za": "09:00–19:00", "zo": "10:00–17:00"}, "latitude": 52.66552, "longitude": 4.837332, "bronId": "258770"}}, {"type": "Feature", "geometry": {"type": "Point", "coordinates": [4.8277193, 52.6701489]}, "properties": {"type": "inleverpunt", "locatieNaam": "Talland Col. Heerhugowaard", "straatNaam": "Umbriellaan", "straatNr": "2", "postcode": "1702 AJ", "plaats": "Heerhugowaard", "merk": "StatiegeldNederland", "puntType": "automaat", "materialen": ["pet-klein", "blik"], "uitbetaling": ["donatie", "tikkie"], "vrijToegankelijk": true, "gemeenteBeperking": null, "openingstijden": null, "latitude": 52.6701489, "longitude": 4.8277193, "bronId": "258877"}}, {"type": "Feature", "geometry": {"type": "Point", "coordinates": [4.8324767, 52.662677]}, "properties": {"type": "inleverpunt", "locatieNaam": "The Herons", "straatNaam": "Postbus", "straatNr": "1197", "postcode": "1700 BD", "plaats": "Heerhugowaard", "merk": "StatiegeldNederland", "puntType": "balie", "materialen": ["pet-groot", "pet-klein", "blik"], "uitbetaling": [], "vrijToegankelijk": false, "gemeenteBeperking": null, "openingstijden": null, "latitude": 52.662677, "longitude": 4.8324767, "bronId": "258963"}}, {"type": "Feature", "geometry": {"type": "Point", "coordinates": [4.835, 52.6580556]}, "properties": {"type": "inleverpunt", "locatieNaam": "Tinq", "straatNaam": "Rustenburgerweg", "straatNr": "38", "postcode": "1703 RX", "plaats": "Heerhugowaard", "merk": "StatiegeldNederland", "puntType": "balie", "materialen": ["pet-groot", "pet-klein", "blik"], "uitbetaling": [], "vrijToegankelijk": true, "gemeenteBeperking": null, "openingstijden": {"ma": "07:00–21:00", "di": "07:00–21:00", "wo": "07:00–21:00", "do": "07:00–21:00", "vr": "07:00–21:00", "za": "08:00–21:00", "zo": "09:00–21:00"}, "latitude": 52.6580556, "longitude": 4.835, "bronId": "258992"}}, {"type": "Feature", "geometry": {"type": "Point", "coordinates": [4.806412, 52.6473102]}, "properties": {"type": "inleverpunt", "locatieNaam": "ViaTim", "straatNaam": "Hemelboog Binnen", "straatNr": "53A", "postcode": "1705 SL", "plaats": "Heerhugowaard", "merk": "StatiegeldNederland", "puntType": "balie", "materialen": ["pet-groot", "pet-klein", "blik"], "uitbetaling": ["tikkie"], "vrijToegankelijk": true, "gemeenteBeperking": null, "openingstijden": {"ma": "15:00–21:00", "di": "15:00–21:00", "wo": "15:00–21:00", "do": "15:00–21:00", "vr": "15:00–21:00", "za": "15:00–21:00", "zo": "Gesloten"}, "latitude": 52.6473102, "longitude": 4.806412, "bronId": "259309"}}, {"type": "Feature", "geometry": {"type": "Point", "coordinates": [4.81377, 52.7028526]}, "properties": {"type": "inleverpunt", "locatieNaam": "ViaTim", "straatNaam": "Mauritsstraat", "straatNr": "22", "postcode": "1723 KC", "plaats": "Noord-scharwoude", "merk": "StatiegeldNederland", "puntType": "balie", "materialen": ["pet-groot", "pet-klein", "blik"], "uitbetaling": ["tikkie"], "vrijToegankelijk": true, "gemeenteBeperking": null, "openingstijden": null, "latitude": 52.7028526, "longitude": 4.81377, "bronId": "259402"}}, {"type": "Feature", "geometry": {"type": "Point", "coordinates": [4.8514097, 52.6738211]}, "properties": {"type": "inleverpunt", "locatieNaam": "ViaTim", "straatNaam": "Rembrandtstraat", "straatNr": "31", "postcode": "1701 JB", "plaats": "Heerhugowaard", "merk": "StatiegeldNederland", "puntType": "balie", "materialen": ["pet-groot", "pet-klein", "blik"], "uitbetaling": ["tikkie"], "vrijToegankelijk": true, "gemeenteBeperking": null, "openingstijden": {"ma": "09:00–13:30, 14:30–20:00", "di": "09:00–13:30, 14:30–16:30", "wo": "09:00–13:30, 14:30–19:00", "do": "09:00–13:30, 14:30–16:30", "vr": "09:00–13:30, 14:30–18:00", "za": "13:00–18:00", "zo": "Gesloten"}, "latitude": 52.6738211, "longitude": 4.8514097, "bronId": "259463"}}, {"type": "Feature", "geometry": {"type": "Point", "coordinates": [4.8523048, 52.6732709]}, "properties": {"type": "inleverpunt", "locatieNaam": "ViaTim", "straatNaam": "Ruysdaelstraat", "straatNr": "9", "postcode": "1701 KJ", "plaats": "Heerhugowaard", "merk": "StatiegeldNederland", "puntType": "balie", "materialen": ["pet-groot", "pet-klein", "blik"], "uitbetaling": ["tikkie"], "vrijToegankelijk": true, "gemeenteBeperking": null, "openingstijden": {"ma": "16:00–21:00", "di": "16:00–21:00", "wo": "16:00–21:00", "do": "16:00–21:00", "vr": "16:00–21:00", "za": "10:00–17:00", "zo": "Gesloten"}, "latitude": 52.6732709, "longitude": 4.8523048, "bronId": "259475"}}, {"type": "Feature", "geometry": {"type": "Point", "coordinates": [4.8160769, 52.6605286]}, "properties": {"type": "inleverpunt", "locatieNaam": "ViaTim", "straatNaam": "Turkoois", "straatNr": "1", "postcode": "1703 BG", "plaats": "Heerhugowaard", "merk": "StatiegeldNederland", "puntType": "balie", "materialen": ["pet-groot", "pet-klein", "blik"], "uitbetaling": ["tikkie"], "vrijToegankelijk": true, "gemeenteBeperking": null, "openingstijden": {"ma": "16:00–20:00", "di": "16:00–20:00", "wo": "16:00–20:00", "do": "16:00–20:00", "vr": "16:00–20:00", "za": "Gesloten", "zo": "Gesloten"}, "latitude": 52.6605286, "longitude": 4.8160769, "bronId": "259499"}}, {"type": "Feature", "geometry": {"type": "Point", "coordinates": [4.8089343, 52.6470337]}, "properties": {"type": "inleverpunt", "locatieNaam": "Vomar", "straatNaam": "Brandpunt", "straatNr": "65", "postcode": "1705 SK", "plaats": "Heerhugowaard", "merk": "StatiegeldNederland", "puntType": "automaat", "materialen": ["pet-groot", "pet-klein", "blik", "glas", "krat"], "uitbetaling": ["bonnetje", "donatie"], "vrijToegankelijk": true, "gemeenteBeperking": null, "openingstijden": {"ma": "07:30–22:00", "di": "07:30–22:00", "wo": "07:30–22:00", "do": "07:30–22:00", "vr": "07:30–22:00", "za": "07:30–22:00", "zo": "08:00–22:00"}, "latitude": 52.6470337, "longitude": 4.8089343, "bronId": "259645"}}, {"type": "Feature", "geometry": {"type": "Point", "coordinates": [4.8569595, 52.6653343]}, "properties": {"type": "inleverpunt", "locatieNaam": "Vomar", "straatNaam": "Lijsterstraat", "straatNr": "1", "postcode": "1706 BN", "plaats": "Heerhugowaard", "merk": "StatiegeldNederland", "puntType": "automaat", "materialen": ["pet-groot", "pet-klein", "blik", "glas", "krat"], "uitbetaling": ["bonnetje", "donatie"], "vrijToegankelijk": true, "gemeenteBeperking": null, "openingstijden": {"ma": "07:30–22:00", "di": "07:30–22:00", "wo": "07:30–22:00", "do": "07:30–22:00", "vr": "07:30–22:00", "za": "07:30–22:00", "zo": "08:00–22:00"}, "latitude": 52.6653343, "longitude": 4.8569595, "bronId": "259689"}}, {"type": "Feature", "geometry": {"type": "Point", "coordinates": [4.8043049, 52.6790112]}, "properties": {"type": "inleverpunt", "locatieNaam": "Vomar", "straatNaam": "Marktplein", "straatNr": "3", "postcode": "1721 CK", "plaats": "Broek Op Langedijk", "merk": "StatiegeldNederland", "puntType": "automaat", "materialen": ["pet-groot", "pet-klein", "blik", "glas", "krat"], "uitbetaling": ["bonnetje", "donatie"], "vrijToegankelijk": true, "gemeenteBeperking": null, "openingstijden": {"ma": "07:30–20:00", "di": "07:30–20:00", "wo": "07:30–20:00", "do": "07:30–21:00", "vr": "07:30–21:00", "za": "07:30–20:00", "zo": "Gesloten"}, "latitude": 52.6790112, "longitude": 4.8043049, "bronId": "259692"}}, {"type": "Feature", "geometry": {"type": "Point", "coordinates": [4.8086216, 52.695554]}, "properties": {"type": "inleverpunt", "locatieNaam": "Vomar", "straatNaam": "Mozartlaan", "straatNr": "66", "postcode": "6865 GC", "plaats": "Zuid-Scharwoude", "merk": "StatiegeldNederland", "puntType": "automaat", "materialen": ["pet-groot", "pet-klein", "blik", "glas", "krat"], "uitbetaling": ["bonnetje", "donatie"], "vrijToegankelijk": true, "gemeenteBeperking": null, "openingstijden": {"ma": "07:30–22:00", "di": "07:30–22:00", "wo": "07:30–22:00", "do": "07:30–22:00", "vr": "07:30–22:00", "za": "07:30–22:00", "zo": "08:00–22:00"}, "latitude": 52.695554, "longitude": 4.8086216, "bronId": "259697"}}, {"type": "Feature", "geometry": {"type": "Point", "coordinates": [4.8431276, 52.6703352]}, "properties": {"type": "inleverpunt", "locatieNaam": "Vomar", "straatNaam": "Raadhuisplein", "straatNr": "2", "postcode": "1701 EJ", "plaats": "Heerhugowaard", "merk": "StatiegeldNederland", "puntType": "automaat", "materialen": ["pet-groot", "pet-klein", "blik", "glas", "krat"], "uitbetaling": ["bonnetje", "donatie"], "vrijToegankelijk": true, "gemeenteBeperking": null, "openingstijden": {"ma": "07:30–22:00", "di": "07:30–22:00", "wo": "07:30–22:00", "do": "07:30–22:00", "vr": "07:30–22:00", "za": "07:30–22:00", "zo": "08:00–22:00"}, "latitude": 52.6703352, "longitude": 4.8431276, "bronId": "259708"}}, {"type": "Feature", "geometry": {"type": "Point", "coordinates": [4.8259048, 52.6544756]}, "properties": {"type": "inleverpunt", "locatieNaam": "Vomar", "straatNaam": "Uiterwaard", "straatNr": "1", "postcode": "1703 MB", "plaats": "Heerhugowaard", "merk": "StatiegeldNederland", "puntType": "automaat", "materialen": ["pet-groot", "pet-klein", "blik", "glas", "krat"], "uitbetaling": ["bonnetje", "donatie"], "vrijToegankelijk": true, "gemeenteBeperking": null, "openingstijden": {"ma": "07:30–22:00", "di": "07:30–22:00", "wo": "07:30–22:00", "do": "07:30–22:00", "vr": "07:30–22:00", "za": "07:30–22:00", "zo": "08:00–22:00"}, "latitude": 52.6544756, "longitude": 4.8259048, "bronId": "259721"}}, {"type": "Feature", "geometry": {"type": "Point", "coordinates": [4.8042792, 52.7123951]}, "properties": {"type": "inleverpunt", "locatieNaam": "Vomar", "straatNaam": "Voorburggracht", "straatNr": "415", "postcode": "1724 NZ", "plaats": "Oudkarspel", "merk": "StatiegeldNederland", "puntType": "automaat", "materialen": ["pet-groot", "pet-klein", "blik", "glas", "krat"], "uitbetaling": ["bonnetje", "donatie"], "vrijToegankelijk": true, "gemeenteBeperking": null, "openingstijden": {"ma": "07:30–21:00", "di": "07:30–21:00", "wo": "07:30–21:00", "do": "07:30–21:00", "vr": "07:30–21:00", "za": "07:30–21:00", "zo": "08:00–21:00"}, "latitude": 52.7123951, "longitude": 4.8042792, "bronId": "259727"}}, {"type": "Feature", "geometry": {"type": "Point", "coordinates": [4.84358, 52.651176]}, "properties": {"type": "inleverpunt", "locatieNaam": "Aldi Heerhugowaard", "straatNaam": "Rustenburgerweg", "straatNr": "108", "postcode": "1703 RZ", "plaats": "Heerhugowaard", "merk": "StichtingOPEN", "puntType": "balie", "materialen": ["batterijen", "elektro-klein", "lampen"], "uitbetaling": [], "vrijToegankelijk": false, "gemeenteBeperking": null, "openingstijden": null, "latitude": 52.651176, "longitude": 4.84358, "bronId": "SP00027181"}}, {"type": "Feature", "geometry": {"type": "Point", "coordinates": [4.826948, 52.649721]}, "properties": {"type": "inleverpunt", "locatieNaam": "1269 Albert Heijn Heerhugowaard", "straatNaam": "Anna Clasina op \"t Landtplantsoen", "straatNr": "11", "postcode": "1705 GS", "plaats": "Heerhugowaard", "merk": "StichtingOPEN", "puntType": "balie", "materialen": ["batterijen", "elektro-klein", "lampen"], "uitbetaling": [], "vrijToegankelijk": false, "gemeenteBeperking": null, "openingstijden": null, "latitude": 52.649721, "longitude": 4.826948, "bronId": "SP00023244"}}, {"type": "Feature", "geometry": {"type": "Point", "coordinates": [4.809096, 52.646931]}, "properties": {"type": "inleverpunt", "locatieNaam": "Vomar Heerhugowaard", "straatNaam": "Brandpunt", "straatNr": "65", "postcode": "1705 SK", "plaats": "Heerhugowaard", "merk": "StichtingOPEN", "puntType": "balie", "materialen": ["batterijen", "lampen"], "uitbetaling": [], "vrijToegankelijk": false, "gemeenteBeperking": null, "openingstijden": null, "latitude": 52.646931, "longitude": 4.809096, "bronId": "SP00025757"}}, {"type": "Feature", "geometry": {"type": "Point", "coordinates": [4.793789, 52.642328]}, "properties": {"type": "inleverpunt", "locatieNaam": "Intratuin Heerhugowaard", "straatNaam": "Zuidpoort", "straatNr": "1", "postcode": "1703 RC", "plaats": "Heerhugowaard", "merk": "StichtingOPEN", "puntType": "balie", "materialen": ["elektro-klein", "elektro-middel", "lampen"], "uitbetaling": [], "vrijToegankelijk": false, "gemeenteBeperking": null, "openingstijden": null, "latitude": 52.642328, "longitude": 4.793789, "bronId": "SP00007405"}}, {"type": "Feature", "geometry": {"type": "Point", "coordinates": [4.82563, 52.65431]}, "properties": {"type": "inleverpunt", "locatieNaam": "Vomar Heerhugowaard", "straatNaam": "Uiterwaard", "straatNr": "1-3", "postcode": "1703 MB", "plaats": "Heerhugowaard", "merk": "StichtingOPEN", "puntType": "balie", "materialen": ["batterijen", "lampen"], "uitbetaling": [], "vrijToegankelijk": false, "gemeenteBeperking": null, "openingstijden": null, "latitude": 52.65431, "longitude": 4.82563, "bronId": "SP00030104"}}, {"type": "Feature", "geometry": {"type": "Point", "coordinates": [4.813745, 52.653277]}, "properties": {"type": "inleverpunt", "locatieNaam": "1810 Albert Heijn Heerhugowaard", "straatNaam": "Roze Flamingo", "straatNr": "98", "postcode": "1704 WV", "plaats": "Heerhugowaard", "merk": "StichtingOPEN", "puntType": "balie", "materialen": ["batterijen", "elektro-klein", "lampen"], "uitbetaling": [], "vrijToegankelijk": false, "gemeenteBeperking": null, "openingstijden": null, "latitude": 52.653277, "longitude": 4.813745, "bronId": "SP00023140"}}, {"type": "Feature", "geometry": {"type": "Point", "coordinates": [4.843485, 52.66315]}, "properties": {"type": "inleverpunt", "locatieNaam": "Deka Markt Heerhugowaard", "straatNaam": "Hortensialaan", "straatNr": "1", "postcode": "1702 KC", "plaats": "Heerhugowaard", "merk": "StichtingOPEN", "puntType": "balie", "materialen": ["batterijen", "elektro-klein", "lampen"], "uitbetaling": [], "vrijToegankelijk": false, "gemeenteBeperking": null, "openingstijden": null, "latitude": 52.66315, "longitude": 4.843485, "bronId": "SP00032383"}}, {"type": "Feature", "geometry": {"type": "Point", "coordinates": [4.855629, 52.668296]}, "properties": {"type": "inleverpunt", "locatieNaam": "Kinderboerderij De Bongelaar", "straatNaam": "van Veenweg", "straatNr": "96", "postcode": "1701 HH", "plaats": "Heerhugowaard", "merk": "StichtingOPEN", "puntType": "balie", "materialen": ["elektro-middel"], "uitbetaling": [], "vrijToegankelijk": false, "gemeenteBeperking": null, "openingstijden": null, "latitude": 52.668296, "longitude": 4.855629, "bronId": "SP00006288"}}, {"type": "Feature", "geometry": {"type": "Point", "coordinates": [4.831172, 52.662473]}, "properties": {"type": "inleverpunt", "locatieNaam": "Kruidvat Heerhugowaard", "straatNaam": "Middenwaard", "straatNr": "2a", "postcode": "1703 SE", "plaats": "Heerhugowaard", "merk": "StichtingOPEN", "puntType": "balie", "materialen": ["batterijen", "lampen"], "uitbetaling": [], "vrijToegankelijk": false, "gemeenteBeperking": null, "openingstijden": null, "latitude": 52.662473, "longitude": 4.831172, "bronId": "SP00024896"}}, {"type": "Feature", "geometry": {"type": "Point", "coordinates": [4.830859, 52.662724]}, "properties": {"type": "inleverpunt", "locatieNaam": "1531 Albert Heijn Heerhugowaard", "straatNaam": "Middenwaard", "straatNr": "2", "postcode": "1703 SE", "plaats": "Heerhugowaard", "merk": "StichtingOPEN", "puntType": "balie", "materialen": ["batterijen", "elektro-klein", "lampen"], "uitbetaling": [], "vrijToegankelijk": false, "gemeenteBeperking": null, "openingstijden": null, "latitude": 52.662724, "longitude": 4.830859, "bronId": "SP00023142"}}, {"type": "Feature", "geometry": {"type": "Point", "coordinates": [4.82891, 52.66222]}, "properties": {"type": "inleverpunt", "locatieNaam": "Lidl Heerhugowaard", "straatNaam": "Middenwaard", "straatNr": "55", "postcode": "1703 SC", "plaats": "Heerhugowaard", "merk": "StichtingOPEN", "puntType": "balie", "materialen": ["batterijen", "lampen"], "uitbetaling": [], "vrijToegankelijk": false, "gemeenteBeperking": null, "openingstijden": null, "latitude": 52.66222, "longitude": 4.82891, "bronId": "SP00029982"}}, {"type": "Feature", "geometry": {"type": "Point", "coordinates": [4.82941, 52.66304]}, "properties": {"type": "inleverpunt", "locatieNaam": "Xenos Heerhugowaard", "straatNaam": "Middenwaard", "straatNr": "28", "postcode": "1703 SE", "plaats": "Heerhugowaard", "merk": "StichtingOPEN", "puntType": "balie", "materialen": ["batterijen", "lampen"], "uitbetaling": [], "vrijToegankelijk": false, "gemeenteBeperking": null, "openingstijden": null, "latitude": 52.66304, "longitude": 4.82941, "bronId": "SP00029944"}}, {"type": "Feature", "geometry": {"type": "Point", "coordinates": [4.827537, 52.664467]}, "properties": {"type": "inleverpunt", "locatieNaam": "Action Heerhugowaard 1002", "straatNaam": "Middenwaard", "straatNr": "112", "postcode": "1703 SH", "plaats": "Heerhugowaard", "merk": "StichtingOPEN", "puntType": "balie", "materialen": ["batterijen", "lampen"], "uitbetaling": [], "vrijToegankelijk": false, "gemeenteBeperking": null, "openingstijden": null, "latitude": 52.664467, "longitude": 4.827537, "bronId": "SP00007607"}}, {"type": "Feature", "geometry": {"type": "Point", "coordinates": [4.827188, 52.664379]}, "properties": {"type": "inleverpunt", "locatieNaam": "Dekamarkt Heerhugowaard", "straatNaam": "Heijermanslaan", "straatNr": "108", "postcode": "1703 SH", "plaats": "Heerhugowaard", "merk": "StichtingOPEN", "puntType": "balie", "materialen": ["batterijen", "lampen"], "uitbetaling": [], "vrijToegankelijk": false, "gemeenteBeperking": null, "openingstijden": null, "latitude": 52.664379, "longitude": 4.827188, "bronId": "SP00023698"}}, {"type": "Feature", "geometry": {"type": "Point", "coordinates": [4.84787, 52.67116]}, "properties": {"type": "inleverpunt", "locatieNaam": "Jumbo Heerhugowaard", "straatNaam": "Middenweg", "straatNr": "245", "postcode": "1701 GC", "plaats": "Heerhugowaard", "merk": "StichtingOPEN", "puntType": "balie", "materialen": ["batterijen", "elektro-klein", "lampen"], "uitbetaling": [], "vrijToegankelijk": false, "gemeenteBeperking": null, "openingstijden": null, "latitude": 52.67116, "longitude": 4.84787, "bronId": "SP00029893"}}, {"type": "Feature", "geometry": {"type": "Point", "coordinates": [4.843152, 52.670489]}, "properties": {"type": "inleverpunt", "locatieNaam": "Kruidvat Heerhugowaard", "straatNaam": "Raadhuisplein", "straatNr": "40a", "postcode": "1701 EJ", "plaats": "Heerhugowaard", "merk": "StichtingOPEN", "puntType": "balie", "materialen": ["batterijen", "lampen"], "uitbetaling": [], "vrijToegankelijk": false, "gemeenteBeperking": null, "openingstijden": null, "latitude": 52.670489, "longitude": 4.843152, "bronId": "SP00024909"}}, {"type": "Feature", "geometry": {"type": "Point", "coordinates": [4.84306, 52.670582]}, "properties": {"type": "inleverpunt", "locatieNaam": "Vomar Heerhugowaard", "straatNaam": "Raadhuisplein", "straatNr": "2", "postcode": "1701 EJ", "plaats": "Heerhugowaard", "merk": "StichtingOPEN", "puntType": "balie", "materialen": ["batterijen", "lampen"], "uitbetaling": [], "vrijToegankelijk": false, "gemeenteBeperking": null, "openingstijden": null, "latitude": 52.670582, "longitude": 4.84306, "bronId": "SP00025779"}}, {"type": "Feature", "geometry": {"type": "Point", "coordinates": [4.85459, 52.674372]}, "properties": {"type": "inleverpunt", "locatieNaam": "Dekamarkt Heerhugowaard", "straatNaam": "Berckheidelaan", "straatNr": "18", "postcode": "1701 VG", "plaats": "Heerhugowaard", "merk": "StichtingOPEN", "puntType": "balie", "materialen": ["batterijen", "lampen"], "uitbetaling": [], "vrijToegankelijk": false, "gemeenteBeperking": null, "openingstijden": null, "latitude": 52.674372, "longitude": 4.85459, "bronId": "SP00023700"}}, {"type": "Feature", "geometry": {"type": "Point", "coordinates": [4.847779, 52.672979]}, "properties": {"type": "inleverpunt", "locatieNaam": "66630 Hubo Heerhugowaard", "straatNaam": "Middenweg", "straatNr": "275", "postcode": "1701 GD", "plaats": "Heerhugowaard", "merk": "StichtingOPEN", "puntType": "balie", "materialen": ["elektro-middel", "lampen", "tl-buizen"], "uitbetaling": [], "vrijToegankelijk": false, "gemeenteBeperking": null, "openingstijden": null, "latitude": 52.672979, "longitude": 4.847779, "bronId": "SP00005894"}}, {"type": "Feature", "geometry": {"type": "Point", "coordinates": [4.852914, 52.674779]}, "properties": {"type": "inleverpunt", "locatieNaam": "Aldi Heerhugowaard", "straatNaam": "Berckheidelaan", "straatNr": "4", "postcode": "1701 VG", "plaats": "Heerhugowaard", "merk": "StichtingOPEN", "puntType": "balie", "materialen": ["batterijen", "elektro-klein", "lampen"], "uitbetaling": [], "vrijToegankelijk": false, "gemeenteBeperking": null, "openingstijden": null, "latitude": 52.674779, "longitude": 4.852914, "bronId": "SP00027180"}}, {"type": "Feature", "geometry": {"type": "Point", "coordinates": [4.809336, 52.661477]}, "properties": {"type": "inleverpunt", "locatieNaam": "Media Markt Heerhugowaard", "straatNaam": "Th. van Doesburgweg", "straatNr": "1-3", "postcode": "1703 DL", "plaats": "Heerhugowaard", "merk": "StichtingOPEN", "puntType": "balie", "materialen": ["elektro-middel", "lampen"], "uitbetaling": [], "vrijToegankelijk": false, "gemeenteBeperking": null, "openingstijden": null, "latitude": 52.661477, "longitude": 4.809336, "bronId": "SP00005135"}}, {"type": "Feature", "geometry": {"type": "Point", "coordinates": [4.78751, 52.65524]}, "properties": {"type": "inleverpunt", "locatieNaam": "Stichting Kinderboerderij Jong Leven", "straatNaam": "Janspad", "straatNr": "2", "postcode": "1834 EM", "plaats": "Sint Pancras", "merk": "StichtingOPEN", "puntType": "balie", "materialen": ["elektro-klein"], "uitbetaling": [], "vrijToegankelijk": false, "gemeenteBeperking": null, "openingstijden": null, "latitude": 52.65524, "longitude": 4.78751, "bronId": "SP00006175"}}, {"type": "Feature", "geometry": {"type": "Point", "coordinates": [4.808335, 52.662487]}, "properties": {"type": "inleverpunt", "locatieNaam": "GAMMA Heerhugowaard", "straatNaam": "J.J.P. Oudweg", "straatNr": "16", "postcode": "1703 DE", "plaats": "Heerhugowaard", "merk": "StichtingOPEN", "puntType": "balie", "materialen": ["batterijen", "elektro-middel", "lampen", "tl-buizen"], "uitbetaling": [], "vrijToegankelijk": false, "gemeenteBeperking": null, "openingstijden": null, "latitude": 52.662487, "longitude": 4.808335, "bronId": "SP00003021"}}, {"type": "Feature", "geometry": {"type": "Point", "coordinates": [4.808706, 52.662683]}, "properties": {"type": "inleverpunt", "locatieNaam": "Praxis Heerhugowaard - 2098", "straatNaam": "J.J.P. Oudweg", "straatNr": "14", "postcode": "1703 DE", "plaats": "Heerhugowaard", "merk": "StichtingOPEN", "puntType": "balie", "materialen": ["elektro-middel", "lampen", "tl-buizen"], "uitbetaling": [], "vrijToegankelijk": false, "gemeenteBeperking": null, "openingstijden": null, "latitude": 52.662683, "longitude": 4.808706, "bronId": "SP00004550"}}, {"type": "Feature", "geometry": {"type": "Point", "coordinates": [4.783451, 52.662044]}, "properties": {"type": "inleverpunt", "locatieNaam": "Dekamarkt Sint Pancras", "straatNaam": "Bovenweg", "straatNr": "80", "postcode": "1834 CG", "plaats": "Sint Pancras", "merk": "StichtingOPEN", "puntType": "balie", "materialen": ["batterijen", "lampen"], "uitbetaling": [], "vrijToegankelijk": false, "gemeenteBeperking": null, "openingstijden": null, "latitude": 52.662044, "longitude": 4.783451, "bronId": "SP00023697"}}, {"type": "Feature", "geometry": {"type": "Point", "coordinates": [4.834034, 52.679402]}, "properties": {"type": "inleverpunt", "locatieNaam": "RataPlan Heerhugowaard", "straatNaam": "Marconistraat", "straatNr": "16", "postcode": "1704 RG", "plaats": "Heerhugowaard", "merk": "StichtingOPEN", "puntType": "balie", "materialen": ["elektro-klein", "lampen"], "uitbetaling": [], "vrijToegankelijk": false, "gemeenteBeperking": null, "openingstijden": null, "latitude": 52.679402, "longitude": 4.834034, "bronId": "SP00036073"}}, {"type": "Feature", "geometry": {"type": "Point", "coordinates": [4.843307, 52.685353]}, "properties": {"type": "inleverpunt", "locatieNaam": "Groenhart Group B.V. Heerhugowaard", "straatNaam": "Delta", "straatNr": "1", "postcode": "1704 EE", "plaats": "Heerhugowaard", "merk": "StichtingOPEN", "puntType": "balie", "materialen": ["batterijen", "elektro-middel", "lampen", "tl-buizen"], "uitbetaling": [], "vrijToegankelijk": false, "gemeenteBeperking": null, "openingstijden": null, "latitude": 52.685353, "longitude": 4.843307, "bronId": "SP00036836"}}, {"type": "Feature", "geometry": {"type": "Point", "coordinates": [4.800037, 52.677423]}, "properties": {"type": "inleverpunt", "locatieNaam": "Kunnen & van der Gragt", "straatNaam": "Hornweg", "straatNr": "12", "postcode": "1721 CV", "plaats": "Broek op Langedijk", "merk": "StichtingOPEN", "puntType": "balie", "materialen": ["elektro-klein", "elektro-middel"], "uitbetaling": [], "vrijToegankelijk": false, "gemeenteBeperking": null, "openingstijden": null, "latitude": 52.677423, "longitude": 4.800037, "bronId": "SP00002788"}}, {"type": "Feature", "geometry": {"type": "Point", "coordinates": [4.804426, 52.679003]}, "properties": {"type": "inleverpunt", "locatieNaam": "Deka Markt Broek op Langedijk", "straatNaam": "Marktplein", "straatNr": "107", "postcode": "1721 CK", "plaats": "Broek op Langedijk", "merk": "StichtingOPEN", "puntType": "balie", "materialen": ["batterijen", "elektro-klein", "lampen"], "uitbetaling": [], "vrijToegankelijk": false, "gemeenteBeperking": null, "openingstijden": null, "latitude": 52.679003, "longitude": 4.804426, "bronId": "SP00032421"}}, {"type": "Feature", "geometry": {"type": "Point", "coordinates": [4.804878, 52.679199]}, "properties": {"type": "inleverpunt", "locatieNaam": "Vomar Broek op Langedijk", "straatNaam": "Marktplein", "straatNr": "3", "postcode": "1721 CK", "plaats": "Broek op Langedijk", "merk": "StichtingOPEN", "puntType": "balie", "materialen": ["batterijen", "lampen"], "uitbetaling": [], "vrijToegankelijk": false, "gemeenteBeperking": null, "openingstijden": null, "latitude": 52.679199, "longitude": 4.804878, "bronId": "SP00025771"}}, {"type": "Feature", "geometry": {"type": "Point", "coordinates": [4.804346, 52.679191]}, "properties": {"type": "inleverpunt", "locatieNaam": "Action Broek op Langedijk 1015", "straatNaam": "Marktplein", "straatNr": "101", "postcode": "1721 CK", "plaats": "Broek op Langedijk", "merk": "StichtingOPEN", "puntType": "balie", "materialen": ["batterijen", "lampen"], "uitbetaling": [], "vrijToegankelijk": false, "gemeenteBeperking": null, "openingstijden": null, "latitude": 52.679191, "longitude": 4.804346, "bronId": "SP00007618"}}, {"type": "Feature", "geometry": {"type": "Point", "coordinates": [4.798674, 52.677958]}, "properties": {"type": "inleverpunt", "locatieNaam": "KARWEI Broek op Langedijk", "straatNaam": "Middelmoot", "straatNr": "10", "postcode": "1721 CZ", "plaats": "Broek op Langedijk", "merk": "StichtingOPEN", "puntType": "balie", "materialen": ["elektro-middel", "lampen", "tl-buizen"], "uitbetaling": [], "vrijToegankelijk": false, "gemeenteBeperking": null, "openingstijden": null, "latitude": 52.677958, "longitude": 4.798674, "bronId": "SP00003656"}}, {"type": "Feature", "geometry": {"type": "Point", "coordinates": [4.82986, 52.692342]}, "properties": {"type": "inleverpunt", "locatieNaam": "241 - Heerhugowaard Isero", "straatNaam": "Bellstraat", "straatNr": "1", "postcode": "1704 SZ", "plaats": "Heerhugowaard", "merk": "StichtingOPEN", "puntType": "balie", "materialen": ["elektro-klein", "lampen", "tl-buizen"], "uitbetaling": [], "vrijToegankelijk": false, "gemeenteBeperking": null, "openingstijden": null, "latitude": 52.692342, "longitude": 4.82986, "bronId": "SP00032651"}}, {"type": "Feature", "geometry": {"type": "Point", "coordinates": [4.808248, 52.69456]}, "properties": {"type": "inleverpunt", "locatieNaam": "Expert Woldhuis", "straatNaam": "Voorburggracht", "straatNr": "208", "postcode": "1722 GV", "plaats": "Zuid-Scharwoude", "merk": "StichtingOPEN", "puntType": "balie", "materialen": ["elektro-middel", "lampen"], "uitbetaling": [], "vrijToegankelijk": false, "gemeenteBeperking": null, "openingstijden": null, "latitude": 52.69456, "longitude": 4.808248, "bronId": "SP00003486"}}, {"type": "Feature", "geometry": {"type": "Point", "coordinates": [4.819659, 52.700265]}, "properties": {"type": "inleverpunt", "locatieNaam": "Life & Garden Zuid-Scharwoude", "straatNaam": "Potjesdam", "straatNr": "1", "postcode": "1722 XN", "plaats": "Zuid-Scharwoude", "merk": "StichtingOPEN", "puntType": "balie", "materialen": ["elektro-klein", "elektro-middel", "lampen"], "uitbetaling": [], "vrijToegankelijk": false, "gemeenteBeperking": null, "openingstijden": null, "latitude": 52.700265, "longitude": 4.819659, "bronId": "SP00020433"}}, {"type": "Feature", "geometry": {"type": "Point", "coordinates": [4.817563, 52.706201]}, "properties": {"type": "inleverpunt", "locatieNaam": "Aldi Noord-Scharwoude", "straatNaam": "Oostelijke Randweg", "straatNr": "1", "postcode": "1723 LH", "plaats": "Noord-Scharwoude", "merk": "StichtingOPEN", "puntType": "balie", "materialen": ["batterijen", "elektro-klein", "lampen"], "uitbetaling": [], "vrijToegankelijk": false, "gemeenteBeperking": null, "openingstijden": null, "latitude": 52.706201, "longitude": 4.817563, "bronId": "SP00027193"}}, {"type": "Feature", "geometry": {"type": "Point", "coordinates": [4.812696, 52.706666]}, "properties": {"type": "inleverpunt", "locatieNaam": "Noord Scharwoude Welkoop HC", "straatNaam": "Oostelijke Randweg", "straatNr": "3", "postcode": "1723 LH", "plaats": "Noord-Scharwoude", "merk": "StichtingOPEN", "puntType": "balie", "materialen": ["elektro-middel", "lampen", "tl-buizen"], "uitbetaling": [], "vrijToegankelijk": false, "gemeenteBeperking": null, "openingstijden": null, "latitude": 52.706666, "longitude": 4.812696, "bronId": "SP00007387"}}, {"type": "Feature", "geometry": {"type": "Point", "coordinates": [4.80426, 52.7124]}, "properties": {"type": "inleverpunt", "locatieNaam": "Vomar Oudkarspel", "straatNaam": "Voorburggracht", "straatNr": "415", "postcode": "1724 NZ", "plaats": "Oudkarspel", "merk": "StichtingOPEN", "puntType": "balie", "materialen": ["batterijen", "lampen"], "uitbetaling": [], "vrijToegankelijk": false, "gemeenteBeperking": null, "openingstijden": null, "latitude": 52.7124, "longitude": 4.80426, "bronId": "SP00030118"}}, {"type": "Feature", "geometry": {"type": "Point", "coordinates": [4.857446, 52.658595]}, "properties": {"type": "inleverpunt", "locatieNaam": "Afvalbrengdepot Heerhugowaard", "straatNaam": "Beukenlaan", "straatNr": "25", "postcode": "1701 DA", "plaats": "Heerhugowaard", "merk": "StichtingOPEN", "puntType": "milieustraat", "materialen": ["batterijen", "elektro-groot", "elektro-klein", "elektro-middel", "lampen", "tl-buizen"], "uitbetaling": [], "vrijToegankelijk": false, "gemeenteBeperking": ["Dijk en Waard"], "openingstijden": null, "latitude": 52.658595, "longitude": 4.857446, "bronId": "SP00002964"}}, {"type": "Feature", "geometry": {"type": "Point", "coordinates": [4.77937, 52.702253]}, "properties": {"type": "inleverpunt", "locatieNaam": "Afvalbrengstation Langedijk", "straatNaam": "Berrie", "straatNr": "8", "postcode": "1724 BB", "plaats": "Oudkarspel", "merk": "StichtingOPEN", "puntType": "milieustraat", "materialen": ["batterijen", "elektro-groot", "elektro-klein", "elektro-middel", "lampen", "tl-buizen"], "uitbetaling": [], "vrijToegankelijk": false, "gemeenteBeperking": ["Dijk en Waard"], "openingstijden": null, "latitude": 52.702253, "longitude": 4.77937, "bronId": "SP00020037"}}, {"type": "Feature", "geometry": {"type": "Point", "coordinates": [4.8435802, 52.6511769]}, "properties": {"type": "inleverpunt", "locatieNaam": "Aldi", "straatNaam": "Rustenburgerweg", "straatNr": "108", "postcode": "1703 RZ", "plaats": "Heerhugowaard", "merk": "Stibat", "puntType": "inzamelbak", "materialen": ["batterijen"], "uitbetaling": [], "vrijToegankelijk": false, "gemeenteBeperking": null, "openingstijden": null, "latitude": 52.6511769, "longitude": 4.8435802, "bronId": "L041147"}}, {"type": "Feature", "geometry": {"type": "Point", "coordinates": [4.8574902, 52.658459]}, "properties": {"type": "inleverpunt", "locatieNaam": "Afvalscheidingsstation Heerhugowaard", "straatNaam": "Beukenlaan", "straatNr": "25", "postcode": "1701 DA", "plaats": "Heerhugowaard", "merk": "Stibat", "puntType": "inzamelbak", "materialen": ["batterijen"], "uitbetaling": [], "vrijToegankelijk": false, "gemeenteBeperking": null, "openingstijden": null, "latitude": 52.658459, "longitude": 4.8574902, "bronId": "L035594"}}, {"type": "Feature", "geometry": {"type": "Point", "coordinates": [4.8269837, 52.6496452]}, "properties": {"type": "inleverpunt", "locatieNaam": "1269 Albert Heijn", "straatNaam": "Anna Clasina op 't Landtplantsoen", "straatNr": "11", "postcode": "1705 GS", "plaats": "Heerhugowaard", "merk": "Stibat", "puntType": "inzamelbak", "materialen": ["batterijen"], "uitbetaling": [], "vrijToegankelijk": false, "gemeenteBeperking": null, "openingstijden": null, "latitude": 52.6496452, "longitude": 4.8269837, "bronId": "L013423"}}, {"type": "Feature", "geometry": {"type": "Point", "coordinates": [4.8090035, 52.6470723]}, "properties": {"type": "inleverpunt", "locatieNaam": "Vomar", "straatNaam": "Brandpunt", "straatNr": "65", "postcode": "1705 SK", "plaats": "Heerhugowaard", "merk": "Stibat", "puntType": "inzamelbak", "materialen": ["batterijen"], "uitbetaling": [], "vrijToegankelijk": false, "gemeenteBeperking": null, "openingstijden": null, "latitude": 52.6470723, "longitude": 4.8090035, "bronId": "L027583"}}, {"type": "Feature", "geometry": {"type": "Point", "coordinates": [4.793961, 52.64269]}, "properties": {"type": "inleverpunt", "locatieNaam": "Intratuin", "straatNaam": "Zuidpoort", "straatNr": "1", "postcode": "1703 RC", "plaats": "Heerhugowaard", "merk": "Stibat", "puntType": "inzamelbak", "materialen": ["batterijen"], "uitbetaling": [], "vrijToegankelijk": false, "gemeenteBeperking": null, "openingstijden": null, "latitude": 52.64269, "longitude": 4.793961, "bronId": "L015341"}}, {"type": "Feature", "geometry": {"type": "Point", "coordinates": [4.8260794, 52.6539903]}, "properties": {"type": "inleverpunt", "locatieNaam": "Vomar", "straatNaam": "Uiterwaard", "straatNr": "1-3", "postcode": "1703 MB", "plaats": "Heerhugowaard", "merk": "Stibat", "puntType": "inzamelbak", "materialen": ["batterijen"], "uitbetaling": [], "vrijToegankelijk": false, "gemeenteBeperking": null, "openingstijden": null, "latitude": 52.6539903, "longitude": 4.8260794, "bronId": "L006915"}}, {"type": "Feature", "geometry": {"type": "Point", "coordinates": [4.857287, 52.6651135]}, "properties": {"type": "inleverpunt", "locatieNaam": "Vomar", "straatNaam": "Lijsterstraat", "straatNr": "1", "postcode": "1706 BN", "plaats": "Heerhugowaard", "merk": "Stibat", "puntType": "inzamelbak", "materialen": ["batterijen"], "uitbetaling": [], "vrijToegankelijk": false, "gemeenteBeperking": null, "openingstijden": null, "latitude": 52.6651135, "longitude": 4.857287, "bronId": "L046049"}}, {"type": "Feature", "geometry": {"type": "Point", "coordinates": [4.8136326, 52.6534847]}, "properties": {"type": "inleverpunt", "locatieNaam": "1810 Albert Heijn", "straatNaam": "Roze Flamingo", "straatNr": "98", "postcode": "1704 WV", "plaats": "Heerhugowaard", "merk": "Stibat", "puntType": "inzamelbak", "materialen": ["batterijen"], "uitbetaling": [], "vrijToegankelijk": false, "gemeenteBeperking": null, "openingstijden": null, "latitude": 52.6534847, "longitude": 4.8136326, "bronId": "L022992"}}, {"type": "Feature", "geometry": {"type": "Point", "coordinates": [4.8434859, 52.6631508]}, "properties": {"type": "inleverpunt", "locatieNaam": "Dekamarkt", "straatNaam": "Hortensialaan", "straatNr": "1", "postcode": "1702 KC", "plaats": "Heerhugowaard", "merk": "Stibat", "puntType": "inzamelbak", "materialen": ["batterijen"], "uitbetaling": [], "vrijToegankelijk": false, "gemeenteBeperking": null, "openingstijden": null, "latitude": 52.6631508, "longitude": 4.8434859, "bronId": "L047449"}}, {"type": "Feature", "geometry": {"type": "Point", "coordinates": [4.8312591, 52.6626338]}, "properties": {"type": "inleverpunt", "locatieNaam": "Wibra", "straatNaam": "Middenwaard", "straatNr": "2B", "postcode": "1703 SE", "plaats": "Heerhugowaard", "merk": "Stibat", "puntType": "inzamelbak", "materialen": ["batterijen"], "uitbetaling": [], "vrijToegankelijk": false, "gemeenteBeperking": null, "openingstijden": null, "latitude": 52.6626338, "longitude": 4.8312591, "bronId": "L029599"}}, {"type": "Feature", "geometry": {"type": "Point", "coordinates": [4.8307127, 52.6626426]}, "properties": {"type": "inleverpunt", "locatieNaam": "Specsavers", "straatNaam": "Middenwaard", "straatNr": "3", "postcode": "1703 SB", "plaats": "Heerhugowaard", "merk": "Stibat", "puntType": "inzamelbak", "materialen": ["batterijen"], "uitbetaling": [], "vrijToegankelijk": false, "gemeenteBeperking": null, "openingstijden": null, "latitude": 52.6626426, "longitude": 4.8307127, "bronId": "L045045"}}, {"type": "Feature", "geometry": {"type": "Point", "coordinates": [4.8312433, 52.6625154]}, "properties": {"type": "inleverpunt", "locatieNaam": "Kruidvat", "straatNaam": "Middenwaard", "straatNr": "2 A", "postcode": "1703 SE", "plaats": "Heerhugowaard", "merk": "Stibat", "puntType": "inzamelbak", "materialen": ["batterijen"], "uitbetaling": [], "vrijToegankelijk": false, "gemeenteBeperking": null, "openingstijden": null, "latitude": 52.6625154, "longitude": 4.8312433, "bronId": "L015203"}}, {"type": "Feature", "geometry": {"type": "Point", "coordinates": [4.8312433, 52.6625154]}, "properties": {"type": "inleverpunt", "locatieNaam": "1531 Albert Heijn", "straatNaam": "Middenwaard", "straatNr": "2", "postcode": "1703 SE", "plaats": "Heerhugowaard", "merk": "Stibat", "puntType": "inzamelbak", "materialen": ["batterijen"], "uitbetaling": [], "vrijToegankelijk": false, "gemeenteBeperking": null, "openingstijden": null, "latitude": 52.6625154, "longitude": 4.8312433, "bronId": "L006137"}}, {"type": "Feature", "geometry": {"type": "Point", "coordinates": [4.8289158, 52.6621855]}, "properties": {"type": "inleverpunt", "locatieNaam": "Lidl", "straatNaam": "Middenwaard", "straatNr": "55", "postcode": "1703 SC", "plaats": "Heerhugowaard", "merk": "Stibat", "puntType": "inzamelbak", "materialen": ["batterijen"], "uitbetaling": [], "vrijToegankelijk": false, "gemeenteBeperking": null, "openingstijden": null, "latitude": 52.6621855, "longitude": 4.8289158, "bronId": "L020119"}}, {"type": "Feature", "geometry": {"type": "Point", "coordinates": [4.8289669, 52.6626]}, "properties": {"type": "inleverpunt", "locatieNaam": "8893 Etos", "straatNaam": "Middenwaard", "straatNr": "33", "postcode": "1703 SC", "plaats": "Heerhugowaard", "merk": "Stibat", "puntType": "inzamelbak", "materialen": ["batterijen"], "uitbetaling": [], "vrijToegankelijk": false, "gemeenteBeperking": null, "openingstijden": null, "latitude": 52.6626, "longitude": 4.8289669, "bronId": "L026577"}}, {"type": "Feature", "geometry": {"type": "Point", "coordinates": [4.8286369, 52.6625171]}, "properties": {"type": "inleverpunt", "locatieNaam": "Primera", "straatNaam": "Middenwaard", "straatNr": "59A", "postcode": "1703 SC", "plaats": "Heerhugowaard", "merk": "Stibat", "puntType": "inzamelbak", "materialen": ["batterijen"], "uitbetaling": [], "vrijToegankelijk": false, "gemeenteBeperking": null, "openingstijden": null, "latitude": 52.6625171, "longitude": 4.8286369, "bronId": "L024706"}}, {"type": "Feature", "geometry": {"type": "Point", "coordinates": [4.8296708, 52.6630238]}, "properties": {"type": "inleverpunt", "locatieNaam": "DOUGLAS", "straatNaam": "Middenwaard", "straatNr": "26", "postcode": "1703 SE", "plaats": "Heerhugowaard", "merk": "Stibat", "puntType": "inzamelbak", "materialen": ["batterijen"], "uitbetaling": [], "vrijToegankelijk": false, "gemeenteBeperking": null, "openingstijden": null, "latitude": 52.6630238, "longitude": 4.8296708, "bronId": "L049147"}}, {"type": "Feature", "geometry": {"type": "Point", "coordinates": [4.8293087, 52.6629479]}, "properties": {"type": "inleverpunt", "locatieNaam": "Zeeman", "straatNaam": "Middenwaard", "straatNr": "30", "postcode": "1703 SE", "plaats": "Heerhugowaard", "merk": "Stibat", "puntType": "inzamelbak", "materialen": ["batterijen"], "uitbetaling": [], "vrijToegankelijk": false, "gemeenteBeperking": null, "openingstijden": null, "latitude": 52.6629479, "longitude": 4.8293087, "bronId": "L021825"}}, {"type": "Feature", "geometry": {"type": "Point", "coordinates": [4.8294366, 52.6630776]}, "properties": {"type": "inleverpunt", "locatieNaam": "Xenos", "straatNaam": "Middenwaard", "straatNr": "28", "postcode": "1703 SE", "plaats": "Heerhugowaard", "merk": "Stibat", "puntType": "inzamelbak", "materialen": ["batterijen"], "uitbetaling": [], "vrijToegankelijk": false, "gemeenteBeperking": null, "openingstijden": null, "latitude": 52.6630776, "longitude": 4.8294366, "bronId": "L037000"}}, {"type": "Feature", "geometry": {"type": "Point", "coordinates": [4.829577, 52.6631229]}, "properties": {"type": "inleverpunt", "locatieNaam": "Schoonenberg Hoorcomfort", "straatNaam": "Middenwaard", "straatNr": "24A", "postcode": "1703 SE", "plaats": "Heerhugowaard", "merk": "Stibat", "puntType": "inzamelbak", "materialen": ["batterijen"], "uitbetaling": [], "vrijToegankelijk": false, "gemeenteBeperking": null, "openingstijden": null, "latitude": 52.6631229, "longitude": 4.829577, "bronId": "L006055"}}, {"type": "Feature", "geometry": {"type": "Point", "coordinates": [4.8285753, 52.6631523]}, "properties": {"type": "inleverpunt", "locatieNaam": "HEMA Middenwaard", "straatNaam": "Middenwaard", "straatNr": "46", "postcode": "1703 SH", "plaats": "Heerhugowaard", "merk": "Stibat", "puntType": "inzamelbak", "materialen": ["batterijen"], "uitbetaling": [], "vrijToegankelijk": false, "gemeenteBeperking": null, "openingstijden": null, "latitude": 52.6631523, "longitude": 4.8285753, "bronId": "L006261"}}, {"type": "Feature", "geometry": {"type": "Point", "coordinates": [4.8290587, 52.6635137]}, "properties": {"type": "inleverpunt", "locatieNaam": "Stumpel", "straatNaam": "Middenwaard", "straatNr": "48a", "postcode": "1703 SC", "plaats": "Heerhugowaard", "merk": "Stibat", "puntType": "inzamelbak", "materialen": ["batterijen"], "uitbetaling": [], "vrijToegankelijk": false, "gemeenteBeperking": null, "openingstijden": null, "latitude": 52.6635137, "longitude": 4.8290587, "bronId": "L045555"}}, {"type": "Feature", "geometry": {"type": "Point", "coordinates": [4.8276677, 52.6638602]}, "properties": {"type": "inleverpunt", "locatieNaam": "ANWB", "straatNaam": "Middenwaard", "straatNr": "72", "postcode": "1703 SH", "plaats": "Heerhugowaard", "merk": "Stibat", "puntType": "inzamelbak", "materialen": ["batterijen"], "uitbetaling": [], "vrijToegankelijk": false, "gemeenteBeperking": null, "openingstijden": null, "latitude": 52.6638602, "longitude": 4.8276677, "bronId": "L044577"}}, {"type": "Feature", "geometry": {"type": "Point", "coordinates": [4.8429434, 52.6685708]}, "properties": {"type": "inleverpunt", "locatieNaam": "Rutgers Hoortechniek", "straatNaam": "Middenweg", "straatNr": "177", "postcode": "1701 GA", "plaats": "Heerhugowaard", "merk": "Stibat", "puntType": "inzamelbak", "materialen": ["batterijen"], "uitbetaling": [], "vrijToegankelijk": false, "gemeenteBeperking": null, "openingstijden": null, "latitude": 52.6685708, "longitude": 4.8429434, "bronId": "L039031"}}, {"type": "Feature", "geometry": {"type": "Point", "coordinates": [4.8281497, 52.6640762]}, "properties": {"type": "inleverpunt", "locatieNaam": "Bruna", "straatNaam": "Middenwaard", "straatNr": "78", "postcode": "1703 SH", "plaats": "Heerhugowaard", "merk": "Stibat", "puntType": "inzamelbak", "materialen": ["batterijen"], "uitbetaling": [], "vrijToegankelijk": false, "gemeenteBeperking": null, "openingstijden": null, "latitude": 52.6640762, "longitude": 4.8281497, "bronId": "L022133"}}, {"type": "Feature", "geometry": {"type": "Point", "coordinates": [4.8278453, 52.664338]}, "properties": {"type": "inleverpunt", "locatieNaam": "Intertoys", "straatNaam": "Middenwaard", "straatNr": "114", "postcode": "1703 SH", "plaats": "Heerhugowaard", "merk": "Stibat", "puntType": "inzamelbak", "materialen": ["batterijen"], "uitbetaling": [], "vrijToegankelijk": false, "gemeenteBeperking": null, "openingstijden": null, "latitude": 52.664338, "longitude": 4.8278453, "bronId": "L006326"}}, {"type": "Feature", "geometry": {"type": "Point", "coordinates": [4.8279182, 52.6643779]}, "properties": {"type": "inleverpunt", "locatieNaam": "1002 Action", "straatNaam": "Middenwaard", "straatNr": "112", "postcode": "1703 SH", "plaats": "Heerhugowaard", "merk": "Stibat", "puntType": "inzamelbak", "materialen": ["batterijen"], "uitbetaling": [], "vrijToegankelijk": false, "gemeenteBeperking": null, "openingstijden": null, "latitude": 52.6643779, "longitude": 4.8279182, "bronId": "L018233"}}, {"type": "Feature", "geometry": {"type": "Point", "coordinates": [4.827101, 52.664253]}, "properties": {"type": "inleverpunt", "locatieNaam": "Hans Anders", "straatNaam": "Middenwaard", "straatNr": "94", "postcode": "1703 SH", "plaats": "Heerhugowaard", "merk": "Stibat", "puntType": "inzamelbak", "materialen": ["batterijen"], "uitbetaling": [], "vrijToegankelijk": false, "gemeenteBeperking": null, "openingstijden": null, "latitude": 52.664253, "longitude": 4.827101, "bronId": "L037832"}}, {"type": "Feature", "geometry": {"type": "Point", "coordinates": [4.8267486, 52.6642282]}, "properties": {"type": "inleverpunt", "locatieNaam": "KPN winkel", "straatNaam": "Middenwaard", "straatNr": "117", "postcode": "1703 SC", "plaats": "Heerhugowaard", "merk": "Stibat", "puntType": "inzamelbak", "materialen": ["batterijen"], "uitbetaling": [], "vrijToegankelijk": false, "gemeenteBeperking": null, "openingstijden": null, "latitude": 52.6642282, "longitude": 4.8267486, "bronId": "L019546"}}, {"type": "Feature", "geometry": {"type": "Point", "coordinates": [4.8271881, 52.6643792]}, "properties": {"type": "inleverpunt", "locatieNaam": "Dekamarkt", "straatNaam": "Middenwaard", "straatNr": "108", "postcode": "1703 SH", "plaats": "Heerhugowaard", "merk": "Stibat", "puntType": "inzamelbak", "materialen": ["batterijen"], "uitbetaling": [], "vrijToegankelijk": false, "gemeenteBeperking": null, "openingstijden": null, "latitude": 52.6643792, "longitude": 4.8271881, "bronId": "L006794"}}, {"type": "Feature", "geometry": {"type": "Point", "coordinates": [4.8455302, 52.6700158]}, "properties": {"type": "inleverpunt", "locatieNaam": "Fietsvoordeelshop.nl", "straatNaam": "Middenweg", "straatNr": "205", "postcode": "1701 GB", "plaats": "Heerhugowaard", "merk": "Stibat", "puntType": "inzamelbak", "materialen": ["batterijen"], "uitbetaling": [], "vrijToegankelijk": false, "gemeenteBeperking": null, "openingstijden": null, "latitude": 52.6700158, "longitude": 4.8455302, "bronId": "L044090"}}, {"type": "Feature", "geometry": {"type": "Point", "coordinates": [4.8449871, 52.6699032]}, "properties": {"type": "inleverpunt", "locatieNaam": "Wibra", "straatNaam": "Raadhuisstraat", "straatNr": "2", "postcode": "1701 EK", "plaats": "Heerhugowaard", "merk": "Stibat", "puntType": "inzamelbak", "materialen": ["batterijen"], "uitbetaling": [], "vrijToegankelijk": false, "gemeenteBeperking": null, "openingstijden": null, "latitude": 52.6699032, "longitude": 4.8449871, "bronId": "L022641"}}, {"type": "Feature", "geometry": {"type": "Point", "coordinates": [4.8459826, 52.6703585]}, "properties": {"type": "inleverpunt", "locatieNaam": "Zeeman", "straatNaam": "Middenweg", "straatNr": "215", "postcode": "1701 GB", "plaats": "Heerhugowaard", "merk": "Stibat", "puntType": "inzamelbak", "materialen": ["batterijen"], "uitbetaling": [], "vrijToegankelijk": false, "gemeenteBeperking": null, "openingstijden": null, "latitude": 52.6703585, "longitude": 4.8459826, "bronId": "L021140"}}, {"type": "Feature", "geometry": {"type": "Point", "coordinates": [4.8473518, 52.6708798]}, "properties": {"type": "inleverpunt", "locatieNaam": "Top1Toys", "straatNaam": "Middenweg", "straatNr": "241a", "postcode": "1701 GC", "plaats": "Heerhugowaard", "merk": "Stibat", "puntType": "inzamelbak", "materialen": ["batterijen"], "uitbetaling": [], "vrijToegankelijk": false, "gemeenteBeperking": null, "openingstijden": null, "latitude": 52.6708798, "longitude": 4.8473518, "bronId": "L014613"}}, {"type": "Feature", "geometry": {"type": "Point", "coordinates": [4.8467297, 52.6707275]}, "properties": {"type": "inleverpunt", "locatieNaam": "Electroworld Koos Rood", "straatNaam": "Middenweg", "straatNr": "231", "postcode": "1701 GC", "plaats": "Heerhugowaard", "merk": "Stibat", "puntType": "inzamelbak", "materialen": ["batterijen"], "uitbetaling": [], "vrijToegankelijk": false, "gemeenteBeperking": null, "openingstijden": null, "latitude": 52.6707275, "longitude": 4.8467297, "bronId": "L015167"}}, {"type": "Feature", "geometry": {"type": "Point", "coordinates": [4.8479775, 52.6712762]}, "properties": {"type": "inleverpunt", "locatieNaam": "Jumbo", "straatNaam": "Middenweg", "straatNr": "245", "postcode": "1701 GC", "plaats": "Heerhugowaard", "merk": "Stibat", "puntType": "inzamelbak", "materialen": ["batterijen"], "uitbetaling": [], "vrijToegankelijk": false, "gemeenteBeperking": null, "openingstijden": null, "latitude": 52.6712762, "longitude": 4.8479775, "bronId": "L040392"}}, {"type": "Feature", "geometry": {"type": "Point", "coordinates": [4.844605, 52.670503]}, "properties": {"type": "inleverpunt", "locatieNaam": "Hans Anders", "straatNaam": "Raadhuisplein", "straatNr": "2-B", "postcode": "1701 EJ", "plaats": "Heerhugowaard", "merk": "Stibat", "puntType": "inzamelbak", "materialen": ["batterijen"], "uitbetaling": [], "vrijToegankelijk": false, "gemeenteBeperking": null, "openingstijden": null, "latitude": 52.670503, "longitude": 4.844605, "bronId": "L037831"}}, {"type": "Feature", "geometry": {"type": "Point", "coordinates": [4.8434627, 52.6705348]}, "properties": {"type": "inleverpunt", "locatieNaam": "Kruidvat", "straatNaam": "Raadhuisplein", "straatNr": "40 a", "postcode": "1701 EJ", "plaats": "Heerhugowaard", "merk": "Stibat", "puntType": "inzamelbak", "materialen": ["batterijen"], "uitbetaling": [], "vrijToegankelijk": false, "gemeenteBeperking": null, "openingstijden": null, "latitude": 52.6705348, "longitude": 4.8434627, "bronId": "L017019"}}, {"type": "Feature", "geometry": {"type": "Point", "coordinates": [4.8447257, 52.6705367]}, "properties": {"type": "inleverpunt", "locatieNaam": "Vomar", "straatNaam": "Raadhuisplein", "straatNr": "2", "postcode": "1701 EJ", "plaats": "Heerhugowaard", "merk": "Stibat", "puntType": "inzamelbak", "materialen": ["batterijen"], "uitbetaling": [], "vrijToegankelijk": false, "gemeenteBeperking": null, "openingstijden": null, "latitude": 52.6705367, "longitude": 4.8447257, "bronId": "L021837"}}, {"type": "Feature", "geometry": {"type": "Point", "coordinates": [4.8545753, 52.6743633]}, "properties": {"type": "inleverpunt", "locatieNaam": "Dekamarkt", "straatNaam": "Berckheidelaan", "straatNr": "18", "postcode": "1701 VG", "plaats": "Heerhugowaard", "merk": "Stibat", "puntType": "inzamelbak", "materialen": ["batterijen"], "uitbetaling": [], "vrijToegankelijk": false, "gemeenteBeperking": null, "openingstijden": null, "latitude": 52.6743633, "longitude": 4.8545753, "bronId": "L005791"}}, {"type": "Feature", "geometry": {"type": "Point", "coordinates": [4.8477796, 52.6729797]}, "properties": {"type": "inleverpunt", "locatieNaam": "Hubo", "straatNaam": "Middenweg", "straatNr": "275A", "postcode": "1701 GD", "plaats": "Heerhugowaard", "merk": "Stibat", "puntType": "inzamelbak", "materialen": ["batterijen"], "uitbetaling": [], "vrijToegankelijk": false, "gemeenteBeperking": null, "openingstijden": null, "latitude": 52.6729797, "longitude": 4.8477796, "bronId": "L042587"}}, {"type": "Feature", "geometry": {"type": "Point", "coordinates": [4.809693, 52.6612621]}, "properties": {"type": "inleverpunt", "locatieNaam": "MediaMarkt", "straatNaam": "Th van Doesburgweg", "straatNr": "1", "postcode": "1703 DL", "plaats": "Heerhugowaard", "merk": "Stibat", "puntType": "inzamelbak", "materialen": ["batterijen"], "uitbetaling": [], "vrijToegankelijk": false, "gemeenteBeperking": null, "openingstijden": null, "latitude": 52.6612621, "longitude": 4.809693, "bronId": "L028933"}}, {"type": "Feature", "geometry": {"type": "Point", "coordinates": [4.8529149, 52.6747791]}, "properties": {"type": "inleverpunt", "locatieNaam": "Aldi", "straatNaam": "Berckheidelaan", "straatNr": "4", "postcode": "1701 VG", "plaats": "Heerhugowaard", "merk": "Stibat", "puntType": "inzamelbak", "materialen": ["batterijen"], "uitbetaling": [], "vrijToegankelijk": false, "gemeenteBeperking": null, "openingstijden": null, "latitude": 52.6747791, "longitude": 4.8529149, "bronId": "L041146"}}, {"type": "Feature", "geometry": {"type": "Point", "coordinates": [4.8101187, 52.662241]}, "properties": {"type": "inleverpunt", "locatieNaam": "Leen Bakker", "straatNaam": "J.J.P.Oudweg", "straatNr": "27", "postcode": "1703 DE", "plaats": "Heerhugowaard", "merk": "Stibat", "puntType": "inzamelbak", "materialen": ["batterijen"], "uitbetaling": [], "vrijToegankelijk": false, "gemeenteBeperking": null, "openingstijden": null, "latitude": 52.662241, "longitude": 4.8101187, "bronId": "L022005"}}, {"type": "Feature", "geometry": {"type": "Point", "coordinates": [4.8085232, 52.6624148]}, "properties": {"type": "inleverpunt", "locatieNaam": "Gamma", "straatNaam": "J.J.P. Oudweg", "straatNr": "16", "postcode": "1703 DE", "plaats": "Heerhugowaard", "merk": "Stibat", "puntType": "inzamelbak", "materialen": ["batterijen"], "uitbetaling": [], "vrijToegankelijk": false, "gemeenteBeperking": null, "openingstijden": null, "latitude": 52.6624148, "longitude": 4.8085232, "bronId": "L008034"}}, {"type": "Feature", "geometry": {"type": "Point", "coordinates": [4.8088292, 52.6628897]}, "properties": {"type": "inleverpunt", "locatieNaam": "Praxis 2098", "straatNaam": "J.J.P. Oudweg", "straatNr": "14", "postcode": "1703 DE", "plaats": "Heerhugowaard", "merk": "Stibat", "puntType": "inzamelbak", "materialen": ["batterijen"], "uitbetaling": [], "vrijToegankelijk": false, "gemeenteBeperking": null, "openingstijden": null, "latitude": 52.6628897, "longitude": 4.8088292, "bronId": "L016474"}}, {"type": "Feature", "geometry": {"type": "Point", "coordinates": [4.8119336, 52.664687]}, "properties": {"type": "inleverpunt", "locatieNaam": "Toolstation", "straatNaam": "J.J.P.Oudweg", "straatNr": "8a", "postcode": "1703 DE", "plaats": "Heerhugowaard", "merk": "Stibat", "puntType": "inzamelbak", "materialen": ["batterijen"], "uitbetaling": [], "vrijToegankelijk": false, "gemeenteBeperking": null, "openingstijden": null, "latitude": 52.664687, "longitude": 4.8119336, "bronId": "L042519"}}, {"type": "Feature", "geometry": {"type": "Point", "coordinates": [4.8151348, 52.6659383]}, "properties": {"type": "inleverpunt", "locatieNaam": "Kwantum", "straatNaam": "W.M. Dudokweg", "straatNr": "3", "postcode": "1703 DA", "plaats": "Heerhugowaard", "merk": "Stibat", "puntType": "inzamelbak", "materialen": ["batterijen"], "uitbetaling": [], "vrijToegankelijk": false, "gemeenteBeperking": null, "openingstijden": null, "latitude": 52.6659383, "longitude": 4.8151348, "bronId": "L018571"}}, {"type": "Feature", "geometry": {"type": "Point", "coordinates": [4.8232033, 52.6696448]}, "properties": {"type": "inleverpunt", "locatieNaam": "Beter Horen", "straatNaam": "Stationsplein", "straatNr": "27", "postcode": "1703 WD", "plaats": "Heerhugowaard", "merk": "Stibat", "puntType": "inzamelbak", "materialen": ["batterijen"], "uitbetaling": [], "vrijToegankelijk": false, "gemeenteBeperking": null, "openingstijden": null, "latitude": 52.6696448, "longitude": 4.8232033, "bronId": "L017962"}}, {"type": "Feature", "geometry": {"type": "Point", "coordinates": [4.8245734, 52.6720408]}, "properties": {"type": "inleverpunt", "locatieNaam": "Bo-Mij", "straatNaam": "Nijverheidsstraat", "straatNr": "1", "postcode": "1704 RA", "plaats": "Heerhugowaard", "merk": "Stibat", "puntType": "inzamelbak", "materialen": ["batterijen"], "uitbetaling": [], "vrijToegankelijk": false, "gemeenteBeperking": null, "openingstijden": null, "latitude": 52.6720408, "longitude": 4.8245734, "bronId": "L028884"}}, {"type": "Feature", "geometry": {"type": "Point", "coordinates": [4.7837244, 52.6617063]}, "properties": {"type": "inleverpunt", "locatieNaam": "Soorsma (RDC Group)", "straatNaam": "Bovenweg", "straatNr": "71", "postcode": "1834 CC", "plaats": "St. Pancras", "merk": "Stibat", "puntType": "inzamelbak", "materialen": ["batterijen"], "uitbetaling": [], "vrijToegankelijk": false, "gemeenteBeperking": null, "openingstijden": null, "latitude": 52.6617063, "longitude": 4.7837244, "bronId": "L022777"}}, {"type": "Feature", "geometry": {"type": "Point", "coordinates": [4.7834537, 52.6620464]}, "properties": {"type": "inleverpunt", "locatieNaam": "Dekamarkt", "straatNaam": "Bovenweg", "straatNr": "80", "postcode": "1834 CG", "plaats": "Sint Pancras", "merk": "Stibat", "puntType": "inzamelbak", "materialen": ["batterijen"], "uitbetaling": [], "vrijToegankelijk": false, "gemeenteBeperking": null, "openingstijden": null, "latitude": 52.6620464, "longitude": 4.7834537, "bronId": "L007007"}}, {"type": "Feature", "geometry": {"type": "Point", "coordinates": [4.7858851, 52.6634766]}, "properties": {"type": "inleverpunt", "locatieNaam": "Ron Bruil Rijwielen", "straatNaam": "Bovenweg", "straatNr": "25a", "postcode": "1834 CB", "plaats": "Sint Pancras", "merk": "Stibat", "puntType": "inzamelbak", "materialen": ["batterijen"], "uitbetaling": [], "vrijToegankelijk": false, "gemeenteBeperking": null, "openingstijden": null, "latitude": 52.6634766, "longitude": 4.7858851, "bronId": "L032856"}}, {"type": "Feature", "geometry": {"type": "Point", "coordinates": [4.8339644, 52.6795645]}, "properties": {"type": "inleverpunt", "locatieNaam": "Kringloopwinkel Rataplan", "straatNaam": "Marconistraat", "straatNr": "16", "postcode": "1704 RG", "plaats": "Heerhugowaard", "merk": "Stibat", "puntType": "inzamelbak", "materialen": ["batterijen"], "uitbetaling": [], "vrijToegankelijk": false, "gemeenteBeperking": null, "openingstijden": null, "latitude": 52.6795645, "longitude": 4.8339644, "bronId": "L030792"}}, {"type": "Feature", "geometry": {"type": "Point", "coordinates": [4.780673, 52.6627593]}, "properties": {"type": "inleverpunt", "locatieNaam": "SSK Tweewielers", "straatNaam": "de Helling", "straatNr": "3b", "postcode": "1834 DA", "plaats": "Sint Pancras", "merk": "Stibat", "puntType": "inzamelbak", "materialen": ["batterijen"], "uitbetaling": [], "vrijToegankelijk": false, "gemeenteBeperking": null, "openingstijden": null, "latitude": 52.6627593, "longitude": 4.780673, "bronId": "L049295"}}, {"type": "Feature", "geometry": {"type": "Point", "coordinates": [4.8305364, 52.6789541]}, "properties": {"type": "inleverpunt", "locatieNaam": "Pauw recreatie", "straatNaam": "Stevinstraat", "straatNr": "13", "postcode": "1704 RN", "plaats": "Heerhugowaard", "merk": "Stibat", "puntType": "inzamelbak", "materialen": ["batterijen"], "uitbetaling": [], "vrijToegankelijk": false, "gemeenteBeperking": null, "openingstijden": null, "latitude": 52.6789541, "longitude": 4.8305364, "bronId": "L044380"}}, {"type": "Feature", "geometry": {"type": "Point", "coordinates": [4.843356, 52.6853476]}, "properties": {"type": "inleverpunt", "locatieNaam": "Groenhart gereedschappen, ijzerwaren", "straatNaam": "Delta", "straatNr": "1", "postcode": "1704 EE", "plaats": "Heerhugowaard", "merk": "Stibat", "puntType": "inzamelbak", "materialen": ["batterijen"], "uitbetaling": [], "vrijToegankelijk": false, "gemeenteBeperking": null, "openingstijden": null, "latitude": 52.6853476, "longitude": 4.843356, "bronId": "L039250"}}, {"type": "Feature", "geometry": {"type": "Point", "coordinates": [4.8280945, 52.6816691]}, "properties": {"type": "inleverpunt", "locatieNaam": "Mijts Caravan &amp; Campers", "straatNaam": "Pascalstraat", "straatNr": "12", "postcode": "1704 RD", "plaats": "Heerhugowaard", "merk": "Stibat", "puntType": "inzamelbak", "materialen": ["batterijen"], "uitbetaling": [], "vrijToegankelijk": false, "gemeenteBeperking": null, "openingstijden": null, "latitude": 52.6816691, "longitude": 4.8280945, "bronId": "L026634"}}, {"type": "Feature", "geometry": {"type": "Point", "coordinates": [4.8052193, 52.6749427]}, "properties": {"type": "inleverpunt", "locatieNaam": "Axel dé Fietsenmaker", "straatNaam": "Dorpsstraat", "straatNr": "19", "postcode": "1721 BA", "plaats": "Broek op Langedijk", "merk": "Stibat", "puntType": "inzamelbak", "materialen": ["batterijen"], "uitbetaling": [], "vrijToegankelijk": false, "gemeenteBeperking": null, "openingstijden": null, "latitude": 52.6749427, "longitude": 4.8052193, "bronId": "L041077"}}, {"type": "Feature", "geometry": {"type": "Point", "coordinates": [4.8420544, 52.687417]}, "properties": {"type": "inleverpunt", "locatieNaam": "Fietsvoordeelshop", "straatNaam": "Foxtrot", "straatNr": "14", "postcode": "1704 EH", "plaats": "Heerhugowaard", "merk": "Stibat", "puntType": "inzamelbak", "materialen": ["batterijen"], "uitbetaling": [], "vrijToegankelijk": false, "gemeenteBeperking": null, "openingstijden": null, "latitude": 52.687417, "longitude": 4.8420544, "bronId": "L049449"}}, {"type": "Feature", "geometry": {"type": "Point", "coordinates": [4.8044272, 52.6788402]}, "properties": {"type": "inleverpunt", "locatieNaam": "1015 Action", "straatNaam": "Marktplein", "straatNr": "101", "postcode": "1721 CK", "plaats": "Broek op Langedijk", "merk": "Stibat", "puntType": "inzamelbak", "materialen": ["batterijen"], "uitbetaling": [], "vrijToegankelijk": false, "gemeenteBeperking": null, "openingstijden": null, "latitude": 52.6788402, "longitude": 4.8044272, "bronId": "L018836"}}, {"type": "Feature", "geometry": {"type": "Point", "coordinates": [4.8044264, 52.6790035]}, "properties": {"type": "inleverpunt", "locatieNaam": "Dekamarkt", "straatNaam": "Marktplein", "straatNr": "107", "postcode": "1721 CK", "plaats": "Broek op Langedyk", "merk": "Stibat", "puntType": "inzamelbak", "materialen": ["batterijen"], "uitbetaling": [], "vrijToegankelijk": false, "gemeenteBeperking": null, "openingstijden": null, "latitude": 52.6790035, "longitude": 4.8044264, "bronId": "L045094"}}, {"type": "Feature", "geometry": {"type": "Point", "coordinates": [4.8045427, 52.6790475]}, "properties": {"type": "inleverpunt", "locatieNaam": "Zeeman", "straatNaam": "WC. Broekerveiling", "straatNr": "105", "postcode": "1721 CK", "plaats": "Broek Op Langedijk", "merk": "Stibat", "puntType": "inzamelbak", "materialen": ["batterijen"], "uitbetaling": [], "vrijToegankelijk": false, "gemeenteBeperking": null, "openingstijden": null, "latitude": 52.6790475, "longitude": 4.8045427, "bronId": "L021664"}}, {"type": "Feature", "geometry": {"type": "Point", "coordinates": [4.8048808, 52.6792019]}, "properties": {"type": "inleverpunt", "locatieNaam": "Vomar", "straatNaam": "Marktplein", "straatNr": "3", "postcode": "1721 CK", "plaats": "Broek op Langedijk", "merk": "Stibat", "puntType": "inzamelbak", "materialen": ["batterijen"], "uitbetaling": [], "vrijToegankelijk": false, "gemeenteBeperking": null, "openingstijden": null, "latitude": 52.6792019, "longitude": 4.8048808, "bronId": "L007441"}}, {"type": "Feature", "geometry": {"type": "Point", "coordinates": [4.8041561, 52.6792073]}, "properties": {"type": "inleverpunt", "locatieNaam": "Kruidvat", "straatNaam": "Marktplein", "straatNr": "61", "postcode": "1721 CK", "plaats": "Broek op Langedijk", "merk": "Stibat", "puntType": "inzamelbak", "materialen": ["batterijen"], "uitbetaling": [], "vrijToegankelijk": false, "gemeenteBeperking": null, "openingstijden": null, "latitude": 52.6792073, "longitude": 4.8041561, "bronId": "L017361"}}, {"type": "Feature", "geometry": {"type": "Point", "coordinates": [4.8046007, 52.6793515]}, "properties": {"type": "inleverpunt", "locatieNaam": "EP:", "straatNaam": "Broekerplein", "straatNr": "1", "postcode": "1721 CX", "plaats": "Broek op Langedijk", "merk": "Stibat", "puntType": "inzamelbak", "materialen": ["batterijen"], "uitbetaling": [], "vrijToegankelijk": false, "gemeenteBeperking": null, "openingstijden": null, "latitude": 52.6793515, "longitude": 4.8046007, "bronId": "L041040"}}, {"type": "Feature", "geometry": {"type": "Point", "coordinates": [4.804079, 52.6792498]}, "properties": {"type": "inleverpunt", "locatieNaam": "HEMA Broek op Langedijk", "straatNaam": "Marktplein", "straatNr": "59", "postcode": "1721 CK", "plaats": "Broek op Langedijk", "merk": "Stibat", "puntType": "inzamelbak", "materialen": ["batterijen"], "uitbetaling": [], "vrijToegankelijk": false, "gemeenteBeperking": null, "openingstijden": null, "latitude": 52.6792498, "longitude": 4.804079, "bronId": "L046943"}}, {"type": "Feature", "geometry": {"type": "Point", "coordinates": [4.804036, 52.6793506]}, "properties": {"type": "inleverpunt", "locatieNaam": "7285 Etos", "straatNaam": "Marktplein", "straatNr": "51", "postcode": "1721 CK", "plaats": "Broek op Langedijk", "merk": "Stibat", "puntType": "inzamelbak", "materialen": ["batterijen"], "uitbetaling": [], "vrijToegankelijk": false, "gemeenteBeperking": null, "openingstijden": null, "latitude": 52.6793506, "longitude": 4.804036, "bronId": "L022460"}}, {"type": "Feature", "geometry": {"type": "Point", "coordinates": [4.7985281, 52.6776122]}, "properties": {"type": "inleverpunt", "locatieNaam": "Karwei", "straatNaam": "Middelmoot", "straatNr": "10", "postcode": "1721 CZ", "plaats": "Broek op Langedijk", "merk": "Stibat", "puntType": "inzamelbak", "materialen": ["batterijen"], "uitbetaling": [], "vrijToegankelijk": false, "gemeenteBeperking": null, "openingstijden": null, "latitude": 52.6776122, "longitude": 4.7985281, "bronId": "L005897"}}, {"type": "Feature", "geometry": {"type": "Point", "coordinates": [4.8000715, 52.6783604]}, "properties": {"type": "inleverpunt", "locatieNaam": "BP ten Bruggencate", "straatNaam": "Hornweg", "straatNr": "6", "postcode": "1721 CV", "plaats": "Broek op Langedijk", "merk": "Stibat", "puntType": "inzamelbak", "materialen": ["batterijen"], "uitbetaling": [], "vrijToegankelijk": false, "gemeenteBeperking": null, "openingstijden": null, "latitude": 52.6783604, "longitude": 4.8000715, "bronId": "L027203"}}, {"type": "Feature", "geometry": {"type": "Point", "coordinates": [4.8032481, 52.6797318]}, "properties": {"type": "inleverpunt", "locatieNaam": "Wibra", "straatNaam": "Marktplein", "straatNr": "103", "postcode": "1721 CK", "plaats": "Broek op Langedyk", "merk": "Stibat", "puntType": "inzamelbak", "materialen": ["batterijen"], "uitbetaling": [], "vrijToegankelijk": false, "gemeenteBeperking": null, "openingstijden": null, "latitude": 52.6797318, "longitude": 4.8032481, "bronId": "L036252"}}, {"type": "Feature", "geometry": {"type": "Point", "coordinates": [4.8298604, 52.6923424]}, "properties": {"type": "inleverpunt", "locatieNaam": "Govers Heerhugowaard", "straatNaam": "Bellstraat", "straatNr": "1", "postcode": "1704 SZ", "plaats": "Heerhugowaard", "merk": "Stibat", "puntType": "inzamelbak", "materialen": ["batterijen"], "uitbetaling": [], "vrijToegankelijk": false, "gemeenteBeperking": null, "openingstijden": null, "latitude": 52.6923424, "longitude": 4.8298604, "bronId": "L044365"}}, {"type": "Feature", "geometry": {"type": "Point", "coordinates": [4.8030932, 52.6868682]}, "properties": {"type": "inleverpunt", "locatieNaam": "Afvalinzamelstation Langedijk", "straatNaam": "Vroedschap", "straatNr": "9", "postcode": "1722 GX", "plaats": "Zuid-Scharwoude", "merk": "Stibat", "puntType": "inzamelbak", "materialen": ["batterijen"], "uitbetaling": [], "vrijToegankelijk": false, "gemeenteBeperking": null, "openingstijden": null, "latitude": 52.6868682, "longitude": 4.8030932, "bronId": "L035596"}}, {"type": "Feature", "geometry": {"type": "Point", "coordinates": [4.8210732, 52.6959751]}, "properties": {"type": "inleverpunt", "locatieNaam": "Total", "straatNaam": "Langebalkweg", "straatNr": "30", "postcode": "1722 EN", "plaats": "Zuid-Scharwoude", "merk": "Stibat", "puntType": "inzamelbak", "materialen": ["batterijen"], "uitbetaling": [], "vrijToegankelijk": false, "gemeenteBeperking": null, "openingstijden": null, "latitude": 52.6959751, "longitude": 4.8210732, "bronId": "L019786"}}, {"type": "Feature", "geometry": {"type": "Point", "coordinates": [4.8089665, 52.6932666]}, "properties": {"type": "inleverpunt", "locatieNaam": "Rood Cycle-center", "straatNaam": "Voorburggracht", "straatNr": "176", "postcode": "1722 GT", "plaats": "Zuid-Scharwoude", "merk": "Stibat", "puntType": "inzamelbak", "materialen": ["batterijen"], "uitbetaling": [], "vrijToegankelijk": false, "gemeenteBeperking": null, "openingstijden": null, "latitude": 52.6932666, "longitude": 4.8089665, "bronId": "L044875"}}, {"type": "Feature", "geometry": {"type": "Point", "coordinates": [4.8521149, 52.7065086]}, "properties": {"type": "inleverpunt", "locatieNaam": "Dagwinkel", "straatNaam": "Middenweg", "straatNr": "552", "postcode": "1704 BP", "plaats": "Heerhugowaard", "merk": "Stibat", "puntType": "inzamelbak", "materialen": ["batterijen"], "uitbetaling": [], "vrijToegankelijk": false, "gemeenteBeperking": null, "openingstijden": null, "latitude": 52.7065086, "longitude": 4.8521149, "bronId": "L038810"}}, {"type": "Feature", "geometry": {"type": "Point", "coordinates": [4.8521862, 52.7067246]}, "properties": {"type": "inleverpunt", "locatieNaam": "Edwin Groen Tweewielers", "straatNaam": "Middenweg", "straatNr": "554", "postcode": "1704 BP", "plaats": "Heerhugowaard", "merk": "Stibat", "puntType": "inzamelbak", "materialen": ["batterijen"], "uitbetaling": [], "vrijToegankelijk": false, "gemeenteBeperking": null, "openingstijden": null, "latitude": 52.7067246, "longitude": 4.8521862, "bronId": "L032811"}}, {"type": "Feature", "geometry": {"type": "Point", "coordinates": [4.8081684, 52.694541]}, "properties": {"type": "inleverpunt", "locatieNaam": "Expert", "straatNaam": "Voorburggracht", "straatNr": "208", "postcode": "1722 GV", "plaats": "Zuid-Scharwoude", "merk": "Stibat", "puntType": "inzamelbak", "materialen": ["batterijen"], "uitbetaling": [], "vrijToegankelijk": false, "gemeenteBeperking": null, "openingstijden": null, "latitude": 52.694541, "longitude": 4.8081684, "bronId": "L028146"}}, {"type": "Feature", "geometry": {"type": "Point", "coordinates": [4.8095301, 52.6957697]}, "properties": {"type": "inleverpunt", "locatieNaam": "Etos", "straatNaam": "Voorburggracht", "straatNr": "230d", "postcode": "1722 GE", "plaats": "Zuid-Scharwoude", "merk": "Stibat", "puntType": "inzamelbak", "materialen": ["batterijen"], "uitbetaling": [], "vrijToegankelijk": false, "gemeenteBeperking": null, "openingstijden": null, "latitude": 52.6957697, "longitude": 4.8095301, "bronId": "L038651"}}, {"type": "Feature", "geometry": {"type": "Point", "coordinates": [4.8086305, 52.6955502]}, "properties": {"type": "inleverpunt", "locatieNaam": "Vomar", "straatNaam": "Voorburggracht", "straatNr": "224", "postcode": "1722 GE", "plaats": "Zuid-Scharwoude", "merk": "Stibat", "puntType": "inzamelbak", "materialen": ["batterijen"], "uitbetaling": [], "vrijToegankelijk": false, "gemeenteBeperking": null, "openingstijden": null, "latitude": 52.6955502, "longitude": 4.8086305, "bronId": "L044257"}}, {"type": "Feature", "geometry": {"type": "Point", "coordinates": [4.8196618, 52.7002672]}, "properties": {"type": "inleverpunt", "locatieNaam": "Life &amp; Garden Zuid-Scharwoude", "straatNaam": "Potjesdam", "straatNr": "1", "postcode": "1722 XN", "plaats": "Zuid-Scharwoude", "merk": "Stibat", "puntType": "inzamelbak", "materialen": ["batterijen"], "uitbetaling": [], "vrijToegankelijk": false, "gemeenteBeperking": null, "openingstijden": null, "latitude": 52.7002672, "longitude": 4.8196618, "bronId": "L032612"}}, {"type": "Feature", "geometry": {"type": "Point", "coordinates": [4.8106119, 52.6986309]}, "properties": {"type": "inleverpunt", "locatieNaam": "2262 Albert Heijn", "straatNaam": "Dorpsstraat", "straatNr": "520", "postcode": "1723 HG", "plaats": "Noord-Scharwoude", "merk": "Stibat", "puntType": "inzamelbak", "materialen": ["batterijen"], "uitbetaling": [], "vrijToegankelijk": false, "gemeenteBeperking": null, "openingstijden": null, "latitude": 52.6986309, "longitude": 4.8106119, "bronId": "L044261"}}, {"type": "Feature", "geometry": {"type": "Point", "coordinates": [4.811311, 52.69947]}, "properties": {"type": "inleverpunt", "locatieNaam": "Marskramer", "straatNaam": "Dorpsstraat", "straatNr": "542", "postcode": "1723 HH", "plaats": "Noord-Scharwoude", "merk": "Stibat", "puntType": "inzamelbak", "materialen": ["batterijen"], "uitbetaling": [], "vrijToegankelijk": false, "gemeenteBeperking": null, "openingstijden": null, "latitude": 52.69947, "longitude": 4.811311, "bronId": "L038188"}}, {"type": "Feature", "geometry": {"type": "Point", "coordinates": [4.8114845, 52.7033644]}, "properties": {"type": "inleverpunt", "locatieNaam": "Primera", "straatNaam": "Dorpsstraat", "straatNr": "614", "postcode": "1723 HK", "plaats": "Noord-Scharwoude", "merk": "Stibat", "puntType": "inzamelbak", "materialen": ["batterijen"], "uitbetaling": [], "vrijToegankelijk": false, "gemeenteBeperking": null, "openingstijden": null, "latitude": 52.7033644, "longitude": 4.8114845, "bronId": "L024608"}}, {"type": "Feature", "geometry": {"type": "Point", "coordinates": [4.8175635, 52.7062014]}, "properties": {"type": "inleverpunt", "locatieNaam": "Aldi", "straatNaam": "Oostelijke Randweg", "straatNr": "1", "postcode": "1723 LH", "plaats": "Noord-Scharwoude", "merk": "Stibat", "puntType": "inzamelbak", "materialen": ["batterijen"], "uitbetaling": [], "vrijToegankelijk": false, "gemeenteBeperking": null, "openingstijden": null, "latitude": 52.7062014, "longitude": 4.8175635, "bronId": "L041149"}}, {"type": "Feature", "geometry": {"type": "Point", "coordinates": [4.8180356, 52.7075485]}, "properties": {"type": "inleverpunt", "locatieNaam": "Welkoop", "straatNaam": "Oostelijke Randweg", "straatNr": "3", "postcode": "1723 LH", "plaats": "Noord-Scharwoude", "merk": "Stibat", "puntType": "inzamelbak", "materialen": ["batterijen"], "uitbetaling": [], "vrijToegankelijk": false, "gemeenteBeperking": null, "openingstijden": null, "latitude": 52.7075485, "longitude": 4.8180356, "bronId": "L018567"}}, {"type": "Feature", "geometry": {"type": "Point", "coordinates": [4.804263, 52.7123973]}, "properties": {"type": "inleverpunt", "locatieNaam": "Vomar", "straatNaam": "Voorburggracht", "straatNr": "415", "postcode": "1724 NZ", "plaats": "Oudkarspel", "merk": "Stibat", "puntType": "inzamelbak", "materialen": ["batterijen"], "uitbetaling": [], "vrijToegankelijk": false, "gemeenteBeperking": null, "openingstijden": null, "latitude": 52.7123973, "longitude": 4.804263, "bronId": "L013713"}}, {"type": "Feature", "geometry": {"type": "Polygon", "coordinates": [[[4.773669001125111, 52.64835400430115], [4.800509001152379, 52.66024100430787], [4.800524001152265, 52.65767600430643], [4.799030001150597, 52.654084004304394], [4.791773001143047, 52.64732700430056], [4.785587001136485, 52.639163004295995], [4.7852790011361295, 52.638115004295415], [4.788257001139123, 52.638885004295865], [4.7916430011424564, 52.63823400429548], [4.791768001142596, 52.638531004295594], [4.795420001146185, 52.63771200429518], [4.807816001158318, 52.63399000429303], [4.824210001174602, 52.63382300429294], [4.830225001180525, 52.63267800429228], [4.831910001182271, 52.63412200429307], [4.832613001183045, 52.63562800429393], [4.834412001184924, 52.63742900429496], [4.834460001185056, 52.639137004295954], [4.835550001186307, 52.642516004297825], [4.838549001189467, 52.64613800429984], [4.84214100119303, 52.646044004299824], [4.8427790011936604, 52.645913004299715], [4.8470180011977195, 52.642801004297986], [4.847476001198135, 52.642033004297545], [4.85170400120226, 52.6405400042967], [4.853830001204368, 52.64038600429658], [4.854197001204719, 52.64007700429641], [4.855857001206366, 52.64005200429639], [4.860646001211078, 52.63909200429586], [4.861555001211951, 52.638466004295516], [4.8613640012117445, 52.63815900429535], [4.862972001213309, 52.637451004294924], [4.863882001214112, 52.63536000429374], [4.871892001222027, 52.6343990042932], [4.873399001223524, 52.63444600429318], [4.873283001223424, 52.63472900429337], [4.87570400122585, 52.63514700429361], [4.876448001226631, 52.635974004294056], [4.877274001227617, 52.639407004295975], [4.876500001226926, 52.64096500429687], [4.8754100012259105, 52.64231500429764], [4.86507500121599, 52.64943600430167], [4.8627000012138035, 52.65299800430368], [4.8631790012144505, 52.65646900430565], [4.866754001218196, 52.66040000430785], [4.868222001219841, 52.66420700430999], [4.869914001221621, 52.666217004311115], [4.872107001223983, 52.6699300043132], [4.874501001226679, 52.67641500431681], [4.875710001227943, 52.677731004317565], [4.879396001231718, 52.680080004318874], [4.875975001228605, 52.685825004322105], [4.876249001228898, 52.68629200432233], [4.879383001232094, 52.68801600432331], [4.881985001234683, 52.688096004323356], [4.888704001241471, 52.69045600432465], [4.890301001243235, 52.69412500432665], [4.891419001244395, 52.69517600432729], [4.899860001252895, 52.69758700432858], [4.8990150012525, 52.706720004333704], [4.897339001250844, 52.706908004333805], [4.884502001238257, 52.71001500433556], [4.877703001231606, 52.71198800433671], [4.876261001230246, 52.71344700433752], [4.872013001226168, 52.716290004339115], [4.8612110012156675, 52.720726004341614], [4.858093001212706, 52.72334500434309], [4.852499001207115, 52.72256200434268], [4.847685001202225, 52.72025900434138], [4.8364880011910385, 52.718747004340536], [4.828355001182931, 52.71803100434018], [4.824028001178561, 52.71653200433933], [4.8166270011711525, 52.715282004338675], [4.813500001168035, 52.71494500433847], [4.8091710011637465, 52.715122004338575], [4.805026001159588, 52.71420900433809], [4.803924001158522, 52.71478000433839], [4.805011001159616, 52.71507000433856], [4.804573001159213, 52.7156610043389], [4.8031840011578195, 52.715411004338776], [4.802120001156791, 52.71589100433898], [4.797542001152436, 52.71963600434111], [4.797602001152559, 52.72084800434178], [4.7954860011504366, 52.72043200434156], [4.794038001149014, 52.720714004341694], [4.793903001148848, 52.72006800434134], [4.792559001147537, 52.72053200434157], [4.786565001141616, 52.72103400434183], [4.785412001140544, 52.72245100434269], [4.785941001141127, 52.72363100434334], [4.785710001140923, 52.72410700434358], [4.786873001142193, 52.72637200434485], [4.786566001141969, 52.72794600434577], [4.785257001140709, 52.728757004346186], [4.781655001137197, 52.72989200434682], [4.778812001134451, 52.731347004347604], [4.77379700112893, 52.720714004341716], [4.772585001127667, 52.71953800434106], [4.7730030011279965, 52.71785900434011], [4.770160001124634, 52.70728400433424], [4.770762001124962, 52.70204300433133], [4.76964700112369, 52.6987930043295], [4.766873001120905, 52.69813400432913], [4.7572510011113325, 52.69777000432891], [4.752893001106985, 52.69731300432864], [4.73431500108831, 52.692806004326144], [4.731546001085556, 52.692737004326084], [4.728854001082817, 52.691404004325314], [4.738852001092359, 52.684010004321216], [4.741742001095063, 52.6808070043194], [4.746908001100271, 52.68230200432027], [4.749749001103095, 52.68240600432032], [4.77779600113064, 52.67645900431698], [4.779026001131865, 52.67648400431698], [4.77864500113128, 52.67246600431474], [4.774487001126787, 52.665330004310746], [4.778042001130267, 52.66431800431016], [4.775112001126991, 52.657118004306135], [4.772981001124683, 52.65340400430405], [4.775711001127369, 52.65286300430373], [4.773669001125111, 52.64835400430115]]]}, "properties": {"type": "boundary", "gemeente": "Dijk en Waard"}}]}