{"type": "FeatureCollection", "metadata": {"gemeente": "Dronten", "slug": "dronten", "generated_at": "2026-07-28T09:25:50.134599Z", "total_points": 103, "merken": ["StatiegeldNederland", "Stibat", "StichtingOPEN"], "bounds": [5.6291215, 52.384857, 5.837406, 52.571691]}, "features": [{"type": "Feature", "geometry": {"type": "Point", "coordinates": [5.6942373, 52.5365944]}, "properties": {"type": "inleverpunt", "locatieNaam": "Albert Heijn", "straatNaam": "Beursstraat", "straatNr": "12", "postcode": "8253 GG", "plaats": "Dronten", "merk": "StatiegeldNederland", "puntType": "automaat", "materialen": ["pet-groot", "pet-klein", "blik", "glas", "krat"], "uitbetaling": ["bonnetje", "donatie"], "vrijToegankelijk": true, "gemeenteBeperking": null, "openingstijden": {"ma": "08:00–22:00", "di": "08:00–22:00", "wo": "08:00–22:00", "do": "08:00–22:00", "vr": "08:00–22:00", "za": "08:00–22:00", "zo": "12:00–19:00"}, "latitude": 52.5365944, "longitude": 5.6942373, "bronId": "252015"}}, {"type": "Feature", "geometry": {"type": "Point", "coordinates": [5.6440505, 52.5716518]}, "properties": {"type": "inleverpunt", "locatieNaam": "Albert Heijn", "straatNaam": "De Poort", "straatNr": "10-12", "postcode": "8255 AA", "plaats": "Swifterbant", "merk": "StatiegeldNederland", "puntType": "automaat", "materialen": ["pet-groot", "pet-klein", "blik", "glas", "krat"], "uitbetaling": ["bonnetje", "donatie"], "vrijToegankelijk": true, "gemeenteBeperking": null, "openingstijden": {"ma": "08:00–20:00", "di": "08:00–20:00", "wo": "08:00–20:00", "do": "08:00–21:00", "vr": "08:00–21:00", "za": "08:00–21:00", "zo": "Gesloten"}, "latitude": 52.5716518, "longitude": 5.6440505, "bronId": "252145"}}, {"type": "Feature", "geometry": {"type": "Point", "coordinates": [5.6933128, 52.4551417]}, "properties": {"type": "inleverpunt", "locatieNaam": "Albert Heijn", "straatNaam": "Dreef", "straatNr": "1A", "postcode": "8256 AW", "plaats": "Biddinghuizen", "merk": "StatiegeldNederland", "puntType": "automaat", "materialen": ["pet-groot", "pet-klein", "blik", "glas", "krat"], "uitbetaling": ["bonnetje", "donatie"], "vrijToegankelijk": true, "gemeenteBeperking": null, "openingstijden": {"ma": "07:00–21:00", "di": "07:00–21:00", "wo": "07:00–21:00", "do": "07:00–21:00", "vr": "07:00–21:00", "za": "07:00–21:00", "zo": "12:00–19:00"}, "latitude": 52.4551417, "longitude": 5.6933128, "bronId": "252190"}}, {"type": "Feature", "geometry": {"type": "Point", "coordinates": [5.7196676, 52.5254887]}, "properties": {"type": "inleverpunt", "locatieNaam": "Albert Heijn", "straatNaam": "Kop Van Het Ruim", "straatNr": "1", "postcode": "8251 KD", "plaats": "Dronten", "merk": "StatiegeldNederland", "puntType": "automaat", "materialen": ["pet-groot", "pet-klein", "blik", "glas", "krat"], "uitbetaling": ["bonnetje", "donatie"], "vrijToegankelijk": true, "gemeenteBeperking": null, "openingstijden": {"ma": "08:00–22:00", "di": "08:00–22:00", "wo": "08:00–22:00", "do": "08:00–22:00", "vr": "08:00–22:00", "za": "08:00–22:00", "zo": "12:00–19:00"}, "latitude": 52.5254887, "longitude": 5.7196676, "bronId": "252430"}}, {"type": "Feature", "geometry": {"type": "Point", "coordinates": [5.716401, 52.525491]}, "properties": {"type": "inleverpunt", "locatieNaam": "Aldi", "straatNaam": "De Schans", "straatNr": "51", "postcode": "8254 KN", "plaats": "Dronten", "merk": "StatiegeldNederland", "puntType": "automaat", "materialen": ["pet-groot", "pet-klein", "blik", "glas", "krat"], "uitbetaling": ["bonnetje"], "vrijToegankelijk": true, "gemeenteBeperking": null, "openingstijden": {"ma": "08:00–20:00", "di": "08:00–20:00", "wo": "08:00–20:00", "do": "08:00–20:00", "vr": "08:00–21:00", "za": "08:00–20:00", "zo": "12:00–19:00"}, "latitude": 52.525491, "longitude": 5.716401, "bronId": "253066"}}, {"type": "Feature", "geometry": {"type": "Point", "coordinates": [5.7021479, 52.5246546]}, "properties": {"type": "inleverpunt", "locatieNaam": "Asv Dronten", "straatNaam": "De Fazant", "straatNr": "1", "postcode": "8251 GC", "plaats": "Dronten", "merk": "StatiegeldNederland", "puntType": "balie", "materialen": ["pet-groot", "pet-klein", "blik"], "uitbetaling": [], "vrijToegankelijk": false, "gemeenteBeperking": null, "openingstijden": {"ma": "08:00–22:30", "di": "08:00–22:30", "wo": "08:00–22:30", "do": "08:00–22:30", "vr": "08:00–22:30", "za": "08:00–22:30", "zo": "Gesloten"}, "latitude": 52.5246546, "longitude": 5.7021479, "bronId": "253758"}}, {"type": "Feature", "geometry": {"type": "Point", "coordinates": [5.7023991, 52.523282]}, "properties": {"type": "inleverpunt", "locatieNaam": "Asvd Korfbal", "straatNaam": "Educalaan", "straatNr": "39", "postcode": "8251 GC", "plaats": "Dronten", "merk": "StatiegeldNederland", "puntType": "balie", "materialen": ["pet-groot", "pet-klein", "blik"], "uitbetaling": [], "vrijToegankelijk": false, "gemeenteBeperking": null, "openingstijden": {"ma": "24 uur geopend", "di": "24 uur geopend", "wo": "24 uur geopend", "do": "24 uur geopend", "vr": "24 uur geopend", "za": "24 uur geopend", "zo": "24 uur geopend"}, "latitude": 52.523282, "longitude": 5.7023991, "bronId": "253764"}}, {"type": "Feature", "geometry": {"type": "Point", "coordinates": [5.6860035, 52.4490422]}, "properties": {"type": "inleverpunt", "locatieNaam": "Bas Tennis & Padel", "straatNaam": "Sportlaan", "straatNr": "36", "postcode": "8256 CE", "plaats": "Biddinghuizen", "merk": "StatiegeldNederland", "puntType": "balie", "materialen": ["pet-groot", "pet-klein", "blik"], "uitbetaling": [], "vrijToegankelijk": false, "gemeenteBeperking": null, "openingstijden": {"ma": "08:00–23:00", "di": "08:00–23:00", "wo": "08:00–23:00", "do": "08:00–23:00", "vr": "08:00–23:00", "za": "08:00–23:00", "zo": "08:00–23:00"}, "latitude": 52.4490422, "longitude": 5.6860035, "bronId": "253806"}}, {"type": "Feature", "geometry": {"type": "Point", "coordinates": [5.716434, 52.525239]}, "properties": {"type": "inleverpunt", "locatieNaam": "Jumbo", "straatNaam": "De Binnenloop", "straatNr": "10", "postcode": "8254 KL", "plaats": "Dronten", "merk": "StatiegeldNederland", "puntType": "automaat", "materialen": ["pet-groot", "pet-klein", "blik", "glas", "krat"], "uitbetaling": ["bonnetje", "donatie"], "vrijToegankelijk": true, "gemeenteBeperking": null, "openingstijden": {"ma": "07:00–22:00", "di": "07:00–22:00", "wo": "07:00–22:00", "do": "07:00–22:00", "vr": "07:00–22:00", "za": "07:00–22:00", "zo": "12:00–19:00"}, "latitude": 52.525239, "longitude": 5.716434, "bronId": "255283"}}, {"type": "Feature", "geometry": {"type": "Point", "coordinates": [5.721375, 52.513091]}, "properties": {"type": "inleverpunt", "locatieNaam": "Jumbo", "straatNaam": "Wardhof", "straatNr": "8", "postcode": "8251 TH", "plaats": "Dronten", "merk": "StatiegeldNederland", "puntType": "automaat", "materialen": ["pet-groot", "pet-klein", "blik", "glas", "krat"], "uitbetaling": ["bonnetje", "donatie"], "vrijToegankelijk": true, "gemeenteBeperking": null, "openingstijden": {"ma": "07:00–22:00", "di": "07:00–22:00", "wo": "07:00–22:00", "do": "07:00–22:00", "vr": "07:00–22:00", "za": "07:00–22:00", "zo": "12:00–19:00"}, "latitude": 52.513091, "longitude": 5.721375, "bronId": "255847"}}, {"type": "Feature", "geometry": {"type": "Point", "coordinates": [5.694456, 52.537229]}, "properties": {"type": "inleverpunt", "locatieNaam": "Lidl", "straatNaam": "Beursstraat", "straatNr": "14", "postcode": "8253 GG", "plaats": "Dronten", "merk": "StatiegeldNederland", "puntType": "automaat", "materialen": ["pet-groot", "pet-klein", "blik", "glas", "krat"], "uitbetaling": ["bonnetje", "donatie"], "vrijToegankelijk": true, "gemeenteBeperking": null, "openingstijden": {"ma": "08:00–21:00", "di": "08:00–21:00", "wo": "08:00–21:00", "do": "08:00–21:00", "vr": "08:00–21:00", "za": "08:00–21:00", "zo": "12:00–19:00"}, "latitude": 52.537229, "longitude": 5.694456, "bronId": "256076"}}, {"type": "Feature", "geometry": {"type": "Point", "coordinates": [5.6944078, 52.4556853]}, "properties": {"type": "inleverpunt", "locatieNaam": "Lidl", "straatNaam": "Verlengde Baan", "straatNr": "10", "postcode": "8256 HB", "plaats": "Biddinghuizen", "merk": "StatiegeldNederland", "puntType": "automaat", "materialen": ["pet-groot", "pet-klein", "blik", "glas", "krat"], "uitbetaling": ["bonnetje", "donatie"], "vrijToegankelijk": true, "gemeenteBeperking": null, "openingstijden": {"ma": "07:30–21:00", "di": "07:30–21:00", "wo": "07:30–21:00", "do": "07:30–21:00", "vr": "07:30–21:00", "za": "07:00–21:00", "zo": "12:00–19:00"}, "latitude": 52.4556853, "longitude": 5.6944078, "bronId": "256434"}}, {"type": "Feature", "geometry": {"type": "Point", "coordinates": [5.70993, 52.5264607]}, "properties": {"type": "inleverpunt", "locatieNaam": "Mhc Flevoland", "straatNaam": "Educalaan", "straatNr": "17", "postcode": "8251 GC", "plaats": "Dronten", "merk": "StatiegeldNederland", "puntType": "balie", "materialen": ["pet-groot", "pet-klein", "blik"], "uitbetaling": [], "vrijToegankelijk": false, "gemeenteBeperking": null, "openingstijden": null, "latitude": 52.5264607, "longitude": 5.70993, "bronId": "256767"}}, {"type": "Feature", "geometry": {"type": "Point", "coordinates": [5.7077267, 52.5248524]}, "properties": {"type": "inleverpunt", "locatieNaam": "Optisport Aat De Jonge Bad", "straatNaam": "Educalaan", "straatNr": "30", "postcode": "8251 GC", "plaats": "Dronten", "merk": "StatiegeldNederland", "puntType": "balie", "materialen": ["pet-groot", "pet-klein", "blik"], "uitbetaling": [], "vrijToegankelijk": false, "gemeenteBeperking": null, "openingstijden": {"ma": "08:45–11:45", "di": "07:00–16:00, 19:30–21:30", "wo": "07:00–21:30", "do": "07:00–11:30, 19:30–21:30", "vr": "07:00–21:30", "za": "10:00–14:00", "zo": "10:00–14:00"}, "latitude": 52.5248524, "longitude": 5.7077267, "bronId": "257003"}}, {"type": "Feature", "geometry": {"type": "Point", "coordinates": [5.6351944, 52.5689037]}, "properties": {"type": "inleverpunt", "locatieNaam": "Optisport Zwembad De Abelen", "straatNaam": "Noordhoren", "straatNr": "32", "postcode": "8255 AD", "plaats": "Swifterbant", "merk": "StatiegeldNederland", "puntType": "balie", "materialen": ["pet-groot", "pet-klein", "blik"], "uitbetaling": [], "vrijToegankelijk": false, "gemeenteBeperking": null, "openingstijden": {"ma": "08:30–10:00, 11:00–15:30", "di": "09:00–17:00", "wo": "08:30–10:00, 11:00–15:30", "do": "08:30–10:00, 11:00–15:30", "vr": "08:30–10:00, 11:00–15:30", "za": "11:00–15:30", "zo": "08:30–10:00, 11:00–15:30"}, "latitude": 52.5689037, "longitude": 5.6351944, "bronId": "257060"}}, {"type": "Feature", "geometry": {"type": "Point", "coordinates": [5.686331, 52.4522956]}, "properties": {"type": "inleverpunt", "locatieNaam": "Optisport Zwembad De Alk", "straatNaam": "Sportlaan", "straatNr": "4", "postcode": "8256 CE", "plaats": "Biddinghuizen", "merk": "StatiegeldNederland", "puntType": "balie", "materialen": ["pet-groot", "pet-klein", "blik"], "uitbetaling": [], "vrijToegankelijk": false, "gemeenteBeperking": null, "openingstijden": {"ma": "08:00–10:00, 11:00–15:30", "di": "08:00–10:00, 11:00–15:30", "wo": "08:00–10:00, 11:00–15:30", "do": "08:00–10:00, 11:00–15:30", "vr": "08:00–10:00, 11:00–15:30", "za": "11:00–15:30", "zo": "11:00–15:30"}, "latitude": 52.4522956, "longitude": 5.686331, "bronId": "257062"}}, {"type": "Feature", "geometry": {"type": "Point", "coordinates": [5.7927815, 52.4461741]}, "properties": {"type": "inleverpunt", "locatieNaam": "Parkshop By Ro Sa 895", "straatNaam": "SPIJKWEG", "straatNr": "13", "postcode": "8256 RJ", "plaats": "Biddinghuizen", "merk": "StatiegeldNederland", "puntType": "balie", "materialen": ["pet-groot", "pet-klein", "blik"], "uitbetaling": [], "vrijToegankelijk": true, "gemeenteBeperking": null, "openingstijden": {"ma": "08:00–19:00", "di": "08:00–18:00", "wo": "08:00–18:00", "do": "08:00–18:00", "vr": "08:00–19:00", "za": "08:00–18:00", "zo": "08:00–18:00"}, "latitude": 52.4461741, "longitude": 5.7927815, "bronId": "257125"}}, {"type": "Feature", "geometry": {"type": "Point", "coordinates": [5.7187482, 52.5249354]}, "properties": {"type": "inleverpunt", "locatieNaam": "Polski Faworyt Dronten", "straatNaam": "Het Ruim", "straatNr": "42", "postcode": "8251 EN", "plaats": "Dronten", "merk": "StatiegeldNederland", "puntType": "automaat", "materialen": ["pet-groot", "pet-klein", "blik"], "uitbetaling": ["donatie", "tikkie"], "vrijToegankelijk": true, "gemeenteBeperking": null, "openingstijden": {"ma": "08:00–20:00", "di": "08:00–20:00", "wo": "08:00–20:00", "do": "08:00–20:00", "vr": "08:00–20:00", "za": "08:00–20:00", "zo": "08:00–18:00"}, "latitude": 52.5249354, "longitude": 5.7187482, "bronId": "257709"}}, {"type": "Feature", "geometry": {"type": "Point", "coordinates": [5.6953014, 52.5236056]}, "properties": {"type": "inleverpunt", "locatieNaam": "Scoutinggebouw Het Trappershonk", "straatNaam": "Gildepenningdreef", "straatNr": "1", "postcode": "8253 BD", "plaats": "Dronten", "merk": "StatiegeldNederland", "puntType": "balie", "materialen": ["pet-groot", "pet-klein", "blik"], "uitbetaling": [], "vrijToegankelijk": false, "gemeenteBeperking": null, "openingstijden": {"ma": "Gesloten", "di": "Gesloten", "wo": "Gesloten", "do": "Gesloten", "vr": "Gesloten", "za": "13:00–17:00", "zo": "Gesloten"}, "latitude": 52.5236056, "longitude": 5.6953014, "bronId": "258005"}}, {"type": "Feature", "geometry": {"type": "Point", "coordinates": [5.7183709, 52.5205017]}, "properties": {"type": "inleverpunt", "locatieNaam": "ViaTim", "straatNaam": "Gaffelstraat", "straatNr": "47", "postcode": "8251 BR", "plaats": "Dronten", "merk": "StatiegeldNederland", "puntType": "balie", "materialen": ["pet-groot", "pet-klein", "blik"], "uitbetaling": ["tikkie"], "vrijToegankelijk": true, "gemeenteBeperking": null, "openingstijden": null, "latitude": 52.5205017, "longitude": 5.7183709, "bronId": "259288"}}, {"type": "Feature", "geometry": {"type": "Point", "coordinates": [5.7049347, 52.5374935]}, "properties": {"type": "inleverpunt", "locatieNaam": "ViaTim", "straatNaam": "Het Zwarte Water", "straatNr": "12", "postcode": "8253 PD", "plaats": "Dronten", "merk": "StatiegeldNederland", "puntType": "balie", "materialen": ["pet-groot", "pet-klein", "blik"], "uitbetaling": ["tikkie"], "vrijToegankelijk": true, "gemeenteBeperking": null, "openingstijden": {"ma": "08:30–20:00", "di": "08:30–20:00", "wo": "08:30–20:00", "do": "08:30–20:00", "vr": "08:30–20:00", "za": "08:30–20:00", "zo": "Gesloten"}, "latitude": 52.5374935, "longitude": 5.7049347, "bronId": "259320"}}, {"type": "Feature", "geometry": {"type": "Point", "coordinates": [5.7162538, 52.5246021]}, "properties": {"type": "inleverpunt", "locatieNaam": "Vomar", "straatNaam": "De Kajuit", "straatNr": "1-9", "postcode": "8254 KX", "plaats": "Dronten", "merk": "StatiegeldNederland", "puntType": "automaat", "materialen": ["pet-groot", "pet-klein", "blik", "glas", "krat"], "uitbetaling": ["bonnetje", "donatie"], "vrijToegankelijk": true, "gemeenteBeperking": null, "openingstijden": {"ma": "07:30–22:00", "di": "07:30–22:00", "wo": "07:30–22:00", "do": "07:30–22:00", "vr": "07:30–22:00", "za": "07:30–22:00", "zo": "12:00–19:00"}, "latitude": 52.5246021, "longitude": 5.7162538, "bronId": "259651"}}, {"type": "Feature", "geometry": {"type": "Point", "coordinates": [5.6441264, 52.5705795]}, "properties": {"type": "inleverpunt", "locatieNaam": "Vomar", "straatNaam": "Zuidsingel 32 A", "straatNr": "", "postcode": "8255 CH", "plaats": "Swifterbant", "merk": "StatiegeldNederland", "puntType": "automaat", "materialen": ["pet-groot", "pet-klein", "blik", "glas", "krat"], "uitbetaling": ["bonnetje", "donatie"], "vrijToegankelijk": true, "gemeenteBeperking": null, "openingstijden": {"ma": "08:00–21:00", "di": "08:00–21:00", "wo": "08:00–21:00", "do": "08:00–21:00", "vr": "08:00–21:00", "za": "08:00–21:00", "zo": "12:00–19:00"}, "latitude": 52.5705795, "longitude": 5.6441264, "bronId": "259737"}}, {"type": "Feature", "geometry": {"type": "Point", "coordinates": [5.7661985, 52.4381162]}, "properties": {"type": "inleverpunt", "locatieNaam": "Walibi Holland", "straatNaam": "Spijkweg", "straatNr": "30", "postcode": "8256 RJ", "plaats": "Biddinghuizen", "merk": "StatiegeldNederland", "puntType": "automaat", "materialen": ["pet-groot", "pet-klein", "blik"], "uitbetaling": ["tikkie"], "vrijToegankelijk": true, "gemeenteBeperking": null, "openingstijden": {"ma": "10:00–17:00", "di": "10:00–17:00", "wo": "10:00–17:00", "do": "10:00–17:00", "vr": "10:00–17:00", "za": "10:00–17:00", "zo": "10:00–17:00"}, "latitude": 52.4381162, "longitude": 5.7661985, "bronId": "259846"}}, {"type": "Feature", "geometry": {"type": "Point", "coordinates": [5.633219, 52.384857]}, "properties": {"type": "inleverpunt", "locatieNaam": "Spar Biddinghuizen", "straatNaam": "Strandweg", "straatNr": "1", "postcode": "8256 RZ", "plaats": "Biddinghuizen", "merk": "StichtingOPEN", "puntType": "balie", "materialen": ["batterijen", "lampen"], "uitbetaling": [], "vrijToegankelijk": false, "gemeenteBeperking": null, "openingstijden": null, "latitude": 52.384857, "longitude": 5.633219, "bronId": "SP00031268"}}, {"type": "Feature", "geometry": {"type": "Point", "coordinates": [5.693373, 52.45518]}, "properties": {"type": "inleverpunt", "locatieNaam": "4017 Albert Heijn Biddinghuizen", "straatNaam": "Dreef", "straatNr": "1a", "postcode": "8256 AW", "plaats": "Biddinghuizen", "merk": "StichtingOPEN", "puntType": "balie", "materialen": ["batterijen", "elektro-klein", "lampen"], "uitbetaling": [], "vrijToegankelijk": false, "gemeenteBeperking": null, "openingstijden": null, "latitude": 52.45518, "longitude": 5.693373, "bronId": "SP00023302"}}, {"type": "Feature", "geometry": {"type": "Point", "coordinates": [5.693246, 52.45562]}, "properties": {"type": "inleverpunt", "locatieNaam": "Kruidvat Biddinghuizen", "straatNaam": "Baan", "straatNr": "12", "postcode": "8256 AX", "plaats": "Biddinghuizen", "merk": "StichtingOPEN", "puntType": "balie", "materialen": ["batterijen", "lampen"], "uitbetaling": [], "vrijToegankelijk": false, "gemeenteBeperking": null, "openingstijden": null, "latitude": 52.45562, "longitude": 5.693246, "bronId": "SP00024767"}}, {"type": "Feature", "geometry": {"type": "Point", "coordinates": [5.69425, 52.45559]}, "properties": {"type": "inleverpunt", "locatieNaam": "Lidl Biddinghuizen", "straatNaam": "Verlengde Baan", "straatNr": "10", "postcode": "8256 HB", "plaats": "Biddinghuizen", "merk": "StichtingOPEN", "puntType": "balie", "materialen": ["batterijen", "lampen"], "uitbetaling": [], "vrijToegankelijk": false, "gemeenteBeperking": null, "openingstijden": null, "latitude": 52.45559, "longitude": 5.69425, "bronId": "SP00029967"}}, {"type": "Feature", "geometry": {"type": "Point", "coordinates": [5.694292, 52.456868]}, "properties": {"type": "inleverpunt", "locatieNaam": "klusmarkt", "straatNaam": "Baan", "straatNr": "39a", "postcode": "8256 BD", "plaats": "Biddinghuizen", "merk": "StichtingOPEN", "puntType": "balie", "materialen": ["batterijen", "elektro-groot", "elektro-klein", "elektro-middel", "lampen", "tl-buizen"], "uitbetaling": [], "vrijToegankelijk": false, "gemeenteBeperking": null, "openingstijden": null, "latitude": 52.456868, "longitude": 5.694292, "bronId": "SP00005639"}}, {"type": "Feature", "geometry": {"type": "Point", "coordinates": [5.706559, 52.462623]}, "properties": {"type": "inleverpunt", "locatieNaam": "Unitell Electronic - Biddinghuizen", "straatNaam": "Plantweg", "straatNr": "33", "postcode": "3382 SC", "plaats": "Biddinghuizen", "merk": "StichtingOPEN", "puntType": "balie", "materialen": ["elektro-klein", "elektro-middel"], "uitbetaling": [], "vrijToegankelijk": false, "gemeenteBeperking": null, "openingstijden": null, "latitude": 52.462623, "longitude": 5.706559, "bronId": "SP00030692"}}, {"type": "Feature", "geometry": {"type": "Point", "coordinates": [5.798722, 52.444811]}, "properties": {"type": "inleverpunt", "locatieNaam": "Spar Biddinghuizen", "straatNaam": "Spijkweg", "straatNr": "13", "postcode": "8256 RJ", "plaats": "Biddinghuizen", "merk": "StichtingOPEN", "puntType": "balie", "materialen": ["batterijen", "lampen"], "uitbetaling": [], "vrijToegankelijk": false, "gemeenteBeperking": null, "openingstijden": null, "latitude": 52.444811, "longitude": 5.798722, "bronId": "SP00031285"}}, {"type": "Feature", "geometry": {"type": "Point", "coordinates": [5.721135, 52.512985]}, "properties": {"type": "inleverpunt", "locatieNaam": "Jumbo Dronten", "straatNaam": "Wardhof", "straatNr": "8", "postcode": "8251 TH", "plaats": "Dronten", "merk": "StichtingOPEN", "puntType": "balie", "materialen": ["batterijen", "lampen"], "uitbetaling": [], "vrijToegankelijk": false, "gemeenteBeperking": null, "openingstijden": null, "latitude": 52.512985, "longitude": 5.721135, "bronId": "SP00025326"}}, {"type": "Feature", "geometry": {"type": "Point", "coordinates": [5.718543, 52.52436]}, "properties": {"type": "inleverpunt", "locatieNaam": "Expert Dronten Zwiers BV", "straatNaam": "Het Ruim", "straatNr": "68", "postcode": "8251 EP", "plaats": "Dronten", "merk": "StichtingOPEN", "puntType": "balie", "materialen": ["batterijen"], "uitbetaling": [], "vrijToegankelijk": false, "gemeenteBeperking": null, "openingstijden": null, "latitude": 52.52436, "longitude": 5.718543, "bronId": "SP00002792"}}, {"type": "Feature", "geometry": {"type": "Point", "coordinates": [5.716404, 52.525197]}, "properties": {"type": "inleverpunt", "locatieNaam": "Jumbo Dronten", "straatNaam": "De Binnenloop", "straatNr": "10", "postcode": "8254 KL", "plaats": "Dronten", "merk": "StichtingOPEN", "puntType": "balie", "materialen": ["batterijen", "lampen"], "uitbetaling": [], "vrijToegankelijk": false, "gemeenteBeperking": null, "openingstijden": null, "latitude": 52.525197, "longitude": 5.716404, "bronId": "SP00025331"}}, {"type": "Feature", "geometry": {"type": "Point", "coordinates": [5.719542, 52.524218]}, "properties": {"type": "inleverpunt", "locatieNaam": "Xenos Dronten", "straatNaam": "Het Ruim", "straatNr": "55", "postcode": "8251 EK", "plaats": "Dronten", "merk": "StichtingOPEN", "puntType": "balie", "materialen": ["batterijen", "lampen"], "uitbetaling": [], "vrijToegankelijk": false, "gemeenteBeperking": null, "openingstijden": null, "latitude": 52.524218, "longitude": 5.719542, "bronId": "SP00025719"}}, {"type": "Feature", "geometry": {"type": "Point", "coordinates": [5.716401, 52.525491]}, "properties": {"type": "inleverpunt", "locatieNaam": "Aldi Dronten", "straatNaam": "De Schans", "straatNr": "51", "postcode": "8254 KN", "plaats": "Dronten", "merk": "StichtingOPEN", "puntType": "balie", "materialen": ["batterijen", "elektro-klein", "lampen"], "uitbetaling": [], "vrijToegankelijk": false, "gemeenteBeperking": null, "openingstijden": null, "latitude": 52.525491, "longitude": 5.716401, "bronId": "SP00027011"}}, {"type": "Feature", "geometry": {"type": "Point", "coordinates": [5.71868, 52.52473]}, "properties": {"type": "inleverpunt", "locatieNaam": "Kruidvat Dronten", "straatNaam": "Het Ruim", "straatNr": "54", "postcode": "8251 EP", "plaats": "Dronten", "merk": "StichtingOPEN", "puntType": "balie", "materialen": ["batterijen", "elektro-klein", "lampen"], "uitbetaling": [], "vrijToegankelijk": false, "gemeenteBeperking": null, "openingstijden": null, "latitude": 52.52473, "longitude": 5.71868, "bronId": "SP00029697"}}, {"type": "Feature", "geometry": {"type": "Point", "coordinates": [5.719472, 52.524528]}, "properties": {"type": "inleverpunt", "locatieNaam": "Action Dronten", "straatNaam": "Het Ruim", "straatNr": "53", "postcode": "8251 EK", "plaats": "Dronten", "merk": "StichtingOPEN", "puntType": "balie", "materialen": ["batterijen", "elektro-klein", "lampen"], "uitbetaling": [], "vrijToegankelijk": false, "gemeenteBeperking": null, "openingstijden": null, "latitude": 52.524528, "longitude": 5.719472, "bronId": "SP00025522"}}, {"type": "Feature", "geometry": {"type": "Point", "coordinates": [5.719408, 52.525994]}, "properties": {"type": "inleverpunt", "locatieNaam": "1571 Albert Heijn Dronten", "straatNaam": "Kop van Het Ruim", "straatNr": "1", "postcode": "8251 KD", "plaats": "Dronten", "merk": "StichtingOPEN", "puntType": "balie", "materialen": ["batterijen", "elektro-klein", "lampen"], "uitbetaling": [], "vrijToegankelijk": false, "gemeenteBeperking": null, "openingstijden": null, "latitude": 52.525994, "longitude": 5.719408, "bronId": "SP00023121"}}, {"type": "Feature", "geometry": {"type": "Point", "coordinates": [5.694534, 52.536421]}, "properties": {"type": "inleverpunt", "locatieNaam": "1030 Albert Heijn Dronten", "straatNaam": "Beursstraat", "straatNr": "12", "postcode": "8253 GG", "plaats": "Dronten", "merk": "StichtingOPEN", "puntType": "balie", "materialen": ["batterijen", "elektro-klein", "lampen"], "uitbetaling": [], "vrijToegankelijk": false, "gemeenteBeperking": null, "openingstijden": null, "latitude": 52.536421, "longitude": 5.694534, "bronId": "SP00023124"}}, {"type": "Feature", "geometry": {"type": "Point", "coordinates": [5.701389, 52.539214]}, "properties": {"type": "inleverpunt", "locatieNaam": "Zeebra", "straatNaam": "De Gouwe", "straatNr": "42C", "postcode": "8253 PA", "plaats": "Dronten", "merk": "StichtingOPEN", "puntType": "balie", "materialen": ["batterijen", "elektro-klein", "lampen", "tl-buizen"], "uitbetaling": [], "vrijToegankelijk": false, "gemeenteBeperking": null, "openingstijden": null, "latitude": 52.539214, "longitude": 5.701389, "bronId": "SP00033887"}}, {"type": "Feature", "geometry": {"type": "Point", "coordinates": [5.72049, 52.53284]}, "properties": {"type": "inleverpunt", "locatieNaam": "Leen Bakker Dronten", "straatNaam": "De Noord", "straatNr": "65", "postcode": "8251 GM", "plaats": "Dronten", "merk": "StichtingOPEN", "puntType": "balie", "materialen": ["batterijen", "lampen"], "uitbetaling": [], "vrijToegankelijk": false, "gemeenteBeperking": null, "openingstijden": null, "latitude": 52.53284, "longitude": 5.72049, "bronId": "SP00030070"}}, {"type": "Feature", "geometry": {"type": "Point", "coordinates": [5.709502, 52.541365]}, "properties": {"type": "inleverpunt", "locatieNaam": "Rataplan Dronten", "straatNaam": "De Dieze", "straatNr": "40- 42", "postcode": "8253 PS", "plaats": "Dronten", "merk": "StichtingOPEN", "puntType": "balie", "materialen": ["batterijen", "elektro-klein", "lampen", "tl-buizen"], "uitbetaling": [], "vrijToegankelijk": false, "gemeenteBeperking": null, "openingstijden": null, "latitude": 52.541365, "longitude": 5.709502, "bronId": "SP00041374"}}, {"type": "Feature", "geometry": {"type": "Point", "coordinates": [5.706173, 52.545265]}, "properties": {"type": "inleverpunt", "locatieNaam": "GAMMA Dronten", "straatNaam": "Het Weerijs", "straatNr": "44", "postcode": "8253 PP", "plaats": "Dronten", "merk": "StichtingOPEN", "puntType": "balie", "materialen": ["batterijen", "elektro-middel", "lampen", "tl-buizen"], "uitbetaling": [], "vrijToegankelijk": false, "gemeenteBeperking": null, "openingstijden": null, "latitude": 52.545265, "longitude": 5.706173, "bronId": "SP00001227"}}, {"type": "Feature", "geometry": {"type": "Point", "coordinates": [5.695536, 52.549918]}, "properties": {"type": "inleverpunt", "locatieNaam": "Wildkamp Dronten", "straatNaam": "Koornmarktpoort", "straatNr": "5", "postcode": "8253 TE", "plaats": "Dronten", "merk": "StichtingOPEN", "puntType": "balie", "materialen": ["lampen", "tl-buizen"], "uitbetaling": [], "vrijToegankelijk": false, "gemeenteBeperking": null, "openingstijden": null, "latitude": 52.549918, "longitude": 5.695536, "bronId": "SP00036031"}}, {"type": "Feature", "geometry": {"type": "Point", "coordinates": [5.644847, 52.571256]}, "properties": {"type": "inleverpunt", "locatieNaam": "Kringloopwinkel P.O.O.K.", "straatNaam": "De Zoom", "straatNr": "8", "postcode": "8255 AC", "plaats": "Swifterbant", "merk": "StichtingOPEN", "puntType": "balie", "materialen": ["elektro-groot", "elektro-klein", "elektro-middel", "tl-buizen"], "uitbetaling": [], "vrijToegankelijk": false, "gemeenteBeperking": null, "openingstijden": null, "latitude": 52.571256, "longitude": 5.644847, "bronId": "SP00027991"}}, {"type": "Feature", "geometry": {"type": "Point", "coordinates": [5.643843, 52.571691]}, "properties": {"type": "inleverpunt", "locatieNaam": "8704 Albert Heijn Swifterbant", "straatNaam": "De Poort", "straatNr": "10", "postcode": "8255 AA", "plaats": "Swifterbant", "merk": "StichtingOPEN", "puntType": "balie", "materialen": ["batterijen", "elektro-klein", "lampen"], "uitbetaling": [], "vrijToegankelijk": false, "gemeenteBeperking": null, "openingstijden": null, "latitude": 52.571691, "longitude": 5.643843, "bronId": "SP00023128"}}, {"type": "Feature", "geometry": {"type": "Point", "coordinates": [5.649659, 52.571545]}, "properties": {"type": "inleverpunt", "locatieNaam": "Ottenhoff service", "straatNaam": "De Kolk", "straatNr": "89", "postcode": "8255 PD", "plaats": "Swifterbant", "merk": "StichtingOPEN", "puntType": "balie", "materialen": ["elektro-groot", "elektro-klein", "elektro-middel"], "uitbetaling": [], "vrijToegankelijk": false, "gemeenteBeperking": null, "openingstijden": null, "latitude": 52.571545, "longitude": 5.649659, "bronId": "SP00007501"}}, {"type": "Feature", "geometry": {"type": "Point", "coordinates": [5.711867, 52.538552]}, "properties": {"type": "inleverpunt", "locatieNaam": "Milieustraat Dronten", "straatNaam": "De Schipbeek", "straatNr": "30", "postcode": "8253 RD", "plaats": "Dronten", "merk": "StichtingOPEN", "puntType": "milieustraat", "materialen": ["batterijen", "elektro-groot", "elektro-klein", "elektro-middel", "lampen", "tl-buizen"], "uitbetaling": [], "vrijToegankelijk": false, "gemeenteBeperking": ["Dronten"], "openingstijden": null, "latitude": 52.538552, "longitude": 5.711867, "bronId": "SP00004345"}}, {"type": "Feature", "geometry": {"type": "Point", "coordinates": [5.6291215, 52.3851457]}, "properties": {"type": "inleverpunt", "locatieNaam": "Spar Van der Aar", "straatNaam": "Strandweg", "straatNr": "1", "postcode": "8256 RZ", "plaats": "BIDDINGHUIZEN", "merk": "Stibat", "puntType": "inzamelbak", "materialen": ["batterijen"], "uitbetaling": [], "vrijToegankelijk": false, "gemeenteBeperking": null, "openingstijden": null, "latitude": 52.3851457, "longitude": 5.6291215, "bronId": "L036144"}}, {"type": "Feature", "geometry": {"type": "Point", "coordinates": [5.6933685, 52.4551928]}, "properties": {"type": "inleverpunt", "locatieNaam": "4017 Albert Heijn", "straatNaam": "Dreef", "straatNr": "1a", "postcode": "8256 AW", "plaats": "BIDDINGHUIZEN", "merk": "Stibat", "puntType": "inzamelbak", "materialen": ["batterijen"], "uitbetaling": [], "vrijToegankelijk": false, "gemeenteBeperking": null, "openingstijden": null, "latitude": 52.4551928, "longitude": 5.6933685, "bronId": "L032353"}}, {"type": "Feature", "geometry": {"type": "Point", "coordinates": [5.6931389, 52.4556956]}, "properties": {"type": "inleverpunt", "locatieNaam": "Kruidvat", "straatNaam": "Baan", "straatNr": "12", "postcode": "8256 AX", "plaats": "BIDDINGHUIZEN", "merk": "Stibat", "puntType": "inzamelbak", "materialen": ["batterijen"], "uitbetaling": [], "vrijToegankelijk": false, "gemeenteBeperking": null, "openingstijden": null, "latitude": 52.4556956, "longitude": 5.6931389, "bronId": "L015932"}}, {"type": "Feature", "geometry": {"type": "Point", "coordinates": [5.694258, 52.4555918]}, "properties": {"type": "inleverpunt", "locatieNaam": "Lidl", "straatNaam": "Verlengde Baan", "straatNr": "10", "postcode": "8256 HB", "plaats": "BIDDINGHUIZEN", "merk": "Stibat", "puntType": "inzamelbak", "materialen": ["batterijen"], "uitbetaling": [], "vrijToegankelijk": false, "gemeenteBeperking": null, "openingstijden": null, "latitude": 52.4555918, "longitude": 5.694258, "bronId": "L024294"}}, {"type": "Feature", "geometry": {"type": "Point", "coordinates": [5.6938745, 52.456078]}, "properties": {"type": "inleverpunt", "locatieNaam": "Klamer Fietsen", "straatNaam": "Baan", "straatNr": "30", "postcode": "8256 AX", "plaats": "Biddinghuizen", "merk": "Stibat", "puntType": "inzamelbak", "materialen": ["batterijen"], "uitbetaling": [], "vrijToegankelijk": false, "gemeenteBeperking": null, "openingstijden": null, "latitude": 52.456078, "longitude": 5.6938745, "bronId": "L034106"}}, {"type": "Feature", "geometry": {"type": "Point", "coordinates": [5.6942919, 52.4568678]}, "properties": {"type": "inleverpunt", "locatieNaam": "Klusmarkt", "straatNaam": "Baan", "straatNr": "39a", "postcode": "8256 BD", "plaats": "BIDDINGHUIZEN", "merk": "Stibat", "puntType": "inzamelbak", "materialen": ["batterijen"], "uitbetaling": [], "vrijToegankelijk": false, "gemeenteBeperking": null, "openingstijden": null, "latitude": 52.4568678, "longitude": 5.6942919, "bronId": "L036325"}}, {"type": "Feature", "geometry": {"type": "Point", "coordinates": [5.7695273, 52.4397097]}, "properties": {"type": "inleverpunt", "locatieNaam": "Vakantiepark Six Flags Holland", "straatNaam": "Cerespark", "straatNr": "2", "postcode": "8256 PX", "plaats": "BIDDINGHUIZEN", "merk": "Stibat", "puntType": "inzamelbak", "materialen": ["batterijen"], "uitbetaling": [], "vrijToegankelijk": false, "gemeenteBeperking": null, "openingstijden": null, "latitude": 52.4397097, "longitude": 5.7695273, "bronId": "L011662"}}, {"type": "Feature", "geometry": {"type": "Point", "coordinates": [5.793933, 52.4464763]}, "properties": {"type": "inleverpunt", "locatieNaam": "Riviera Recreatie Centrum", "straatNaam": "Spijkweg", "straatNr": "15", "postcode": "8256 RJ", "plaats": "BIDDINGHUIZEN", "merk": "Stibat", "puntType": "inzamelbak", "materialen": ["batterijen"], "uitbetaling": [], "vrijToegankelijk": false, "gemeenteBeperking": null, "openingstijden": null, "latitude": 52.4464763, "longitude": 5.793933, "bronId": "L002863"}}, {"type": "Feature", "geometry": {"type": "Point", "coordinates": [5.7209081, 52.5132569]}, "properties": {"type": "inleverpunt", "locatieNaam": "Tabaksspeciaal (Mail &amp; Pak)", "straatNaam": "Wardhof", "straatNr": "18", "postcode": "8251 TH", "plaats": "DRONTEN", "merk": "Stibat", "puntType": "inzamelbak", "materialen": ["batterijen"], "uitbetaling": [], "vrijToegankelijk": false, "gemeenteBeperking": null, "openingstijden": null, "latitude": 52.5132569, "longitude": 5.7209081, "bronId": "L020632"}}, {"type": "Feature", "geometry": {"type": "Point", "coordinates": [5.7213755, 52.5130917]}, "properties": {"type": "inleverpunt", "locatieNaam": "Jumbo", "straatNaam": "Wardhof", "straatNr": "8", "postcode": "8251 TH", "plaats": "DRONTEN", "merk": "Stibat", "puntType": "inzamelbak", "materialen": ["batterijen"], "uitbetaling": [], "vrijToegankelijk": false, "gemeenteBeperking": null, "openingstijden": null, "latitude": 52.5130917, "longitude": 5.7213755, "bronId": "L035184"}}, {"type": "Feature", "geometry": {"type": "Point", "coordinates": [5.7165946, 52.5234876]}, "properties": {"type": "inleverpunt", "locatieNaam": "Tweewielercentrum Kloppenburg", "straatNaam": "De Rede", "straatNr": "14", "postcode": "8251 EV", "plaats": "DRONTEN", "merk": "Stibat", "puntType": "inzamelbak", "materialen": ["batterijen"], "uitbetaling": [], "vrijToegankelijk": false, "gemeenteBeperking": null, "openingstijden": null, "latitude": 52.5234876, "longitude": 5.7165946, "bronId": "L030545"}}, {"type": "Feature", "geometry": {"type": "Point", "coordinates": [5.7163644, 52.5243161]}, "properties": {"type": "inleverpunt", "locatieNaam": "Bruna", "straatNaam": "De Kajuit", "straatNr": "2-4", "postcode": "8254 KX", "plaats": "DRONTEN", "merk": "Stibat", "puntType": "inzamelbak", "materialen": ["batterijen"], "uitbetaling": [], "vrijToegankelijk": false, "gemeenteBeperking": null, "openingstijden": null, "latitude": 52.5243161, "longitude": 5.7163644, "bronId": "L023423"}}, {"type": "Feature", "geometry": {"type": "Point", "coordinates": [5.7161869, 52.5244203]}, "properties": {"type": "inleverpunt", "locatieNaam": "Vomar", "straatNaam": "De Kajuit", "straatNr": "1", "postcode": "8254 KX", "plaats": "DRONTEN", "merk": "Stibat", "puntType": "inzamelbak", "materialen": ["batterijen"], "uitbetaling": [], "vrijToegankelijk": false, "gemeenteBeperking": null, "openingstijden": null, "latitude": 52.5244203, "longitude": 5.7161869, "bronId": "L044393"}}, {"type": "Feature", "geometry": {"type": "Point", "coordinates": [5.7167282, 52.5243616]}, "properties": {"type": "inleverpunt", "locatieNaam": "Zeeman", "straatNaam": "De Kajuit", "straatNr": "8", "postcode": "8254 KX", "plaats": "DRONTEN", "merk": "Stibat", "puntType": "inzamelbak", "materialen": ["batterijen"], "uitbetaling": [], "vrijToegankelijk": false, "gemeenteBeperking": null, "openingstijden": null, "latitude": 52.5243616, "longitude": 5.7167282, "bronId": "L019989"}}, {"type": "Feature", "geometry": {"type": "Point", "coordinates": [5.7177499, 52.5242628]}, "properties": {"type": "inleverpunt", "locatieNaam": "Primera", "straatNaam": "De Redepassage", "straatNr": "14", "postcode": "8254 KD", "plaats": "DRONTEN", "merk": "Stibat", "puntType": "inzamelbak", "materialen": ["batterijen"], "uitbetaling": [], "vrijToegankelijk": false, "gemeenteBeperking": null, "openingstijden": null, "latitude": 52.5242628, "longitude": 5.7177499, "bronId": "L024300"}}, {"type": "Feature", "geometry": {"type": "Point", "coordinates": [5.7163312, 52.5250127]}, "properties": {"type": "inleverpunt", "locatieNaam": "Beter Horen", "straatNaam": "Schans", "straatNr": "29", "postcode": "8254 KN", "plaats": "DRONTEN", "merk": "Stibat", "puntType": "inzamelbak", "materialen": ["batterijen"], "uitbetaling": [], "vrijToegankelijk": false, "gemeenteBeperking": null, "openingstijden": null, "latitude": 52.5250127, "longitude": 5.7163312, "bronId": "L018287"}}, {"type": "Feature", "geometry": {"type": "Point", "coordinates": [5.7172475, 52.5247528]}, "properties": {"type": "inleverpunt", "locatieNaam": "Xenos", "straatNaam": "De Reling", "straatNr": "14-20", "postcode": "8254 KG", "plaats": "DRONTEN", "merk": "Stibat", "puntType": "inzamelbak", "materialen": ["batterijen"], "uitbetaling": [], "vrijToegankelijk": false, "gemeenteBeperking": null, "openingstijden": null, "latitude": 52.5247528, "longitude": 5.7172475, "bronId": "L041676"}}, {"type": "Feature", "geometry": {"type": "Point", "coordinates": [5.7185461, 52.5243629]}, "properties": {"type": "inleverpunt", "locatieNaam": "Expert", "straatNaam": "Het Ruim", "straatNr": "68", "postcode": "8251 EP", "plaats": "DRONTEN", "merk": "Stibat", "puntType": "inzamelbak", "materialen": ["batterijen"], "uitbetaling": [], "vrijToegankelijk": false, "gemeenteBeperking": null, "openingstijden": null, "latitude": 52.5243629, "longitude": 5.7185461, "bronId": "L009846"}}, {"type": "Feature", "geometry": {"type": "Point", "coordinates": [5.7164369, 52.5252415]}, "properties": {"type": "inleverpunt", "locatieNaam": "Jumbo", "straatNaam": "De Binnenloop", "straatNr": "10", "postcode": "8254 KL", "plaats": "DRONTEN", "merk": "Stibat", "puntType": "inzamelbak", "materialen": ["batterijen"], "uitbetaling": [], "vrijToegankelijk": false, "gemeenteBeperking": null, "openingstijden": null, "latitude": 52.5252415, "longitude": 5.7164369, "bronId": "L017121"}}, {"type": "Feature", "geometry": {"type": "Point", "coordinates": [5.717263, 52.525114]}, "properties": {"type": "inleverpunt", "locatieNaam": "Hans Anders", "straatNaam": "De Reling", "straatNr": "22", "postcode": "8254 KG", "plaats": "DRONTEN", "merk": "Stibat", "puntType": "inzamelbak", "materialen": ["batterijen"], "uitbetaling": [], "vrijToegankelijk": false, "gemeenteBeperking": null, "openingstijden": null, "latitude": 52.525114, "longitude": 5.717263, "bronId": "L037794"}}, {"type": "Feature", "geometry": {"type": "Point", "coordinates": [5.716401, 52.5254912]}, "properties": {"type": "inleverpunt", "locatieNaam": "Aldi", "straatNaam": "De Schans", "straatNr": "51", "postcode": "8254 KN", "plaats": "Dronten", "merk": "Stibat", "puntType": "inzamelbak", "materialen": ["batterijen"], "uitbetaling": [], "vrijToegankelijk": false, "gemeenteBeperking": null, "openingstijden": null, "latitude": 52.5254912, "longitude": 5.716401, "bronId": "L041543"}}, {"type": "Feature", "geometry": {"type": "Point", "coordinates": [5.7186815, 52.524731]}, "properties": {"type": "inleverpunt", "locatieNaam": "Kruidvat", "straatNaam": "Het Ruim", "straatNr": "54", "postcode": "8251 EP", "plaats": "DRONTEN", "merk": "Stibat", "puntType": "inzamelbak", "materialen": ["batterijen"], "uitbetaling": [], "vrijToegankelijk": false, "gemeenteBeperking": null, "openingstijden": null, "latitude": 52.524731, "longitude": 5.7186815, "bronId": "L013881"}}, {"type": "Feature", "geometry": {"type": "Point", "coordinates": [5.7174906, 52.5251907]}, "properties": {"type": "inleverpunt", "locatieNaam": "HEMA Het Havenplein", "straatNaam": "Het Havenplein", "straatNr": "16-30", "postcode": "8254 KJ", "plaats": "DRONTEN", "merk": "Stibat", "puntType": "inzamelbak", "materialen": ["batterijen"], "uitbetaling": [], "vrijToegankelijk": false, "gemeenteBeperking": null, "openingstijden": null, "latitude": 52.5251907, "longitude": 5.7174906, "bronId": "L006092"}}, {"type": "Feature", "geometry": {"type": "Point", "coordinates": [5.7194729, 52.5245289]}, "properties": {"type": "inleverpunt", "locatieNaam": "1371 Action", "straatNaam": "Het Ruim", "straatNr": "53", "postcode": "8251 EK", "plaats": "DRONTEN", "merk": "Stibat", "puntType": "inzamelbak", "materialen": ["batterijen"], "uitbetaling": [], "vrijToegankelijk": false, "gemeenteBeperking": null, "openingstijden": null, "latitude": 52.5245289, "longitude": 5.7194729, "bronId": "L038701"}}, {"type": "Feature", "geometry": {"type": "Point", "coordinates": [5.7171176, 52.5254688]}, "properties": {"type": "inleverpunt", "locatieNaam": "Phone House", "straatNaam": "Het Havenplein", "straatNr": "15-17", "postcode": "8254 KH", "plaats": "Dronten", "merk": "Stibat", "puntType": "inzamelbak", "materialen": ["batterijen"], "uitbetaling": [], "vrijToegankelijk": false, "gemeenteBeperking": null, "openingstijden": null, "latitude": 52.5254688, "longitude": 5.7171176, "bronId": "L022420"}}, {"type": "Feature", "geometry": {"type": "Point", "coordinates": [5.7174308, 52.525643]}, "properties": {"type": "inleverpunt", "locatieNaam": "Intertoys", "straatNaam": "Het Havenplein", "straatNr": "3", "postcode": "8254 KH", "plaats": "DRONTEN", "merk": "Stibat", "puntType": "inzamelbak", "materialen": ["batterijen"], "uitbetaling": [], "vrijToegankelijk": false, "gemeenteBeperking": null, "openingstijden": null, "latitude": 52.525643, "longitude": 5.7174308, "bronId": "L026219"}}, {"type": "Feature", "geometry": {"type": "Point", "coordinates": [5.7188018, 52.5251746]}, "properties": {"type": "inleverpunt", "locatieNaam": "Trekpleister", "straatNaam": "Het Ruim", "straatNr": "26", "postcode": "8251 EM", "plaats": "DRONTEN", "merk": "Stibat", "puntType": "inzamelbak", "materialen": ["batterijen"], "uitbetaling": [], "vrijToegankelijk": false, "gemeenteBeperking": null, "openingstijden": null, "latitude": 52.5251746, "longitude": 5.7188018, "bronId": "L016647"}}, {"type": "Feature", "geometry": {"type": "Point", "coordinates": [5.7188185, 52.5253238]}, "properties": {"type": "inleverpunt", "locatieNaam": "DA", "straatNaam": "Het Ruim", "straatNr": "20-22", "postcode": "8251 EM", "plaats": "Dronten", "merk": "Stibat", "puntType": "inzamelbak", "materialen": ["batterijen"], "uitbetaling": [], "vrijToegankelijk": false, "gemeenteBeperking": null, "openingstijden": null, "latitude": 52.5253238, "longitude": 5.7188185, "bronId": "L025620"}}, {"type": "Feature", "geometry": {"type": "Point", "coordinates": [5.7183862, 52.525547]}, "properties": {"type": "inleverpunt", "locatieNaam": "BelCompany", "straatNaam": "De Kiel", "straatNr": "18", "postcode": "8254 KV", "plaats": "DRONTEN", "merk": "Stibat", "puntType": "inzamelbak", "materialen": ["batterijen"], "uitbetaling": [], "vrijToegankelijk": false, "gemeenteBeperking": null, "openingstijden": null, "latitude": 52.525547, "longitude": 5.7183862, "bronId": "L023917"}}, {"type": "Feature", "geometry": {"type": "Point", "coordinates": [5.7179418, 52.5257438]}, "properties": {"type": "inleverpunt", "locatieNaam": "KiK Dronten", "straatNaam": "De Kiel", "straatNr": "35", "postcode": "8254 KS", "plaats": "DRONTEN", "merk": "Stibat", "puntType": "inzamelbak", "materialen": ["batterijen"], "uitbetaling": [], "vrijToegankelijk": false, "gemeenteBeperking": null, "openingstijden": null, "latitude": 52.5257438, "longitude": 5.7179418, "bronId": "L044897"}}, {"type": "Feature", "geometry": {"type": "Point", "coordinates": [5.7188463, 52.5254474]}, "properties": {"type": "inleverpunt", "locatieNaam": "Wibra", "straatNaam": "Het Ruim", "straatNr": "14", "postcode": "8251 EM", "plaats": "DRONTEN", "merk": "Stibat", "puntType": "inzamelbak", "materialen": ["batterijen"], "uitbetaling": [], "vrijToegankelijk": false, "gemeenteBeperking": null, "openingstijden": null, "latitude": 52.5254474, "longitude": 5.7188463, "bronId": "L024644"}}, {"type": "Feature", "geometry": {"type": "Point", "coordinates": [5.7194107, 52.5259968]}, "properties": {"type": "inleverpunt", "locatieNaam": "1571 Albert Heijn", "straatNaam": "Kop van Het Ruim", "straatNr": "1", "postcode": "8251 KD", "plaats": "DRONTEN", "merk": "Stibat", "puntType": "inzamelbak", "materialen": ["batterijen"], "uitbetaling": [], "vrijToegankelijk": false, "gemeenteBeperking": null, "openingstijden": null, "latitude": 52.5259968, "longitude": 5.7194107, "bronId": "L008209"}}, {"type": "Feature", "geometry": {"type": "Point", "coordinates": [5.6946243, 52.5355706]}, "properties": {"type": "inleverpunt", "locatieNaam": "7913 Etos", "straatNaam": "Beursstraat", "straatNr": "8", "postcode": "8253 GG", "plaats": "DRONTEN", "merk": "Stibat", "puntType": "inzamelbak", "materialen": ["batterijen"], "uitbetaling": [], "vrijToegankelijk": false, "gemeenteBeperking": null, "openingstijden": null, "latitude": 52.5355706, "longitude": 5.6946243, "bronId": "L036372"}}, {"type": "Feature", "geometry": {"type": "Point", "coordinates": [5.694537, 52.5364238]}, "properties": {"type": "inleverpunt", "locatieNaam": "1030 Albert Heijn", "straatNaam": "Beursstraat", "straatNr": "12", "postcode": "8253 GG", "plaats": "DRONTEN", "merk": "Stibat", "puntType": "inzamelbak", "materialen": ["batterijen"], "uitbetaling": [], "vrijToegankelijk": false, "gemeenteBeperking": null, "openingstijden": null, "latitude": 52.5364238, "longitude": 5.694537, "bronId": "L027133"}}, {"type": "Feature", "geometry": {"type": "Point", "coordinates": [5.7165183, 52.5294263]}, "properties": {"type": "inleverpunt", "locatieNaam": "7961 Etos", "straatNaam": "Het Havenplein", "straatNr": "9", "postcode": "8254 KN", "plaats": "DRONTEN", "merk": "Stibat", "puntType": "inzamelbak", "materialen": ["batterijen"], "uitbetaling": [], "vrijToegankelijk": false, "gemeenteBeperking": null, "openingstijden": null, "latitude": 52.5294263, "longitude": 5.7165183, "bronId": "L028736"}}, {"type": "Feature", "geometry": {"type": "Point", "coordinates": [5.6949867, 52.5377946]}, "properties": {"type": "inleverpunt", "locatieNaam": "Lidl", "straatNaam": "Beursstraat", "straatNr": "14", "postcode": "8253 GG", "plaats": "DRONTEN", "merk": "Stibat", "puntType": "inzamelbak", "materialen": ["batterijen"], "uitbetaling": [], "vrijToegankelijk": false, "gemeenteBeperking": null, "openingstijden": null, "latitude": 52.5377946, "longitude": 5.6949867, "bronId": "L045122"}}, {"type": "Feature", "geometry": {"type": "Point", "coordinates": [5.7199483, 52.5304645]}, "properties": {"type": "inleverpunt", "locatieNaam": "It's Kringloop", "straatNaam": "De Noord", "straatNr": "53", "postcode": "8251 GM", "plaats": "DRONTEN", "merk": "Stibat", "puntType": "inzamelbak", "materialen": ["batterijen"], "uitbetaling": [], "vrijToegankelijk": false, "gemeenteBeperking": null, "openingstijden": null, "latitude": 52.5304645, "longitude": 5.7199483, "bronId": "L044867"}}, {"type": "Feature", "geometry": {"type": "Point", "coordinates": [5.6987858, 52.5388231]}, "properties": {"type": "inleverpunt", "locatieNaam": "Ligfietsshop Tempelman", "straatNaam": "De Gouwe", "straatNr": "26c", "postcode": "8253 PA", "plaats": "DRONTEN", "merk": "Stibat", "puntType": "inzamelbak", "materialen": ["batterijen"], "uitbetaling": [], "vrijToegankelijk": false, "gemeenteBeperking": null, "openingstijden": null, "latitude": 52.5388231, "longitude": 5.6987858, "bronId": "L010002"}}, {"type": "Feature", "geometry": {"type": "Point", "coordinates": [5.7199042, 52.5320108]}, "properties": {"type": "inleverpunt", "locatieNaam": "Praxis 2267", "straatNaam": "De Noord", "straatNr": "61", "postcode": "8251 GM", "plaats": "DRONTEN", "merk": "Stibat", "puntType": "inzamelbak", "materialen": ["batterijen"], "uitbetaling": [], "vrijToegankelijk": false, "gemeenteBeperking": null, "openingstijden": null, "latitude": 52.5320108, "longitude": 5.7199042, "bronId": "L039045"}}, {"type": "Feature", "geometry": {"type": "Point", "coordinates": [5.7204962, 52.5328415]}, "properties": {"type": "inleverpunt", "locatieNaam": "Leen Bakker", "straatNaam": "De Noord", "straatNr": "65", "postcode": "8251 GM", "plaats": "DRONTEN", "merk": "Stibat", "puntType": "inzamelbak", "materialen": ["batterijen"], "uitbetaling": [], "vrijToegankelijk": false, "gemeenteBeperking": null, "openingstijden": null, "latitude": 52.5328415, "longitude": 5.7204962, "bronId": "L018868"}}, {"type": "Feature", "geometry": {"type": "Point", "coordinates": [5.7071081, 52.5384303]}, "properties": {"type": "inleverpunt", "locatieNaam": "Rataplan", "straatNaam": "De Dieze", "straatNr": "40-42", "postcode": "8253 PS", "plaats": "DRONTEN", "merk": "Stibat", "puntType": "inzamelbak", "materialen": ["batterijen"], "uitbetaling": [], "vrijToegankelijk": false, "gemeenteBeperking": null, "openingstijden": null, "latitude": 52.5384303, "longitude": 5.7071081, "bronId": "L045838"}}, {"type": "Feature", "geometry": {"type": "Point", "coordinates": [5.7117637, 52.5385691]}, "properties": {"type": "inleverpunt", "locatieNaam": "Milieustraat Dronten", "straatNaam": "De Schipbeek", "straatNr": "30", "postcode": "8253 RD", "plaats": "DRONTEN", "merk": "Stibat", "puntType": "inzamelbak", "materialen": ["batterijen"], "uitbetaling": [], "vrijToegankelijk": false, "gemeenteBeperking": null, "openingstijden": null, "latitude": 52.5385691, "longitude": 5.7117637, "bronId": "L035879"}}, {"type": "Feature", "geometry": {"type": "Point", "coordinates": [5.7182823, 52.5363348]}, "properties": {"type": "inleverpunt", "locatieNaam": "K.A.Z. Caravans &amp; Shop", "straatNaam": "Installatieweg", "straatNr": "8", "postcode": "8251 KM", "plaats": "DRONTEN", "merk": "Stibat", "puntType": "inzamelbak", "materialen": ["batterijen"], "uitbetaling": [], "vrijToegankelijk": false, "gemeenteBeperking": null, "openingstijden": null, "latitude": 52.5363348, "longitude": 5.7182823, "bronId": "L029655"}}, {"type": "Feature", "geometry": {"type": "Point", "coordinates": [5.7072204, 52.5449228]}, "properties": {"type": "inleverpunt", "locatieNaam": "Welkoop", "straatNaam": "Het Weerijs", "straatNr": "46", "postcode": "8253 PP", "plaats": "DRONTEN", "merk": "Stibat", "puntType": "inzamelbak", "materialen": ["batterijen"], "uitbetaling": [], "vrijToegankelijk": false, "gemeenteBeperking": null, "openingstijden": null, "latitude": 52.5449228, "longitude": 5.7072204, "bronId": "L019171"}}, {"type": "Feature", "geometry": {"type": "Point", "coordinates": [5.7061637, 52.5453914]}, "properties": {"type": "inleverpunt", "locatieNaam": "Gamma", "straatNaam": "Het Weerijs", "straatNr": "44", "postcode": "8253 PP", "plaats": "DRONTEN", "merk": "Stibat", "puntType": "inzamelbak", "materialen": ["batterijen"], "uitbetaling": [], "vrijToegankelijk": false, "gemeenteBeperking": null, "openingstijden": null, "latitude": 52.5453914, "longitude": 5.7061637, "bronId": "L028587"}}, {"type": "Feature", "geometry": {"type": "Point", "coordinates": [5.700531, 52.5478164]}, "properties": {"type": "inleverpunt", "locatieNaam": "Technische Groothandel Post B.V.", "straatNaam": "Koornmarktpoort", "straatNr": "17", "postcode": "8253 TE", "plaats": "DRONTEN", "merk": "Stibat", "puntType": "inzamelbak", "materialen": ["batterijen"], "uitbetaling": [], "vrijToegankelijk": false, "gemeenteBeperking": null, "openingstijden": null, "latitude": 52.5478164, "longitude": 5.700531, "bronId": "L032174"}}, {"type": "Feature", "geometry": {"type": "Point", "coordinates": [5.837406, 52.4963709]}, "properties": {"type": "inleverpunt", "locatieNaam": "Camping de Ruimte", "straatNaam": "Stobbenweg", "straatNr": "23", "postcode": "8251 PX", "plaats": "DRONTEN", "merk": "Stibat", "puntType": "inzamelbak", "materialen": ["batterijen"], "uitbetaling": [], "vrijToegankelijk": false, "gemeenteBeperking": null, "openingstijden": null, "latitude": 52.4963709, "longitude": 5.837406, "bronId": "L010385"}}, {"type": "Feature", "geometry": {"type": "Point", "coordinates": [5.6441264, 52.5705795]}, "properties": {"type": "inleverpunt", "locatieNaam": "Vomar", "straatNaam": "Zuidsingel", "straatNr": "32a", "postcode": "8255 CH", "plaats": "SWIFTERBANT", "merk": "Stibat", "puntType": "inzamelbak", "materialen": ["batterijen"], "uitbetaling": [], "vrijToegankelijk": false, "gemeenteBeperking": null, "openingstijden": null, "latitude": 52.5705795, "longitude": 5.6441264, "bronId": "L044211"}}, {"type": "Feature", "geometry": {"type": "Point", "coordinates": [5.6436398, 52.5708214]}, "properties": {"type": "inleverpunt", "locatieNaam": "De Graaf Bikes &amp; Repairs", "straatNaam": "Zuidsingel", "straatNr": "36", "postcode": "8255 CH", "plaats": "SWIFTERBANT", "merk": "Stibat", "puntType": "inzamelbak", "materialen": ["batterijen"], "uitbetaling": [], "vrijToegankelijk": false, "gemeenteBeperking": null, "openingstijden": null, "latitude": 52.5708214, "longitude": 5.6436398, "bronId": "L038906"}}, {"type": "Feature", "geometry": {"type": "Point", "coordinates": [5.6436398, 52.5708214]}, "properties": {"type": "inleverpunt", "locatieNaam": "Jacob Schaap Fietsen Swifterbant", "straatNaam": "Zuidsingel", "straatNr": "36", "postcode": "8255 CH", "plaats": "SWIFTERBANT", "merk": "Stibat", "puntType": "inzamelbak", "materialen": ["batterijen"], "uitbetaling": [], "vrijToegankelijk": false, "gemeenteBeperking": null, "openingstijden": null, "latitude": 52.5708214, "longitude": 5.6436398, "bronId": "L049743"}}, {"type": "Feature", "geometry": {"type": "Point", "coordinates": [5.6436009, 52.5711938]}, "properties": {"type": "inleverpunt", "locatieNaam": "DA", "straatNaam": "Zuidsingel", "straatNr": "48", "postcode": "8255 CH", "plaats": "SWIFTERBANT", "merk": "Stibat", "puntType": "inzamelbak", "materialen": ["batterijen"], "uitbetaling": [], "vrijToegankelijk": false, "gemeenteBeperking": null, "openingstijden": null, "latitude": 52.5711938, "longitude": 5.6436009, "bronId": "L026727"}}, {"type": "Feature", "geometry": {"type": "Point", "coordinates": [5.6437357, 52.5712308]}, "properties": {"type": "inleverpunt", "locatieNaam": "Primera", "straatNaam": "Zuidsingel", "straatNr": "54", "postcode": "8255 CH", "plaats": "SWIFTERBANT", "merk": "Stibat", "puntType": "inzamelbak", "materialen": ["batterijen"], "uitbetaling": [], "vrijToegankelijk": false, "gemeenteBeperking": null, "openingstijden": null, "latitude": 52.5712308, "longitude": 5.6437357, "bronId": "L022558"}}, {"type": "Feature", "geometry": {"type": "Point", "coordinates": [5.6436145, 52.5715699]}, "properties": {"type": "inleverpunt", "locatieNaam": "8704 Albert Heijn", "straatNaam": "De Poort", "straatNr": "10", "postcode": "8255 AA", "plaats": "SWIFTERBANT", "merk": "Stibat", "puntType": "inzamelbak", "materialen": ["batterijen"], "uitbetaling": [], "vrijToegankelijk": false, "gemeenteBeperking": null, "openingstijden": null, "latitude": 52.5715699, "longitude": 5.6436145, "bronId": "L006805"}}, {"type": "Feature", "geometry": {"type": "Point", "coordinates": [5.6448475, 52.5712563]}, "properties": {"type": "inleverpunt", "locatieNaam": "Kringloopwinkel P.O.O.K.", "straatNaam": "De Zoom", "straatNr": "8", "postcode": "8255 AC", "plaats": "SWIFTERBANT", "merk": "Stibat", "puntType": "inzamelbak", "materialen": ["batterijen"], "uitbetaling": [], "vrijToegankelijk": false, "gemeenteBeperking": null, "openingstijden": null, "latitude": 52.5712563, "longitude": 5.6448475, "bronId": "L049512"}}, {"type": "Feature", "geometry": {"type": "Polygon", "coordinates": [[[5.6207370019566385, 52.36413000412859], [5.644867001980941, 52.37086400413206], [5.6525540019884195, 52.36542800412868], [5.677659002013911, 52.37872100413601], [5.688610002024858, 52.379762004136374], [5.694478002030769, 52.38147700413728], [5.698762002035057, 52.382004004137485], [5.706752002043174, 52.38663500414006], [5.71476300205123, 52.388783004141125], [5.715584002052026, 52.38803700414066], [5.727331002063919, 52.39361000414369], [5.728791002065427, 52.39531100414464], [5.733472002070153, 52.3971600041456], [5.729447002066271, 52.40097300414793], [5.733397002070259, 52.40253300414873], [5.73742200207414, 52.39872000414644], [5.73942800207613, 52.39842100414626], [5.742585002079329, 52.39998300414709], [5.746585002083409, 52.40299000414874], [5.753050002089917, 52.40504200414979], [5.758109002095067, 52.40846900415171], [5.761916002098909, 52.409925004152434], [5.768675002105748, 52.413197004154256], [5.78305500212032, 52.421021004158476], [5.787257002124553, 52.42257300415927], [5.792568002129955, 52.42624200416129], [5.804331002141857, 52.432148004164425], [5.806898002144471, 52.43410800416552], [5.810011002147624, 52.43572800416639], [5.811475002149116, 52.436923004167056], [5.8095860021472605, 52.43765900416751], [5.822411002160401, 52.449706004174224], [5.815608002153808, 52.455215004177624], [5.831385002170072, 52.47340200418776], [5.840256002178819, 52.47105800418616], [5.8414720021800655, 52.472275004186876], [5.842649002181307, 52.47461100418818], [5.845591002184344, 52.47820200419019], [5.845568002184385, 52.48032000419143], [5.847814002186763, 52.48495800419403], [5.8510090021902625, 52.49539000419999], [5.856698002196049, 52.49980600420241], [5.862875002202612, 52.513526004210156], [5.864502002204383, 52.51865300421307], [5.8641910022041115, 52.5197810042137], [5.862055002202043, 52.5215830042148], [5.862625002202662, 52.523345004215805], [5.86060800220081, 52.52828100421869], [5.861140002201425, 52.53107300422025], [5.85925200219969, 52.53568900422299], [5.856845002197553, 52.54396100422778], [5.857869002198589, 52.54460500422813], [5.857601002198356, 52.54565000422872], [5.856359002197126, 52.54584400422885], [5.855076002196009, 52.55082400423177], [5.815361002157409, 52.57744500424793], [5.812861002154967, 52.578813004248794], [5.808920002151098, 52.58011200424963], [5.804662002146889, 52.580718004250095], [5.777930002120357, 52.5808520042508], [5.7779680021212485, 52.607534004265986], [5.723791002067487, 52.60769600426735], [5.723819002067632, 52.611291004269376], [5.663402002007662, 52.61143500427078], [5.6574720020018034, 52.61218500427129], [5.653190001997604, 52.613678004272295], [5.649616001994132, 52.61593600427363], [5.627674001973073, 52.63684600428589], [5.622421001967787, 52.6347810042848], [5.607231001953216, 52.64924700429331], [5.592265001938368, 52.64929100429361], [5.511294001858523, 52.66355600430311], [5.564508001909586, 52.61501000427478], [5.5874100019304995, 52.56346000424504], [5.589237001931211, 52.532402004227194], [5.59130500193261, 52.51390500421648], [5.588056001929374, 52.51377300421653], [5.591293001932107, 52.50003600420848], [5.605871001946069, 52.48452000419927], [5.5654200019052835, 52.4702810041918], [5.586389001925359, 52.44771100417828], [5.581975001920887, 52.44566300417715], [5.573803001912501, 52.43879400417331], [5.566637001905256, 52.43586300417173], [5.587025001924838, 52.41531000415932], [5.587459001925269, 52.41531200415932], [5.587998001925789, 52.414766004159], [5.587682001925468, 52.41464900415893], [5.589057001926781, 52.41301700415796], [5.58907000192673, 52.41118700415685], [5.618401001955873, 52.40856800415481], [5.622424001959879, 52.40852100415465], [5.623021001960489, 52.40887200415486], [5.617188001953827, 52.38478300414083], [5.611828001948116, 52.37444800413487], [5.612256001948491, 52.372973004133954], [5.614149001950323, 52.371404004133005], [5.613557001949719, 52.37104200413281], [5.614523001950664, 52.37043700413245], [5.615189001951342, 52.37084000413266], [5.615516001951657, 52.37058500413248], [5.6207370019566385, 52.36413000412859]]]}, "properties": {"type": "boundary", "gemeente": "Dronten"}}]}