{"type": "FeatureCollection", "metadata": {"gemeente": "Eemsdelta", "slug": "eemsdelta", "generated_at": "2026-07-28T09:25:50.134599Z", "total_points": 115, "merken": ["StatiegeldNederland", "Stibat", "StichtingOPEN"], "bounds": [6.6434723, 53.252825, 7.032931, 53.3901359]}, "features": [{"type": "Feature", "geometry": {"type": "Point", "coordinates": [6.8593737, 53.3185409]}, "properties": {"type": "inleverpunt", "locatieNaam": "Albert Heijn", "straatNaam": "Overdiep", "straatNr": "1", "postcode": "9902 DB", "plaats": "Appingedam", "merk": "StatiegeldNederland", "puntType": "automaat", "materialen": ["pet-groot", "pet-klein", "blik", "glas", "krat"], "uitbetaling": ["bonnetje", "donatie"], "vrijToegankelijk": true, "gemeenteBeperking": null, "openingstijden": {"ma": "08:00–21:00", "di": "08:00–21:00", "wo": "08:00–21:00", "do": "08:00–21:00", "vr": "08:00–21:00", "za": "08:00–21:00", "zo": "09:00–18:00"}, "latitude": 53.3185409, "longitude": 6.8593737, "bronId": "252605"}}, {"type": "Feature", "geometry": {"type": "Point", "coordinates": [6.9286118, 53.3326435]}, "properties": {"type": "inleverpunt", "locatieNaam": "Albert Heijn", "straatNaam": "Willemstraat", "straatNr": "26", "postcode": "9934 BC", "plaats": "Delfzijl", "merk": "StatiegeldNederland", "puntType": "automaat", "materialen": ["pet-groot", "pet-klein", "blik", "glas", "krat"], "uitbetaling": ["bonnetje", "donatie"], "vrijToegankelijk": true, "gemeenteBeperking": null, "openingstijden": {"ma": "08:00–21:00", "di": "08:00–21:00", "wo": "08:00–21:00", "do": "08:00–21:00", "vr": "08:00–21:00", "za": "08:00–21:00", "zo": "09:00–19:00"}, "latitude": 53.3326435, "longitude": 6.9286118, "bronId": "252935"}}, {"type": "Feature", "geometry": {"type": "Point", "coordinates": [6.8602299, 53.3192634]}, "properties": {"type": "inleverpunt", "locatieNaam": "Aldi", "straatNaam": "Overdiep", "straatNr": "2", "postcode": "9902 BX", "plaats": "Appingedam", "merk": "StatiegeldNederland", "puntType": "automaat", "materialen": ["pet-groot", "pet-klein", "blik", "glas", "krat"], "uitbetaling": ["bonnetje"], "vrijToegankelijk": true, "gemeenteBeperking": null, "openingstijden": {"ma": "08:00–20:00", "di": "08:00–20:00", "wo": "08:00–20:00", "do": "08:00–20:00", "vr": "08:00–21:00", "za": "08:00–20:00", "zo": "09:00–18:00"}, "latitude": 53.3192634, "longitude": 6.8602299, "bronId": "253307"}}, {"type": "Feature", "geometry": {"type": "Point", "coordinates": [6.9109671, 53.3360867]}, "properties": {"type": "inleverpunt", "locatieNaam": "Aldi", "straatNaam": "W.C. De Wending", "straatNr": "", "postcode": "9933 KN", "plaats": "Delfzijl", "merk": "StatiegeldNederland", "puntType": "automaat", "materialen": ["pet-groot", "pet-klein", "blik", "glas", "krat"], "uitbetaling": ["bonnetje"], "vrijToegankelijk": true, "gemeenteBeperking": null, "openingstijden": {"ma": "08:00–20:00", "di": "08:00–20:00", "wo": "08:00–20:00", "do": "08:00–20:00", "vr": "08:00–20:00", "za": "08:00–20:00", "zo": "09:00–18:00"}, "latitude": 53.3360867, "longitude": 6.9109671, "bronId": "253427"}}, {"type": "Feature", "geometry": {"type": "Point", "coordinates": [6.9106182, 53.336013]}, "properties": {"type": "inleverpunt", "locatieNaam": "BudgetFood", "straatNaam": "De Wending", "straatNr": "6", "postcode": "9933 KN", "plaats": "Delfzijl", "merk": "StatiegeldNederland", "puntType": "automaat", "materialen": ["pet-groot", "pet-klein", "blik"], "uitbetaling": ["bonnetje", "donatie"], "vrijToegankelijk": true, "gemeenteBeperking": null, "openingstijden": {"ma": "09:30–23:00", "di": "09:30–23:00", "wo": "09:30–23:00", "do": "09:30–23:00", "vr": "09:30–23:00", "za": "09:30–23:00", "zo": "09:30–23:00"}, "latitude": 53.336013, "longitude": 6.9106182, "bronId": "253924"}}, {"type": "Feature", "geometry": {"type": "Point", "coordinates": [6.900824, 53.32676]}, "properties": {"type": "inleverpunt", "locatieNaam": "Gulf", "straatNaam": "Fivellaan", "straatNr": "2", "postcode": "9934 NP", "plaats": "Delfzijl", "merk": "StatiegeldNederland", "puntType": "balie", "materialen": ["pet-groot", "pet-klein", "blik"], "uitbetaling": [], "vrijToegankelijk": true, "gemeenteBeperking": null, "openingstijden": {"ma": "06:00–21:00", "di": "06:00–21:00", "wo": "06:00–21:00", "do": "06:00–21:00", "vr": "06:00–21:00", "za": "06:00–21:00", "zo": "08:00–21:00"}, "latitude": 53.32676, "longitude": 6.900824, "bronId": "254903"}}, {"type": "Feature", "geometry": {"type": "Point", "coordinates": [6.911093, 53.335617]}, "properties": {"type": "inleverpunt", "locatieNaam": "Jumbo", "straatNaam": "De Wending", "straatNr": "11", "postcode": "9933 KM", "plaats": "Delfzijl", "merk": "StatiegeldNederland", "puntType": "automaat", "materialen": ["pet-groot", "pet-klein", "blik", "glas", "krat"], "uitbetaling": ["bonnetje", "donatie"], "vrijToegankelijk": true, "gemeenteBeperking": null, "openingstijden": {"ma": "08:00–21:00", "di": "08:00–21:00", "wo": "08:00–21:00", "do": "08:00–21:00", "vr": "08:00–21:00", "za": "08:00–21:00", "zo": "09:00–18:00"}, "latitude": 53.335617, "longitude": 6.911093, "bronId": "255307"}}, {"type": "Feature", "geometry": {"type": "Point", "coordinates": [6.8647053, 53.3158456]}, "properties": {"type": "inleverpunt", "locatieNaam": "Jumbo", "straatNaam": "Harddraversplein", "straatNr": "5", "postcode": "9902 CX", "plaats": "Appingedam", "merk": "StatiegeldNederland", "puntType": "automaat", "materialen": ["pet-groot", "pet-klein", "blik", "glas", "krat"], "uitbetaling": ["bonnetje", "donatie"], "vrijToegankelijk": true, "gemeenteBeperking": null, "openingstijden": {"ma": "08:00–21:00", "di": "08:00–21:00", "wo": "08:00–21:00", "do": "08:00–21:00", "vr": "08:00–21:00", "za": "08:00–21:00", "zo": "10:00–18:00"}, "latitude": 53.3158456, "longitude": 6.8647053, "bronId": "255402"}}, {"type": "Feature", "geometry": {"type": "Point", "coordinates": [6.91419, 53.32693]}, "properties": {"type": "inleverpunt", "locatieNaam": "Jumbo", "straatNaam": "Jachtlaan", "straatNr": "4-10", "postcode": "9934 JA", "plaats": "Delfzijl", "merk": "StatiegeldNederland", "puntType": "automaat", "materialen": ["pet-groot", "pet-klein", "blik", "glas", "krat"], "uitbetaling": ["bonnetje", "donatie"], "vrijToegankelijk": true, "gemeenteBeperking": null, "openingstijden": {"ma": "08:00–21:00", "di": "08:00–21:00", "wo": "08:00–21:00", "do": "08:00–21:00", "vr": "08:00–21:00", "za": "08:00–21:00", "zo": "09:00–18:00"}, "latitude": 53.32693, "longitude": 6.91419, "bronId": "255450"}}, {"type": "Feature", "geometry": {"type": "Point", "coordinates": [6.92833, 53.33233]}, "properties": {"type": "inleverpunt", "locatieNaam": "Lidl", "straatNaam": "Willemstraat", "straatNr": "32", "postcode": "9934 BC", "plaats": "Delfzijl", "merk": "StatiegeldNederland", "puntType": "automaat", "materialen": ["pet-groot", "pet-klein", "blik", "glas", "krat"], "uitbetaling": ["bonnetje", "donatie"], "vrijToegankelijk": true, "gemeenteBeperking": null, "openingstijden": {"ma": "08:00–21:00", "di": "08:00–21:00", "wo": "08:00–21:00", "do": "08:00–21:00", "vr": "08:00–21:00", "za": "08:00–21:00", "zo": "09:00–18:00"}, "latitude": 53.33233, "longitude": 6.92833, "bronId": "256470"}}, {"type": "Feature", "geometry": {"type": "Point", "coordinates": [6.8648855, 53.3205309]}, "properties": {"type": "inleverpunt", "locatieNaam": "Ltc Fivelveld", "straatNaam": "Farmsumerweg", "straatNr": "19", "postcode": "9902 BK", "plaats": "Appingedam", "merk": "StatiegeldNederland", "puntType": "balie", "materialen": ["pet-groot", "pet-klein", "blik"], "uitbetaling": [], "vrijToegankelijk": false, "gemeenteBeperking": null, "openingstijden": null, "latitude": 53.3205309, "longitude": 6.8648855, "bronId": "256505"}}, {"type": "Feature", "geometry": {"type": "Point", "coordinates": [6.8871205, 53.3212915]}, "properties": {"type": "inleverpunt", "locatieNaam": "Optisport Zwem Center Dubbelslag", "straatNaam": "Zwet", "straatNr": "60", "postcode": "9932 BT", "plaats": "Delfzijl", "merk": "StatiegeldNederland", "puntType": "balie", "materialen": ["pet-groot", "pet-klein", "blik"], "uitbetaling": [], "vrijToegankelijk": false, "gemeenteBeperking": null, "openingstijden": {"ma": "07:30–22:00", "di": "07:30–22:00", "wo": "07:30–21:00", "do": "07:30–21:30", "vr": "07:30–18:00", "za": "09:00–13:00", "zo": "09:00–17:00"}, "latitude": 53.3212915, "longitude": 6.8871205, "bronId": "257057"}}, {"type": "Feature", "geometry": {"type": "Point", "coordinates": [6.8396738, 53.3898143]}, "properties": {"type": "inleverpunt", "locatieNaam": "Plus", "straatNaam": "Alberdaweg", "straatNr": "9", "postcode": "9909 AJ", "plaats": "Spijk", "merk": "StatiegeldNederland", "puntType": "automaat", "materialen": ["pet-groot", "pet-klein", "blik", "glas", "krat"], "uitbetaling": ["bonnetje"], "vrijToegankelijk": true, "gemeenteBeperking": null, "openingstijden": {"ma": "08:00–20:00", "di": "08:00–20:00", "wo": "08:00–20:00", "do": "08:00–20:00", "vr": "08:00–20:00", "za": "08:00–20:00", "zo": "Gesloten"}, "latitude": 53.3898143, "longitude": 6.8396738, "bronId": "257181"}}, {"type": "Feature", "geometry": {"type": "Point", "coordinates": [6.6442218, 53.3484449]}, "properties": {"type": "inleverpunt", "locatieNaam": "Plus", "straatNaam": "Asingalaan", "straatNr": "6", "postcode": "9991 AJ", "plaats": "Middelstum", "merk": "StatiegeldNederland", "puntType": "automaat", "materialen": ["pet-groot", "pet-klein", "blik", "glas", "krat"], "uitbetaling": ["bonnetje"], "vrijToegankelijk": true, "gemeenteBeperking": null, "openingstijden": {"ma": "08:00–20:00", "di": "08:00–20:00", "wo": "08:00–20:00", "do": "08:00–20:00", "vr": "08:00–20:00", "za": "08:00–20:00", "zo": "12:00–17:00"}, "latitude": 53.3484449, "longitude": 6.6442218, "bronId": "257193"}}, {"type": "Feature", "geometry": {"type": "Point", "coordinates": [6.8616259, 53.3209094]}, "properties": {"type": "inleverpunt", "locatieNaam": "Plus", "straatNaam": "Ossendrift", "straatNr": "1", "postcode": "9901 JH", "plaats": "Appingedam", "merk": "StatiegeldNederland", "puntType": "automaat", "materialen": ["pet-groot", "pet-klein", "blik", "glas", "krat"], "uitbetaling": ["bonnetje"], "vrijToegankelijk": true, "gemeenteBeperking": null, "openingstijden": {"ma": "08:00–21:00", "di": "08:00–21:00", "wo": "08:00–21:00", "do": "08:00–21:00", "vr": "08:00–21:00", "za": "08:00–20:00", "zo": "11:00–18:00"}, "latitude": 53.3209094, "longitude": 6.8616259, "bronId": "257462"}}, {"type": "Feature", "geometry": {"type": "Point", "coordinates": [6.7463321, 53.332029]}, "properties": {"type": "inleverpunt", "locatieNaam": "Poiesz", "straatNaam": "Pastoriepad", "straatNr": "1", "postcode": "9919 AP", "plaats": "Loppersum", "merk": "StatiegeldNederland", "puntType": "automaat", "materialen": ["pet-groot", "pet-klein", "blik", "glas", "krat"], "uitbetaling": ["bonnetje", "donatie"], "vrijToegankelijk": true, "gemeenteBeperking": null, "openingstijden": {"ma": "08:00–20:00", "di": "08:00–20:00", "wo": "08:00–20:00", "do": "08:00–20:00", "vr": "08:00–21:00", "za": "08:00–20:00", "zo": "10:00–18:00"}, "latitude": 53.332029, "longitude": 6.7463321, "bronId": "257676"}}, {"type": "Feature", "geometry": {"type": "Point", "coordinates": [6.924442, 53.3172196]}, "properties": {"type": "inleverpunt", "locatieNaam": "Robertus Dranken", "straatNaam": "Rondeboslaan", "straatNr": "30", "postcode": "9936 BK", "plaats": "Farmsum", "merk": "StatiegeldNederland", "puntType": "automaat", "materialen": ["pet-groot", "pet-klein", "blik", "krat"], "uitbetaling": ["tikkie"], "vrijToegankelijk": true, "gemeenteBeperking": null, "openingstijden": null, "latitude": 53.3172196, "longitude": 6.924442, "bronId": "257833"}}, {"type": "Feature", "geometry": {"type": "Point", "coordinates": [6.927585, 53.333482]}, "properties": {"type": "inleverpunt", "locatieNaam": "Shell", "straatNaam": "De Vennen", "straatNr": "178", "postcode": "9934 AJ", "plaats": "Delfzijl", "merk": "StatiegeldNederland", "puntType": "balie", "materialen": ["pet-groot", "pet-klein", "blik"], "uitbetaling": [], "vrijToegankelijk": true, "gemeenteBeperking": null, "openingstijden": {"ma": "24 uur geopend", "di": "24 uur geopend", "wo": "24 uur geopend", "do": "24 uur geopend", "vr": "24 uur geopend", "za": "24 uur geopend", "zo": "24 uur geopend"}, "latitude": 53.333482, "longitude": 6.927585, "bronId": "258052"}}, {"type": "Feature", "geometry": {"type": "Point", "coordinates": [6.9170195, 53.3315633]}, "properties": {"type": "inleverpunt", "locatieNaam": "Tennis Club Delfzijl", "straatNaam": "Burgemeester Boeremalaan", "straatNr": "7", "postcode": "9934 EM", "plaats": "Delfzijl", "merk": "StatiegeldNederland", "puntType": "balie", "materialen": ["pet-groot", "pet-klein", "blik"], "uitbetaling": [], "vrijToegankelijk": false, "gemeenteBeperking": null, "openingstijden": {"ma": "24 uur geopend", "di": "24 uur geopend", "wo": "24 uur geopend", "do": "24 uur geopend", "vr": "24 uur geopend", "za": "24 uur geopend", "zo": "24 uur geopend"}, "latitude": 53.3315633, "longitude": 6.9170195, "bronId": "258904"}}, {"type": "Feature", "geometry": {"type": "Point", "coordinates": [7.032931, 53.2723752]}, "properties": {"type": "inleverpunt", "locatieNaam": "V.v. W.e.o", "straatNaam": "Burg Garreltsweg", "straatNr": "53b", "postcode": "9946 PM", "plaats": "Woldendorp", "merk": "StatiegeldNederland", "puntType": "balie", "materialen": ["pet-groot", "pet-klein", "blik"], "uitbetaling": [], "vrijToegankelijk": false, "gemeenteBeperking": null, "openingstijden": null, "latitude": 53.2723752, "longitude": 7.032931, "bronId": "259143"}}, {"type": "Feature", "geometry": {"type": "Point", "coordinates": [6.8960997, 53.3177542]}, "properties": {"type": "inleverpunt", "locatieNaam": "ViaTim", "straatNaam": "Egge", "straatNr": "20", "postcode": "9932 AL", "plaats": "Delfzijl", "merk": "StatiegeldNederland", "puntType": "balie", "materialen": ["pet-groot", "pet-klein", "blik"], "uitbetaling": ["tikkie"], "vrijToegankelijk": true, "gemeenteBeperking": null, "openingstijden": {"ma": "16:00–21:00", "di": "16:00–21:00", "wo": "16:00–21:00", "do": "16:00–21:00", "vr": "16:00–21:00", "za": "Gesloten", "zo": "Gesloten"}, "latitude": 53.3177542, "longitude": 6.8960997, "bronId": "259279"}}, {"type": "Feature", "geometry": {"type": "Point", "coordinates": [6.905027, 53.3354778]}, "properties": {"type": "inleverpunt", "locatieNaam": "ViaTim", "straatNaam": "Huibertplaat", "straatNr": "3", "postcode": "9931 CA", "plaats": "Delfzijl", "merk": "StatiegeldNederland", "puntType": "balie", "materialen": ["pet-groot", "pet-klein", "blik"], "uitbetaling": ["tikkie"], "vrijToegankelijk": true, "gemeenteBeperking": null, "openingstijden": {"ma": "12:00–21:00", "di": "12:00–21:00", "wo": "12:00–21:00", "do": "12:00–21:00", "vr": "12:00–21:00", "za": "12:00–21:00", "zo": "12:00–19:00"}, "latitude": 53.3354778, "longitude": 6.905027, "bronId": "259333"}}, {"type": "Feature", "geometry": {"type": "Point", "coordinates": [6.8412217, 53.3212382]}, "properties": {"type": "inleverpunt", "locatieNaam": "ViaTim", "straatNaam": "Jonkerslaan", "straatNr": "2", "postcode": "9901 HD", "plaats": "Appingedam", "merk": "StatiegeldNederland", "puntType": "balie", "materialen": ["pet-groot", "pet-klein", "blik"], "uitbetaling": ["tikkie"], "vrijToegankelijk": true, "gemeenteBeperking": null, "openingstijden": {"ma": "15:00–21:00", "di": "15:00–21:00", "wo": "15:00–21:00", "do": "15:00–21:00", "vr": "15:00–21:00", "za": "Gesloten", "zo": "Gesloten"}, "latitude": 53.3212382, "longitude": 6.8412217, "bronId": "259357"}}, {"type": "Feature", "geometry": {"type": "Point", "coordinates": [6.8608865, 53.3168656]}, "properties": {"type": "inleverpunt", "locatieNaam": "ViaTim", "straatNaam": "K. Ter Laanstraat", "straatNr": "6", "postcode": "9902 AV", "plaats": "Appingedam", "merk": "StatiegeldNederland", "puntType": "balie", "materialen": ["pet-groot", "pet-klein", "blik"], "uitbetaling": ["tikkie"], "vrijToegankelijk": true, "gemeenteBeperking": null, "openingstijden": null, "latitude": 53.3168656, "longitude": 6.8608865, "bronId": "259360"}}, {"type": "Feature", "geometry": {"type": "Point", "coordinates": [6.695796, 53.319663]}, "properties": {"type": "inleverpunt", "locatieNaam": "Kruidhof Installatiebedrijf", "straatNaam": "Lellensterweg", "straatNr": "6", "postcode": "9921 PJ", "plaats": "Stedum", "merk": "StichtingOPEN", "puntType": "balie", "materialen": ["elektro-klein", "elektro-middel"], "uitbetaling": [], "vrijToegankelijk": false, "gemeenteBeperking": null, "openingstijden": null, "latitude": 53.319663, "longitude": 6.695796, "bronId": "SP00002699"}}, {"type": "Feature", "geometry": {"type": "Point", "coordinates": [6.64439, 53.348811]}, "properties": {"type": "inleverpunt", "locatieNaam": "PLUS Middelstum", "straatNaam": "Asingalaan", "straatNr": "6", "postcode": "9991 AJ", "plaats": "Middelstum", "merk": "StichtingOPEN", "puntType": "balie", "materialen": ["batterijen", "lampen"], "uitbetaling": [], "vrijToegankelijk": false, "gemeenteBeperking": null, "openingstijden": null, "latitude": 53.348811, "longitude": 6.64439, "bronId": "SP00023990"}}, {"type": "Feature", "geometry": {"type": "Point", "coordinates": [6.745512, 53.331398]}, "properties": {"type": "inleverpunt", "locatieNaam": "65640 Hubo Loppersum", "straatNaam": "hogestraat", "straatNr": "18", "postcode": "9919 AM", "plaats": "Loppersum", "merk": "StichtingOPEN", "puntType": "balie", "materialen": ["elektro-middel", "lampen", "tl-buizen"], "uitbetaling": [], "vrijToegankelijk": false, "gemeenteBeperking": null, "openingstijden": null, "latitude": 53.331398, "longitude": 6.745512, "bronId": "SP00004096"}}, {"type": "Feature", "geometry": {"type": "Point", "coordinates": [6.746315, 53.332021]}, "properties": {"type": "inleverpunt", "locatieNaam": "8798 Albert Heijn Loppersum", "straatNaam": "Pastoriepad", "straatNr": "1", "postcode": "9919 AP", "plaats": "Loppersum", "merk": "StichtingOPEN", "puntType": "balie", "materialen": ["batterijen", "elektro-klein", "lampen"], "uitbetaling": [], "vrijToegankelijk": false, "gemeenteBeperking": null, "openingstijden": null, "latitude": 53.332021, "longitude": 6.746315, "bronId": "SP00023213"}}, {"type": "Feature", "geometry": {"type": "Point", "coordinates": [6.93055, 53.252825]}, "properties": {"type": "inleverpunt", "locatieNaam": "Spar Wagenborgen", "straatNaam": "Kerkstraat", "straatNr": "58", "postcode": "9945 SH", "plaats": "Wagenborgen", "merk": "StichtingOPEN", "puntType": "balie", "materialen": ["batterijen", "lampen"], "uitbetaling": [], "vrijToegankelijk": false, "gemeenteBeperking": null, "openingstijden": null, "latitude": 53.252825, "longitude": 6.93055, "bronId": "SP00022486"}}, {"type": "Feature", "geometry": {"type": "Point", "coordinates": [6.806957, 53.317484]}, "properties": {"type": "inleverpunt", "locatieNaam": "Kinderboerderij Ekenstein", "straatNaam": "Alberdaweg", "straatNr": "70", "postcode": "9901 TA", "plaats": "Appingedam", "merk": "StichtingOPEN", "puntType": "balie", "materialen": ["elektro-middel"], "uitbetaling": [], "vrijToegankelijk": false, "gemeenteBeperking": null, "openingstijden": null, "latitude": 53.317484, "longitude": 6.806957, "bronId": "SP00005510"}}, {"type": "Feature", "geometry": {"type": "Point", "coordinates": [6.859041, 53.318413]}, "properties": {"type": "inleverpunt", "locatieNaam": "8701 Albert Heijn (Retourette) Appingedam", "straatNaam": "Overdiep", "straatNr": "1", "postcode": "9902 DB", "plaats": "Appingedam", "merk": "StichtingOPEN", "puntType": "balie", "materialen": ["batterijen", "elektro-klein", "lampen"], "uitbetaling": [], "vrijToegankelijk": false, "gemeenteBeperking": null, "openingstijden": null, "latitude": 53.318413, "longitude": 6.859041, "bronId": "SP00023211"}}, {"type": "Feature", "geometry": {"type": "Point", "coordinates": [6.860229, 53.319263]}, "properties": {"type": "inleverpunt", "locatieNaam": "Aldi Appingedam", "straatNaam": "Overdiep", "straatNr": "2", "postcode": "9902 BX", "plaats": "Appingedam", "merk": "StichtingOPEN", "puntType": "balie", "materialen": ["batterijen", "elektro-klein", "lampen"], "uitbetaling": [], "vrijToegankelijk": false, "gemeenteBeperking": null, "openingstijden": null, "latitude": 53.319263, "longitude": 6.860229, "bronId": "SP00026873"}}, {"type": "Feature", "geometry": {"type": "Point", "coordinates": [6.858234, 53.320656]}, "properties": {"type": "inleverpunt", "locatieNaam": "Kruidvat Appingedam", "straatNaam": "Dijkstraat", "straatNr": "38", "postcode": "9901 AT", "plaats": "Appingedam", "merk": "StichtingOPEN", "puntType": "balie", "materialen": ["batterijen", "lampen"], "uitbetaling": [], "vrijToegankelijk": false, "gemeenteBeperking": null, "openingstijden": null, "latitude": 53.320656, "longitude": 6.858234, "bronId": "SP00024838"}}, {"type": "Feature", "geometry": {"type": "Point", "coordinates": [6.861626, 53.320909]}, "properties": {"type": "inleverpunt", "locatieNaam": "SuperCoop Appingedam", "straatNaam": "Ossedrift", "straatNr": "1", "postcode": "9901 JH", "plaats": "Appingedam", "merk": "StichtingOPEN", "puntType": "balie", "materialen": ["batterijen", "lampen"], "uitbetaling": [], "vrijToegankelijk": false, "gemeenteBeperking": null, "openingstijden": null, "latitude": 53.320909, "longitude": 6.861626, "bronId": "SP00024424"}}, {"type": "Feature", "geometry": {"type": "Point", "coordinates": [6.858679, 53.322645]}, "properties": {"type": "inleverpunt", "locatieNaam": "Action Appingedam 1082", "straatNaam": "Koningstraat", "straatNr": "32", "postcode": "9901 EE", "plaats": "Appingedam", "merk": "StichtingOPEN", "puntType": "balie", "materialen": ["batterijen", "lampen"], "uitbetaling": [], "vrijToegankelijk": false, "gemeenteBeperking": null, "openingstijden": null, "latitude": 53.322645, "longitude": 6.858679, "bronId": "SP00007679"}}, {"type": "Feature", "geometry": {"type": "Point", "coordinates": [6.859422, 53.322542]}, "properties": {"type": "inleverpunt", "locatieNaam": "OK-tronics", "straatNaam": "Stationsstraat", "straatNr": "26", "postcode": "9901 BM", "plaats": "Appingedam", "merk": "StichtingOPEN", "puntType": "balie", "materialen": ["batterijen", "elektro-klein"], "uitbetaling": [], "vrijToegankelijk": false, "gemeenteBeperking": null, "openingstijden": null, "latitude": 53.322542, "longitude": 6.859422, "bronId": "SP00037155"}}, {"type": "Feature", "geometry": {"type": "Point", "coordinates": [6.879295, 53.317266]}, "properties": {"type": "inleverpunt", "locatieNaam": "GroenRijk Eemsdelta", "straatNaam": "Farmsumerweg", "straatNr": "136", "postcode": "9902 BW", "plaats": "Appingedam", "merk": "StichtingOPEN", "puntType": "balie", "materialen": ["batterijen", "elektro-klein", "elektro-middel", "lampen", "tl-buizen"], "uitbetaling": [], "vrijToegankelijk": false, "gemeenteBeperking": null, "openingstijden": null, "latitude": 53.317266, "longitude": 6.879295, "bronId": "SP00006618"}}, {"type": "Feature", "geometry": {"type": "Point", "coordinates": [6.878256, 53.318409]}, "properties": {"type": "inleverpunt", "locatieNaam": "Gamma Appingedam", "straatNaam": "Farmsumerweg", "straatNr": "130", "postcode": "9902 BW", "plaats": "Appingedam", "merk": "StichtingOPEN", "puntType": "balie", "materialen": ["batterijen", "elektro-klein", "elektro-middel", "lampen", "tl-buizen"], "uitbetaling": [], "vrijToegankelijk": false, "gemeenteBeperking": null, "openingstijden": null, "latitude": 53.318409, "longitude": 6.878256, "bronId": "SP00001577"}}, {"type": "Feature", "geometry": {"type": "Point", "coordinates": [6.87862, 53.319]}, "properties": {"type": "inleverpunt", "locatieNaam": "Leen Bakker Appingedam", "straatNaam": "Farmsumerweg", "straatNr": "128", "postcode": "9902 BW", "plaats": "Appingedam", "merk": "StichtingOPEN", "puntType": "balie", "materialen": ["batterijen", "lampen"], "uitbetaling": [], "vrijToegankelijk": false, "gemeenteBeperking": null, "openingstijden": null, "latitude": 53.319, "longitude": 6.87862, "bronId": "SP00030064"}}, {"type": "Feature", "geometry": {"type": "Point", "coordinates": [6.876659, 53.321738]}, "properties": {"type": "inleverpunt", "locatieNaam": "Dorcas Winkel Appingedam", "straatNaam": "Energieweg", "straatNr": "5", "postcode": "9902 RL", "plaats": "Appingedam", "merk": "StichtingOPEN", "puntType": "balie", "materialen": ["elektro-klein", "lampen", "tl-buizen"], "uitbetaling": [], "vrijToegankelijk": false, "gemeenteBeperking": null, "openingstijden": null, "latitude": 53.321738, "longitude": 6.876659, "bronId": "SP00031709"}}, {"type": "Feature", "geometry": {"type": "Point", "coordinates": [6.920603, 53.320712]}, "properties": {"type": "inleverpunt", "locatieNaam": "KARWEI Delfzijl", "straatNaam": "Borgweg", "straatNr": "161a", "postcode": "9936 EP", "plaats": "Farmsum", "merk": "StichtingOPEN", "puntType": "balie", "materialen": ["elektro-middel", "lampen", "tl-buizen"], "uitbetaling": [], "vrijToegankelijk": false, "gemeenteBeperking": null, "openingstijden": null, "latitude": 53.320712, "longitude": 6.920603, "bronId": "SP00003662"}}, {"type": "Feature", "geometry": {"type": "Point", "coordinates": [6.914033, 53.327122]}, "properties": {"type": "inleverpunt", "locatieNaam": "Jumbo Delfzijl", "straatNaam": "Jachtlaan", "straatNr": "410", "postcode": "9934 JB", "plaats": "Delfzijl", "merk": "StichtingOPEN", "puntType": "balie", "materialen": ["batterijen", "lampen"], "uitbetaling": [], "vrijToegankelijk": false, "gemeenteBeperking": null, "openingstijden": null, "latitude": 53.327122, "longitude": 6.914033, "bronId": "SP00025420"}}, {"type": "Feature", "geometry": {"type": "Point", "coordinates": [6.925858, 53.327647]}, "properties": {"type": "inleverpunt", "locatieNaam": "Action Delfzijl 1037", "straatNaam": "Nieuweweg", "straatNr": "12", "postcode": "9934 RC", "plaats": "Delfzijl", "merk": "StichtingOPEN", "puntType": "balie", "materialen": ["batterijen", "lampen"], "uitbetaling": [], "vrijToegankelijk": false, "gemeenteBeperking": null, "openingstijden": null, "latitude": 53.327647, "longitude": 6.925858, "bronId": "SP00007638"}}, {"type": "Feature", "geometry": {"type": "Point", "coordinates": [6.91103, 53.33582]}, "properties": {"type": "inleverpunt", "locatieNaam": "Jumbo Delfzijl", "straatNaam": "De Wending", "straatNr": "11", "postcode": "9933 KM", "plaats": "Delfzijl", "merk": "StichtingOPEN", "puntType": "balie", "materialen": ["batterijen", "lampen"], "uitbetaling": [], "vrijToegankelijk": false, "gemeenteBeperking": null, "openingstijden": null, "latitude": 53.33582, "longitude": 6.91103, "bronId": "SP00025422"}}, {"type": "Feature", "geometry": {"type": "Point", "coordinates": [6.911154, 53.336105]}, "properties": {"type": "inleverpunt", "locatieNaam": "Aldi Delfzijl", "straatNaam": "De Wending", "straatNr": "16", "postcode": "9933 KN", "plaats": "Delfzijl", "merk": "StichtingOPEN", "puntType": "balie", "materialen": ["batterijen", "elektro-klein", "lampen"], "uitbetaling": [], "vrijToegankelijk": false, "gemeenteBeperking": null, "openingstijden": null, "latitude": 53.336105, "longitude": 6.911154, "bronId": "SP00026880"}}, {"type": "Feature", "geometry": {"type": "Point", "coordinates": [6.92878, 53.3323]}, "properties": {"type": "inleverpunt", "locatieNaam": "Kruidvat Delfzijl", "straatNaam": "Willemstraat", "straatNr": "28", "postcode": "9934 BC", "plaats": "Delfzijl", "merk": "StichtingOPEN", "puntType": "balie", "materialen": ["batterijen", "lampen"], "uitbetaling": [], "vrijToegankelijk": false, "gemeenteBeperking": null, "openingstijden": null, "latitude": 53.3323, "longitude": 6.92878, "bronId": "SP00024926"}}, {"type": "Feature", "geometry": {"type": "Point", "coordinates": [6.928905, 53.332666]}, "properties": {"type": "inleverpunt", "locatieNaam": "1280 Albert Heijn Delfzijl", "straatNaam": "Willemstraat", "straatNr": "26", "postcode": "9934 BC", "plaats": "Delfzijl", "merk": "StichtingOPEN", "puntType": "balie", "materialen": ["batterijen", "elektro-klein", "lampen"], "uitbetaling": [], "vrijToegankelijk": false, "gemeenteBeperking": null, "openingstijden": null, "latitude": 53.332666, "longitude": 6.928905, "bronId": "SP00023214"}}, {"type": "Feature", "geometry": {"type": "Point", "coordinates": [6.839673, 53.389814]}, "properties": {"type": "inleverpunt", "locatieNaam": "PLUS Spijk", "straatNaam": "Alberdaweg", "straatNr": "9", "postcode": "9909 AJ", "plaats": "Spijk Gn", "merk": "StichtingOPEN", "puntType": "balie", "materialen": ["batterijen", "lampen"], "uitbetaling": [], "vrijToegankelijk": false, "gemeenteBeperking": null, "openingstijden": null, "latitude": 53.389814, "longitude": 6.839673, "bronId": "SP00035897"}}, {"type": "Feature", "geometry": {"type": "Point", "coordinates": [6.87704, 53.322221]}, "properties": {"type": "inleverpunt", "locatieNaam": "Hergebruik+(Werkpro)", "straatNaam": "Energieweg", "straatNr": "7", "postcode": "9902 RL", "plaats": "Appingedam", "merk": "StichtingOPEN", "puntType": "milieustraat", "materialen": ["batterijen", "elektro-groot", "elektro-klein", "elektro-middel", "lampen", "tl-buizen"], "uitbetaling": [], "vrijToegankelijk": false, "gemeenteBeperking": ["Eemsdelta", "Delfzijl"], "openingstijden": null, "latitude": 53.322221, "longitude": 6.87704, "bronId": "SP00004353"}}, {"type": "Feature", "geometry": {"type": "Point", "coordinates": [6.969158, 53.29392]}, "properties": {"type": "inleverpunt", "locatieNaam": "Afvaloverslagstation Kloosterlaan", "straatNaam": "Warvenweg", "straatNr": "15", "postcode": "9936 TG", "plaats": "Farmsum", "merk": "StichtingOPEN", "puntType": "milieustraat", "materialen": ["batterijen", "elektro-groot", "elektro-klein", "elektro-middel", "lampen", "tl-buizen"], "uitbetaling": [], "vrijToegankelijk": false, "gemeenteBeperking": ["Eemsdelta", "Loppersum"], "openingstijden": null, "latitude": 53.29392, "longitude": 6.969158, "bronId": "SP00032792"}}, {"type": "Feature", "geometry": {"type": "Point", "coordinates": [6.738773, 53.334116]}, "properties": {"type": "inleverpunt", "locatieNaam": "Gemeentewerf Loppersum", "straatNaam": "Industrieweg", "straatNr": "4", "postcode": "9919 JE", "plaats": "Loppersum", "merk": "StichtingOPEN", "puntType": "milieustraat", "materialen": ["batterijen", "elektro-groot", "elektro-klein", "elektro-middel", "lampen", "tl-buizen"], "uitbetaling": [], "vrijToegankelijk": false, "gemeenteBeperking": ["Eemsdelta"], "openingstijden": null, "latitude": 53.334116, "longitude": 6.738773, "bronId": "SP00032791"}}, {"type": "Feature", "geometry": {"type": "Point", "coordinates": [6.6434723, 53.3468249]}, "properties": {"type": "inleverpunt", "locatieNaam": "D.I.O.", "straatNaam": "Grachtstraat", "straatNr": "17", "postcode": "9991 BA", "plaats": "Middelstum", "merk": "Stibat", "puntType": "inzamelbak", "materialen": ["batterijen"], "uitbetaling": [], "vrijToegankelijk": false, "gemeenteBeperking": null, "openingstijden": null, "latitude": 53.3468249, "longitude": 6.6434723, "bronId": "L030324"}}, {"type": "Feature", "geometry": {"type": "Point", "coordinates": [6.6445449, 53.3466228]}, "properties": {"type": "inleverpunt", "locatieNaam": "Hazekamp Tweewielers", "straatNaam": "Heerestraat", "straatNr": "6", "postcode": "9991 BG", "plaats": "MIDDELSTUM", "merk": "Stibat", "puntType": "inzamelbak", "materialen": ["batterijen"], "uitbetaling": [], "vrijToegankelijk": false, "gemeenteBeperking": null, "openingstijden": null, "latitude": 53.3466228, "longitude": 6.6445449, "bronId": "L034330"}}, {"type": "Feature", "geometry": {"type": "Point", "coordinates": [6.6443422, 53.3487084]}, "properties": {"type": "inleverpunt", "locatieNaam": "PLUS", "straatNaam": "Asingalaan", "straatNr": "6", "postcode": "9991 AJ", "plaats": "MIDDELSTUM", "merk": "Stibat", "puntType": "inzamelbak", "materialen": ["batterijen"], "uitbetaling": [], "vrijToegankelijk": false, "gemeenteBeperking": null, "openingstijden": null, "latitude": 53.3487084, "longitude": 6.6443422, "bronId": "L023216"}}, {"type": "Feature", "geometry": {"type": "Point", "coordinates": [6.709228, 53.3443565]}, "properties": {"type": "inleverpunt", "locatieNaam": "v.o.f. v.d. Molen - Fokken", "straatNaam": "Dorpsweg", "straatNr": "20", "postcode": "9922 PH", "plaats": "WESTEREMDEN", "merk": "Stibat", "puntType": "inzamelbak", "materialen": ["batterijen"], "uitbetaling": [], "vrijToegankelijk": false, "gemeenteBeperking": null, "openingstijden": null, "latitude": 53.3443565, "longitude": 6.709228, "bronId": "L036618"}}, {"type": "Feature", "geometry": {"type": "Point", "coordinates": [6.7454644, 53.3314184]}, "properties": {"type": "inleverpunt", "locatieNaam": "Hubo", "straatNaam": "Hogestraat", "straatNr": "18", "postcode": "9919 AM", "plaats": "LOPPERSUM", "merk": "Stibat", "puntType": "inzamelbak", "materialen": ["batterijen"], "uitbetaling": [], "vrijToegankelijk": false, "gemeenteBeperking": null, "openingstijden": null, "latitude": 53.3314184, "longitude": 6.7454644, "bronId": "L038215"}}, {"type": "Feature", "geometry": {"type": "Point", "coordinates": [6.7457835, 53.3314885]}, "properties": {"type": "inleverpunt", "locatieNaam": "The Read Shop", "straatNaam": "Hogestraat", "straatNr": "12", "postcode": "9919 AM", "plaats": "LOPPERSUM", "merk": "Stibat", "puntType": "inzamelbak", "materialen": ["batterijen"], "uitbetaling": [], "vrijToegankelijk": false, "gemeenteBeperking": null, "openingstijden": null, "latitude": 53.3314885, "longitude": 6.7457835, "bronId": "L045916"}}, {"type": "Feature", "geometry": {"type": "Point", "coordinates": [6.7463321, 53.332029]}, "properties": {"type": "inleverpunt", "locatieNaam": "Poiesz", "straatNaam": "Pastoriepad", "straatNr": "1", "postcode": "9919 AP", "plaats": "LOPPERSUM", "merk": "Stibat", "puntType": "inzamelbak", "materialen": ["batterijen"], "uitbetaling": [], "vrijToegankelijk": false, "gemeenteBeperking": null, "openingstijden": null, "latitude": 53.332029, "longitude": 6.7463321, "bronId": "L049380"}}, {"type": "Feature", "geometry": {"type": "Point", "coordinates": [6.7891398, 53.3141488]}, "properties": {"type": "inleverpunt", "locatieNaam": "STOKEBROOK EN ZN. V.O.F.", "straatNaam": "Stadsweg", "straatNr": "27", "postcode": "9917 PV", "plaats": "WIRDUM GN", "merk": "Stibat", "puntType": "inzamelbak", "materialen": ["batterijen"], "uitbetaling": [], "vrijToegankelijk": false, "gemeenteBeperking": null, "openingstijden": null, "latitude": 53.3141488, "longitude": 6.7891398, "bronId": "L034319"}}, {"type": "Feature", "geometry": {"type": "Point", "coordinates": [6.811795, 53.318124]}, "properties": {"type": "inleverpunt", "locatieNaam": "Camping Ekenstein", "straatNaam": "Alberdaweg", "straatNr": "58", "postcode": "9901 TA", "plaats": "APPINGEDAM", "merk": "Stibat", "puntType": "inzamelbak", "materialen": ["batterijen"], "uitbetaling": [], "vrijToegankelijk": false, "gemeenteBeperking": null, "openingstijden": null, "latitude": 53.318124, "longitude": 6.811795, "bronId": "L004354"}}, {"type": "Feature", "geometry": {"type": "Point", "coordinates": [6.9105049, 53.2851723]}, "properties": {"type": "inleverpunt", "locatieNaam": "Troefmarkt", "straatNaam": "Hoofdstraat", "straatNr": "36", "postcode": "9937 PE", "plaats": "MEEDHUIZEN", "merk": "Stibat", "puntType": "inzamelbak", "materialen": ["batterijen"], "uitbetaling": [], "vrijToegankelijk": false, "gemeenteBeperking": null, "openingstijden": null, "latitude": 53.2851723, "longitude": 6.9105049, "bronId": "L031678"}}, {"type": "Feature", "geometry": {"type": "Point", "coordinates": [6.8590607, 53.3182337]}, "properties": {"type": "inleverpunt", "locatieNaam": "6244 Etos", "straatNaam": "Overdiep", "straatNr": "1", "postcode": "9902 DB", "plaats": "APPINGEDAM", "merk": "Stibat", "puntType": "inzamelbak", "materialen": ["batterijen"], "uitbetaling": [], "vrijToegankelijk": false, "gemeenteBeperking": null, "openingstijden": null, "latitude": 53.3182337, "longitude": 6.8590607, "bronId": "L028046"}}, {"type": "Feature", "geometry": {"type": "Point", "coordinates": [6.8590607, 53.3182337]}, "properties": {"type": "inleverpunt", "locatieNaam": "8701 Albert Heijn (Retourette)", "straatNaam": "Overdiep", "straatNr": "1", "postcode": "9902 DB", "plaats": "Appingedam", "merk": "Stibat", "puntType": "inzamelbak", "materialen": ["batterijen"], "uitbetaling": [], "vrijToegankelijk": false, "gemeenteBeperking": null, "openingstijden": null, "latitude": 53.3182337, "longitude": 6.8590607, "bronId": "L007961"}}, {"type": "Feature", "geometry": {"type": "Point", "coordinates": [6.8648703, 53.3157268]}, "properties": {"type": "inleverpunt", "locatieNaam": "Jumbo", "straatNaam": "Harddraversplein", "straatNr": "1-5", "postcode": "9902 CX", "plaats": "APPINGEDAM", "merk": "Stibat", "puntType": "inzamelbak", "materialen": ["batterijen"], "uitbetaling": [], "vrijToegankelijk": false, "gemeenteBeperking": null, "openingstijden": null, "latitude": 53.3157268, "longitude": 6.8648703, "bronId": "L034591"}}, {"type": "Feature", "geometry": {"type": "Point", "coordinates": [6.8589412, 53.3189957]}, "properties": {"type": "inleverpunt", "locatieNaam": "Optie1", "straatNaam": "Overdiep", "straatNr": "22", "postcode": "9902 BX", "plaats": "APPINGEDAM", "merk": "Stibat", "puntType": "inzamelbak", "materialen": ["batterijen"], "uitbetaling": [], "vrijToegankelijk": false, "gemeenteBeperking": null, "openingstijden": null, "latitude": 53.3189957, "longitude": 6.8589412, "bronId": "L041884"}}, {"type": "Feature", "geometry": {"type": "Point", "coordinates": [6.8602915, 53.319022]}, "properties": {"type": "inleverpunt", "locatieNaam": "CIGO", "straatNaam": "Overdiep", "straatNr": "4", "postcode": "9902 BX", "plaats": "APPINGEDAM", "merk": "Stibat", "puntType": "inzamelbak", "materialen": ["batterijen"], "uitbetaling": [], "vrijToegankelijk": false, "gemeenteBeperking": null, "openingstijden": null, "latitude": 53.319022, "longitude": 6.8602915, "bronId": "L038861"}}, {"type": "Feature", "geometry": {"type": "Point", "coordinates": [6.8602299, 53.3192634]}, "properties": {"type": "inleverpunt", "locatieNaam": "Aldi", "straatNaam": "Overdiep", "straatNr": "2", "postcode": "9902 BX", "plaats": "Appingedam", "merk": "Stibat", "puntType": "inzamelbak", "materialen": ["batterijen"], "uitbetaling": [], "vrijToegankelijk": false, "gemeenteBeperking": null, "openingstijden": null, "latitude": 53.3192634, "longitude": 6.8602299, "bronId": "L041612"}}, {"type": "Feature", "geometry": {"type": "Point", "coordinates": [6.8574729, 53.3206293]}, "properties": {"type": "inleverpunt", "locatieNaam": "The Read Shop", "straatNaam": "Dijkstraat", "straatNr": "28", "postcode": "9901 AS", "plaats": "APPINGEDAM", "merk": "Stibat", "puntType": "inzamelbak", "materialen": ["batterijen"], "uitbetaling": [], "vrijToegankelijk": false, "gemeenteBeperking": null, "openingstijden": null, "latitude": 53.3206293, "longitude": 6.8574729, "bronId": "L022033"}}, {"type": "Feature", "geometry": {"type": "Point", "coordinates": [6.8581654, 53.3206927]}, "properties": {"type": "inleverpunt", "locatieNaam": "Kruidvat", "straatNaam": "Dijkstraat", "straatNr": "38", "postcode": "9901 AT", "plaats": "APPINGEDAM", "merk": "Stibat", "puntType": "inzamelbak", "materialen": ["batterijen"], "uitbetaling": [], "vrijToegankelijk": false, "gemeenteBeperking": null, "openingstijden": null, "latitude": 53.3206927, "longitude": 6.8581654, "bronId": "L017751"}}, {"type": "Feature", "geometry": {"type": "Point", "coordinates": [6.858452, 53.3207342]}, "properties": {"type": "inleverpunt", "locatieNaam": "Marskramer", "straatNaam": "Dijkstraat", "straatNr": "42", "postcode": "9901 AT", "plaats": "Appingedam", "merk": "Stibat", "puntType": "inzamelbak", "materialen": ["batterijen"], "uitbetaling": [], "vrijToegankelijk": false, "gemeenteBeperking": null, "openingstijden": null, "latitude": 53.3207342, "longitude": 6.858452, "bronId": "L017296"}}, {"type": "Feature", "geometry": {"type": "Point", "coordinates": [6.858743, 53.3208004]}, "properties": {"type": "inleverpunt", "locatieNaam": "HEMA Appingedam", "straatNaam": "Dijkstraat", "straatNr": "44", "postcode": "9901 AT", "plaats": "Appingedam", "merk": "Stibat", "puntType": "inzamelbak", "materialen": ["batterijen"], "uitbetaling": [], "vrijToegankelijk": false, "gemeenteBeperking": null, "openingstijden": null, "latitude": 53.3208004, "longitude": 6.858743, "bronId": "L047017"}}, {"type": "Feature", "geometry": {"type": "Point", "coordinates": [6.8600286, 53.3210948]}, "properties": {"type": "inleverpunt", "locatieNaam": "Primera", "straatNaam": "Dijkstraat", "straatNr": "71", "postcode": "9901 AP", "plaats": "APPINGEDAM", "merk": "Stibat", "puntType": "inzamelbak", "materialen": ["batterijen"], "uitbetaling": [], "vrijToegankelijk": false, "gemeenteBeperking": null, "openingstijden": null, "latitude": 53.3210948, "longitude": 6.8600286, "bronId": "L024583"}}, {"type": "Feature", "geometry": {"type": "Point", "coordinates": [6.8592894, 53.3215237]}, "properties": {"type": "inleverpunt", "locatieNaam": "Foto Video De Vries", "straatNaam": "Solwerderstraat", "straatNr": "51", "postcode": "9901 BB", "plaats": "APPINGEDAM", "merk": "Stibat", "puntType": "inzamelbak", "materialen": ["batterijen"], "uitbetaling": [], "vrijToegankelijk": false, "gemeenteBeperking": null, "openingstijden": null, "latitude": 53.3215237, "longitude": 6.8592894, "bronId": "L010381"}}, {"type": "Feature", "geometry": {"type": "Point", "coordinates": [6.8616259, 53.3209094]}, "properties": {"type": "inleverpunt", "locatieNaam": "PLUS", "straatNaam": "Ossedrift", "straatNr": "1", "postcode": "9901 JH", "plaats": "APPINGEDAM", "merk": "Stibat", "puntType": "inzamelbak", "materialen": ["batterijen"], "uitbetaling": [], "vrijToegankelijk": false, "gemeenteBeperking": null, "openingstijden": null, "latitude": 53.3209094, "longitude": 6.8616259, "bronId": "L045530"}}, {"type": "Feature", "geometry": {"type": "Point", "coordinates": [6.8586795, 53.3226457]}, "properties": {"type": "inleverpunt", "locatieNaam": "1082 Action", "straatNaam": "Koningstraat", "straatNr": "32", "postcode": "9901 EE", "plaats": "APPINGEDAM", "merk": "Stibat", "puntType": "inzamelbak", "materialen": ["batterijen"], "uitbetaling": [], "vrijToegankelijk": false, "gemeenteBeperking": null, "openingstijden": null, "latitude": 53.3226457, "longitude": 6.8586795, "bronId": "L018160"}}, {"type": "Feature", "geometry": {"type": "Point", "coordinates": [6.8595711, 53.3225721]}, "properties": {"type": "inleverpunt", "locatieNaam": "OK-tronics", "straatNaam": "Stationsstraat", "straatNr": "26", "postcode": "9901 BM", "plaats": "APPINGEDAM", "merk": "Stibat", "puntType": "inzamelbak", "materialen": ["batterijen"], "uitbetaling": [], "vrijToegankelijk": false, "gemeenteBeperking": null, "openingstijden": null, "latitude": 53.3225721, "longitude": 6.8595711, "bronId": "L020818"}}, {"type": "Feature", "geometry": {"type": "Point", "coordinates": [6.8792959, 53.3172668]}, "properties": {"type": "inleverpunt", "locatieNaam": "GroenRijk", "straatNaam": "Farmsumerweg", "straatNr": "136", "postcode": "9902 BW", "plaats": "APPINGEDAM", "merk": "Stibat", "puntType": "inzamelbak", "materialen": ["batterijen"], "uitbetaling": [], "vrijToegankelijk": false, "gemeenteBeperking": null, "openingstijden": null, "latitude": 53.3172668, "longitude": 6.8792959, "bronId": "L032673"}}, {"type": "Feature", "geometry": {"type": "Point", "coordinates": [6.8782622, 53.318044]}, "properties": {"type": "inleverpunt", "locatieNaam": "Kwantum", "straatNaam": "Farmsumerweg", "straatNr": "132", "postcode": "9902 BW", "plaats": "APPINGEDAM", "merk": "Stibat", "puntType": "inzamelbak", "materialen": ["batterijen"], "uitbetaling": [], "vrijToegankelijk": false, "gemeenteBeperking": null, "openingstijden": null, "latitude": 53.318044, "longitude": 6.8782622, "bronId": "L017713"}}, {"type": "Feature", "geometry": {"type": "Point", "coordinates": [6.8785864, 53.3187366]}, "properties": {"type": "inleverpunt", "locatieNaam": "Gamma", "straatNaam": "Farmsumerweg", "straatNr": "130", "postcode": "9902 BW", "plaats": "APPINGEDAM", "merk": "Stibat", "puntType": "inzamelbak", "materialen": ["batterijen"], "uitbetaling": [], "vrijToegankelijk": false, "gemeenteBeperking": null, "openingstijden": null, "latitude": 53.3187366, "longitude": 6.8785864, "bronId": "L006088"}}, {"type": "Feature", "geometry": {"type": "Point", "coordinates": [6.878624, 53.3190003]}, "properties": {"type": "inleverpunt", "locatieNaam": "Leen Bakker", "straatNaam": "Farmsumerweg", "straatNr": "128", "postcode": "9902 BW", "plaats": "APPINGEDAM", "merk": "Stibat", "puntType": "inzamelbak", "materialen": ["batterijen"], "uitbetaling": [], "vrijToegankelijk": false, "gemeenteBeperking": null, "openingstijden": null, "latitude": 53.3190003, "longitude": 6.878624, "bronId": "L017850"}}, {"type": "Feature", "geometry": {"type": "Point", "coordinates": [6.8785748, 53.3191195]}, "properties": {"type": "inleverpunt", "locatieNaam": "Bike Totaal Lambeck", "straatNaam": "Farmsumerweg", "straatNr": "126", "postcode": "9902 BW", "plaats": "APPINGEDAM", "merk": "Stibat", "puntType": "inzamelbak", "materialen": ["batterijen"], "uitbetaling": [], "vrijToegankelijk": false, "gemeenteBeperking": null, "openingstijden": null, "latitude": 53.3191195, "longitude": 6.8785748, "bronId": "L017560"}}, {"type": "Feature", "geometry": {"type": "Point", "coordinates": [6.8773134, 53.3221784]}, "properties": {"type": "inleverpunt", "locatieNaam": "Innameloods Appingedam", "straatNaam": "Energieweg", "straatNr": "7", "postcode": "9902 RL", "plaats": "APPINGEDAM", "merk": "Stibat", "puntType": "inzamelbak", "materialen": ["batterijen"], "uitbetaling": [], "vrijToegankelijk": false, "gemeenteBeperking": null, "openingstijden": null, "latitude": 53.3221784, "longitude": 6.8773134, "bronId": "L035925"}}, {"type": "Feature", "geometry": {"type": "Point", "coordinates": [6.97494, 53.2867015]}, "properties": {"type": "inleverpunt", "locatieNaam": "Afvalverwerkingsstation Kloosterlaan", "straatNaam": "Warvenweg", "straatNr": "15", "postcode": "9936 TG", "plaats": "FARMSUM", "merk": "Stibat", "puntType": "inzamelbak", "materialen": ["batterijen"], "uitbetaling": [], "vrijToegankelijk": false, "gemeenteBeperking": null, "openingstijden": null, "latitude": 53.2867015, "longitude": 6.97494, "bronId": "L035926"}}, {"type": "Feature", "geometry": {"type": "Point", "coordinates": [6.920746, 53.3205666]}, "properties": {"type": "inleverpunt", "locatieNaam": "Karwei", "straatNaam": "Borgweg", "straatNr": "161a", "postcode": "9936 EP", "plaats": "FARMSUM", "merk": "Stibat", "puntType": "inzamelbak", "materialen": ["batterijen"], "uitbetaling": [], "vrijToegankelijk": false, "gemeenteBeperking": null, "openingstijden": null, "latitude": 53.3205666, "longitude": 6.920746, "bronId": "L005784"}}, {"type": "Feature", "geometry": {"type": "Point", "coordinates": [6.9142149, 53.3273516]}, "properties": {"type": "inleverpunt", "locatieNaam": "Jumbo", "straatNaam": "Jachtlaan", "straatNr": "4-10", "postcode": "9934 JB", "plaats": "DELFZIJL", "merk": "Stibat", "puntType": "inzamelbak", "materialen": ["batterijen"], "uitbetaling": [], "vrijToegankelijk": false, "gemeenteBeperking": null, "openingstijden": null, "latitude": 53.3273516, "longitude": 6.9142149, "bronId": "L034963"}}, {"type": "Feature", "geometry": {"type": "Point", "coordinates": [6.9288726, 53.3230047]}, "properties": {"type": "inleverpunt", "locatieNaam": "DTC Computershop B.V.", "straatNaam": "Koestraat", "straatNr": "58", "postcode": "9936 CG", "plaats": "FARMSUM", "merk": "Stibat", "puntType": "inzamelbak", "materialen": ["batterijen"], "uitbetaling": [], "vrijToegankelijk": false, "gemeenteBeperking": null, "openingstijden": null, "latitude": 53.3230047, "longitude": 6.9288726, "bronId": "L029756"}}, {"type": "Feature", "geometry": {"type": "Point", "coordinates": [7.0291781, 53.273996]}, "properties": {"type": "inleverpunt", "locatieNaam": "Dorpswinkel", "straatNaam": "A E Gorterweg", "straatNr": "28", "postcode": "9946 PC", "plaats": "WOLDENDORP", "merk": "Stibat", "puntType": "inzamelbak", "materialen": ["batterijen"], "uitbetaling": [], "vrijToegankelijk": false, "gemeenteBeperking": null, "openingstijden": null, "latitude": 53.273996, "longitude": 7.0291781, "bronId": "L049515"}}, {"type": "Feature", "geometry": {"type": "Point", "coordinates": [6.9109035, 53.33569]}, "properties": {"type": "inleverpunt", "locatieNaam": "7926 Etos", "straatNaam": "De Wending", "straatNr": "9", "postcode": "9933 KM", "plaats": "DELFZIJL", "merk": "Stibat", "puntType": "inzamelbak", "materialen": ["batterijen"], "uitbetaling": [], "vrijToegankelijk": false, "gemeenteBeperking": null, "openingstijden": null, "latitude": 53.33569, "longitude": 6.9109035, "bronId": "L029956"}}, {"type": "Feature", "geometry": {"type": "Point", "coordinates": [6.9109035, 53.33569]}, "properties": {"type": "inleverpunt", "locatieNaam": "Primera", "straatNaam": "De Wending", "straatNr": "19", "postcode": "9933 KM", "plaats": "DELFZIJL", "merk": "Stibat", "puntType": "inzamelbak", "materialen": ["batterijen"], "uitbetaling": [], "vrijToegankelijk": false, "gemeenteBeperking": null, "openingstijden": null, "latitude": 53.33569, "longitude": 6.9109035, "bronId": "L022701"}}, {"type": "Feature", "geometry": {"type": "Point", "coordinates": [6.9109035, 53.33569]}, "properties": {"type": "inleverpunt", "locatieNaam": "Jumbo", "straatNaam": "De Wending", "straatNr": "11", "postcode": "9933 KM", "plaats": "DELFZIJL", "merk": "Stibat", "puntType": "inzamelbak", "materialen": ["batterijen"], "uitbetaling": [], "vrijToegankelijk": false, "gemeenteBeperking": null, "openingstijden": null, "latitude": 53.33569, "longitude": 6.9109035, "bronId": "L028590"}}, {"type": "Feature", "geometry": {"type": "Point", "coordinates": [6.9111548, 53.3361059]}, "properties": {"type": "inleverpunt", "locatieNaam": "Aldi", "straatNaam": "De Wending", "straatNr": "16", "postcode": "9933 KN", "plaats": "DELFZIJL", "merk": "Stibat", "puntType": "inzamelbak", "materialen": ["batterijen"], "uitbetaling": [], "vrijToegankelijk": false, "gemeenteBeperking": null, "openingstijden": null, "latitude": 53.3361059, "longitude": 6.9111548, "bronId": "L041613"}}, {"type": "Feature", "geometry": {"type": "Point", "coordinates": [6.927369, 53.330113]}, "properties": {"type": "inleverpunt", "locatieNaam": "Kantoor en Kopie", "straatNaam": "Oude Schans", "straatNr": "14", "postcode": "9934 CR", "plaats": "DELFZIJL", "merk": "Stibat", "puntType": "inzamelbak", "materialen": ["batterijen"], "uitbetaling": [], "vrijToegankelijk": false, "gemeenteBeperking": null, "openingstijden": null, "latitude": 53.330113, "longitude": 6.927369, "bronId": "L049395"}}, {"type": "Feature", "geometry": {"type": "Point", "coordinates": [6.9257753, 53.3316222]}, "properties": {"type": "inleverpunt", "locatieNaam": "HEMA Landstraat", "straatNaam": "Landstraat", "straatNr": "40", "postcode": "9934 BM", "plaats": "DELFZIJL", "merk": "Stibat", "puntType": "inzamelbak", "materialen": ["batterijen"], "uitbetaling": [], "vrijToegankelijk": false, "gemeenteBeperking": null, "openingstijden": null, "latitude": 53.3316222, "longitude": 6.9257753, "bronId": "L007700"}}, {"type": "Feature", "geometry": {"type": "Point", "coordinates": [6.9267855, 53.3312374]}, "properties": {"type": "inleverpunt", "locatieNaam": "Witgoed specialist", "straatNaam": "Schoolstraat", "straatNr": "3-5", "postcode": "9934 CD", "plaats": "DELFZIJL", "merk": "Stibat", "puntType": "inzamelbak", "materialen": ["batterijen"], "uitbetaling": [], "vrijToegankelijk": false, "gemeenteBeperking": null, "openingstijden": null, "latitude": 53.3312374, "longitude": 6.9267855, "bronId": "L015832"}}, {"type": "Feature", "geometry": {"type": "Point", "coordinates": [6.9252365, 53.332114]}, "properties": {"type": "inleverpunt", "locatieNaam": "Wibra", "straatNaam": "Landstraat", "straatNr": "62", "postcode": "9934 BP", "plaats": "Delfzijl", "merk": "Stibat", "puntType": "inzamelbak", "materialen": ["batterijen"], "uitbetaling": [], "vrijToegankelijk": false, "gemeenteBeperking": null, "openingstijden": null, "latitude": 53.332114, "longitude": 6.9252365, "bronId": "L022153"}}, {"type": "Feature", "geometry": {"type": "Point", "coordinates": [6.9256642, 53.3319625]}, "properties": {"type": "inleverpunt", "locatieNaam": "Phone House", "straatNaam": "Landstraat", "straatNr": "50", "postcode": "9934 BN", "plaats": "Delfzijl", "merk": "Stibat", "puntType": "inzamelbak", "materialen": ["batterijen"], "uitbetaling": [], "vrijToegankelijk": false, "gemeenteBeperking": null, "openingstijden": null, "latitude": 53.3319625, "longitude": 6.9256642, "bronId": "L023754"}}, {"type": "Feature", "geometry": {"type": "Point", "coordinates": [6.924775, 53.332411]}, "properties": {"type": "inleverpunt", "locatieNaam": "Zeeman", "straatNaam": "Landstraat", "straatNr": "70", "postcode": "9934 BP", "plaats": "Delfzijl", "merk": "Stibat", "puntType": "inzamelbak", "materialen": ["batterijen"], "uitbetaling": [], "vrijToegankelijk": false, "gemeenteBeperking": null, "openingstijden": null, "latitude": 53.332411, "longitude": 6.924775, "bronId": "L020812"}}, {"type": "Feature", "geometry": {"type": "Point", "coordinates": [6.9265305, 53.3315569]}, "properties": {"type": "inleverpunt", "locatieNaam": "Telecombinatie Delfzijl", "straatNaam": "Landstraat", "straatNr": "28", "postcode": "9934 BM", "plaats": "DELFZIJL", "merk": "Stibat", "puntType": "inzamelbak", "materialen": ["batterijen"], "uitbetaling": [], "vrijToegankelijk": false, "gemeenteBeperking": null, "openingstijden": null, "latitude": 53.3315569, "longitude": 6.9265305, "bronId": "L040134"}}, {"type": "Feature", "geometry": {"type": "Point", "coordinates": [6.9243702, 53.3326231]}, "properties": {"type": "inleverpunt", "locatieNaam": "Schoonenberg Hoorcomfort", "straatNaam": "Landstraat", "straatNr": "80", "postcode": "9934 BP", "plaats": "DELFZIJL", "merk": "Stibat", "puntType": "inzamelbak", "materialen": ["batterijen"], "uitbetaling": [], "vrijToegankelijk": false, "gemeenteBeperking": null, "openingstijden": null, "latitude": 53.3326231, "longitude": 6.9243702, "bronId": "L021485"}}, {"type": "Feature", "geometry": {"type": "Point", "coordinates": [6.9264096, 53.3316275]}, "properties": {"type": "inleverpunt", "locatieNaam": "Specsavers", "straatNaam": "Landstraat", "straatNr": "32", "postcode": "9934 BM", "plaats": "Delfzijl", "merk": "Stibat", "puntType": "inzamelbak", "materialen": ["batterijen"], "uitbetaling": [], "vrijToegankelijk": false, "gemeenteBeperking": null, "openingstijden": null, "latitude": 53.3316275, "longitude": 6.9264096, "bronId": "L045028"}}, {"type": "Feature", "geometry": {"type": "Point", "coordinates": [6.9267534, 53.3317239]}, "properties": {"type": "inleverpunt", "locatieNaam": "Rijw.spec.zaak E.J. Noordhoff vof", "straatNaam": "Landstraat", "straatNr": "33", "postcode": "9934 BH", "plaats": "DELFZIJL", "merk": "Stibat", "puntType": "inzamelbak", "materialen": ["batterijen"], "uitbetaling": [], "vrijToegankelijk": false, "gemeenteBeperking": null, "openingstijden": null, "latitude": 53.3317239, "longitude": 6.9267534, "bronId": "L034323"}}, {"type": "Feature", "geometry": {"type": "Point", "coordinates": [6.9266694, 53.3317691]}, "properties": {"type": "inleverpunt", "locatieNaam": "Trekpleister", "straatNaam": "Landstraat", "straatNr": "35", "postcode": "9934 BH", "plaats": "DELFZIJL", "merk": "Stibat", "puntType": "inzamelbak", "materialen": ["batterijen"], "uitbetaling": [], "vrijToegankelijk": false, "gemeenteBeperking": null, "openingstijden": null, "latitude": 53.3317691, "longitude": 6.9266694, "bronId": "L018677"}}, {"type": "Feature", "geometry": {"type": "Point", "coordinates": [6.92588, 53.332209]}, "properties": {"type": "inleverpunt", "locatieNaam": "Hans Anders", "straatNaam": "Landstraat", "straatNr": "49", "postcode": "9934 BJ", "plaats": "DELFZIJL", "merk": "Stibat", "puntType": "inzamelbak", "materialen": ["batterijen"], "uitbetaling": [], "vrijToegankelijk": false, "gemeenteBeperking": null, "openingstijden": null, "latitude": 53.332209, "longitude": 6.92588, "bronId": "L037774"}}, {"type": "Feature", "geometry": {"type": "Point", "coordinates": [6.9263125, 53.3323201]}, "properties": {"type": "inleverpunt", "locatieNaam": "1037 Action", "straatNaam": "Oranjestraat", "straatNr": "7-9", "postcode": "9934 AV", "plaats": "DELFZIJL", "merk": "Stibat", "puntType": "inzamelbak", "materialen": ["batterijen"], "uitbetaling": [], "vrijToegankelijk": false, "gemeenteBeperking": null, "openingstijden": null, "latitude": 53.3323201, "longitude": 6.9263125, "bronId": "L016821"}}, {"type": "Feature", "geometry": {"type": "Point", "coordinates": [6.9275987, 53.3317302]}, "properties": {"type": "inleverpunt", "locatieNaam": "The Read Shop", "straatNaam": "Poststraat", "straatNr": "4", "postcode": "9934 BE", "plaats": "DELFZIJL", "merk": "Stibat", "puntType": "inzamelbak", "materialen": ["batterijen"], "uitbetaling": [], "vrijToegankelijk": false, "gemeenteBeperking": null, "openingstijden": null, "latitude": 53.3317302, "longitude": 6.9275987, "bronId": "L023662"}}, {"type": "Feature", "geometry": {"type": "Point", "coordinates": [6.9261124, 53.3324811]}, "properties": {"type": "inleverpunt", "locatieNaam": "EP: OJE Electronics", "straatNaam": "Waterstraat", "straatNr": "64", "postcode": "9934 AX", "plaats": "DELFZIJL", "merk": "Stibat", "puntType": "inzamelbak", "materialen": ["batterijen"], "uitbetaling": [], "vrijToegankelijk": false, "gemeenteBeperking": null, "openingstijden": null, "latitude": 53.3324811, "longitude": 6.9261124, "bronId": "L043295"}}, {"type": "Feature", "geometry": {"type": "Point", "coordinates": [6.927367, 53.3319669]}, "properties": {"type": "inleverpunt", "locatieNaam": "Expert", "straatNaam": "Waterstraat", "straatNr": "42", "postcode": "9934 AW", "plaats": "DELFZIJL", "merk": "Stibat", "puntType": "inzamelbak", "materialen": ["batterijen"], "uitbetaling": [], "vrijToegankelijk": false, "gemeenteBeperking": null, "openingstijden": null, "latitude": 53.3319669, "longitude": 6.927367, "bronId": "L009578"}}, {"type": "Feature", "geometry": {"type": "Point", "coordinates": [6.9278695, 53.3317447]}, "properties": {"type": "inleverpunt", "locatieNaam": "John Vos Fotografie", "straatNaam": "Waterstraat", "straatNr": "30", "postcode": "9934 AV", "plaats": "DELFZIJL", "merk": "Stibat", "puntType": "inzamelbak", "materialen": ["batterijen"], "uitbetaling": [], "vrijToegankelijk": false, "gemeenteBeperking": null, "openingstijden": null, "latitude": 53.3317447, "longitude": 6.9278695, "bronId": "L021429"}}, {"type": "Feature", "geometry": {"type": "Point", "coordinates": [6.926394, 53.3326705]}, "properties": {"type": "inleverpunt", "locatieNaam": "DA", "straatNaam": "Oranjestraat", "straatNr": "9", "postcode": "9934 BB", "plaats": "Delfzijl", "merk": "Stibat", "puntType": "inzamelbak", "materialen": ["batterijen"], "uitbetaling": [], "vrijToegankelijk": false, "gemeenteBeperking": null, "openingstijden": null, "latitude": 53.3326705, "longitude": 6.926394, "bronId": "L025559"}}, {"type": "Feature", "geometry": {"type": "Point", "coordinates": [6.926394, 53.3326705]}, "properties": {"type": "inleverpunt", "locatieNaam": "Auditiek Lammers", "straatNaam": "Waterstraat", "straatNr": "139", "postcode": "9934 AT", "plaats": "DELFZIJL", "merk": "Stibat", "puntType": "inzamelbak", "materialen": ["batterijen"], "uitbetaling": [], "vrijToegankelijk": false, "gemeenteBeperking": null, "openingstijden": null, "latitude": 53.3326705, "longitude": 6.926394, "bronId": "L026039"}}, {"type": "Feature", "geometry": {"type": "Point", "coordinates": [6.9270067, 53.3324636]}, "properties": {"type": "inleverpunt", "locatieNaam": "Ditisgoedkoop Telecom", "straatNaam": "Waterstraat", "straatNr": "65", "postcode": "9934 AT", "plaats": "DELFZIJL", "merk": "Stibat", "puntType": "inzamelbak", "materialen": ["batterijen"], "uitbetaling": [], "vrijToegankelijk": false, "gemeenteBeperking": null, "openingstijden": null, "latitude": 53.3324636, "longitude": 6.9270067, "bronId": "L034844"}}, {"type": "Feature", "geometry": {"type": "Point", "coordinates": [6.9283537, 53.3322613]}, "properties": {"type": "inleverpunt", "locatieNaam": "Lidl", "straatNaam": "Willemstraat", "straatNr": "32", "postcode": "9934 BC", "plaats": "DELFZIJL", "merk": "Stibat", "puntType": "inzamelbak", "materialen": ["batterijen"], "uitbetaling": [], "vrijToegankelijk": false, "gemeenteBeperking": null, "openingstijden": null, "latitude": 53.3322613, "longitude": 6.9283537, "bronId": "L047506"}}, {"type": "Feature", "geometry": {"type": "Point", "coordinates": [6.9286958, 53.3323255]}, "properties": {"type": "inleverpunt", "locatieNaam": "Kruidvat", "straatNaam": "Willemstraat", "straatNr": "28", "postcode": "9934 BC", "plaats": "DELFZIJL", "merk": "Stibat", "puntType": "inzamelbak", "materialen": ["batterijen"], "uitbetaling": [], "vrijToegankelijk": false, "gemeenteBeperking": null, "openingstijden": null, "latitude": 53.3323255, "longitude": 6.9286958, "bronId": "L016440"}}, {"type": "Feature", "geometry": {"type": "Point", "coordinates": [6.9286375, 53.3326516]}, "properties": {"type": "inleverpunt", "locatieNaam": "1280 Albert Heijn", "straatNaam": "Willemstraat", "straatNr": "26", "postcode": "9934 BC", "plaats": "DELFZIJL", "merk": "Stibat", "puntType": "inzamelbak", "materialen": ["batterijen"], "uitbetaling": [], "vrijToegankelijk": false, "gemeenteBeperking": null, "openingstijden": null, "latitude": 53.3326516, "longitude": 6.9286375, "bronId": "L006823"}}, {"type": "Feature", "geometry": {"type": "Point", "coordinates": [6.8399766, 53.3901359]}, "properties": {"type": "inleverpunt", "locatieNaam": "Plus", "straatNaam": "Alberdaweg", "straatNr": "9", "postcode": "9909 AJ", "plaats": "SPIJK GN", "merk": "Stibat", "puntType": "inzamelbak", "materialen": ["batterijen"], "uitbetaling": [], "vrijToegankelijk": false, "gemeenteBeperking": null, "openingstijden": null, "latitude": 53.3901359, "longitude": 6.8399766, "bronId": "L047091"}}, {"type": "Feature", "geometry": {"type": "Polygon", "coordinates": [[[6.9284370032618785, 53.23695200455829], [6.937603003270783, 53.24424900456143], [6.942506003275511, 53.242043004560074], [6.944990003277926, 53.24361500456073], [6.945606003278524, 53.244755004561256], [6.945920003278848, 53.24870500456322], [6.952231003284983, 53.256499004566756], [6.960014003292512, 53.258065004567136], [6.968450003300677, 53.260209004567756], [6.968728003300943, 53.260056004567645], [6.994786003326148, 53.26680600456961], [6.9970120033282965, 53.267129004569675], [7.0132290033439615, 53.26684000456859], [7.012605003343344, 53.260638004565536], [7.01329600334401, 53.26070200456556], [7.021847003352248, 53.25323700456131], [7.023348003353699, 53.25415600456169], [7.02822500335841, 53.2550490045619], [7.031598003361671, 53.25613200456226], [7.03459600336457, 53.258423004563234], [7.0341970033641905, 53.25884000456348], [7.034969003364935, 53.259163004563575], [7.037209003367099, 53.2596820045637], [7.038719003368554, 53.2586300045631], [7.040307003370093, 53.25983700456361], [7.04167400337141, 53.259266004563244], [7.048178003377677, 53.254570004560556], [7.057421003386586, 53.247340004556435], [7.059441003388539, 53.24822800455676], [7.067522003396331, 53.242378004553416], [7.079431003407832, 53.24817700455558], [7.076633003405135, 53.24969900455655], [7.084371003412613, 53.254628004558555], [7.113461003440677, 53.26288000456099], [7.134860003461306, 53.27969200456809], [7.134268003460731, 53.287822004572156], [7.100442003428146, 53.30997700458508], [7.101249003428928, 53.330258004595], [7.061737003390862, 53.3240410045942], [7.0192430033499, 53.32431800459672], [7.005912003337046, 53.326540004598506], [6.9953580033268805, 53.33181800460171], [6.993414003325015, 53.336261004604], [6.9945250033261095, 53.343205004607306], [6.993692003325316, 53.34876000461007], [6.9692510033018245, 53.37681200462507], [6.959530003292482, 53.385978004630076], [6.952031003285275, 53.394032004634404], [6.942866003276508, 53.415141004645044], [6.9320340032661445, 53.438472004656894], [6.924257003258687, 53.449304004662515], [6.915925003250689, 53.45735800466679], [6.911786003246714, 53.45942800466798], [6.8909360032264315, 53.40782600464431], [6.873631003209743, 53.408041004645305], [6.873123003209253, 53.408305004645484], [6.8728590032089985, 53.40795600464533], [6.862476003199001, 53.411612004647644], [6.857002003193735, 53.41423400464917], [6.847414003184514, 53.41987500465238], [6.843718003180961, 53.422420004653794], [6.792455003131377, 53.403596004647355], [6.78798000312708, 53.40792700464964], [6.784240003123466, 53.40733900464956], [6.783757003123004, 53.40769700464974], [6.784089003123332, 53.409191004650474], [6.782486003121792, 53.410452004651155], [6.780478003119858, 53.41084800465144], [6.778614003118055, 53.41078800465147], [6.770428003110101, 53.403634004648445], [6.765327003105157, 53.401442004647656], [6.754130003094311, 53.39779200464644], [6.7486880030890335, 53.39523400464545], [6.729684003070546, 53.38109600463949], [6.723881003064906, 53.37772800463815], [6.713632003054949, 53.37254300463612], [6.7110130030524, 53.37069400463534], [6.708562003050017, 53.36946300463489], [6.708778003050222, 53.36911600463467], [6.708077003049547, 53.369237004634776], [6.70629700304781, 53.367961004634225], [6.704588003046156, 53.367665004634205], [6.702068003043706, 53.36667800463379], [6.700775003042449, 53.365910004633506], [6.69879900304052, 53.36386500463259], [6.697033003038802, 53.36290300463224], [6.691647003033612, 53.36555000463377], [6.689649003031675, 53.36543100463377], [6.684385003026594, 53.36696700463478], [6.682677003024939, 53.366709004634785], [6.6816080030238965, 53.36588000463439], [6.681030003023336, 53.36582100463436], [6.6788010030211895, 53.36708000463513], [6.676343003018808, 53.36706000463523], [6.675102003017604, 53.36644500463499], [6.674749003017256, 53.36561600463463], [6.670678003013307, 53.36496300463446], [6.668398003011104, 53.365410004634775], [6.665175003007996, 53.3669190046357], [6.664214003007068, 53.36699500463575], [6.662218003005128, 53.3662440046355], [6.6610730030040175, 53.366281004635574], [6.659130003002133, 53.36566300463535], [6.658632003001656, 53.36612300463558], [6.656736002999825, 53.36637900463579], [6.656586002999664, 53.36547800463536], [6.65581300299892, 53.36553100463542], [6.655193002998323, 53.366025004635716], [6.653445002996619, 53.36485400463521], [6.65191200299513, 53.364527004635136], [6.647381002990743, 53.36457900463536], [6.646672002990057, 53.36477200463546], [6.6451300029885845, 53.366430004636356], [6.644446002987921, 53.366353004636366], [6.642731002986256, 53.365991004636285], [6.6419570029854995, 53.36542100463605], [6.642392002985905, 53.363800004635216], [6.641951002985472, 53.363546004635104], [6.6396270029832145, 53.36298900463495], [6.635613002979326, 53.36282600463506], [6.636861002980511, 53.36050100463385], [6.635954002979631, 53.36032000463382], [6.634614002978359, 53.36271700463508], [6.630397002974273, 53.36259700463521], [6.629195002973103, 53.36222800463507], [6.627212002971169, 53.36091600463451], [6.625808002969808, 53.360986004634626], [6.625626002969612, 53.359261004633765], [6.627187002971087, 53.35554800463189], [6.626982002970869, 53.35374400463102], [6.627855002971706, 53.35295200463057], [6.627705002971551, 53.352241004630244], [6.626165002970055, 53.35157300463], [6.625892002969781, 53.35070800462955], [6.623102002967077, 53.351008004629854], [6.622215002966207, 53.3500160046294], [6.618826002962923, 53.350036004629565], [6.617481002961607, 53.34879700462904], [6.615024002959228, 53.34923600462934], [6.606092002950568, 53.34892000462962], [6.605662002950154, 53.34924800462979], [6.606056002950544, 53.349793004630044], [6.605769002950269, 53.350117004630214], [6.603134002947713, 53.349922004630216], [6.595831002940601, 53.347141004629194], [6.601449002945969, 53.34042400462566], [6.604694002949123, 53.340805004625686], [6.605366002949733, 53.33751600462404], [6.592581002937319, 53.33614600462392], [6.592622002937356, 53.33571600462374], [6.594038002938725, 53.335322004623485], [6.597887002942461, 53.33566100462348], [6.6017110029460975, 53.32939900462024], [6.605319002949606, 53.33038700462049], [6.610194002954331, 53.33011500462019], [6.614335002958293, 53.32520300461756], [6.6130060029569835, 53.32321700461665], [6.619862002963534, 53.31442800461201], [6.63767500298081, 53.314638004611325], [6.642951002985855, 53.30789500460774], [6.646870002989668, 53.308882004608044], [6.65099600299367, 53.30918500460802], [6.655767002998284, 53.30811700460725], [6.655937002998451, 53.308330004607356], [6.660766003003118, 53.30669300460633], [6.66876700301086, 53.30525300460523], [6.6732460030151985, 53.30481400460478], [6.680420003022133, 53.30256600460335], [6.6868710030283465, 53.29851800460104], [6.689592003030973, 53.29744900460039], [6.705325003046321, 53.30750000460462], [6.706689003047639, 53.307109004604335], [6.709156003050055, 53.31001500460568], [6.712391003053186, 53.309442004605216], [6.714070003054807, 53.308684004604764], [6.7198580030604, 53.30735400460381], [6.7227640030632045, 53.30597400460304], [6.726495003066807, 53.30489000460226], [6.729396003069625, 53.30529200460236], [6.729556003069789, 53.306415004602904], [6.730566003070777, 53.30767100460345], [6.730360003070584, 53.30820300460373], [6.732142003072315, 53.30869500460393], [6.732202003072388, 53.310471004604764], [6.732901003073074, 53.311409004605196], [6.734075003074214, 53.31196300460541], [6.736135003076213, 53.31189800460528], [6.73784200307787, 53.312964004605725], [6.740828003080757, 53.31204100460516], [6.7426820030825425, 53.31102000460456], [6.742887003082743, 53.31133500460464], [6.7436770030835085, 53.311099004604536], [6.744124003083949, 53.31193300460491], [6.747051003086777, 53.31149000460458], [6.747331003087052, 53.311920004604765], [6.747948003087648, 53.31178100460467], [6.747515003087226, 53.311030004604326], [6.748820003088486, 53.31064800460407], [6.749351003088991, 53.30984300460362], [6.74479200308456, 53.30775400460283], [6.744910003084667, 53.30702000460246], [6.748048003087675, 53.302969004600286], [6.753081003092513, 53.298847004598024], [6.755539003094901, 53.29963400459828], [6.759820003099022, 53.29639100459649], [6.759467003098676, 53.29617700459637], [6.760684003099848, 53.29523600459586], [6.764621003103685, 53.29813400459708], [6.772365003111136, 53.291811004593605], [6.769794003108635, 53.290680004593135], [6.7723090031110456, 53.2877930045916], [6.769137003107967, 53.28662600459116], [6.772527003111222, 53.28308700458927], [6.814345003151825, 53.29759200459437], [6.816649003154038, 53.29518200459302], [6.818299003155641, 53.29601200459338], [6.825162003162292, 53.29762200459384], [6.828072003165064, 53.29109200459043], [6.838278003174937, 53.29034800458955], [6.84580600318222, 53.29012600458906], [6.84997400318628, 53.29493600459123], [6.851158003187441, 53.29703800459222], [6.851902003188158, 53.29668200459198], [6.85624300319236, 53.29678800459185], [6.860254003196236, 53.29632600459136], [6.860325003196295, 53.29499800459073], [6.860723003196681, 53.29498700459069], [6.87322200320878, 53.296494004590805], [6.873717003209253, 53.295653004590356], [6.874567003210076, 53.295611004590285], [6.8771020032125305, 53.29655700459064], [6.879513003214861, 53.296645004590545], [6.879609003214961, 53.29785000459113], [6.880652003215972, 53.29765200459105], [6.882313003217577, 53.29786900459104], [6.883707003218922, 53.297466004590746], [6.887170003222276, 53.298330004591], [6.890767003225713, 53.29053400458696], [6.889239003224231, 53.28982000458668], [6.891271003226181, 53.28692100458512], [6.893112003227966, 53.28779200458542], [6.895596003230359, 53.285918004584424], [6.887792003222791, 53.28193200458285], [6.887038003222059, 53.281308004582584], [6.886414003221447, 53.279919004581885], [6.88732800322233, 53.27992100458188], [6.887333003222329, 53.27917900458148], [6.899740003234332, 53.279461004580945], [6.907908003242231, 53.279353004580486], [6.908214003242525, 53.27870200458017], [6.909103003243383, 53.27897700458025], [6.907939003242206, 53.268570004575125], [6.910202003244395, 53.268445004574964], [6.909337003243533, 53.26355900457255], [6.912150003246255, 53.263485004572395], [6.911344003245416, 53.2519860045667], [6.9110390032451186, 53.251994004566676], [6.909256003243352, 53.24351800456257], [6.9138790032478195, 53.242734004561946], [6.91614800325002, 53.24361800456225], [6.921721003255395, 53.23918000455975], [6.923372003256992, 53.23952800455984], [6.923283003256906, 53.239315004559714], [6.9284370032618785, 53.23695200455829]]]}, "properties": {"type": "boundary", "gemeente": "Eemsdelta"}}]}