{"type": "FeatureCollection", "metadata": {"gemeente": "Elburg", "slug": "elburg", "generated_at": "2026-07-28T19:03:25.026558Z", "total_points": 46, "merken": ["StatiegeldNederland", "Stibat", "StichtingOPEN"], "bounds": [5.8128205, 52.4092326, 5.8916284, 52.455834]}, "features": [{"type": "Feature", "geometry": {"type": "Point", "coordinates": [5.8823403, 52.4152221]}, "properties": {"type": "inleverpunt", "locatieNaam": "Albert Heijn", "straatNaam": "Sportlaan", "straatNr": "5", "postcode": "8084 VA", "plaats": "t Harde", "merk": "StatiegeldNederland", "puntType": "automaat", "materialen": ["pet-groot", "pet-klein", "blik", "glas", "krat"], "uitbetaling": ["bonnetje", "donatie"], "vrijToegankelijk": true, "gemeenteBeperking": null, "openingstijden": {"ma": "08:00–20:00", "di": "08:00–20:00", "wo": "08:00–20:00", "do": "08:00–21:00", "vr": "08:00–21:00", "za": "08:00–20:00", "zo": "Gesloten"}, "latitude": 52.4152221, "longitude": 5.8823403, "bronId": "252750"}}, {"type": "Feature", "geometry": {"type": "Point", "coordinates": [5.8463635, 52.4478365]}, "properties": {"type": "inleverpunt", "locatieNaam": "Aldi", "straatNaam": "Vrijheidsstraat", "straatNr": "18", "postcode": "8081 XD", "plaats": "Elburg", "merk": "StatiegeldNederland", "puntType": "automaat", "materialen": ["pet-groot", "pet-klein", "blik", "glas", "krat"], "uitbetaling": ["bonnetje"], "vrijToegankelijk": true, "gemeenteBeperking": null, "openingstijden": {"ma": "08:00–20:00", "di": "08:00–20:00", "wo": "08:00–20:00", "do": "08:00–20:00", "vr": "08:00–20:00", "za": "08:00–20:00", "zo": "Gesloten"}, "latitude": 52.4478365, "longitude": 5.8463635, "bronId": "253425"}}, {"type": "Feature", "geometry": {"type": "Point", "coordinates": [5.837842, 52.447553]}, "properties": {"type": "inleverpunt", "locatieNaam": "Jumbo", "straatNaam": "Zwolscheweg", "straatNr": "1", "postcode": "8081 CG", "plaats": "Elburg", "merk": "StatiegeldNederland", "puntType": "automaat", "materialen": ["pet-groot", "pet-klein", "blik", "glas", "krat"], "uitbetaling": ["bonnetje", "donatie"], "vrijToegankelijk": true, "gemeenteBeperking": null, "openingstijden": {"ma": "08:00–21:00", "di": "08:00–21:00", "wo": "08:00–21:00", "do": "08:00–21:00", "vr": "08:00–21:00", "za": "08:00–21:00", "zo": "Gesloten"}, "latitude": 52.447553, "longitude": 5.837842, "bronId": "255892"}}, {"type": "Feature", "geometry": {"type": "Point", "coordinates": [5.882342, 52.414896]}, "properties": {"type": "inleverpunt", "locatieNaam": "Medikamente die Grenze", "straatNaam": "Sportlaan", "straatNr": "1", "postcode": "8084 VB", "plaats": "T Harde", "merk": "StatiegeldNederland", "puntType": "automaat", "materialen": ["pet-groot", "pet-klein", "blik"], "uitbetaling": ["bonnetje"], "vrijToegankelijk": true, "gemeenteBeperking": null, "openingstijden": null, "latitude": 52.414896, "longitude": 5.882342, "bronId": "256741"}}, {"type": "Feature", "geometry": {"type": "Point", "coordinates": [5.8541839, 52.4516764]}, "properties": {"type": "inleverpunt", "locatieNaam": "Nettorama", "straatNaam": "‘t Vooronder", "straatNr": "14", "postcode": "8081 NK", "plaats": "Elburg", "merk": "StatiegeldNederland", "puntType": "automaat", "materialen": ["pet-groot", "pet-klein", "blik", "glas", "krat"], "uitbetaling": ["bonnetje"], "vrijToegankelijk": true, "gemeenteBeperking": null, "openingstijden": {"ma": "08:00–21:00", "di": "08:00–21:00", "wo": "08:00–21:00", "do": "08:00–21:00", "vr": "08:00–21:00", "za": "08:00–21:00", "zo": "Gesloten"}, "latitude": 52.4516764, "longitude": 5.8541839, "bronId": "256839"}}, {"type": "Feature", "geometry": {"type": "Point", "coordinates": [5.8834486, 52.4149631]}, "properties": {"type": "inleverpunt", "locatieNaam": "Nettorama", "straatNaam": "Centrumplein", "straatNr": "7", "postcode": "8084 AZ", "plaats": "‘t Harde", "merk": "StatiegeldNederland", "puntType": "automaat", "materialen": ["pet-groot", "pet-klein", "blik", "glas", "krat"], "uitbetaling": ["bonnetje"], "vrijToegankelijk": true, "gemeenteBeperking": null, "openingstijden": {"ma": "08:00–20:00", "di": "08:00–20:00", "wo": "08:00–20:00", "do": "08:00–21:00", "vr": "08:00–21:00", "za": "08:00–20:00", "zo": "Gesloten"}, "latitude": 52.4149631, "longitude": 5.8834486, "bronId": "256850"}}, {"type": "Feature", "geometry": {"type": "Point", "coordinates": [5.8528229, 52.4513506]}, "properties": {"type": "inleverpunt", "locatieNaam": "Plus", "straatNaam": "Klokbekerweg", "straatNr": "164", "postcode": "8085 JJ", "plaats": "Elburg", "merk": "StatiegeldNederland", "puntType": "automaat", "materialen": ["pet-groot", "pet-klein", "blik", "glas", "krat"], "uitbetaling": ["bonnetje", "donatie"], "vrijToegankelijk": true, "gemeenteBeperking": null, "openingstijden": {"ma": "08:00–21:00", "di": "08:00–21:00", "wo": "08:00–21:00", "do": "08:00–21:00", "vr": "08:00–21:00", "za": "08:00–21:00", "zo": "Gesloten"}, "latitude": 52.4513506, "longitude": 5.8528229, "bronId": "257387"}}, {"type": "Feature", "geometry": {"type": "Point", "coordinates": [5.8799711, 52.4199331]}, "properties": {"type": "inleverpunt", "locatieNaam": "Shell", "straatNaam": "Eperweg", "straatNr": "10A", "postcode": "8084 HG", "plaats": "T Harde", "merk": "StatiegeldNederland", "puntType": "balie", "materialen": ["pet-groot", "pet-klein", "blik"], "uitbetaling": [], "vrijToegankelijk": true, "gemeenteBeperking": null, "openingstijden": {"ma": "24 uur geopend", "di": "24 uur geopend", "wo": "24 uur geopend", "do": "24 uur geopend", "vr": "24 uur geopend", "za": "24 uur geopend", "zo": "24 uur geopend"}, "latitude": 52.4199331, "longitude": 5.8799711, "bronId": "258059"}}, {"type": "Feature", "geometry": {"type": "Point", "coordinates": [5.815939, 52.416591]}, "properties": {"type": "inleverpunt", "locatieNaam": "Kringloop De Vuurdoorn", "straatNaam": "Zuiderzeestraatweg West", "straatNr": "100", "postcode": "8085 AJ", "plaats": "Doornspijk", "merk": "StichtingOPEN", "puntType": "balie", "materialen": ["batterijen", "elektro-groot", "elektro-klein", "elektro-middel", "lampen", "tl-buizen"], "uitbetaling": [], "vrijToegankelijk": false, "gemeenteBeperking": null, "openingstijden": null, "latitude": 52.416591, "longitude": 5.815939, "bronId": "SP00041699"}}, {"type": "Feature", "geometry": {"type": "Point", "coordinates": [5.81943, 52.41842]}, "properties": {"type": "inleverpunt", "locatieNaam": "Spar Doornspijk", "straatNaam": "Oude Hogeweg", "straatNr": "2a", "postcode": "8085 PA", "plaats": "Doornspijk", "merk": "StichtingOPEN", "puntType": "balie", "materialen": ["batterijen", "lampen"], "uitbetaling": [], "vrijToegankelijk": false, "gemeenteBeperking": null, "openingstijden": null, "latitude": 52.41842, "longitude": 5.81943, "bronId": "SP00030021"}}, {"type": "Feature", "geometry": {"type": "Point", "coordinates": [5.883852, 52.415069]}, "properties": {"type": "inleverpunt", "locatieNaam": "Boni 't Harde", "straatNaam": "Centrumplein", "straatNr": "7", "postcode": "8084 AZ", "plaats": "'t Harde", "merk": "StichtingOPEN", "puntType": "balie", "materialen": ["batterijen", "lampen"], "uitbetaling": [], "vrijToegankelijk": false, "gemeenteBeperking": null, "openingstijden": null, "latitude": 52.415069, "longitude": 5.883852, "bronId": "SP00023728"}}, {"type": "Feature", "geometry": {"type": "Point", "coordinates": [5.83437, 52.44806]}, "properties": {"type": "inleverpunt", "locatieNaam": "Kruidvat Elburg", "straatNaam": "Jufferenstraat", "straatNr": "22", "postcode": "8081 CR", "plaats": "Elburg", "merk": "StichtingOPEN", "puntType": "balie", "materialen": ["batterijen", "lampen"], "uitbetaling": [], "vrijToegankelijk": false, "gemeenteBeperking": null, "openingstijden": null, "latitude": 52.44806, "longitude": 5.83437, "bronId": "SP00029554"}}, {"type": "Feature", "geometry": {"type": "Point", "coordinates": [5.837857, 52.44755]}, "properties": {"type": "inleverpunt", "locatieNaam": "Jumbo Elburg", "straatNaam": "Zwolscheweg", "straatNr": "1", "postcode": "8081 CG", "plaats": "Elburg", "merk": "StichtingOPEN", "puntType": "balie", "materialen": ["batterijen", "lampen"], "uitbetaling": [], "vrijToegankelijk": false, "gemeenteBeperking": null, "openingstijden": null, "latitude": 52.44755, "longitude": 5.837857, "bronId": "SP00025315"}}, {"type": "Feature", "geometry": {"type": "Point", "coordinates": [5.846363, 52.447836]}, "properties": {"type": "inleverpunt", "locatieNaam": "Aldi Elburg", "straatNaam": "Vrijheidsstraat", "straatNr": "18", "postcode": "8081 XD", "plaats": "Elburg", "merk": "StichtingOPEN", "puntType": "balie", "materialen": ["batterijen", "elektro-klein", "lampen"], "uitbetaling": [], "vrijToegankelijk": false, "gemeenteBeperking": null, "openingstijden": null, "latitude": 52.447836, "longitude": 5.846363, "bronId": "SP00027017"}}, {"type": "Feature", "geometry": {"type": "Point", "coordinates": [5.864195, 52.441814]}, "properties": {"type": "inleverpunt", "locatieNaam": "GAMMA (Elburg B079)", "straatNaam": "Westerlengte", "straatNr": "2", "postcode": "8081 PZ", "plaats": "Elburg", "merk": "StichtingOPEN", "puntType": "balie", "materialen": ["batterijen", "elektro-middel", "lampen", "tl-buizen"], "uitbetaling": [], "vrijToegankelijk": false, "gemeenteBeperking": null, "openingstijden": null, "latitude": 52.441814, "longitude": 5.864195, "bronId": "SP00002904"}}, {"type": "Feature", "geometry": {"type": "Point", "coordinates": [5.853654, 52.451233]}, "properties": {"type": "inleverpunt", "locatieNaam": "PLUS Elburg", "straatNaam": "Klokbekerweg", "straatNr": "164", "postcode": "8081 JJ", "plaats": "Elburg", "merk": "StichtingOPEN", "puntType": "balie", "materialen": ["batterijen", "lampen"], "uitbetaling": [], "vrijToegankelijk": false, "gemeenteBeperking": null, "openingstijden": null, "latitude": 52.451233, "longitude": 5.853654, "bronId": "SP00024093"}}, {"type": "Feature", "geometry": {"type": "Point", "coordinates": [5.854242, 52.45154]}, "properties": {"type": "inleverpunt", "locatieNaam": "Boni Elburg", "straatNaam": "Vooronder", "straatNr": "14", "postcode": "8081 NK", "plaats": "Elburg", "merk": "StichtingOPEN", "puntType": "balie", "materialen": ["batterijen", "lampen"], "uitbetaling": [], "vrijToegankelijk": false, "gemeenteBeperking": null, "openingstijden": null, "latitude": 52.45154, "longitude": 5.854242, "bronId": "SP00023757"}}, {"type": "Feature", "geometry": {"type": "Point", "coordinates": [5.855059, 52.451673]}, "properties": {"type": "inleverpunt", "locatieNaam": "EP Elburg", "straatNaam": "Vooronder", "straatNr": "1012", "postcode": "8081 NK", "plaats": "Elburg", "merk": "StichtingOPEN", "puntType": "balie", "materialen": ["elektro-klein", "elektro-middel"], "uitbetaling": [], "vrijToegankelijk": false, "gemeenteBeperking": null, "openingstijden": null, "latitude": 52.451673, "longitude": 5.855059, "bronId": "SP00028926"}}, {"type": "Feature", "geometry": {"type": "Point", "coordinates": [5.866638, 52.442427]}, "properties": {"type": "inleverpunt", "locatieNaam": "Milieustraat Elburg", "straatNaam": "Broeklandstraat", "straatNr": "1", "postcode": "8082 AD", "plaats": "Elburg", "merk": "StichtingOPEN", "puntType": "milieustraat", "materialen": ["batterijen", "elektro-groot", "elektro-klein", "elektro-middel", "lampen", "tl-buizen"], "uitbetaling": [], "vrijToegankelijk": false, "gemeenteBeperking": ["Elburg"], "openingstijden": null, "latitude": 52.442427, "longitude": 5.866638, "bronId": "SP00039114"}}, {"type": "Feature", "geometry": {"type": "Point", "coordinates": [5.8128205, 52.412702]}, "properties": {"type": "inleverpunt", "locatieNaam": "Uw Groene Vakwinkel", "straatNaam": "Zuiderzeestraatweg W", "straatNr": "105", "postcode": "8085 AC", "plaats": "Doornspijk", "merk": "Stibat", "puntType": "inzamelbak", "materialen": ["batterijen"], "uitbetaling": [], "vrijToegankelijk": false, "gemeenteBeperking": null, "openingstijden": null, "latitude": 52.412702, "longitude": 5.8128205, "bronId": "L021157"}}, {"type": "Feature", "geometry": {"type": "Point", "coordinates": [5.8194278, 52.4184225]}, "properties": {"type": "inleverpunt", "locatieNaam": "Spar", "straatNaam": "Oude Hogeweg", "straatNr": "2a", "postcode": "8085 PA", "plaats": "Doornspijk", "merk": "Stibat", "puntType": "inzamelbak", "materialen": ["batterijen"], "uitbetaling": [], "vrijToegankelijk": false, "gemeenteBeperking": null, "openingstijden": null, "latitude": 52.4184225, "longitude": 5.8194278, "bronId": "L022428"}}, {"type": "Feature", "geometry": {"type": "Point", "coordinates": [5.8776011, 52.4178469]}, "properties": {"type": "inleverpunt", "locatieNaam": "Dickhof Rijwielen", "straatNaam": "Herenveldweg", "straatNr": "18", "postcode": "8084 EL", "plaats": "'t Harde", "merk": "Stibat", "puntType": "inzamelbak", "materialen": ["batterijen"], "uitbetaling": [], "vrijToegankelijk": false, "gemeenteBeperking": null, "openingstijden": null, "latitude": 52.4178469, "longitude": 5.8776011, "bronId": "L036129"}}, {"type": "Feature", "geometry": {"type": "Point", "coordinates": [5.883322, 52.4141748]}, "properties": {"type": "inleverpunt", "locatieNaam": "Marsman Boek en Kantoor", "straatNaam": "Centrumplein", "straatNr": "1", "postcode": "8084 AZ", "plaats": "'t Harde", "merk": "Stibat", "puntType": "inzamelbak", "materialen": ["batterijen"], "uitbetaling": [], "vrijToegankelijk": false, "gemeenteBeperking": null, "openingstijden": null, "latitude": 52.4141748, "longitude": 5.883322, "bronId": "L047143"}}, {"type": "Feature", "geometry": {"type": "Point", "coordinates": [5.8827162, 52.4152615]}, "properties": {"type": "inleverpunt", "locatieNaam": "2268 Albert Heijn", "straatNaam": "Sportlaan", "straatNr": "5", "postcode": "8084 VA", "plaats": "T Harde", "merk": "Stibat", "puntType": "inzamelbak", "materialen": ["batterijen"], "uitbetaling": [], "vrijToegankelijk": false, "gemeenteBeperking": null, "openingstijden": null, "latitude": 52.4152615, "longitude": 5.8827162, "bronId": "L044262"}}, {"type": "Feature", "geometry": {"type": "Point", "coordinates": [5.8916284, 52.4092326]}, "properties": {"type": "inleverpunt", "locatieNaam": "BP 't Harde (Dalhuisen Tankstations)", "straatNaam": "Eperweg", "straatNr": "105", "postcode": "8084 HD", "plaats": "'t Harde", "merk": "Stibat", "puntType": "inzamelbak", "materialen": ["batterijen"], "uitbetaling": [], "vrijToegankelijk": false, "gemeenteBeperking": null, "openingstijden": null, "latitude": 52.4092326, "longitude": 5.8916284, "bronId": "L045422"}}, {"type": "Feature", "geometry": {"type": "Point", "coordinates": [5.8763771, 52.4199033]}, "properties": {"type": "inleverpunt", "locatieNaam": "Technisch Magazijn Immeker", "straatNaam": "Industrieweg", "straatNr": "5", "postcode": "8084 GS", "plaats": "'t HARDE", "merk": "Stibat", "puntType": "inzamelbak", "materialen": ["batterijen"], "uitbetaling": [], "vrijToegankelijk": false, "gemeenteBeperking": null, "openingstijden": null, "latitude": 52.4199033, "longitude": 5.8763771, "bronId": "L018045"}}, {"type": "Feature", "geometry": {"type": "Point", "coordinates": [5.8343694, 52.4480589]}, "properties": {"type": "inleverpunt", "locatieNaam": "Kruidvat", "straatNaam": "Jufferenstraat", "straatNr": "22", "postcode": "8081 CR", "plaats": "Elburg", "merk": "Stibat", "puntType": "inzamelbak", "materialen": ["batterijen"], "uitbetaling": [], "vrijToegankelijk": false, "gemeenteBeperking": null, "openingstijden": null, "latitude": 52.4480589, "longitude": 5.8343694, "bronId": "L015746"}}, {"type": "Feature", "geometry": {"type": "Point", "coordinates": [5.8328413, 52.4490232]}, "properties": {"type": "inleverpunt", "locatieNaam": "Zeeman", "straatNaam": "Vischpoortstraat", "straatNr": "18", "postcode": "8081 ER", "plaats": "Elburg", "merk": "Stibat", "puntType": "inzamelbak", "materialen": ["batterijen"], "uitbetaling": [], "vrijToegankelijk": false, "gemeenteBeperking": null, "openingstijden": null, "latitude": 52.4490232, "longitude": 5.8328413, "bronId": "L020865"}}, {"type": "Feature", "geometry": {"type": "Point", "coordinates": [5.8348672, 52.4479179]}, "properties": {"type": "inleverpunt", "locatieNaam": "Van Doorn Gemakshop", "straatNaam": "Jufferenstraat", "straatNr": "14", "postcode": "8081 CR", "plaats": "Elburg", "merk": "Stibat", "puntType": "inzamelbak", "materialen": ["batterijen"], "uitbetaling": [], "vrijToegankelijk": false, "gemeenteBeperking": null, "openingstijden": null, "latitude": 52.4479179, "longitude": 5.8348672, "bronId": "L029511"}}, {"type": "Feature", "geometry": {"type": "Point", "coordinates": [5.8335869, 52.4487951]}, "properties": {"type": "inleverpunt", "locatieNaam": "Elburger Boekhandel", "straatNaam": "Vischpoortstraat", "straatNr": "4", "postcode": "8081 ER", "plaats": "Elburg", "merk": "Stibat", "puntType": "inzamelbak", "materialen": ["batterijen"], "uitbetaling": [], "vrijToegankelijk": false, "gemeenteBeperking": null, "openingstijden": null, "latitude": 52.4487951, "longitude": 5.8335869, "bronId": "L030096"}}, {"type": "Feature", "geometry": {"type": "Point", "coordinates": [5.8343584, 52.4486927]}, "properties": {"type": "inleverpunt", "locatieNaam": "De Telefoonboer", "straatNaam": "Beekstraat", "straatNr": "21", "postcode": "8081 EA", "plaats": "Elburg", "merk": "Stibat", "puntType": "inzamelbak", "materialen": ["batterijen"], "uitbetaling": [], "vrijToegankelijk": false, "gemeenteBeperking": null, "openingstijden": null, "latitude": 52.4486927, "longitude": 5.8343584, "bronId": "L044401"}}, {"type": "Feature", "geometry": {"type": "Point", "coordinates": [5.8340269, 52.4490475]}, "properties": {"type": "inleverpunt", "locatieNaam": "HEMA Beekstraat", "straatNaam": "Beekstraat", "straatNr": "12", "postcode": "8081 EC", "plaats": "Elburg", "merk": "Stibat", "puntType": "inzamelbak", "materialen": ["batterijen"], "uitbetaling": [], "vrijToegankelijk": false, "gemeenteBeperking": null, "openingstijden": null, "latitude": 52.4490475, "longitude": 5.8340269, "bronId": "L008075"}}, {"type": "Feature", "geometry": {"type": "Point", "coordinates": [5.8378448, 52.447556]}, "properties": {"type": "inleverpunt", "locatieNaam": "Jumbo", "straatNaam": "Zwolscheweg", "straatNr": "1", "postcode": "8081 CG", "plaats": "Elburg", "merk": "Stibat", "puntType": "inzamelbak", "materialen": ["batterijen"], "uitbetaling": [], "vrijToegankelijk": false, "gemeenteBeperking": null, "openingstijden": null, "latitude": 52.447556, "longitude": 5.8378448, "bronId": "L027774"}}, {"type": "Feature", "geometry": {"type": "Point", "coordinates": [5.8308212, 52.4518002]}, "properties": {"type": "inleverpunt", "locatieNaam": "Boco Elburg", "straatNaam": "Havenkade", "straatNr": "42a-3", "postcode": "8081 GR", "plaats": "Elburg", "merk": "Stibat", "puntType": "inzamelbak", "materialen": ["batterijen"], "uitbetaling": [], "vrijToegankelijk": false, "gemeenteBeperking": null, "openingstijden": null, "latitude": 52.4518002, "longitude": 5.8308212, "bronId": "L048758"}}, {"type": "Feature", "geometry": {"type": "Point", "coordinates": [5.830803, 52.455834]}, "properties": {"type": "inleverpunt", "locatieNaam": "Kringloopwinkel Elburg", "straatNaam": "Industriestraat", "straatNr": "15", "postcode": "8081 HH", "plaats": "Elburg", "merk": "Stibat", "puntType": "inzamelbak", "materialen": ["batterijen"], "uitbetaling": [], "vrijToegankelijk": false, "gemeenteBeperking": null, "openingstijden": null, "latitude": 52.455834, "longitude": 5.830803, "bronId": "L048978"}}, {"type": "Feature", "geometry": {"type": "Point", "coordinates": [5.8463635, 52.4478365]}, "properties": {"type": "inleverpunt", "locatieNaam": "Aldi", "straatNaam": "Vrijheidsstraat", "straatNr": "18", "postcode": "8081 XD", "plaats": "Elburg", "merk": "Stibat", "puntType": "inzamelbak", "materialen": ["batterijen"], "uitbetaling": [], "vrijToegankelijk": false, "gemeenteBeperking": null, "openingstijden": null, "latitude": 52.4478365, "longitude": 5.8463635, "bronId": "L041532"}}, {"type": "Feature", "geometry": {"type": "Point", "coordinates": [5.8344809, 52.4550535]}, "properties": {"type": "inleverpunt", "locatieNaam": "Klompmaker Fietsen", "straatNaam": "Robbertsmatenstraat", "straatNr": "11-b", "postcode": "8081 HL", "plaats": "Elburg", "merk": "Stibat", "puntType": "inzamelbak", "materialen": ["batterijen"], "uitbetaling": [], "vrijToegankelijk": false, "gemeenteBeperking": null, "openingstijden": null, "latitude": 52.4550535, "longitude": 5.8344809, "bronId": "L048917"}}, {"type": "Feature", "geometry": {"type": "Point", "coordinates": [5.8631897, 52.4415329]}, "properties": {"type": "inleverpunt", "locatieNaam": "Bike Totaal R. Koops Tweewielers", "straatNaam": "Westerlengte", "straatNr": "14", "postcode": "8081 PZ", "plaats": "Elburg", "merk": "Stibat", "puntType": "inzamelbak", "materialen": ["batterijen"], "uitbetaling": [], "vrijToegankelijk": false, "gemeenteBeperking": null, "openingstijden": null, "latitude": 52.4415329, "longitude": 5.8631897, "bronId": "L017088"}}, {"type": "Feature", "geometry": {"type": "Point", "coordinates": [5.8611847, 52.4433427]}, "properties": {"type": "inleverpunt", "locatieNaam": "Westerink Tuin- en Parkmachines", "straatNaam": "Oostendorperstraatweg", "straatNr": "3c", "postcode": "8081 RH", "plaats": "Elburg", "merk": "Stibat", "puntType": "inzamelbak", "materialen": ["batterijen"], "uitbetaling": [], "vrijToegankelijk": false, "gemeenteBeperking": null, "openingstijden": null, "latitude": 52.4433427, "longitude": 5.8611847, "bronId": "L047098"}}, {"type": "Feature", "geometry": {"type": "Point", "coordinates": [5.8642772, 52.4418504]}, "properties": {"type": "inleverpunt", "locatieNaam": "Gamma", "straatNaam": "Westerlengte", "straatNr": "2", "postcode": "8081 PZ", "plaats": "Elburg", "merk": "Stibat", "puntType": "inzamelbak", "materialen": ["batterijen"], "uitbetaling": [], "vrijToegankelijk": false, "gemeenteBeperking": null, "openingstijden": null, "latitude": 52.4418504, "longitude": 5.8642772, "bronId": "L027046"}}, {"type": "Feature", "geometry": {"type": "Point", "coordinates": [5.8631262, 52.4428285]}, "properties": {"type": "inleverpunt", "locatieNaam": "vdHam", "straatNaam": "Noorderbreedte", "straatNr": "8B", "postcode": "8081 PX", "plaats": "Elburg", "merk": "Stibat", "puntType": "inzamelbak", "materialen": ["batterijen"], "uitbetaling": [], "vrijToegankelijk": false, "gemeenteBeperking": null, "openingstijden": null, "latitude": 52.4428285, "longitude": 5.8631262, "bronId": "L045231"}}, {"type": "Feature", "geometry": {"type": "Point", "coordinates": [5.8538977, 52.4511347]}, "properties": {"type": "inleverpunt", "locatieNaam": "PLUS", "straatNaam": "Klokbekerweg", "straatNr": "164", "postcode": "8081 JJ", "plaats": "Elburg", "merk": "Stibat", "puntType": "inzamelbak", "materialen": ["batterijen"], "uitbetaling": [], "vrijToegankelijk": false, "gemeenteBeperking": null, "openingstijden": null, "latitude": 52.4511347, "longitude": 5.8538977, "bronId": "L013674"}}, {"type": "Feature", "geometry": {"type": "Point", "coordinates": [5.8539581, 52.4512946]}, "properties": {"type": "inleverpunt", "locatieNaam": "Drogisterij Janssen", "straatNaam": "Klokbekerweg", "straatNr": "166", "postcode": "8081 JJ", "plaats": "Elburg", "merk": "Stibat", "puntType": "inzamelbak", "materialen": ["batterijen"], "uitbetaling": [], "vrijToegankelijk": false, "gemeenteBeperking": null, "openingstijden": null, "latitude": 52.4512946, "longitude": 5.8539581, "bronId": "L025065"}}, {"type": "Feature", "geometry": {"type": "Point", "coordinates": [5.8539986, 52.4514197]}, "properties": {"type": "inleverpunt", "locatieNaam": "Primera", "straatNaam": "Klokbekerweg", "straatNr": "170", "postcode": "8081 JJ", "plaats": "Elburg", "merk": "Stibat", "puntType": "inzamelbak", "materialen": ["batterijen"], "uitbetaling": [], "vrijToegankelijk": false, "gemeenteBeperking": null, "openingstijden": null, "latitude": 52.4514197, "longitude": 5.8539986, "bronId": "L022328"}}, {"type": "Feature", "geometry": {"type": "Point", "coordinates": [5.854196, 52.4519089]}, "properties": {"type": "inleverpunt", "locatieNaam": "EP:", "straatNaam": "Vooronder", "straatNr": "10", "postcode": "8081 NK", "plaats": "Elburg", "merk": "Stibat", "puntType": "inzamelbak", "materialen": ["batterijen"], "uitbetaling": [], "vrijToegankelijk": false, "gemeenteBeperking": null, "openingstijden": null, "latitude": 52.4519089, "longitude": 5.854196, "bronId": "L017538"}}, {"type": "Feature", "geometry": {"type": "Point", "coordinates": [5.8543243, 52.451941]}, "properties": {"type": "inleverpunt", "locatieNaam": "PC Elburg", "straatNaam": "Vooronder", "straatNr": "2", "postcode": "8081 NK", "plaats": "Elburg", "merk": "Stibat", "puntType": "inzamelbak", "materialen": ["batterijen"], "uitbetaling": [], "vrijToegankelijk": false, "gemeenteBeperking": null, "openingstijden": null, "latitude": 52.451941, "longitude": 5.8543243, "bronId": "L038287"}}, {"type": "Feature", "geometry": {"type": "Polygon", "coordinates": [[[5.876009002210903, 52.357873004119035], [5.911694002247318, 52.38679300413515], [5.924339002260041, 52.39139300413751], [5.908905002245098, 52.405369004146124], [5.905993002242299, 52.40860000414809], [5.916292002252678, 52.412949004150335], [5.899954002236629, 52.41981600415483], [5.893062002229939, 52.42546800415829], [5.888895002225861, 52.42771100415969], [5.875733002213124, 52.43931000416683], [5.87224500220977, 52.443029004169055], [5.870671002208187, 52.442517004168806], [5.8687490022063455, 52.44477900417021], [5.871117002208722, 52.445534004170575], [5.873766002211402, 52.44699500417134], [5.8713840022090595, 52.44785700417189], [5.874338002212054, 52.44975900417295], [5.874765002212507, 52.45069600417349], [5.877624002215426, 52.45311900417479], [5.874581002212436, 52.454242004175505], [5.874067002211965, 52.45565900417637], [5.872547002210443, 52.45524300417618], [5.872732002210638, 52.45566600417644], [5.872032002209975, 52.45668700417704], [5.871464002209406, 52.45660300417696], [5.871363002209341, 52.457793004177695], [5.862992002201115, 52.46094200417974], [5.864840002202988, 52.46205500418034], [5.863423002201588, 52.462408004180574], [5.86228000220042, 52.461363004179994], [5.859065002197256, 52.46248100418074], [5.850951002189302, 52.46617200418307], [5.850513002188882, 52.466664004183365], [5.848225002186627, 52.46730700418382], [5.844847002183348, 52.46996800418544], [5.831385002170072, 52.47340200418776], [5.815608002153808, 52.455215004177624], [5.822411002160401, 52.449706004174224], [5.8095860021472605, 52.43765900416751], [5.811475002149116, 52.436923004167056], [5.804331002141857, 52.432148004164425], [5.795195002132621, 52.42775200416209], [5.787257002124553, 52.42257300415927], [5.78305500212032, 52.421021004158476], [5.768675002105748, 52.413197004154256], [5.756292002093226, 52.407426004151105], [5.759239002096072, 52.404689004149446], [5.758902002095725, 52.404424004149305], [5.759335002096113, 52.40305900414848], [5.761462002098195, 52.40196400414778], [5.763354002100026, 52.40031300414678], [5.764075002100697, 52.39872400414584], [5.76868500210529, 52.39888800414583], [5.7707480021072355, 52.395515004143796], [5.775767002112265, 52.39643000414422], [5.778265002114783, 52.39735800414469], [5.779818002116371, 52.39864500414541], [5.782622002119192, 52.39946900414582], [5.78488500212144, 52.39931100414568], [5.78777300212434, 52.40003800414603], [5.789634002126146, 52.398508004145114], [5.790776002127229, 52.39686200414413], [5.81167200214823, 52.402799004147106], [5.812045002148532, 52.400669004145826], [5.817170002153666, 52.401567004146244], [5.817867002154226, 52.397292004143736], [5.818333002154678, 52.39703800414358], [5.820578002156911, 52.396933004143435], [5.820490002156709, 52.393220004141284], [5.8207620021569255, 52.391592004140286], [5.821269002157414, 52.39109100413999], [5.834210002170013, 52.381832004134246], [5.834680002170485, 52.38199100413431], [5.838689002174398, 52.37940900413269], [5.864792002199784, 52.359658004120405], [5.868452002203482, 52.36130600412128], [5.871171002206189, 52.36130900412119], [5.876009002210903, 52.357873004119035]]]}, "properties": {"type": "boundary", "gemeente": "Elburg"}}]}