{"type": "FeatureCollection", "metadata": {"gemeente": "Gouda", "slug": "gouda", "generated_at": "2026-07-28T09:25:50.134599Z", "total_points": 143, "merken": ["StatiegeldNederland", "Stibat", "StichtingOPEN"], "bounds": [4.6747693, 52.0025461, 4.7453231, 52.039513]}, "features": [{"type": "Feature", "geometry": {"type": "Point", "coordinates": [4.6802866, 52.0025461]}, "properties": {"type": "inleverpunt", "locatieNaam": "Albert Heijn", "straatNaam": "Burgemeester van Dijkesingel", "straatNr": "53", "postcode": "2809 RB", "plaats": "Gouda", "merk": "StatiegeldNederland", "puntType": "automaat", "materialen": ["pet-groot", "pet-klein", "blik", "glas", "krat"], "uitbetaling": ["bonnetje", "donatie"], "vrijToegankelijk": true, "gemeenteBeperking": null, "openingstijden": {"ma": "08:00–20:00", "di": "08:00–20:00", "wo": "08:00–20:00", "do": "08:00–20:00", "vr": "08:00–20:00", "za": "08:00–20:00", "zo": "10:00–18:00"}, "latitude": 52.0025461, "longitude": 4.6802866, "bronId": "252084"}}, {"type": "Feature", "geometry": {"type": "Point", "coordinates": [4.7047036, 52.0320218]}, "properties": {"type": "inleverpunt", "locatieNaam": "Albert Heijn", "straatNaam": "Lekkenburg", "straatNr": "3", "postcode": "2804 XA", "plaats": "Gouda", "merk": "StatiegeldNederland", "puntType": "automaat", "materialen": ["pet-groot", "pet-klein", "blik", "glas", "krat"], "uitbetaling": ["bonnetje", "donatie"], "vrijToegankelijk": true, "gemeenteBeperking": null, "openingstijden": {"ma": "08:00–21:00", "di": "08:00–21:00", "wo": "08:00–21:00", "do": "08:00–21:00", "vr": "08:00–21:00", "za": "08:00–21:00", "zo": "09:00–21:00"}, "latitude": 52.0320218, "longitude": 4.7047036, "bronId": "252467"}}, {"type": "Feature", "geometry": {"type": "Point", "coordinates": [4.7098599, 52.012139]}, "properties": {"type": "inleverpunt", "locatieNaam": "Albert Heijn", "straatNaam": "Markt", "straatNr": "50", "postcode": "2801 JL", "plaats": "Gouda", "merk": "StatiegeldNederland", "puntType": "automaat", "materialen": ["pet-groot", "pet-klein", "blik", "glas", "krat"], "uitbetaling": ["bonnetje", "donatie"], "vrijToegankelijk": true, "gemeenteBeperking": null, "openingstijden": {"ma": "08:00–21:00", "di": "08:00–21:00", "wo": "08:00–21:00", "do": "08:00–21:00", "vr": "08:00–21:00", "za": "08:00–21:00", "zo": "09:00–21:00"}, "latitude": 52.012139, "longitude": 4.7098599, "bronId": "252507"}}, {"type": "Feature", "geometry": {"type": "Point", "coordinates": [4.7437857, 52.0115448]}, "properties": {"type": "inleverpunt", "locatieNaam": "Albert Heijn", "straatNaam": "Middenmolenplein", "straatNr": "64-70", "postcode": "2807 GZ", "plaats": "Gouda", "merk": "StatiegeldNederland", "puntType": "automaat", "materialen": ["pet-groot", "pet-klein", "blik", "glas", "krat"], "uitbetaling": ["bonnetje", "donatie"], "vrijToegankelijk": true, "gemeenteBeperking": null, "openingstijden": {"ma": "08:00–21:00", "di": "08:00–21:00", "wo": "08:00–21:00", "do": "08:00–21:00", "vr": "08:00–21:00", "za": "08:00–21:00", "zo": "09:00–21:00"}, "latitude": 52.0115448, "longitude": 4.7437857, "bronId": "252535"}}, {"type": "Feature", "geometry": {"type": "Point", "coordinates": [4.7124123, 52.0266373]}, "properties": {"type": "inleverpunt", "locatieNaam": "Antonius Mavo XL", "straatNaam": "Groen Van Prinsterersingel", "straatNr": "49", "postcode": "2805 TD", "plaats": "Gouda", "merk": "StatiegeldNederland", "puntType": "automaat", "materialen": ["pet-klein", "blik"], "uitbetaling": [], "vrijToegankelijk": false, "gemeenteBeperking": null, "openingstijden": null, "latitude": 52.0266373, "longitude": 4.7124123, "bronId": "253500"}}, {"type": "Feature", "geometry": {"type": "Point", "coordinates": [4.7265261, 52.0111957]}, "properties": {"type": "inleverpunt", "locatieNaam": "Antoniuscollege Gouda", "straatNaam": "John Mottstraat", "straatNr": "2-4", "postcode": "2806 HP", "plaats": "Gouda", "merk": "StatiegeldNederland", "puntType": "automaat", "materialen": ["pet-klein", "blik"], "uitbetaling": [], "vrijToegankelijk": false, "gemeenteBeperking": null, "openingstijden": null, "latitude": 52.0111957, "longitude": 4.7265261, "bronId": "253501"}}, {"type": "Feature", "geometry": {"type": "Point", "coordinates": [4.687687, 52.0213339]}, "properties": {"type": "inleverpunt", "locatieNaam": "Appel - 2765 Centric Gouda", "straatNaam": "Antwerpseweg", "straatNr": "8", "postcode": "2803 PB", "plaats": "Gouda", "merk": "StatiegeldNederland", "puntType": "balie", "materialen": ["pet-groot", "pet-klein", "blik"], "uitbetaling": [], "vrijToegankelijk": true, "gemeenteBeperking": null, "openingstijden": {"ma": "08:00–17:00", "di": "08:00–17:00", "wo": "08:00–17:00", "do": "08:00–17:00", "vr": "08:00–17:00", "za": "Gesloten", "zo": "Gesloten"}, "latitude": 52.0213339, "longitude": 4.687687, "bronId": "253516"}}, {"type": "Feature", "geometry": {"type": "Point", "coordinates": [4.7075111, 52.0103921]}, "properties": {"type": "inleverpunt", "locatieNaam": "Biowinkel Gouda", "straatNaam": "Lange Groenendaal", "straatNr": "99", "postcode": "2801 LS", "plaats": "Gouda", "merk": "StatiegeldNederland", "puntType": "balie", "materialen": ["pet-groot", "pet-klein", "blik"], "uitbetaling": [], "vrijToegankelijk": true, "gemeenteBeperking": null, "openingstijden": {"ma": "08:30–18:00", "di": "08:30–18:00", "wo": "08:30–18:00", "do": "08:30–18:00", "vr": "08:30–18:00", "za": "08:30–18:00", "zo": "Gesloten"}, "latitude": 52.0103921, "longitude": 4.7075111, "bronId": "253834"}}, {"type": "Feature", "geometry": {"type": "Point", "coordinates": [4.6920648, 52.02121]}, "properties": {"type": "inleverpunt", "locatieNaam": "BS Gouda", "straatNaam": "Antwerpseweg", "straatNr": "2", "postcode": "2803 PB", "plaats": "Gouda", "merk": "StatiegeldNederland", "puntType": "automaat", "materialen": ["pet-groot", "pet-klein", "blik", "krat"], "uitbetaling": ["donatie", "tikkie"], "vrijToegankelijk": true, "gemeenteBeperking": null, "openingstijden": {"ma": "08:00–20:00", "di": "08:00–20:00", "wo": "08:00–20:00", "do": "08:00–20:00", "vr": "08:00–20:00", "za": "08:00–20:00", "zo": "Gesloten"}, "latitude": 52.02121, "longitude": 4.6920648, "bronId": "253919"}}, {"type": "Feature", "geometry": {"type": "Point", "coordinates": [4.7448953, 52.0104478]}, "properties": {"type": "inleverpunt", "locatieNaam": "Dirk", "straatNaam": "Poldermolenplein", "straatNr": "27", "postcode": "2807 GX", "plaats": "Gouda", "merk": "StatiegeldNederland", "puntType": "automaat", "materialen": ["pet-groot", "pet-klein", "blik", "glas", "krat"], "uitbetaling": ["bonnetje", "donatie"], "vrijToegankelijk": true, "gemeenteBeperking": null, "openingstijden": {"ma": "08:00–21:00", "di": "08:00–21:00", "wo": "08:00–21:00", "do": "08:00–21:00", "vr": "08:00–21:00", "za": "08:00–21:00", "zo": "09:00–18:00"}, "latitude": 52.0104478, "longitude": 4.7448953, "bronId": "254524"}}, {"type": "Feature", "geometry": {"type": "Point", "coordinates": [4.6926859, 52.0167183]}, "properties": {"type": "inleverpunt", "locatieNaam": "Hoogvliet", "straatNaam": "Nieuwe Gouwe Oostzijde", "straatNr": "2D", "postcode": "2801 SB", "plaats": "Gouda", "merk": "StatiegeldNederland", "puntType": "automaat", "materialen": ["pet-groot", "pet-klein", "blik", "glas", "krat"], "uitbetaling": ["bonnetje", "donatie"], "vrijToegankelijk": true, "gemeenteBeperking": null, "openingstijden": {"ma": "08:00–21:00", "di": "08:00–21:00", "wo": "08:00–21:00", "do": "08:00–21:00", "vr": "08:00–21:00", "za": "08:00–20:00", "zo": "10:00–19:00"}, "latitude": 52.0167183, "longitude": 4.6926859, "bronId": "255077"}}, {"type": "Feature", "geometry": {"type": "Point", "coordinates": [4.6902371, 52.0293119]}, "properties": {"type": "inleverpunt", "locatieNaam": "Hoogvliet", "straatNaam": "Plataanstraat", "straatNr": "6", "postcode": "2803 SW", "plaats": "Gouda", "merk": "StatiegeldNederland", "puntType": "automaat", "materialen": ["pet-groot", "pet-klein", "blik", "glas", "krat"], "uitbetaling": ["bonnetje", "donatie"], "vrijToegankelijk": true, "gemeenteBeperking": null, "openingstijden": {"ma": "08:00–20:00", "di": "08:00–20:00", "wo": "08:00–20:00", "do": "08:00–20:00", "vr": "08:00–20:00", "za": "08:00–20:00", "zo": "10:00–19:00"}, "latitude": 52.0293119, "longitude": 4.6902371, "bronId": "255088"}}, {"type": "Feature", "geometry": {"type": "Point", "coordinates": [4.6852041, 52.017126]}, "properties": {"type": "inleverpunt", "locatieNaam": "Hoornbeeck College Gouda", "straatNaam": "Noordelijk Halfrond", "straatNr": "10", "postcode": "2801 DE", "plaats": "Gouda", "merk": "StatiegeldNederland", "puntType": "automaat", "materialen": ["pet-klein", "blik"], "uitbetaling": ["donatie", "tikkie"], "vrijToegankelijk": true, "gemeenteBeperking": null, "openingstijden": {"ma": "08:00–21:00", "di": "08:00–21:00", "wo": "08:00–21:00", "do": "08:00–21:00", "vr": "08:00–21:00", "za": "08:00–21:00", "zo": "09:00–21:00"}, "latitude": 52.017126, "longitude": 4.6852041, "bronId": "255112"}}, {"type": "Feature", "geometry": {"type": "Point", "coordinates": [4.716, 52.01023]}, "properties": {"type": "inleverpunt", "locatieNaam": "Jumbo", "straatNaam": "Fluwelensingel", "straatNr": "56", "postcode": "2806 CC", "plaats": "Gouda", "merk": "StatiegeldNederland", "puntType": "automaat", "materialen": ["pet-groot", "pet-klein", "blik", "glas", "krat"], "uitbetaling": ["bonnetje", "donatie"], "vrijToegankelijk": true, "gemeenteBeperking": null, "openingstijden": {"ma": "08:00–21:00", "di": "08:00–21:00", "wo": "08:00–21:00", "do": "08:00–21:00", "vr": "08:00–21:00", "za": "08:00–21:00", "zo": "09:00–21:00"}, "latitude": 52.01023, "longitude": 4.716, "bronId": "255369"}}, {"type": "Feature", "geometry": {"type": "Point", "coordinates": [4.70337, 52.032288]}, "properties": {"type": "inleverpunt", "locatieNaam": "Jumbo", "straatNaam": "Ruigenburg", "straatNr": "2", "postcode": "2804 VT", "plaats": "Gouda", "merk": "StatiegeldNederland", "puntType": "automaat", "materialen": ["pet-groot", "pet-klein", "blik", "glas", "krat"], "uitbetaling": ["bonnetje", "donatie"], "vrijToegankelijk": true, "gemeenteBeperking": null, "openingstijden": {"ma": "08:00–21:00", "di": "08:00–21:00", "wo": "08:00–21:00", "do": "08:00–21:00", "vr": "08:00–21:00", "za": "08:00–21:00", "zo": "09:00–21:00"}, "latitude": 52.032288, "longitude": 4.70337, "bronId": "255726"}}, {"type": "Feature", "geometry": {"type": "Point", "coordinates": [4.7316373, 52.0105339]}, "properties": {"type": "inleverpunt", "locatieNaam": "Jumbo", "straatNaam": "Sportlaan", "straatNr": "4a", "postcode": "2806 HC", "plaats": "Gouda", "merk": "StatiegeldNederland", "puntType": "automaat", "materialen": ["pet-groot", "pet-klein", "blik", "glas", "krat"], "uitbetaling": ["bonnetje", "donatie"], "vrijToegankelijk": true, "gemeenteBeperking": null, "openingstijden": {"ma": "08:00–21:00", "di": "08:00–21:00", "wo": "08:00–21:00", "do": "08:00–21:00", "vr": "08:00–21:00", "za": "08:00–21:00", "zo": "09:00–20:00"}, "latitude": 52.0105339, "longitude": 4.7316373, "bronId": "255759"}}, {"type": "Feature", "geometry": {"type": "Point", "coordinates": [4.70314, 52.03257]}, "properties": {"type": "inleverpunt", "locatieNaam": "Lidl", "straatNaam": "Ruigenburg", "straatNr": "2A", "postcode": "2804 VT", "plaats": "Gouda", "merk": "StatiegeldNederland", "puntType": "automaat", "materialen": ["pet-groot", "pet-klein", "blik", "glas", "krat"], "uitbetaling": ["bonnetje", "donatie"], "vrijToegankelijk": true, "gemeenteBeperking": null, "openingstijden": {"ma": "08:00–21:00", "di": "08:00–21:00", "wo": "08:00–21:00", "do": "08:00–21:00", "vr": "08:00–21:00", "za": "08:00–21:00", "zo": "09:00–21:00"}, "latitude": 52.03257, "longitude": 4.70314, "bronId": "256369"}}, {"type": "Feature", "geometry": {"type": "Point", "coordinates": [4.7319301, 52.0102688]}, "properties": {"type": "inleverpunt", "locatieNaam": "Lidl", "straatNaam": "Sportlaan", "straatNr": "4B", "postcode": "2806 HC", "plaats": "Gouda", "merk": "StatiegeldNederland", "puntType": "automaat", "materialen": ["pet-groot", "pet-klein", "blik", "glas", "krat"], "uitbetaling": ["bonnetje", "donatie"], "vrijToegankelijk": true, "gemeenteBeperking": null, "openingstijden": {"ma": "08:00–21:00", "di": "08:00–21:00", "wo": "08:00–21:00", "do": "08:00–21:00", "vr": "08:00–21:00", "za": "08:00–21:00", "zo": "09:00–18:00"}, "latitude": 52.0102688, "longitude": 4.7319301, "bronId": "256395"}}, {"type": "Feature", "geometry": {"type": "Point", "coordinates": [4.7006464, 52.0095444]}, "properties": {"type": "inleverpunt", "locatieNaam": "Lidl", "straatNaam": "Westerkade", "straatNr": "4", "postcode": "2802 SL", "plaats": "Gouda", "merk": "StatiegeldNederland", "puntType": "automaat", "materialen": ["pet-groot", "pet-klein", "blik", "glas", "krat"], "uitbetaling": ["bonnetje", "donatie"], "vrijToegankelijk": true, "gemeenteBeperking": null, "openingstijden": {"ma": "08:00–21:00", "di": "08:00–21:00", "wo": "08:00–21:00", "do": "08:00–21:00", "vr": "08:00–21:00", "za": "08:00–20:00", "zo": "10:00–18:00"}, "latitude": 52.0095444, "longitude": 4.7006464, "bronId": "256458"}}, {"type": "Feature", "geometry": {"type": "Point", "coordinates": [4.7148031, 52.0270252]}, "properties": {"type": "inleverpunt", "locatieNaam": "Markies 60006- Mbo Rijnl.gvp", "straatNaam": "Groen van Prinsterensingel", "straatNr": "52", "postcode": "2805 TE", "plaats": "Gouda", "merk": "StatiegeldNederland", "puntType": "balie", "materialen": ["pet-groot", "pet-klein", "blik"], "uitbetaling": [], "vrijToegankelijk": true, "gemeenteBeperking": null, "openingstijden": {"ma": "07:30–22:00", "di": "07:30–22:00", "wo": "07:30–18:00", "do": "07:30–22:00", "vr": "07:30–17:30", "za": "Gesloten", "zo": "Gesloten"}, "latitude": 52.0270252, "longitude": 4.7148031, "bronId": "256634"}}, {"type": "Feature", "geometry": {"type": "Point", "coordinates": [4.699179, 52.0064543]}, "properties": {"type": "inleverpunt", "locatieNaam": "O.N.A.", "straatNaam": "Gerard Leeustraat", "straatNr": "2", "postcode": "2802 RZ", "plaats": "Gouda", "merk": "StatiegeldNederland", "puntType": "balie", "materialen": ["pet-groot", "pet-klein", "blik"], "uitbetaling": [], "vrijToegankelijk": false, "gemeenteBeperking": null, "openingstijden": {"ma": "24 uur geopend", "di": "24 uur geopend", "wo": "Gesloten", "do": "Gesloten", "vr": "24 uur geopend", "za": "24 uur geopend", "zo": "24 uur geopend"}, "latitude": 52.0064543, "longitude": 4.699179, "bronId": "256946"}}, {"type": "Feature", "geometry": {"type": "Point", "coordinates": [4.7016095, 52.0056554]}, "properties": {"type": "inleverpunt", "locatieNaam": "Plus", "straatNaam": "Constantijn Huygenstraat", "straatNr": "110", "postcode": "2802 LZ", "plaats": "Gouda", "merk": "StatiegeldNederland", "puntType": "automaat", "materialen": ["pet-groot", "pet-klein", "blik", "glas", "krat"], "uitbetaling": ["bonnetje", "donatie"], "vrijToegankelijk": true, "gemeenteBeperking": null, "openingstijden": {"ma": "08:00–21:00", "di": "08:00–21:00", "wo": "08:00–21:00", "do": "08:00–21:00", "vr": "08:00–21:00", "za": "08:00–21:00", "zo": "08:00–21:00"}, "latitude": 52.0056554, "longitude": 4.7016095, "bronId": "257236"}}, {"type": "Feature", "geometry": {"type": "Point", "coordinates": [4.7111741, 52.0141707]}, "properties": {"type": "inleverpunt", "locatieNaam": "Plus", "straatNaam": "Nieuwe Marktpassage", "straatNr": "25", "postcode": "2801 HW", "plaats": "Gouda", "merk": "StatiegeldNederland", "puntType": "automaat", "materialen": ["pet-groot", "pet-klein", "blik", "glas", "krat"], "uitbetaling": ["bonnetje"], "vrijToegankelijk": true, "gemeenteBeperking": null, "openingstijden": {"ma": "08:00–21:00", "di": "08:00–21:00", "wo": "08:00–21:00", "do": "08:00–21:00", "vr": "08:00–21:00", "za": "08:00–21:00", "zo": "10:00–19:00"}, "latitude": 52.0141707, "longitude": 4.7111741, "bronId": "257446"}}, {"type": "Feature", "geometry": {"type": "Point", "coordinates": [4.7100389, 52.0216217]}, "properties": {"type": "inleverpunt", "locatieNaam": "Plus", "straatNaam": "Thorbeckelaan", "straatNr": "1", "postcode": "2805 CA", "plaats": "Gouda", "merk": "StatiegeldNederland", "puntType": "automaat", "materialen": ["pet-groot", "pet-klein", "blik", "glas", "krat"], "uitbetaling": ["bonnetje", "donatie"], "vrijToegankelijk": true, "gemeenteBeperking": null, "openingstijden": {"ma": "07:15–21:00", "di": "07:15–21:00", "wo": "07:15–21:00", "do": "07:15–21:00", "vr": "07:15–21:00", "za": "07:15–21:00", "zo": "09:30–18:00"}, "latitude": 52.0216217, "longitude": 4.7100389, "bronId": "257544"}}, {"type": "Feature", "geometry": {"type": "Point", "coordinates": [4.6954966, 52.0253344]}, "properties": {"type": "inleverpunt", "locatieNaam": "Plus", "straatNaam": "Vuurdoornlaan", "straatNr": "10", "postcode": "2803 BB", "plaats": "Gouda", "merk": "StatiegeldNederland", "puntType": "automaat", "materialen": ["pet-groot", "pet-klein", "blik", "glas", "krat"], "uitbetaling": ["bonnetje", "donatie"], "vrijToegankelijk": true, "gemeenteBeperking": null, "openingstijden": {"ma": "07:00–20:00", "di": "07:00–20:00", "wo": "07:00–20:00", "do": "07:00–20:00", "vr": "07:00–20:00", "za": "07:00–20:00", "zo": "09:00–19:00"}, "latitude": 52.0253344, "longitude": 4.6954966, "bronId": "257578"}}, {"type": "Feature", "geometry": {"type": "Point", "coordinates": [4.7233236, 52.0221516]}, "properties": {"type": "inleverpunt", "locatieNaam": "Sahan Gouda B.V.", "straatNaam": "Driewegplein", "straatNr": "3", "postcode": "2805 HV", "plaats": "Gouda", "merk": "StatiegeldNederland", "puntType": "automaat", "materialen": ["pet-groot", "pet-klein", "blik"], "uitbetaling": ["bonnetje", "donatie", "retourpinnen"], "vrijToegankelijk": true, "gemeenteBeperking": null, "openingstijden": null, "latitude": 52.0221516, "longitude": 4.7233236, "bronId": "257944"}}, {"type": "Feature", "geometry": {"type": "Point", "coordinates": [4.7155391, 52.0056621]}, "properties": {"type": "inleverpunt", "locatieNaam": "Scouting Jan Van Hoof Gouda", "straatNaam": "Gouderaksedijk", "straatNr": "30A", "postcode": "2808 NG", "plaats": "Gouda", "merk": "StatiegeldNederland", "puntType": "balie", "materialen": ["pet-groot", "pet-klein", "blik"], "uitbetaling": [], "vrijToegankelijk": false, "gemeenteBeperking": null, "openingstijden": {"ma": "Gesloten", "di": "Gesloten", "wo": "Gesloten", "do": "Gesloten", "vr": "20:00–01:00", "za": "10:00–17:00", "zo": "Gesloten"}, "latitude": 52.0056621, "longitude": 4.7155391, "bronId": "257996"}}, {"type": "Feature", "geometry": {"type": "Point", "coordinates": [4.683977, 52.023214]}, "properties": {"type": "inleverpunt", "locatieNaam": "Shell", "straatNaam": "Goudsepoort OZ", "straatNr": "2", "postcode": "2803 PJ", "plaats": "Gouda", "merk": "StatiegeldNederland", "puntType": "balie", "materialen": ["pet-groot", "pet-klein", "blik"], "uitbetaling": [], "vrijToegankelijk": true, "gemeenteBeperking": null, "openingstijden": {"ma": "24 uur geopend", "di": "24 uur geopend", "wo": "24 uur geopend", "do": "24 uur geopend", "vr": "24 uur geopend", "za": "24 uur geopend", "zo": "24 uur geopend"}, "latitude": 52.023214, "longitude": 4.683977, "bronId": "258071"}}, {"type": "Feature", "geometry": {"type": "Point", "coordinates": [4.6816963, 52.0250548]}, "properties": {"type": "inleverpunt", "locatieNaam": "Shell", "straatNaam": "Goudsepoort WZ", "straatNr": "1", "postcode": "2803 PJ", "plaats": "Gouda", "merk": "StatiegeldNederland", "puntType": "balie", "materialen": ["pet-groot", "pet-klein", "blik"], "uitbetaling": [], "vrijToegankelijk": true, "gemeenteBeperking": null, "openingstijden": {"ma": "24 uur geopend", "di": "24 uur geopend", "wo": "24 uur geopend", "do": "24 uur geopend", "vr": "24 uur geopend", "za": "24 uur geopend", "zo": "24 uur geopend"}, "latitude": 52.0250548, "longitude": 4.6816963, "bronId": "258072"}}, {"type": "Feature", "geometry": {"type": "Point", "coordinates": [4.705267, 52.039513]}, "properties": {"type": "inleverpunt", "locatieNaam": "Shell", "straatNaam": "Rijksweg A12/E30/E25 ZZ", "straatNr": "", "postcode": "2804 VW", "plaats": "Reeuwijkgouda", "merk": "StatiegeldNederland", "puntType": "balie", "materialen": ["pet-groot", "pet-klein", "blik"], "uitbetaling": [], "vrijToegankelijk": true, "gemeenteBeperking": null, "openingstijden": {"ma": "24 uur geopend", "di": "24 uur geopend", "wo": "24 uur geopend", "do": "24 uur geopend", "vr": "24 uur geopend", "za": "24 uur geopend", "zo": "24 uur geopend"}, "latitude": 52.039513, "longitude": 4.705267, "bronId": "258179"}}, {"type": "Feature", "geometry": {"type": "Point", "coordinates": [4.707196, 52.0167017]}, "properties": {"type": "inleverpunt", "locatieNaam": "Spar", "straatNaam": "Stationsplein", "straatNr": "1d", "postcode": "2801 AK", "plaats": "Gouda", "merk": "StatiegeldNederland", "puntType": "automaat", "materialen": ["pet-groot", "pet-klein", "blik"], "uitbetaling": [], "vrijToegankelijk": true, "gemeenteBeperking": null, "openingstijden": null, "latitude": 52.0167017, "longitude": 4.707196, "bronId": "258507"}}, {"type": "Feature", "geometry": {"type": "Point", "coordinates": [4.7071978, 52.016444]}, "properties": {"type": "inleverpunt", "locatieNaam": "Spar City", "straatNaam": "STATIONSPLEIN", "straatNr": "1D", "postcode": "2801 AK", "plaats": "Gouda", "merk": "StatiegeldNederland", "puntType": "balie", "materialen": ["pet-groot", "pet-klein", "blik"], "uitbetaling": [], "vrijToegankelijk": true, "gemeenteBeperking": null, "openingstijden": {"ma": "07:00–22:00", "di": "07:00–22:00", "wo": "07:00–22:00", "do": "07:00–22:00", "vr": "07:00–22:00", "za": "08:00–22:00", "zo": "09:00–18:00"}, "latitude": 52.016444, "longitude": 4.7071978, "bronId": "258520"}}, {"type": "Feature", "geometry": {"type": "Point", "coordinates": [4.6895861, 52.0299814]}, "properties": {"type": "inleverpunt", "locatieNaam": "ViaTim", "straatNaam": "Akeleistraat", "straatNr": "18", "postcode": "2803 SP", "plaats": "Gouda", "merk": "StatiegeldNederland", "puntType": "balie", "materialen": ["pet-groot", "pet-klein", "blik"], "uitbetaling": ["tikkie"], "vrijToegankelijk": true, "gemeenteBeperking": null, "openingstijden": {"ma": "09:00–13:00, 14:30–21:00", "di": "14:00–21:00", "wo": "09:00–21:00", "do": "09:00–13:00, 15:00–21:00", "vr": "09:00–21:00", "za": "09:00–13:30", "zo": "Gesloten"}, "latitude": 52.0299814, "longitude": 4.6895861, "bronId": "259202"}}, {"type": "Feature", "geometry": {"type": "Point", "coordinates": [4.718534, 52.0150445]}, "properties": {"type": "inleverpunt", "locatieNaam": "ViaTim", "straatNaam": "Gregorius Coolstraat", "straatNr": "23", "postcode": "2806 RZ", "plaats": "Gouda", "merk": "StatiegeldNederland", "puntType": "balie", "materialen": ["pet-groot", "pet-klein", "blik"], "uitbetaling": ["tikkie"], "vrijToegankelijk": true, "gemeenteBeperking": null, "openingstijden": null, "latitude": 52.0150445, "longitude": 4.718534, "bronId": "259298"}}, {"type": "Feature", "geometry": {"type": "Point", "coordinates": [4.74514, 52.01054]}, "properties": {"type": "inleverpunt", "locatieNaam": "Dirk Gouda", "straatNaam": "Poldermolenplein", "straatNr": "27", "postcode": "2807 GX", "plaats": "Gouda", "merk": "StichtingOPEN", "puntType": "balie", "materialen": ["batterijen", "lampen"], "uitbetaling": [], "vrijToegankelijk": false, "gemeenteBeperking": null, "openingstijden": null, "latitude": 52.01054, "longitude": 4.74514, "bronId": "SP00030152"}}, {"type": "Feature", "geometry": {"type": "Point", "coordinates": [4.74498, 52.010752]}, "properties": {"type": "inleverpunt", "locatieNaam": "Kruidvat Gouda", "straatNaam": "Middenmolenplein", "straatNr": "102", "postcode": "2807 GZ", "plaats": "Gouda", "merk": "StichtingOPEN", "puntType": "balie", "materialen": ["batterijen", "lampen"], "uitbetaling": [], "vrijToegankelijk": false, "gemeenteBeperking": null, "openingstijden": null, "latitude": 52.010752, "longitude": 4.74498, "bronId": "SP00024616"}}, {"type": "Feature", "geometry": {"type": "Point", "coordinates": [4.743419, 52.01152]}, "properties": {"type": "inleverpunt", "locatieNaam": "1579 Albert Heijn Gouda", "straatNaam": "Middenmolenplein", "straatNr": "64", "postcode": "2807 GZ", "plaats": "Gouda", "merk": "StichtingOPEN", "puntType": "balie", "materialen": ["batterijen", "elektro-klein", "lampen"], "uitbetaling": [], "vrijToegankelijk": false, "gemeenteBeperking": null, "openingstijden": null, "latitude": 52.01152, "longitude": 4.743419, "bronId": "SP00022797"}}, {"type": "Feature", "geometry": {"type": "Point", "coordinates": [4.731992, 52.010238]}, "properties": {"type": "inleverpunt", "locatieNaam": "Lidl Gouda", "straatNaam": "Sportlaan", "straatNr": "4b", "postcode": "2806 HC", "plaats": "Gouda", "merk": "StichtingOPEN", "puntType": "balie", "materialen": ["batterijen", "lampen"], "uitbetaling": [], "vrijToegankelijk": false, "gemeenteBeperking": null, "openingstijden": null, "latitude": 52.010238, "longitude": 4.731992, "bronId": "SP00025683"}}, {"type": "Feature", "geometry": {"type": "Point", "coordinates": [4.731803, 52.010428]}, "properties": {"type": "inleverpunt", "locatieNaam": "Jumbo Gouda", "straatNaam": "Sportlaan", "straatNr": "4a", "postcode": "2806 HC", "plaats": "Gouda", "merk": "StichtingOPEN", "puntType": "balie", "materialen": ["batterijen", "lampen"], "uitbetaling": [], "vrijToegankelijk": false, "gemeenteBeperking": null, "openingstijden": null, "latitude": 52.010428, "longitude": 4.731803, "bronId": "SP00025474"}}, {"type": "Feature", "geometry": {"type": "Point", "coordinates": [4.723506, 52.022306]}, "properties": {"type": "inleverpunt", "locatieNaam": "MCD Gouda", "straatNaam": "Driewegplein", "straatNr": "3", "postcode": "2805 HV", "plaats": "Gouda", "merk": "StichtingOPEN", "puntType": "balie", "materialen": ["batterijen", "lampen"], "uitbetaling": [], "vrijToegankelijk": false, "gemeenteBeperking": null, "openingstijden": null, "latitude": 52.022306, "longitude": 4.723506, "bronId": "SP00023393"}}, {"type": "Feature", "geometry": {"type": "Point", "coordinates": [4.72328, 52.014228]}, "properties": {"type": "inleverpunt", "locatieNaam": "Stichting Kringloop Gouda", "straatNaam": "Joubertstraat", "straatNr": "34", "postcode": "2806 GE", "plaats": "Gouda", "merk": "StichtingOPEN", "puntType": "balie", "materialen": ["batterijen", "elektro-groot", "elektro-klein", "elektro-middel", "lampen", "tl-buizen"], "uitbetaling": [], "vrijToegankelijk": false, "gemeenteBeperking": null, "openingstijden": null, "latitude": 52.014228, "longitude": 4.72328, "bronId": "SP00020314"}}, {"type": "Feature", "geometry": {"type": "Point", "coordinates": [4.709423, 52.021728]}, "properties": {"type": "inleverpunt", "locatieNaam": "PLUS Gouda", "straatNaam": "Thorbeckelaan", "straatNr": "1", "postcode": "2805 CA", "plaats": "Gouda", "merk": "StichtingOPEN", "puntType": "balie", "materialen": ["batterijen", "lampen"], "uitbetaling": [], "vrijToegankelijk": false, "gemeenteBeperking": null, "openingstijden": null, "latitude": 52.021728, "longitude": 4.709423, "bronId": "SP00024189"}}, {"type": "Feature", "geometry": {"type": "Point", "coordinates": [4.71196, 52.01376]}, "properties": {"type": "inleverpunt", "locatieNaam": "Kruidvat Gouda", "straatNaam": "Nieuwe-Marktpassage", "straatNr": "14", "postcode": "2801 HV", "plaats": "Gouda", "merk": "StichtingOPEN", "puntType": "balie", "materialen": ["batterijen", "lampen"], "uitbetaling": [], "vrijToegankelijk": false, "gemeenteBeperking": null, "openingstijden": null, "latitude": 52.01376, "longitude": 4.71196, "bronId": "SP00029750"}}, {"type": "Feature", "geometry": {"type": "Point", "coordinates": [4.704528, 52.031757]}, "properties": {"type": "inleverpunt", "locatieNaam": "1274 Albert Heijn Gouda", "straatNaam": "Lekkenburg", "straatNr": "3", "postcode": "2804 XA", "plaats": "Gouda", "merk": "StichtingOPEN", "puntType": "balie", "materialen": ["batterijen", "elektro-klein", "lampen"], "uitbetaling": [], "vrijToegankelijk": false, "gemeenteBeperking": null, "openingstijden": null, "latitude": 52.031757, "longitude": 4.704528, "bronId": "SP00022813"}}, {"type": "Feature", "geometry": {"type": "Point", "coordinates": [4.703424, 52.032723]}, "properties": {"type": "inleverpunt", "locatieNaam": "Jumbo Gouda", "straatNaam": "Ruigenburg", "straatNr": "2", "postcode": "2804 VT", "plaats": "Gouda", "merk": "StichtingOPEN", "puntType": "balie", "materialen": ["batterijen", "lampen"], "uitbetaling": [], "vrijToegankelijk": false, "gemeenteBeperking": null, "openingstijden": null, "latitude": 52.032723, "longitude": 4.703424, "bronId": "SP00025198"}}, {"type": "Feature", "geometry": {"type": "Point", "coordinates": [4.70955, 52.014503]}, "properties": {"type": "inleverpunt", "locatieNaam": "Kruidvat Gouda", "straatNaam": "Kleiweg", "straatNr": "7781", "postcode": "2801 GD", "plaats": "Gouda", "merk": "StichtingOPEN", "puntType": "balie", "materialen": ["batterijen", "lampen"], "uitbetaling": [], "vrijToegankelijk": false, "gemeenteBeperking": null, "openingstijden": null, "latitude": 52.014503, "longitude": 4.70955, "bronId": "SP00024618"}}, {"type": "Feature", "geometry": {"type": "Point", "coordinates": [4.702932, 52.031829]}, "properties": {"type": "inleverpunt", "locatieNaam": "Kruidvat Gouda", "straatNaam": "Gildenburg", "straatNr": "74", "postcode": "2804 VK", "plaats": "Gouda", "merk": "StichtingOPEN", "puntType": "balie", "materialen": ["batterijen", "elektro-klein", "lampen"], "uitbetaling": [], "vrijToegankelijk": false, "gemeenteBeperking": null, "openingstijden": null, "latitude": 52.031829, "longitude": 4.702932, "bronId": "SP00024631"}}, {"type": "Feature", "geometry": {"type": "Point", "coordinates": [4.70983, 52.012153]}, "properties": {"type": "inleverpunt", "locatieNaam": "1359 Albert Heijn Gouda", "straatNaam": "Markt", "straatNr": "50", "postcode": "2801 JL", "plaats": "Gouda", "merk": "StichtingOPEN", "puntType": "balie", "materialen": ["batterijen"], "uitbetaling": [], "vrijToegankelijk": false, "gemeenteBeperking": null, "openingstijden": null, "latitude": 52.012153, "longitude": 4.70983, "bronId": "SP00022799"}}, {"type": "Feature", "geometry": {"type": "Point", "coordinates": [4.707005, 52.016481]}, "properties": {"type": "inleverpunt", "locatieNaam": "Spar Gouda", "straatNaam": "Stationsplein", "straatNr": "1D", "postcode": "2801 AK", "plaats": "Gouda", "merk": "StichtingOPEN", "puntType": "balie", "materialen": ["batterijen", "lampen"], "uitbetaling": [], "vrijToegankelijk": false, "gemeenteBeperking": null, "openingstijden": null, "latitude": 52.016481, "longitude": 4.707005, "bronId": "SP00031426"}}, {"type": "Feature", "geometry": {"type": "Point", "coordinates": [4.709617, 52.00838]}, "properties": {"type": "inleverpunt", "locatieNaam": "Expert van Dongen Gouda", "straatNaam": "Keizerstraat", "straatNr": "76", "postcode": "2801 NM", "plaats": "Gouda", "merk": "StichtingOPEN", "puntType": "balie", "materialen": ["batterijen", "elektro-groot", "elektro-klein", "elektro-middel"], "uitbetaling": [], "vrijToegankelijk": false, "gemeenteBeperking": null, "openingstijden": null, "latitude": 52.00838, "longitude": 4.709617, "bronId": "SP00002247"}}, {"type": "Feature", "geometry": {"type": "Point", "coordinates": [4.696073, 52.032142]}, "properties": {"type": "inleverpunt", "locatieNaam": "Kinderboerderij De Goudse Hofsteden", "straatNaam": "Bloemendaalseweg", "straatNr": "34a", "postcode": "2804 AB", "plaats": "Gouda", "merk": "StichtingOPEN", "puntType": "balie", "materialen": ["elektro-klein"], "uitbetaling": [], "vrijToegankelijk": false, "gemeenteBeperking": null, "openingstijden": null, "latitude": 52.032142, "longitude": 4.696073, "bronId": "SP00005459"}}, {"type": "Feature", "geometry": {"type": "Point", "coordinates": [4.695548, 52.025204]}, "properties": {"type": "inleverpunt", "locatieNaam": "Coop Gouda", "straatNaam": "Vuurdoornlaan", "straatNr": "10", "postcode": "2803 BB", "plaats": "Gouda", "merk": "StichtingOPEN", "puntType": "balie", "materialen": ["batterijen", "lampen"], "uitbetaling": [], "vrijToegankelijk": false, "gemeenteBeperking": null, "openingstijden": null, "latitude": 52.025204, "longitude": 4.695548, "bronId": "SP00028593"}}, {"type": "Feature", "geometry": {"type": "Point", "coordinates": [4.69549, 52.025332]}, "properties": {"type": "inleverpunt", "locatieNaam": "PLUS Gouda", "straatNaam": "Vuurdoornlaan", "straatNr": "10", "postcode": "2803 BB", "plaats": "Gouda", "merk": "StichtingOPEN", "puntType": "balie", "materialen": ["batterijen", "lampen"], "uitbetaling": [], "vrijToegankelijk": false, "gemeenteBeperking": null, "openingstijden": null, "latitude": 52.025332, "longitude": 4.69549, "bronId": "SP00035742"}}, {"type": "Feature", "geometry": {"type": "Point", "coordinates": [4.70066, 52.00951]}, "properties": {"type": "inleverpunt", "locatieNaam": "Lidl Gouda", "straatNaam": "Westerkade", "straatNr": "4", "postcode": "2802 SL", "plaats": "Gouda", "merk": "StichtingOPEN", "puntType": "balie", "materialen": ["batterijen", "lampen"], "uitbetaling": [], "vrijToegankelijk": false, "gemeenteBeperking": null, "openingstijden": null, "latitude": 52.00951, "longitude": 4.70066, "bronId": "SP00029968"}}, {"type": "Feature", "geometry": {"type": "Point", "coordinates": [4.701767, 52.005677]}, "properties": {"type": "inleverpunt", "locatieNaam": "PLUS Gouda", "straatNaam": "Constantijn Huygensstraat", "straatNr": "110", "postcode": "2802 LZ", "plaats": "Gouda", "merk": "StichtingOPEN", "puntType": "balie", "materialen": ["batterijen", "lampen"], "uitbetaling": [], "vrijToegankelijk": false, "gemeenteBeperking": null, "openingstijden": null, "latitude": 52.005677, "longitude": 4.701767, "bronId": "SP00024014"}}, {"type": "Feature", "geometry": {"type": "Point", "coordinates": [4.690213, 52.029337]}, "properties": {"type": "inleverpunt", "locatieNaam": "270 Hoogvliet Gouda", "straatNaam": "Plataanstraat", "straatNr": "6", "postcode": "2803 SW", "plaats": "Gouda", "merk": "StichtingOPEN", "puntType": "balie", "materialen": ["batterijen", "lampen"], "uitbetaling": [], "vrijToegankelijk": false, "gemeenteBeperking": null, "openingstijden": null, "latitude": 52.029337, "longitude": 4.690213, "bronId": "SP00023922"}}, {"type": "Feature", "geometry": {"type": "Point", "coordinates": [4.692357, 52.016818]}, "properties": {"type": "inleverpunt", "locatieNaam": "220 Hoogvliet Gouda", "straatNaam": "Nieuwe Gouwe O.Z.", "straatNr": "2d", "postcode": "2801 SB", "plaats": "Gouda", "merk": "StichtingOPEN", "puntType": "balie", "materialen": ["batterijen", "lampen"], "uitbetaling": [], "vrijToegankelijk": false, "gemeenteBeperking": null, "openingstijden": null, "latitude": 52.016818, "longitude": 4.692357, "bronId": "SP00023918"}}, {"type": "Feature", "geometry": {"type": "Point", "coordinates": [4.691124, 52.010703]}, "properties": {"type": "inleverpunt", "locatieNaam": "Praxis Gouda - 2066", "straatNaam": "Goudkade", "straatNr": "1", "postcode": "2802 AA", "plaats": "Gouda", "merk": "StichtingOPEN", "puntType": "balie", "materialen": ["elektro-klein", "elektro-middel", "lampen", "tl-buizen"], "uitbetaling": [], "vrijToegankelijk": false, "gemeenteBeperking": null, "openingstijden": null, "latitude": 52.010703, "longitude": 4.691124, "bronId": "SP00004614"}}, {"type": "Feature", "geometry": {"type": "Point", "coordinates": [4.690439, 52.011186]}, "properties": {"type": "inleverpunt", "locatieNaam": "Action Gouda 1273", "straatNaam": "Goudkade", "straatNr": "4", "postcode": "2802 AA", "plaats": "Gouda", "merk": "StichtingOPEN", "puntType": "balie", "materialen": ["batterijen", "lampen"], "uitbetaling": [], "vrijToegankelijk": false, "gemeenteBeperking": null, "openingstijden": null, "latitude": 52.011186, "longitude": 4.690439, "bronId": "SP00007845"}}, {"type": "Feature", "geometry": {"type": "Point", "coordinates": [4.688779, 52.014321]}, "properties": {"type": "inleverpunt", "locatieNaam": "Milieustraat Gouda", "straatNaam": "Goudkade", "straatNr": "40", "postcode": "2802 AA", "plaats": "Gouda", "merk": "StichtingOPEN", "puntType": "balie", "materialen": ["batterijen", "elektro-groot", "elektro-klein", "elektro-middel", "lampen", "tl-buizen"], "uitbetaling": [], "vrijToegankelijk": false, "gemeenteBeperking": null, "openingstijden": null, "latitude": 52.014321, "longitude": 4.688779, "bronId": "SP00038465"}}, {"type": "Feature", "geometry": {"type": "Point", "coordinates": [4.691243, 52.003858]}, "properties": {"type": "inleverpunt", "locatieNaam": "229 - Isero Gouda", "straatNaam": "Marconistraat", "straatNr": "26", "postcode": "2809 PD", "plaats": "Gouda", "merk": "StichtingOPEN", "puntType": "balie", "materialen": ["elektro-klein", "lampen", "tl-buizen"], "uitbetaling": [], "vrijToegankelijk": false, "gemeenteBeperking": null, "openingstijden": null, "latitude": 52.003858, "longitude": 4.691243, "bronId": "SP00032823"}}, {"type": "Feature", "geometry": {"type": "Point", "coordinates": [4.691466, 52.003061]}, "properties": {"type": "inleverpunt", "locatieNaam": "30 - Bouwmaat Gouda", "straatNaam": "Marconistraat", "straatNr": "27", "postcode": "2809 PH", "plaats": "Gouda", "merk": "StichtingOPEN", "puntType": "balie", "materialen": ["elektro-klein", "lampen", "tl-buizen"], "uitbetaling": [], "vrijToegankelijk": false, "gemeenteBeperking": null, "openingstijden": null, "latitude": 52.003061, "longitude": 4.691466, "bronId": "SP00033235"}}, {"type": "Feature", "geometry": {"type": "Point", "coordinates": [4.690268, 52.004435]}, "properties": {"type": "inleverpunt", "locatieNaam": "Technische Unie VK Gouda", "straatNaam": "Marconistraat", "straatNr": "36", "postcode": "2809 PE", "plaats": "Gouda", "merk": "StichtingOPEN", "puntType": "balie", "materialen": ["lampen", "tl-buizen"], "uitbetaling": [], "vrijToegankelijk": false, "gemeenteBeperking": null, "openingstijden": null, "latitude": 52.004435, "longitude": 4.690268, "bronId": "SP00003528"}}, {"type": "Feature", "geometry": {"type": "Point", "coordinates": [4.686846, 52.004737]}, "properties": {"type": "inleverpunt", "locatieNaam": "KARWEI Gouda", "straatNaam": "Marconistraat", "straatNr": "121", "postcode": "2809 PG", "plaats": "Gouda", "merk": "StichtingOPEN", "puntType": "balie", "materialen": ["elektro-middel", "lampen", "tl-buizen"], "uitbetaling": [], "vrijToegankelijk": false, "gemeenteBeperking": null, "openingstijden": null, "latitude": 52.004737, "longitude": 4.686846, "bronId": "SP00003675"}}, {"type": "Feature", "geometry": {"type": "Point", "coordinates": [4.677339, 52.0232]}, "properties": {"type": "inleverpunt", "locatieNaam": "Stichting Kringloop Gouda (dependance)", "straatNaam": "Zwolleweg", "straatNr": "5", "postcode": "2803 PS", "plaats": "Gouda", "merk": "StichtingOPEN", "puntType": "balie", "materialen": ["elektro-middel"], "uitbetaling": [], "vrijToegankelijk": false, "gemeenteBeperking": null, "openingstijden": null, "latitude": 52.0232, "longitude": 4.677339, "bronId": "SP00030963"}}, {"type": "Feature", "geometry": {"type": "Point", "coordinates": [4.675773, 52.024838]}, "properties": {"type": "inleverpunt", "locatieNaam": "GAMMA Gouda", "straatNaam": "Elburgplein", "straatNr": "7", "postcode": "2803 PX", "plaats": "Gouda", "merk": "StichtingOPEN", "puntType": "balie", "materialen": ["batterijen", "elektro-middel", "lampen", "tl-buizen"], "uitbetaling": [], "vrijToegankelijk": false, "gemeenteBeperking": null, "openingstijden": null, "latitude": 52.024838, "longitude": 4.675773, "bronId": "SP00006477"}}, {"type": "Feature", "geometry": {"type": "Point", "coordinates": [4.681201, 52.002696]}, "properties": {"type": "inleverpunt", "locatieNaam": "Albert Heijn Emmeloord", "straatNaam": "Burgemeester van Dijkesingel", "straatNr": "53", "postcode": "2809 RB", "plaats": "Gouda", "merk": "StichtingOPEN", "puntType": "balie", "materialen": ["batterijen", "lampen"], "uitbetaling": [], "vrijToegankelijk": false, "gemeenteBeperking": null, "openingstijden": null, "latitude": 52.002696, "longitude": 4.681201, "bronId": "SP00030084"}}, {"type": "Feature", "geometry": {"type": "Point", "coordinates": [4.68787, 52.014068]}, "properties": {"type": "inleverpunt", "locatieNaam": "Milieustraat Gouda", "straatNaam": "Goudkade", "straatNr": "23", "postcode": "2802 AA", "plaats": "Gouda", "merk": "StichtingOPEN", "puntType": "milieustraat", "materialen": ["batterijen", "elektro-groot", "elektro-klein", "elektro-middel", "lampen", "tl-buizen"], "uitbetaling": [], "vrijToegankelijk": false, "gemeenteBeperking": ["Gouda"], "openingstijden": null, "latitude": 52.014068, "longitude": 4.68787, "bronId": "SP00004313"}}, {"type": "Feature", "geometry": {"type": "Point", "coordinates": [4.678523, 52.023855]}, "properties": {"type": "inleverpunt", "locatieNaam": "RataPlan Gouda", "straatNaam": "Burgemeester van Reenensingel", "straatNr": "131", "postcode": "2803 PA", "plaats": "Gouda", "merk": "StichtingOPEN", "puntType": "milieustraat", "materialen": ["batterijen", "elektro-groot", "elektro-klein", "elektro-middel", "lampen", "tl-buizen"], "uitbetaling": [], "vrijToegankelijk": false, "gemeenteBeperking": ["Gouda"], "openingstijden": null, "latitude": 52.023855, "longitude": 4.678523, "bronId": "SP00005360"}}, {"type": "Feature", "geometry": {"type": "Point", "coordinates": [4.7453231, 52.0108395]}, "properties": {"type": "inleverpunt", "locatieNaam": "Kruidvat", "straatNaam": "Middenmolenplein", "straatNr": "102", "postcode": "2807 GZ", "plaats": "GOUDA", "merk": "Stibat", "puntType": "inzamelbak", "materialen": ["batterijen"], "uitbetaling": [], "vrijToegankelijk": false, "gemeenteBeperking": null, "openingstijden": null, "latitude": 52.0108395, "longitude": 4.7453231, "bronId": "L016211"}}, {"type": "Feature", "geometry": {"type": "Point", "coordinates": [4.7448953, 52.0104478]}, "properties": {"type": "inleverpunt", "locatieNaam": "Dirk", "straatNaam": "Poldermolenplein", "straatNr": "27", "postcode": "2807 GX", "plaats": "GOUDA", "merk": "Stibat", "puntType": "inzamelbak", "materialen": ["batterijen"], "uitbetaling": [], "vrijToegankelijk": false, "gemeenteBeperking": null, "openingstijden": null, "latitude": 52.0104478, "longitude": 4.7448953, "bronId": "L042152"}}, {"type": "Feature", "geometry": {"type": "Point", "coordinates": [4.7448645, 52.0104387]}, "properties": {"type": "inleverpunt", "locatieNaam": "Zeeman", "straatNaam": "Poldermolendreef", "straatNr": "47", "postcode": "2807 HA", "plaats": "GOUDA", "merk": "Stibat", "puntType": "inzamelbak", "materialen": ["batterijen"], "uitbetaling": [], "vrijToegankelijk": false, "gemeenteBeperking": null, "openingstijden": null, "latitude": 52.0104387, "longitude": 4.7448645, "bronId": "L038203"}}, {"type": "Feature", "geometry": {"type": "Point", "coordinates": [4.744633, 52.010827]}, "properties": {"type": "inleverpunt", "locatieNaam": "Greenbytes", "straatNaam": "Poldermolendreef", "straatNr": "37", "postcode": "2807 HA", "plaats": "GOUDA", "merk": "Stibat", "puntType": "inzamelbak", "materialen": ["batterijen"], "uitbetaling": [], "vrijToegankelijk": false, "gemeenteBeperking": null, "openingstijden": null, "latitude": 52.010827, "longitude": 4.744633, "bronId": "L042147"}}, {"type": "Feature", "geometry": {"type": "Point", "coordinates": [4.7442166, 52.0110771]}, "properties": {"type": "inleverpunt", "locatieNaam": "Besteman Tweewielers", "straatNaam": "Middenmolenplein", "straatNr": "82", "postcode": "2807 GZ", "plaats": "GOUDA", "merk": "Stibat", "puntType": "inzamelbak", "materialen": ["batterijen"], "uitbetaling": [], "vrijToegankelijk": false, "gemeenteBeperking": null, "openingstijden": null, "latitude": 52.0110771, "longitude": 4.7442166, "bronId": "L033034"}}, {"type": "Feature", "geometry": {"type": "Point", "coordinates": [4.744187, 52.0108901]}, "properties": {"type": "inleverpunt", "locatieNaam": "Books and Gifts Goverwelle", "straatNaam": "Poldermolendreef", "straatNr": "29", "postcode": "2807 HA", "plaats": "GOUDA", "merk": "Stibat", "puntType": "inzamelbak", "materialen": ["batterijen"], "uitbetaling": [], "vrijToegankelijk": false, "gemeenteBeperking": null, "openingstijden": null, "latitude": 52.0108901, "longitude": 4.744187, "bronId": "L046554"}}, {"type": "Feature", "geometry": {"type": "Point", "coordinates": [4.7441053, 52.0109766]}, "properties": {"type": "inleverpunt", "locatieNaam": "Primera", "straatNaam": "Poldermolendreef", "straatNr": "27", "postcode": "2807 HA", "plaats": "GOUDA", "merk": "Stibat", "puntType": "inzamelbak", "materialen": ["batterijen"], "uitbetaling": [], "vrijToegankelijk": false, "gemeenteBeperking": null, "openingstijden": null, "latitude": 52.0109766, "longitude": 4.7441053, "bronId": "L047408"}}, {"type": "Feature", "geometry": {"type": "Point", "coordinates": [4.743422, 52.0115229]}, "properties": {"type": "inleverpunt", "locatieNaam": "1579 Albert Heijn", "straatNaam": "Middenmolenplein", "straatNr": "64", "postcode": "2807 GZ", "plaats": "GOUDA", "merk": "Stibat", "puntType": "inzamelbak", "materialen": ["batterijen"], "uitbetaling": [], "vrijToegankelijk": false, "gemeenteBeperking": null, "openingstijden": null, "latitude": 52.0115229, "longitude": 4.743422, "bronId": "L006866"}}, {"type": "Feature", "geometry": {"type": "Point", "coordinates": [4.733313, 52.0172064]}, "properties": {"type": "inleverpunt", "locatieNaam": "Hoogeveen Fietsbeleving", "straatNaam": "Goudvlinderstraat", "straatNr": "2-4", "postcode": "2805 KL", "plaats": "GOUDA", "merk": "Stibat", "puntType": "inzamelbak", "materialen": ["batterijen"], "uitbetaling": [], "vrijToegankelijk": false, "gemeenteBeperking": null, "openingstijden": null, "latitude": 52.0172064, "longitude": 4.733313, "bronId": "L033033"}}, {"type": "Feature", "geometry": {"type": "Point", "coordinates": [4.7300535, 52.0103645]}, "properties": {"type": "inleverpunt", "locatieNaam": "Jumbo", "straatNaam": "Sportlaan", "straatNr": "4A", "postcode": "2806 HC", "plaats": "GOUDA", "merk": "Stibat", "puntType": "inzamelbak", "materialen": ["batterijen"], "uitbetaling": [], "vrijToegankelijk": false, "gemeenteBeperking": null, "openingstijden": null, "latitude": 52.0103645, "longitude": 4.7300535, "bronId": "L038606"}}, {"type": "Feature", "geometry": {"type": "Point", "coordinates": [4.7300535, 52.0103645]}, "properties": {"type": "inleverpunt", "locatieNaam": "Lidl", "straatNaam": "Sportlaan", "straatNr": "4B", "postcode": "2806 HC", "plaats": "GOUDA", "merk": "Stibat", "puntType": "inzamelbak", "materialen": ["batterijen"], "uitbetaling": [], "vrijToegankelijk": false, "gemeenteBeperking": null, "openingstijden": null, "latitude": 52.0103645, "longitude": 4.7300535, "bronId": "L017933"}}, {"type": "Feature", "geometry": {"type": "Point", "coordinates": [4.7093659, 52.0216485]}, "properties": {"type": "inleverpunt", "locatieNaam": "PLUS", "straatNaam": "Thorbeckelaan", "straatNr": "1", "postcode": "2805 CA", "plaats": "GOUDA", "merk": "Stibat", "puntType": "inzamelbak", "materialen": ["batterijen"], "uitbetaling": [], "vrijToegankelijk": false, "gemeenteBeperking": null, "openingstijden": null, "latitude": 52.0216485, "longitude": 4.7093659, "bronId": "L008359"}}, {"type": "Feature", "geometry": {"type": "Point", "coordinates": [4.7119628, 52.0137644]}, "properties": {"type": "inleverpunt", "locatieNaam": "Kruidvat", "straatNaam": "Nieuwe Marktpassage", "straatNr": "14", "postcode": "2801 HV", "plaats": "GOUDA", "merk": "Stibat", "puntType": "inzamelbak", "materialen": ["batterijen"], "uitbetaling": [], "vrijToegankelijk": false, "gemeenteBeperking": null, "openingstijden": null, "latitude": 52.0137644, "longitude": 4.7119628, "bronId": "L015517"}}, {"type": "Feature", "geometry": {"type": "Point", "coordinates": [4.7054373, 52.0318349]}, "properties": {"type": "inleverpunt", "locatieNaam": "Zeeman", "straatNaam": "Lekkenburg", "straatNr": "11a", "postcode": "2804 XA", "plaats": "GOUDA", "merk": "Stibat", "puntType": "inzamelbak", "materialen": ["batterijen"], "uitbetaling": [], "vrijToegankelijk": false, "gemeenteBeperking": null, "openingstijden": null, "latitude": 52.0318349, "longitude": 4.7054373, "bronId": "L034792"}}, {"type": "Feature", "geometry": {"type": "Point", "coordinates": [4.7117507, 52.0137228]}, "properties": {"type": "inleverpunt", "locatieNaam": "Wibra", "straatNaam": "Nieuwe-Marktpassage", "straatNr": "16-20", "postcode": "2801 HV", "plaats": "GOUDA", "merk": "Stibat", "puntType": "inzamelbak", "materialen": ["batterijen"], "uitbetaling": [], "vrijToegankelijk": false, "gemeenteBeperking": null, "openingstijden": null, "latitude": 52.0137228, "longitude": 4.7117507, "bronId": "L041762"}}, {"type": "Feature", "geometry": {"type": "Point", "coordinates": [4.7116189, 52.0135131]}, "properties": {"type": "inleverpunt", "locatieNaam": "Bruna", "straatNaam": "Nieuwe-Marktpassage", "straatNr": "6", "postcode": "2801 HV", "plaats": "GOUDA", "merk": "Stibat", "puntType": "inzamelbak", "materialen": ["batterijen"], "uitbetaling": [], "vrijToegankelijk": false, "gemeenteBeperking": null, "openingstijden": null, "latitude": 52.0135131, "longitude": 4.7116189, "bronId": "L024654"}}, {"type": "Feature", "geometry": {"type": "Point", "coordinates": [4.7110523, 52.0145407]}, "properties": {"type": "inleverpunt", "locatieNaam": "EOS Verlichting", "straatNaam": "Agnietenstraat", "straatNr": "48", "postcode": "2801 HX", "plaats": "GOUDA", "merk": "Stibat", "puntType": "inzamelbak", "materialen": ["batterijen"], "uitbetaling": [], "vrijToegankelijk": false, "gemeenteBeperking": null, "openingstijden": null, "latitude": 52.0145407, "longitude": 4.7110523, "bronId": "L042133"}}, {"type": "Feature", "geometry": {"type": "Point", "coordinates": [4.7111462, 52.0142047]}, "properties": {"type": "inleverpunt", "locatieNaam": "Plus", "straatNaam": "Nieuwe-Marktpassage", "straatNr": "30", "postcode": "2801 HV", "plaats": "GOUDA", "merk": "Stibat", "puntType": "inzamelbak", "materialen": ["batterijen"], "uitbetaling": [], "vrijToegankelijk": false, "gemeenteBeperking": null, "openingstijden": null, "latitude": 52.0142047, "longitude": 4.7111462, "bronId": "L042435"}}, {"type": "Feature", "geometry": {"type": "Point", "coordinates": [4.7045309, 52.0329055]}, "properties": {"type": "inleverpunt", "locatieNaam": "Fietspunt Bloemendaal", "straatNaam": "Ruigenburg", "straatNr": "3", "postcode": "2804 VL", "plaats": "GOUDA", "merk": "Stibat", "puntType": "inzamelbak", "materialen": ["batterijen"], "uitbetaling": [], "vrijToegankelijk": false, "gemeenteBeperking": null, "openingstijden": null, "latitude": 52.0329055, "longitude": 4.7045309, "bronId": "L049302"}}, {"type": "Feature", "geometry": {"type": "Point", "coordinates": [4.712237, 52.0111361]}, "properties": {"type": "inleverpunt", "locatieNaam": "Xenos", "straatNaam": "Lange Tiendeweg", "straatNr": "10", "postcode": "2801 KH", "plaats": "GOUDA", "merk": "Stibat", "puntType": "inzamelbak", "materialen": ["batterijen"], "uitbetaling": [], "vrijToegankelijk": false, "gemeenteBeperking": null, "openingstijden": null, "latitude": 52.0111361, "longitude": 4.712237, "bronId": "L037009"}}, {"type": "Feature", "geometry": {"type": "Point", "coordinates": [4.7044153, 52.0324303]}, "properties": {"type": "inleverpunt", "locatieNaam": "Casa", "straatNaam": "Lekkenburg", "straatNr": "15", "postcode": "2804 XA", "plaats": "GOUDA", "merk": "Stibat", "puntType": "inzamelbak", "materialen": ["batterijen"], "uitbetaling": [], "vrijToegankelijk": false, "gemeenteBeperking": null, "openingstijden": null, "latitude": 52.0324303, "longitude": 4.7044153, "bronId": "L040791"}}, {"type": "Feature", "geometry": {"type": "Point", "coordinates": [4.7107672, 52.0142205]}, "properties": {"type": "inleverpunt", "locatieNaam": "Intertoys", "straatNaam": "Agnietenstraat", "straatNr": "11", "postcode": "2801 GP", "plaats": "GOUDA", "merk": "Stibat", "puntType": "inzamelbak", "materialen": ["batterijen"], "uitbetaling": [], "vrijToegankelijk": false, "gemeenteBeperking": null, "openingstijden": null, "latitude": 52.0142205, "longitude": 4.7107672, "bronId": "L007252"}}, {"type": "Feature", "geometry": {"type": "Point", "coordinates": [4.704392, 52.0320279]}, "properties": {"type": "inleverpunt", "locatieNaam": "1274 Albert Heijn", "straatNaam": "Lekkenburg", "straatNr": "3", "postcode": "2804 XA", "plaats": "GOUDA", "merk": "Stibat", "puntType": "inzamelbak", "materialen": ["batterijen"], "uitbetaling": [], "vrijToegankelijk": false, "gemeenteBeperking": null, "openingstijden": null, "latitude": 52.0320279, "longitude": 4.704392, "bronId": "L006644"}}, {"type": "Feature", "geometry": {"type": "Point", "coordinates": [4.7042654, 52.0321574]}, "properties": {"type": "inleverpunt", "locatieNaam": "HEMA Gouda Bloemendaal", "straatNaam": "Lekkenburg", "straatNr": "11", "postcode": "2804 XA", "plaats": "Gouda", "merk": "Stibat", "puntType": "inzamelbak", "materialen": ["batterijen"], "uitbetaling": [], "vrijToegankelijk": false, "gemeenteBeperking": null, "openingstijden": null, "latitude": 52.0321574, "longitude": 4.7042654, "bronId": "L046940"}}, {"type": "Feature", "geometry": {"type": "Point", "coordinates": [4.7042654, 52.0321574]}, "properties": {"type": "inleverpunt", "locatieNaam": "The Read Shop", "straatNaam": "Lekkenburg", "straatNr": "11b", "postcode": "2804 XA", "plaats": "GOUDA", "merk": "Stibat", "puntType": "inzamelbak", "materialen": ["batterijen"], "uitbetaling": [], "vrijToegankelijk": false, "gemeenteBeperking": null, "openingstijden": null, "latitude": 52.0321574, "longitude": 4.7042654, "bronId": "L036378"}}, {"type": "Feature", "geometry": {"type": "Point", "coordinates": [4.70399, 52.031637]}, "properties": {"type": "inleverpunt", "locatieNaam": "Hans Anders", "straatNaam": "Lekkenburg", "straatNr": "47", "postcode": "2804 XB", "plaats": "GOUDA", "merk": "Stibat", "puntType": "inzamelbak", "materialen": ["batterijen"], "uitbetaling": [], "vrijToegankelijk": false, "gemeenteBeperking": null, "openingstijden": null, "latitude": 52.031637, "longitude": 4.70399, "bronId": "L037817"}}, {"type": "Feature", "geometry": {"type": "Point", "coordinates": [4.7037773, 52.0322199]}, "properties": {"type": "inleverpunt", "locatieNaam": "Schoonenberg Hoorcomfort", "straatNaam": "Lekkenburg", "straatNr": "25a", "postcode": "2804 XA", "plaats": "GOUDA", "merk": "Stibat", "puntType": "inzamelbak", "materialen": ["batterijen"], "uitbetaling": [], "vrijToegankelijk": false, "gemeenteBeperking": null, "openingstijden": null, "latitude": 52.0322199, "longitude": 4.7037773, "bronId": "L024324"}}, {"type": "Feature", "geometry": {"type": "Point", "coordinates": [4.7095063, 52.0150548]}, "properties": {"type": "inleverpunt", "locatieNaam": "ANWB", "straatNaam": "Kleiweg", "straatNr": "105", "postcode": "2801 GD", "plaats": "GOUDA", "merk": "Stibat", "puntType": "inzamelbak", "materialen": ["batterijen"], "uitbetaling": [], "vrijToegankelijk": false, "gemeenteBeperking": null, "openingstijden": null, "latitude": 52.0150548, "longitude": 4.7095063, "bronId": "L044611"}}, {"type": "Feature", "geometry": {"type": "Point", "coordinates": [4.7096236, 52.0144992]}, "properties": {"type": "inleverpunt", "locatieNaam": "Kruidvat", "straatNaam": "Kleiweg", "straatNr": "77-81", "postcode": "2801 GD", "plaats": "GOUDA", "merk": "Stibat", "puntType": "inzamelbak", "materialen": ["batterijen"], "uitbetaling": [], "vrijToegankelijk": false, "gemeenteBeperking": null, "openingstijden": null, "latitude": 52.0144992, "longitude": 4.7096236, "bronId": "L015597"}}, {"type": "Feature", "geometry": {"type": "Point", "coordinates": [4.7033782, 52.0323343]}, "properties": {"type": "inleverpunt", "locatieNaam": "Lidl", "straatNaam": "Ruigenburg", "straatNr": "2a", "postcode": "2804 VT", "plaats": "GOUDA", "merk": "Stibat", "puntType": "inzamelbak", "materialen": ["batterijen"], "uitbetaling": [], "vrijToegankelijk": false, "gemeenteBeperking": null, "openingstijden": null, "latitude": 52.0323343, "longitude": 4.7033782, "bronId": "L028273"}}, {"type": "Feature", "geometry": {"type": "Point", "coordinates": [4.7099513, 52.0135521]}, "properties": {"type": "inleverpunt", "locatieNaam": "HEMA Kleiweg", "straatNaam": "Kleiweg", "straatNr": "20", "postcode": "2801 GH", "plaats": "GOUDA", "merk": "Stibat", "puntType": "inzamelbak", "materialen": ["batterijen"], "uitbetaling": [], "vrijToegankelijk": false, "gemeenteBeperking": null, "openingstijden": null, "latitude": 52.0135521, "longitude": 4.7099513, "bronId": "L006005"}}, {"type": "Feature", "geometry": {"type": "Point", "coordinates": [4.7033736, 52.0322908]}, "properties": {"type": "inleverpunt", "locatieNaam": "Jumbo", "straatNaam": "Ruigenburg", "straatNr": "2", "postcode": "2804 VT", "plaats": "GOUDA", "merk": "Stibat", "puntType": "inzamelbak", "materialen": ["batterijen"], "uitbetaling": [], "vrijToegankelijk": false, "gemeenteBeperking": null, "openingstijden": null, "latitude": 52.0322908, "longitude": 4.7033736, "bronId": "L029260"}}, {"type": "Feature", "geometry": {"type": "Point", "coordinates": [4.7035799, 52.0315815]}, "properties": {"type": "inleverpunt", "locatieNaam": "Beter Horen", "straatNaam": "Lekkenburg", "straatNr": "55", "postcode": "2804 XB", "plaats": "GOUDA", "merk": "Stibat", "puntType": "inzamelbak", "materialen": ["batterijen"], "uitbetaling": [], "vrijToegankelijk": false, "gemeenteBeperking": null, "openingstijden": null, "latitude": 52.0315815, "longitude": 4.7035799, "bronId": "L017060"}}, {"type": "Feature", "geometry": {"type": "Point", "coordinates": [4.7032976, 52.0316639]}, "properties": {"type": "inleverpunt", "locatieNaam": "Kruidvat", "straatNaam": "Gildenburg", "straatNr": "74", "postcode": "2804 VK", "plaats": "GOUDA", "merk": "Stibat", "puntType": "inzamelbak", "materialen": ["batterijen"], "uitbetaling": [], "vrijToegankelijk": false, "gemeenteBeperking": null, "openingstijden": null, "latitude": 52.0316639, "longitude": 4.7032976, "bronId": "L014089"}}, {"type": "Feature", "geometry": {"type": "Point", "coordinates": [4.7031835, 52.0319827]}, "properties": {"type": "inleverpunt", "locatieNaam": "Primera", "straatNaam": "Gildenburg", "straatNr": "80", "postcode": "2804 VK", "plaats": "GOUDA", "merk": "Stibat", "puntType": "inzamelbak", "materialen": ["batterijen"], "uitbetaling": [], "vrijToegankelijk": false, "gemeenteBeperking": null, "openingstijden": null, "latitude": 52.0319827, "longitude": 4.7031835, "bronId": "L027553"}}, {"type": "Feature", "geometry": {"type": "Point", "coordinates": [4.703196, 52.0319374]}, "properties": {"type": "inleverpunt", "locatieNaam": "1417 Action", "straatNaam": "Gildenburg", "straatNr": "90", "postcode": "2804 VH", "plaats": "GOUDA", "merk": "Stibat", "puntType": "inzamelbak", "materialen": ["batterijen"], "uitbetaling": [], "vrijToegankelijk": false, "gemeenteBeperking": null, "openingstijden": null, "latitude": 52.0319374, "longitude": 4.703196, "bronId": "L047672"}}, {"type": "Feature", "geometry": {"type": "Point", "coordinates": [4.703111, 52.0322123]}, "properties": {"type": "inleverpunt", "locatieNaam": "6017 Etos", "straatNaam": "Gildenburg", "straatNr": "88", "postcode": "2804 VK", "plaats": "GOUDA", "merk": "Stibat", "puntType": "inzamelbak", "materialen": ["batterijen"], "uitbetaling": [], "vrijToegankelijk": false, "gemeenteBeperking": null, "openingstijden": null, "latitude": 52.0322123, "longitude": 4.703111, "bronId": "L023981"}}, {"type": "Feature", "geometry": {"type": "Point", "coordinates": [4.7100709, 52.0123619]}, "properties": {"type": "inleverpunt", "locatieNaam": "KPN winkel", "straatNaam": "Hoogstraat", "straatNr": "2", "postcode": "2801 HH", "plaats": "GOUDA", "merk": "Stibat", "puntType": "inzamelbak", "materialen": ["batterijen"], "uitbetaling": [], "vrijToegankelijk": false, "gemeenteBeperking": null, "openingstijden": null, "latitude": 52.0123619, "longitude": 4.7100709, "bronId": "L007498"}}, {"type": "Feature", "geometry": {"type": "Point", "coordinates": [4.7030214, 52.0322201]}, "properties": {"type": "inleverpunt", "locatieNaam": "deciBel Hoortoestellen", "straatNaam": "Ruigenburg", "straatNr": "2c", "postcode": "2804 VT", "plaats": "GOUDA", "merk": "Stibat", "puntType": "inzamelbak", "materialen": ["batterijen"], "uitbetaling": [], "vrijToegankelijk": false, "gemeenteBeperking": null, "openingstijden": null, "latitude": 52.0322201, "longitude": 4.7030214, "bronId": "L028062"}}, {"type": "Feature", "geometry": {"type": "Point", "coordinates": [4.709709, 52.013103]}, "properties": {"type": "inleverpunt", "locatieNaam": "Specsavers", "straatNaam": "Kleiweg", "straatNr": "9", "postcode": "2801 GB", "plaats": "Gouda", "merk": "Stibat", "puntType": "inzamelbak", "materialen": ["batterijen"], "uitbetaling": [], "vrijToegankelijk": false, "gemeenteBeperking": null, "openingstijden": null, "latitude": 52.013103, "longitude": 4.709709, "bronId": "L045040"}}, {"type": "Feature", "geometry": {"type": "Point", "coordinates": [4.7098735, 52.0126334]}, "properties": {"type": "inleverpunt", "locatieNaam": "Hans Anders", "straatNaam": "Hoogstraat", "straatNr": "19-21", "postcode": "2801 HG", "plaats": "GOUDA", "merk": "Stibat", "puntType": "inzamelbak", "materialen": ["batterijen"], "uitbetaling": [], "vrijToegankelijk": false, "gemeenteBeperking": null, "openingstijden": null, "latitude": 52.0126334, "longitude": 4.7098735, "bronId": "L039233"}}, {"type": "Feature", "geometry": {"type": "Point", "coordinates": [4.7098879, 52.0123693]}, "properties": {"type": "inleverpunt", "locatieNaam": "BelCompany", "straatNaam": "Hoogstraat", "straatNr": "5", "postcode": "2801 HG", "plaats": "Gouda", "merk": "Stibat", "puntType": "inzamelbak", "materialen": ["batterijen"], "uitbetaling": [], "vrijToegankelijk": false, "gemeenteBeperking": null, "openingstijden": null, "latitude": 52.0123693, "longitude": 4.7098879, "bronId": "L015511"}}, {"type": "Feature", "geometry": {"type": "Point", "coordinates": [4.7030651, 52.0315625]}, "properties": {"type": "inleverpunt", "locatieNaam": "Telgefixt", "straatNaam": "Gildenburg", "straatNr": "74A", "postcode": "2804 VK", "plaats": "GOUDA", "merk": "Stibat", "puntType": "inzamelbak", "materialen": ["batterijen"], "uitbetaling": [], "vrijToegankelijk": false, "gemeenteBeperking": null, "openingstijden": null, "latitude": 52.0315625, "longitude": 4.7030651, "bronId": "L045743"}}, {"type": "Feature", "geometry": {"type": "Point", "coordinates": [4.7099194, 52.0121054]}, "properties": {"type": "inleverpunt", "locatieNaam": "1359 Albert Heijn", "straatNaam": "Markt", "straatNr": "50", "postcode": "2801 JL", "plaats": "GOUDA", "merk": "Stibat", "puntType": "inzamelbak", "materialen": ["batterijen"], "uitbetaling": [], "vrijToegankelijk": false, "gemeenteBeperking": null, "openingstijden": null, "latitude": 52.0121054, "longitude": 4.7099194, "bronId": "L006711"}}, {"type": "Feature", "geometry": {"type": "Point", "coordinates": [4.7099468, 52.0117756]}, "properties": {"type": "inleverpunt", "locatieNaam": "6194 Etos", "straatNaam": "Markt", "straatNr": "58", "postcode": "2801 JM", "plaats": "GOUDA", "merk": "Stibat", "puntType": "inzamelbak", "materialen": ["batterijen"], "uitbetaling": [], "vrijToegankelijk": false, "gemeenteBeperking": null, "openingstijden": null, "latitude": 52.0117756, "longitude": 4.7099468, "bronId": "L023842"}}, {"type": "Feature", "geometry": {"type": "Point", "coordinates": [4.7098732, 52.0114742]}, "properties": {"type": "inleverpunt", "locatieNaam": "Primera", "straatNaam": "Markt", "straatNr": "68A", "postcode": "2801 JM", "plaats": "GOUDA", "merk": "Stibat", "puntType": "inzamelbak", "materialen": ["batterijen"], "uitbetaling": [], "vrijToegankelijk": false, "gemeenteBeperking": null, "openingstijden": null, "latitude": 52.0114742, "longitude": 4.7098732, "bronId": "L022947"}}, {"type": "Feature", "geometry": {"type": "Point", "coordinates": [4.7100154, 52.0109534]}, "properties": {"type": "inleverpunt", "locatieNaam": "Zeeman", "straatNaam": "Wijdstraat", "straatNr": "35", "postcode": "2801 KB", "plaats": "GOUDA", "merk": "Stibat", "puntType": "inzamelbak", "materialen": ["batterijen"], "uitbetaling": [], "vrijToegankelijk": false, "gemeenteBeperking": null, "openingstijden": null, "latitude": 52.0109534, "longitude": 4.7100154, "bronId": "L021143"}}, {"type": "Feature", "geometry": {"type": "Point", "coordinates": [4.7067813, 52.0179696]}, "properties": {"type": "inleverpunt", "locatieNaam": "Oldenburger Fietsspecialist", "straatNaam": "Burg. Jamesplein", "straatNr": "2", "postcode": "2803 PG", "plaats": "Gouda", "merk": "Stibat", "puntType": "inzamelbak", "materialen": ["batterijen"], "uitbetaling": [], "vrijToegankelijk": false, "gemeenteBeperking": null, "openingstijden": null, "latitude": 52.0179696, "longitude": 4.7067813, "bronId": "L033032"}}, {"type": "Feature", "geometry": {"type": "Point", "coordinates": [4.7096315, 52.0083725]}, "properties": {"type": "inleverpunt", "locatieNaam": "Expert", "straatNaam": "Keizerstraat", "straatNr": "76", "postcode": "2801 NM", "plaats": "GOUDA", "merk": "Stibat", "puntType": "inzamelbak", "materialen": ["batterijen"], "uitbetaling": [], "vrijToegankelijk": false, "gemeenteBeperking": null, "openingstijden": null, "latitude": 52.0083725, "longitude": 4.7096315, "bronId": "L008273"}}, {"type": "Feature", "geometry": {"type": "Point", "coordinates": [4.705824, 52.0122933]}, "properties": {"type": "inleverpunt", "locatieNaam": "De Groene Computershop Gouda", "straatNaam": "Nieuwehaven", "straatNr": "185", "postcode": "2801 CW", "plaats": "GOUDA", "merk": "Stibat", "puntType": "inzamelbak", "materialen": ["batterijen"], "uitbetaling": [], "vrijToegankelijk": false, "gemeenteBeperking": null, "openingstijden": null, "latitude": 52.0122933, "longitude": 4.705824, "bronId": "L029979"}}, {"type": "Feature", "geometry": {"type": "Point", "coordinates": [4.7021794, 52.010762]}, "properties": {"type": "inleverpunt", "locatieNaam": "Louwerenburg B.V.", "straatNaam": "Prins Hendrikstraat", "straatNr": "202", "postcode": "2802 JN", "plaats": "GOUDA", "merk": "Stibat", "puntType": "inzamelbak", "materialen": ["batterijen"], "uitbetaling": [], "vrijToegankelijk": false, "gemeenteBeperking": null, "openingstijden": null, "latitude": 52.010762, "longitude": 4.7021794, "bronId": "L033031"}}, {"type": "Feature", "geometry": {"type": "Point", "coordinates": [4.6954908, 52.0253327]}, "properties": {"type": "inleverpunt", "locatieNaam": "Plus", "straatNaam": "Vuurdoornlaan", "straatNr": "10", "postcode": "2803 BB", "plaats": "GOUDA", "merk": "Stibat", "puntType": "inzamelbak", "materialen": ["batterijen"], "uitbetaling": [], "vrijToegankelijk": false, "gemeenteBeperking": null, "openingstijden": null, "latitude": 52.0253327, "longitude": 4.6954908, "bronId": "L046682"}}, {"type": "Feature", "geometry": {"type": "Point", "coordinates": [4.7006618, 52.0095166]}, "properties": {"type": "inleverpunt", "locatieNaam": "Lidl", "straatNaam": "Westerkade", "straatNr": "4", "postcode": "2802 SL", "plaats": "GOUDA", "merk": "Stibat", "puntType": "inzamelbak", "materialen": ["batterijen"], "uitbetaling": [], "vrijToegankelijk": false, "gemeenteBeperking": null, "openingstijden": null, "latitude": 52.0095166, "longitude": 4.7006618, "bronId": "L026788"}}, {"type": "Feature", "geometry": {"type": "Point", "coordinates": [4.7017599, 52.0055237]}, "properties": {"type": "inleverpunt", "locatieNaam": "PLUS", "straatNaam": "Constantijn Huygensstraat", "straatNr": "110", "postcode": "2802 LZ", "plaats": "GOUDA", "merk": "Stibat", "puntType": "inzamelbak", "materialen": ["batterijen"], "uitbetaling": [], "vrijToegankelijk": false, "gemeenteBeperking": null, "openingstijden": null, "latitude": 52.0055237, "longitude": 4.7017599, "bronId": "L018275"}}, {"type": "Feature", "geometry": {"type": "Point", "coordinates": [4.7013279, 52.0056769]}, "properties": {"type": "inleverpunt", "locatieNaam": "Giftclub Korte Akkeren (Convenience Concept)", "straatNaam": "Constantijn Huygensstraat", "straatNr": "114", "postcode": "2802 LZ", "plaats": "GOUDA", "merk": "Stibat", "puntType": "inzamelbak", "materialen": ["batterijen"], "uitbetaling": [], "vrijToegankelijk": false, "gemeenteBeperking": null, "openingstijden": null, "latitude": 52.0056769, "longitude": 4.7013279, "bronId": "L045924"}}, {"type": "Feature", "geometry": {"type": "Point", "coordinates": [4.6900812, 52.0291558]}, "properties": {"type": "inleverpunt", "locatieNaam": "270 Hoogvliet", "straatNaam": "Plataanstraat", "straatNr": "6", "postcode": "2803 SW", "plaats": "GOUDA", "merk": "Stibat", "puntType": "inzamelbak", "materialen": ["batterijen"], "uitbetaling": [], "vrijToegankelijk": false, "gemeenteBeperking": null, "openingstijden": null, "latitude": 52.0291558, "longitude": 4.6900812, "bronId": "L008929"}}, {"type": "Feature", "geometry": {"type": "Point", "coordinates": [4.6924876, 52.016879]}, "properties": {"type": "inleverpunt", "locatieNaam": "220 Hoogvliet", "straatNaam": "Nieuwe Gouwe O.Z.", "straatNr": "2d", "postcode": "2801 SB", "plaats": "GOUDA", "merk": "Stibat", "puntType": "inzamelbak", "materialen": ["batterijen"], "uitbetaling": [], "vrijToegankelijk": false, "gemeenteBeperking": null, "openingstijden": null, "latitude": 52.016879, "longitude": 4.6924876, "bronId": "L010508"}}, {"type": "Feature", "geometry": {"type": "Point", "coordinates": [4.6916046, 52.0109337]}, "properties": {"type": "inleverpunt", "locatieNaam": "Praxis 2066", "straatNaam": "Goudkade", "straatNr": "1", "postcode": "2802 AA", "plaats": "GOUDA", "merk": "Stibat", "puntType": "inzamelbak", "materialen": ["batterijen"], "uitbetaling": [], "vrijToegankelijk": false, "gemeenteBeperking": null, "openingstijden": null, "latitude": 52.0109337, "longitude": 4.6916046, "bronId": "L015547"}}, {"type": "Feature", "geometry": {"type": "Point", "coordinates": [4.6911697, 52.0111492]}, "properties": {"type": "inleverpunt", "locatieNaam": "Leen Bakker", "straatNaam": "Goudkade", "straatNr": "2", "postcode": "2802 AA", "plaats": "GOUDA", "merk": "Stibat", "puntType": "inzamelbak", "materialen": ["batterijen"], "uitbetaling": [], "vrijToegankelijk": false, "gemeenteBeperking": null, "openingstijden": null, "latitude": 52.0111492, "longitude": 4.6911697, "bronId": "L017901"}}, {"type": "Feature", "geometry": {"type": "Point", "coordinates": [4.6907569, 52.0113601]}, "properties": {"type": "inleverpunt", "locatieNaam": "1273 Action", "straatNaam": "Goudkade", "straatNr": "4", "postcode": "2802 AA", "plaats": "GOUDA", "merk": "Stibat", "puntType": "inzamelbak", "materialen": ["batterijen"], "uitbetaling": [], "vrijToegankelijk": false, "gemeenteBeperking": null, "openingstijden": null, "latitude": 52.0113601, "longitude": 4.6907569, "bronId": "L031988"}}, {"type": "Feature", "geometry": {"type": "Point", "coordinates": [4.6912432, 52.0038582]}, "properties": {"type": "inleverpunt", "locatieNaam": "Isero Gouda", "straatNaam": "Marconistraat", "straatNr": "26", "postcode": "2809 PD", "plaats": "GOUDA", "merk": "Stibat", "puntType": "inzamelbak", "materialen": ["batterijen"], "uitbetaling": [], "vrijToegankelijk": false, "gemeenteBeperking": null, "openingstijden": null, "latitude": 52.0038582, "longitude": 4.6912432, "bronId": "L030334"}}, {"type": "Feature", "geometry": {"type": "Point", "coordinates": [4.6870865, 52.0139994]}, "properties": {"type": "inleverpunt", "locatieNaam": "Afvalbrengstation Gouda", "straatNaam": "Goudkade", "straatNr": "23", "postcode": "2802 AA", "plaats": "GOUDA", "merk": "Stibat", "puntType": "inzamelbak", "materialen": ["batterijen"], "uitbetaling": [], "vrijToegankelijk": false, "gemeenteBeperking": null, "openingstijden": null, "latitude": 52.0139994, "longitude": 4.6870865, "bronId": "L035640"}}, {"type": "Feature", "geometry": {"type": "Point", "coordinates": [4.6895765, 52.0068213]}, "properties": {"type": "inleverpunt", "locatieNaam": "Goudsche IJzerwaren", "straatNaam": "James Wattstraat", "straatNr": "9", "postcode": "2809 PA", "plaats": "GOUDA", "merk": "Stibat", "puntType": "inzamelbak", "materialen": ["batterijen"], "uitbetaling": [], "vrijToegankelijk": false, "gemeenteBeperking": null, "openingstijden": null, "latitude": 52.0068213, "longitude": 4.6895765, "bronId": "L017393"}}, {"type": "Feature", "geometry": {"type": "Point", "coordinates": [4.681474, 52.0240302]}, "properties": {"type": "inleverpunt", "locatieNaam": "Picnic", "straatNaam": "Groningenweg", "straatNr": "12", "postcode": "2803 PV", "plaats": "GOUDA", "merk": "Stibat", "puntType": "inzamelbak", "materialen": ["batterijen"], "uitbetaling": [], "vrijToegankelijk": false, "gemeenteBeperking": null, "openingstijden": null, "latitude": 52.0240302, "longitude": 4.681474, "bronId": "L043715"}}, {"type": "Feature", "geometry": {"type": "Point", "coordinates": [4.6811742, 52.0211673]}, "properties": {"type": "inleverpunt", "locatieNaam": "Multi Office", "straatNaam": "Tielweg", "straatNr": "22", "postcode": "2803 PK", "plaats": "GOUDA", "merk": "Stibat", "puntType": "inzamelbak", "materialen": ["batterijen"], "uitbetaling": [], "vrijToegankelijk": false, "gemeenteBeperking": null, "openingstijden": null, "latitude": 52.0211673, "longitude": 4.6811742, "bronId": "L027664"}}, {"type": "Feature", "geometry": {"type": "Point", "coordinates": [4.6865769, 52.0049291]}, "properties": {"type": "inleverpunt", "locatieNaam": "Karwei", "straatNaam": "Marconistraat", "straatNr": "121", "postcode": "2809 PG", "plaats": "GOUDA", "merk": "Stibat", "puntType": "inzamelbak", "materialen": ["batterijen"], "uitbetaling": [], "vrijToegankelijk": false, "gemeenteBeperking": null, "openingstijden": null, "latitude": 52.0049291, "longitude": 4.6865769, "bronId": "L005782"}}, {"type": "Feature", "geometry": {"type": "Point", "coordinates": [4.6785236, 52.0238552]}, "properties": {"type": "inleverpunt", "locatieNaam": "Kringloopwinkel Noppes", "straatNaam": "Burgemeester van Reenensingel", "straatNr": "131", "postcode": "2803 PA", "plaats": "GOUDA", "merk": "Stibat", "puntType": "inzamelbak", "materialen": ["batterijen"], "uitbetaling": [], "vrijToegankelijk": false, "gemeenteBeperking": null, "openingstijden": null, "latitude": 52.0238552, "longitude": 4.6785236, "bronId": "L040505"}}, {"type": "Feature", "geometry": {"type": "Point", "coordinates": [4.677613, 52.0243171]}, "properties": {"type": "inleverpunt", "locatieNaam": "Toolstation", "straatNaam": "Hanzeweg", "straatNr": "4 unit 2", "postcode": "2803 MC", "plaats": "GOUDA", "merk": "Stibat", "puntType": "inzamelbak", "materialen": ["batterijen"], "uitbetaling": [], "vrijToegankelijk": false, "gemeenteBeperking": null, "openingstijden": null, "latitude": 52.0243171, "longitude": 4.677613, "bronId": "L043934"}}, {"type": "Feature", "geometry": {"type": "Point", "coordinates": [4.676487, 52.025896]}, "properties": {"type": "inleverpunt", "locatieNaam": "Kwantum", "straatNaam": "Elburgplein", "straatNr": "10", "postcode": "2803 PX", "plaats": "GOUDA", "merk": "Stibat", "puntType": "inzamelbak", "materialen": ["batterijen"], "uitbetaling": [], "vrijToegankelijk": false, "gemeenteBeperking": null, "openingstijden": null, "latitude": 52.025896, "longitude": 4.676487, "bronId": "L017390"}}, {"type": "Feature", "geometry": {"type": "Point", "coordinates": [4.6773393, 52.0232009]}, "properties": {"type": "inleverpunt", "locatieNaam": "Stichting Kringloop Gouda", "straatNaam": "Zwolleweg", "straatNr": "5", "postcode": "2803 PS", "plaats": "GOUDA", "merk": "Stibat", "puntType": "inzamelbak", "materialen": ["batterijen"], "uitbetaling": [], "vrijToegankelijk": false, "gemeenteBeperking": null, "openingstijden": null, "latitude": 52.0232009, "longitude": 4.6773393, "bronId": "L044881"}}, {"type": "Feature", "geometry": {"type": "Point", "coordinates": [4.675773, 52.0248381]}, "properties": {"type": "inleverpunt", "locatieNaam": "Gamma", "straatNaam": "Elburgplein", "straatNr": "7", "postcode": "2803 PX", "plaats": "GOUDA", "merk": "Stibat", "puntType": "inzamelbak", "materialen": ["batterijen"], "uitbetaling": [], "vrijToegankelijk": false, "gemeenteBeperking": null, "openingstijden": null, "latitude": 52.0248381, "longitude": 4.675773, "bronId": "L008180"}}, {"type": "Feature", "geometry": {"type": "Point", "coordinates": [4.6754119, 52.024343]}, "properties": {"type": "inleverpunt", "locatieNaam": "Kampeerhal de Vrijbuiter", "straatNaam": "Kampenringweg", "straatNr": "20", "postcode": "2803 PE", "plaats": "GOUDA", "merk": "Stibat", "puntType": "inzamelbak", "materialen": ["batterijen"], "uitbetaling": [], "vrijToegankelijk": false, "gemeenteBeperking": null, "openingstijden": null, "latitude": 52.024343, "longitude": 4.6754119, "bronId": "L027320"}}, {"type": "Feature", "geometry": {"type": "Point", "coordinates": [4.6747693, 52.0244707]}, "properties": {"type": "inleverpunt", "locatieNaam": "Sligro", "straatNaam": "Hanzeweg", "straatNr": "13", "postcode": "2803 MC", "plaats": "GOUDA", "merk": "Stibat", "puntType": "inzamelbak", "materialen": ["batterijen"], "uitbetaling": [], "vrijToegankelijk": false, "gemeenteBeperking": null, "openingstijden": null, "latitude": 52.0244707, "longitude": 4.6747693, "bronId": "L027304"}}, {"type": "Feature", "geometry": {"type": "Point", "coordinates": [4.6812063, 52.0026965]}, "properties": {"type": "inleverpunt", "locatieNaam": "2201 Albert Heijn", "straatNaam": "Burgemeester van Dijkesingel", "straatNr": "53", "postcode": "2809 RB", "plaats": "GOUDA", "merk": "Stibat", "puntType": "inzamelbak", "materialen": ["batterijen"], "uitbetaling": [], "vrijToegankelijk": false, "gemeenteBeperking": null, "openingstijden": null, "latitude": 52.0026965, "longitude": 4.6812063, "bronId": "L040318"}}, {"type": "Feature", "geometry": {"type": "Polygon", "coordinates": [[[4.71886100103776, 51.998370003914786], [4.727570001046669, 52.00158300391677], [4.725206001044341, 52.00260500391745], [4.724201001043371, 52.00338500391794], [4.7227220010419595, 52.00487100391884], [4.722793001042059, 52.00548200391921], [4.728963001048355, 52.00746700392045], [4.733015001052402, 52.00699800392017], [4.737292001056646, 52.00593500391954], [4.7377330010571335, 52.006841003920094], [4.739923001059292, 52.00597500391955], [4.744118001063379, 52.00335600391796], [4.7471700010664035, 52.00257700391742], [4.7529710010722175, 52.002285003917265], [4.75733000107655, 52.0013420039167], [4.757321001076618, 52.002928003917674], [4.7569610010762595, 52.00294800391768], [4.7559150010752935, 52.00473000391879], [4.750991001070795, 52.01389900392449], [4.750352001070155, 52.01394000392453], [4.749148001069057, 52.01617600392593], [4.746017001065953, 52.0169760039264], [4.7436970010638975, 52.02260800392991], [4.73678300105696, 52.022748003930005], [4.7362960010565445, 52.02421800393094], [4.734619001054862, 52.02427900393093], [4.73440000105468, 52.02502000393141], [4.7301550010504085, 52.024883003931315], [4.729964001050255, 52.025628003931764], [4.728178001048444, 52.025254003931536], [4.727607001047873, 52.02531500393159], [4.727417001047716, 52.02600000393205], [4.723545001043821, 52.02588400393196], [4.722306001042582, 52.026003003931976], [4.722288001042581, 52.02630100393222], [4.721512001041787, 52.02603200393199], [4.721180001041476, 52.02647800393231], [4.7198480010401385, 52.02648400393228], [4.719871001040591, 52.03520100393771], [4.7175810010382975, 52.0353070039378], [4.716188001037046, 52.03825200393962], [4.706039001026948, 52.040120003940764], [4.686667001007013, 52.030356003934656], [4.6835800010038735, 52.029521003934114], [4.680541001000745, 52.02798100393317], [4.6790820009992915, 52.0281910039333], [4.667279000987281, 52.02507800393133], [4.66853000098847, 52.023741003930525], [4.669897000989805, 52.02299400393005], [4.673648000993554, 52.02259900392981], [4.675194000995078, 52.02203100392948], [4.679039000998905, 52.02138200392907], [4.681129001000954, 52.020349003928445], [4.6818230010015975, 52.01930800392779], [4.678630000998363, 52.018720003927385], [4.675575000995242, 52.01767500392674], [4.670123000989606, 52.01443500392469], [4.666607000985999, 52.012971003923816], [4.670729000990049, 52.01112600392263], [4.670097000989384, 52.01055000392229], [4.6670320009862785, 52.010005003921954], [4.659455000978435, 52.005288003919006], [4.6628100009816995, 52.003246003917724], [4.670717000989595, 52.002326003917176], [4.680229000998862, 51.9965420039136], [4.684021001002739, 51.99795800391448], [4.688685001007343, 51.99625800391341], [4.689812001008491, 51.99662400391365], [4.699881001018637, 51.99723200391405], [4.702002001020807, 51.998010003914544], [4.7072170010262315, 52.001762003916895], [4.712910001031819, 51.99914100391526], [4.714412001033389, 52.00040300391605], [4.71886100103776, 51.998370003914786]]]}, "properties": {"type": "boundary", "gemeente": "Gouda"}}]}