{"type": "FeatureCollection", "metadata": {"gemeente": "Heemstede", "slug": "heemstede", "generated_at": "2026-07-28T10:02:02.095237Z", "total_points": 56, "merken": ["StatiegeldNederland", "Stibat", "StichtingOPEN"], "bounds": [4.604363, 52.330713, 4.633282, 52.360246]}, "features": [{"type": "Feature", "geometry": {"type": "Point", "coordinates": [4.6202501, 52.3563669]}, "properties": {"type": "inleverpunt", "locatieNaam": "Albert Heijn", "straatNaam": "Blekervaartweg", "straatNr": "57", "postcode": "2101 CD", "plaats": "Heemstede", "merk": "StatiegeldNederland", "puntType": "automaat", "materialen": ["pet-groot", "pet-klein", "blik", "glas", "krat"], "uitbetaling": ["bonnetje", "donatie"], "vrijToegankelijk": true, "gemeenteBeperking": null, "openingstijden": {"ma": "08:00–22:00", "di": "08:00–22:00", "wo": "08:00–22:00", "do": "08:00–22:00", "vr": "08:00–22:00", "za": "08:00–22:00", "zo": "09:00–20:00"}, "latitude": 52.3563669, "longitude": 4.6202501, "bronId": "252029"}}, {"type": "Feature", "geometry": {"type": "Point", "coordinates": [4.6044368, 52.3597445]}, "properties": {"type": "inleverpunt", "locatieNaam": "Albert Heijn", "straatNaam": "Zandvoortselaan", "straatNr": "169", "postcode": "2106 AM", "plaats": "Heemstede", "merk": "StatiegeldNederland", "puntType": "automaat", "materialen": ["pet-groot", "pet-klein", "blik", "glas", "krat"], "uitbetaling": ["bonnetje", "donatie"], "vrijToegankelijk": true, "gemeenteBeperking": null, "openingstijden": {"ma": "08:00–22:00", "di": "08:00–22:00", "wo": "08:00–22:00", "do": "08:00–22:00", "vr": "08:00–22:00", "za": "08:00–22:00", "zo": "10:00–20:00"}, "latitude": 52.3597445, "longitude": 4.6044368, "bronId": "252945"}}, {"type": "Feature", "geometry": {"type": "Point", "coordinates": [4.6220034, 52.3566215]}, "properties": {"type": "inleverpunt", "locatieNaam": "Aldi", "straatNaam": "Bronsteenweg", "straatNr": "4", "postcode": "2101 AC", "plaats": "Heemstede", "merk": "StatiegeldNederland", "puntType": "automaat", "materialen": ["pet-groot", "pet-klein", "blik", "glas", "krat"], "uitbetaling": ["bonnetje"], "vrijToegankelijk": true, "gemeenteBeperking": null, "openingstijden": {"ma": "08:00–20:00", "di": "08:00–20:00", "wo": "08:00–20:00", "do": "08:00–20:00", "vr": "08:00–20:00", "za": "08:00–19:00", "zo": "10:00–18:00"}, "latitude": 52.3566215, "longitude": 4.6220034, "bronId": "253034"}}, {"type": "Feature", "geometry": {"type": "Point", "coordinates": [4.6326269, 52.3482479]}, "properties": {"type": "inleverpunt", "locatieNaam": "Atheneum College Hageveld", "straatNaam": "Hageveld", "straatNr": "15", "postcode": "2102 LM", "plaats": "Heemstede", "merk": "StatiegeldNederland", "puntType": "automaat", "materialen": ["pet-klein", "blik"], "uitbetaling": ["donatie", "tikkie"], "vrijToegankelijk": true, "gemeenteBeperking": null, "openingstijden": null, "latitude": 52.3482479, "longitude": 4.6326269, "bronId": "253762"}}, {"type": "Feature", "geometry": {"type": "Point", "coordinates": [4.6214956, 52.3505266]}, "properties": {"type": "inleverpunt", "locatieNaam": "Dekamarkt", "straatNaam": "Binnenweg 16 -", "straatNr": "18", "postcode": "2101 JK", "plaats": "Heemstede", "merk": "StatiegeldNederland", "puntType": "automaat", "materialen": ["pet-groot", "pet-klein", "blik", "glas", "krat"], "uitbetaling": ["bonnetje"], "vrijToegankelijk": true, "gemeenteBeperking": null, "openingstijden": {"ma": "07:30–21:00", "di": "07:30–21:00", "wo": "07:30–21:00", "do": "07:30–21:00", "vr": "07:30–21:00", "za": "07:30–21:00", "zo": "09:00–20:00"}, "latitude": 52.3505266, "longitude": 4.6214956, "bronId": "254303"}}, {"type": "Feature", "geometry": {"type": "Point", "coordinates": [4.6151152, 52.3590766]}, "properties": {"type": "inleverpunt", "locatieNaam": "Ekoplaza", "straatNaam": "ZANDVOORTSELAAN", "straatNr": "16-18", "postcode": "2106 CN", "plaats": "Heemstede", "merk": "StatiegeldNederland", "puntType": "balie", "materialen": ["pet-groot", "pet-klein", "blik"], "uitbetaling": [], "vrijToegankelijk": true, "gemeenteBeperking": null, "openingstijden": {"ma": "09:00–18:00", "di": "09:00–18:00", "wo": "09:00–18:00", "do": "09:00–18:00", "vr": "09:00–18:00", "za": "09:00–18:00", "zo": "Gesloten"}, "latitude": 52.3590766, "longitude": 4.6151152, "bronId": "254705"}}, {"type": "Feature", "geometry": {"type": "Point", "coordinates": [4.6167895, 52.3571505]}, "properties": {"type": "inleverpunt", "locatieNaam": "HBM", "straatNaam": "Koediefslaan", "straatNr": "73", "postcode": "2101 BT", "plaats": "Heemstede", "merk": "StatiegeldNederland", "puntType": "automaat", "materialen": ["pet-klein", "blik"], "uitbetaling": ["donatie"], "vrijToegankelijk": true, "gemeenteBeperking": null, "openingstijden": null, "latitude": 52.3571505, "longitude": 4.6167895, "bronId": "254947"}}, {"type": "Feature", "geometry": {"type": "Point", "coordinates": [4.63105, 52.343907]}, "properties": {"type": "inleverpunt", "locatieNaam": "Kringloopwarenhuis Snuffelmug", "straatNaam": "Cruquiusweg", "straatNr": "37a", "postcode": "2102 LS", "plaats": "Heemstede", "merk": "StatiegeldNederland", "puntType": "automaat", "materialen": ["pet-groot", "pet-klein", "blik"], "uitbetaling": ["bonnetje", "donatie", "tikkie"], "vrijToegankelijk": true, "gemeenteBeperking": null, "openingstijden": {"ma": "08:00–17:00", "di": "08:00–17:00", "wo": "08:00–17:00", "do": "08:00–17:00", "vr": "08:00–17:00", "za": "Gesloten", "zo": "Gesloten"}, "latitude": 52.343907, "longitude": 4.63105, "bronId": "255960"}}, {"type": "Feature", "geometry": {"type": "Point", "coordinates": [4.6111827, 52.330713]}, "properties": {"type": "inleverpunt", "locatieNaam": "Plus", "straatNaam": "Glipperdreef", "straatNr": "105", "postcode": "2104 WC", "plaats": "Heemstede", "merk": "StatiegeldNederland", "puntType": "automaat", "materialen": ["pet-groot", "pet-klein", "blik", "glas", "krat"], "uitbetaling": ["bonnetje", "donatie"], "vrijToegankelijk": true, "gemeenteBeperking": null, "openingstijden": {"ma": "07:00–20:00", "di": "07:00–20:00", "wo": "07:00–20:00", "do": "07:00–20:00", "vr": "07:00–20:00", "za": "07:00–20:00", "zo": "10:00–19:00"}, "latitude": 52.330713, "longitude": 4.6111827, "bronId": "257316"}}, {"type": "Feature", "geometry": {"type": "Point", "coordinates": [4.6277, 52.359635]}, "properties": {"type": "inleverpunt", "locatieNaam": "Plus", "straatNaam": "J. van Goyenstraat", "straatNr": "21-23", "postcode": "2102 CA", "plaats": "Heemstede", "merk": "StatiegeldNederland", "puntType": "automaat", "materialen": ["pet-groot", "pet-klein", "blik", "glas", "krat"], "uitbetaling": ["bonnetje", "donatie"], "vrijToegankelijk": true, "gemeenteBeperking": null, "openingstijden": {"ma": "08:00–19:00", "di": "08:00–19:00", "wo": "08:00–19:00", "do": "08:00–19:00", "vr": "08:00–19:00", "za": "08:00–18:00", "zo": "12:00–18:00"}, "latitude": 52.359635, "longitude": 4.6277, "bronId": "257363"}}, {"type": "Feature", "geometry": {"type": "Point", "coordinates": [4.6228191, 52.3366016]}, "properties": {"type": "inleverpunt", "locatieNaam": "Racing Club Heemstede - Rch", "straatNaam": "Sportparklaan", "straatNr": "6", "postcode": "2103 VT", "plaats": "Heemstede", "merk": "StatiegeldNederland", "puntType": "balie", "materialen": ["pet-groot", "pet-klein", "blik"], "uitbetaling": [], "vrijToegankelijk": false, "gemeenteBeperking": null, "openingstijden": {"ma": "13:00–20:00", "di": "13:00–20:00", "wo": "13:00–20:00", "do": "13:00–20:00", "vr": "13:00–22:00", "za": "08:00–22:00", "zo": "08:00–22:00"}, "latitude": 52.3366016, "longitude": 4.6228191, "bronId": "257777"}}, {"type": "Feature", "geometry": {"type": "Point", "coordinates": [4.6218426, 52.3520468]}, "properties": {"type": "inleverpunt", "locatieNaam": "Vomar", "straatNaam": "Binnenweg", "straatNr": "78", "postcode": "2101 JM", "plaats": "Heemstede", "merk": "StatiegeldNederland", "puntType": "automaat", "materialen": ["pet-groot", "pet-klein", "blik", "glas", "krat"], "uitbetaling": ["bonnetje", "donatie"], "vrijToegankelijk": true, "gemeenteBeperking": null, "openingstijden": {"ma": "07:30–22:00", "di": "07:30–22:00", "wo": "07:30–22:00", "do": "07:30–22:00", "vr": "07:30–22:00", "za": "07:30–22:00", "zo": "08:00–20:00"}, "latitude": 52.3520468, "longitude": 4.6218426, "bronId": "259643"}}, {"type": "Feature", "geometry": {"type": "Point", "coordinates": [4.631231, 52.343595]}, "properties": {"type": "inleverpunt", "locatieNaam": "Groenhart Group B.V. Heemstede", "straatNaam": "Cruquiusweg", "straatNr": "37b", "postcode": "2102 LS", "plaats": "Heemstede", "merk": "StichtingOPEN", "puntType": "balie", "materialen": ["batterijen", "elektro-klein", "elektro-middel", "lampen", "tl-buizen"], "uitbetaling": [], "vrijToegankelijk": false, "gemeenteBeperking": null, "openingstijden": null, "latitude": 52.343595, "longitude": 4.631231, "bronId": "SP00005701"}}, {"type": "Feature", "geometry": {"type": "Point", "coordinates": [4.611182, 52.330713]}, "properties": {"type": "inleverpunt", "locatieNaam": "PLUS Heemstede", "straatNaam": "Glipper Dreef", "straatNr": "105", "postcode": "2104 WC", "plaats": "Heemstede", "merk": "StichtingOPEN", "puntType": "balie", "materialen": ["batterijen", "elektro-klein", "lampen"], "uitbetaling": [], "vrijToegankelijk": false, "gemeenteBeperking": null, "openingstijden": null, "latitude": 52.330713, "longitude": 4.611182, "bronId": "SP00036380"}}, {"type": "Feature", "geometry": {"type": "Point", "coordinates": [4.615505, 52.340022]}, "properties": {"type": "inleverpunt", "locatieNaam": "Kinderboerderij 't Molentje", "straatNaam": "Burgemeester van Rappardlaan", "straatNr": "1", "postcode": "2104 WR", "plaats": "Heemstede", "merk": "StichtingOPEN", "puntType": "balie", "materialen": ["elektro-klein"], "uitbetaling": [], "vrijToegankelijk": false, "gemeenteBeperking": null, "openingstijden": null, "latitude": 52.340022, "longitude": 4.615505, "bronId": "SP00031363"}}, {"type": "Feature", "geometry": {"type": "Point", "coordinates": [4.620737, 52.348049]}, "properties": {"type": "inleverpunt", "locatieNaam": "van Amerongen Beeld & Geluid CV", "straatNaam": "Raadhuisstraat", "straatNr": "26", "postcode": "2101 HG", "plaats": "Heemstede", "merk": "StichtingOPEN", "puntType": "balie", "materialen": ["lampen"], "uitbetaling": [], "vrijToegankelijk": false, "gemeenteBeperking": null, "openingstijden": null, "latitude": 52.348049, "longitude": 4.620737, "bronId": "SP00028607"}}, {"type": "Feature", "geometry": {"type": "Point", "coordinates": [4.621586, 52.350575]}, "properties": {"type": "inleverpunt", "locatieNaam": "Dekamarkt Heemstede", "straatNaam": "Binnenweg", "straatNr": "16", "postcode": "2101 JK", "plaats": "Heemstede", "merk": "StichtingOPEN", "puntType": "balie", "materialen": ["batterijen", "elektro-klein", "lampen"], "uitbetaling": [], "vrijToegankelijk": false, "gemeenteBeperking": null, "openingstijden": null, "latitude": 52.350575, "longitude": 4.621586, "bronId": "SP00023660"}}, {"type": "Feature", "geometry": {"type": "Point", "coordinates": [4.619366, 52.350071]}, "properties": {"type": "inleverpunt", "locatieNaam": "Aldi Heemstede", "straatNaam": "Kerklaan", "straatNr": "27", "postcode": "2101 HK", "plaats": "Heemstede", "merk": "StichtingOPEN", "puntType": "balie", "materialen": ["batterijen", "elektro-klein", "lampen"], "uitbetaling": [], "vrijToegankelijk": false, "gemeenteBeperking": null, "openingstijden": null, "latitude": 52.350071, "longitude": 4.619366, "bronId": "SP00027179"}}, {"type": "Feature", "geometry": {"type": "Point", "coordinates": [4.621386, 52.352495]}, "properties": {"type": "inleverpunt", "locatieNaam": "Kruidvat Heemstede", "straatNaam": "Binnenweg", "straatNr": "67", "postcode": "2101 JJ", "plaats": "Heemstede", "merk": "StichtingOPEN", "puntType": "balie", "materialen": ["batterijen", "lampen"], "uitbetaling": [], "vrijToegankelijk": false, "gemeenteBeperking": null, "openingstijden": null, "latitude": 52.352495, "longitude": 4.621386, "bronId": "SP00024742"}}, {"type": "Feature", "geometry": {"type": "Point", "coordinates": [4.628463, 52.360246]}, "properties": {"type": "inleverpunt", "locatieNaam": "PLUS Heemstede", "straatNaam": "Jan van Goyenstraat", "straatNr": "2123", "postcode": "2102 CA", "plaats": "Heemstede", "merk": "StichtingOPEN", "puntType": "balie", "materialen": ["batterijen", "lampen"], "uitbetaling": [], "vrijToegankelijk": false, "gemeenteBeperking": null, "openingstijden": null, "latitude": 52.360246, "longitude": 4.628463, "bronId": "SP00024082"}}, {"type": "Feature", "geometry": {"type": "Point", "coordinates": [4.620655, 52.355195]}, "properties": {"type": "inleverpunt", "locatieNaam": "Vomar Heemstede", "straatNaam": "Binnenweg", "straatNr": "149", "postcode": "2101 JG", "plaats": "Heemstede", "merk": "StichtingOPEN", "puntType": "balie", "materialen": ["batterijen", "lampen"], "uitbetaling": [], "vrijToegankelijk": false, "gemeenteBeperking": null, "openingstijden": null, "latitude": 52.355195, "longitude": 4.620655, "bronId": "SP00025754"}}, {"type": "Feature", "geometry": {"type": "Point", "coordinates": [4.62025, 52.356344]}, "properties": {"type": "inleverpunt", "locatieNaam": "1463 Albert Heijn Heemstede", "straatNaam": "Blekersvaartweg", "straatNr": "57", "postcode": "2101 CD", "plaats": "Heemstede", "merk": "StichtingOPEN", "puntType": "balie", "materialen": ["batterijen", "elektro-klein", "lampen"], "uitbetaling": [], "vrijToegankelijk": false, "gemeenteBeperking": null, "openingstijden": null, "latitude": 52.356344, "longitude": 4.62025, "bronId": "SP00023037"}}, {"type": "Feature", "geometry": {"type": "Point", "coordinates": [4.608028, 52.352154]}, "properties": {"type": "inleverpunt", "locatieNaam": "Spar Heemstede", "straatNaam": "Te Winkelhof", "straatNr": "25", "postcode": "2105 TA", "plaats": "Heemstede", "merk": "StichtingOPEN", "puntType": "balie", "materialen": ["batterijen", "lampen"], "uitbetaling": [], "vrijToegankelijk": false, "gemeenteBeperking": null, "openingstijden": null, "latitude": 52.352154, "longitude": 4.608028, "bronId": "SP00022445"}}, {"type": "Feature", "geometry": {"type": "Point", "coordinates": [4.604363, 52.359621]}, "properties": {"type": "inleverpunt", "locatieNaam": "1348 Albert Heijn Heemstede", "straatNaam": "Zandvoortselaan", "straatNr": "169", "postcode": "2106 AM", "plaats": "Heemstede", "merk": "StichtingOPEN", "puntType": "balie", "materialen": ["batterijen", "elektro-klein", "lampen"], "uitbetaling": [], "vrijToegankelijk": false, "gemeenteBeperking": null, "openingstijden": null, "latitude": 52.359621, "longitude": 4.604363, "bronId": "SP00023043"}}, {"type": "Feature", "geometry": {"type": "Point", "coordinates": [4.633282, 52.342224]}, "properties": {"type": "inleverpunt", "locatieNaam": "Milieustraat Heemstede", "straatNaam": "Cruquiusweg", "straatNr": "47", "postcode": "2102 LS", "plaats": "Heemstede", "merk": "StichtingOPEN", "puntType": "milieustraat", "materialen": ["batterijen", "elektro-groot", "elektro-klein", "elektro-middel", "lampen", "tl-buizen"], "uitbetaling": [], "vrijToegankelijk": false, "gemeenteBeperking": ["Heemstede", "Zandvoort"], "openingstijden": null, "latitude": 52.342224, "longitude": 4.633282, "bronId": "SP00004317"}}, {"type": "Feature", "geometry": {"type": "Point", "coordinates": [4.6332512, 52.3423131]}, "properties": {"type": "inleverpunt", "locatieNaam": "Milieustraat Heemstede", "straatNaam": "Cruquiusweg", "straatNr": "47", "postcode": "2102 LS", "plaats": "Heemstede", "merk": "Stibat", "puntType": "inzamelbak", "materialen": ["batterijen"], "uitbetaling": [], "vrijToegankelijk": false, "gemeenteBeperking": null, "openingstijden": null, "latitude": 52.3423131, "longitude": 4.6332512, "bronId": "L035612"}}, {"type": "Feature", "geometry": {"type": "Point", "coordinates": [4.6313516, 52.3437152]}, "properties": {"type": "inleverpunt", "locatieNaam": "Toolstation", "straatNaam": "Cruquiusweg", "straatNr": "37", "postcode": "2102 LS", "plaats": "Heemstede", "merk": "Stibat", "puntType": "inzamelbak", "materialen": ["batterijen"], "uitbetaling": [], "vrijToegankelijk": false, "gemeenteBeperking": null, "openingstijden": null, "latitude": 52.3437152, "longitude": 4.6313516, "bronId": "L042557"}}, {"type": "Feature", "geometry": {"type": "Point", "coordinates": [4.6312318, 52.343595]}, "properties": {"type": "inleverpunt", "locatieNaam": "Groenhart gereedschappen, ijzerwaren", "straatNaam": "Cruquiusweg", "straatNr": "37b", "postcode": "2102 LS", "plaats": "Heemstede", "merk": "Stibat", "puntType": "inzamelbak", "materialen": ["batterijen"], "uitbetaling": [], "vrijToegankelijk": false, "gemeenteBeperking": null, "openingstijden": null, "latitude": 52.343595, "longitude": 4.6312318, "bronId": "L047397"}}, {"type": "Feature", "geometry": {"type": "Point", "coordinates": [4.6111827, 52.330713]}, "properties": {"type": "inleverpunt", "locatieNaam": "PLUS", "straatNaam": "Glipper Dreef", "straatNr": "105", "postcode": "2104 WC", "plaats": "Heemstede", "merk": "Stibat", "puntType": "inzamelbak", "materialen": ["batterijen"], "uitbetaling": [], "vrijToegankelijk": false, "gemeenteBeperking": null, "openingstijden": null, "latitude": 52.330713, "longitude": 4.6111827, "bronId": "L047338"}}, {"type": "Feature", "geometry": {"type": "Point", "coordinates": [4.6203926, 52.3470122]}, "properties": {"type": "inleverpunt", "locatieNaam": "Bikes 4 All", "straatNaam": "Raadhuisstraat", "straatNr": "6", "postcode": "2101 HG", "plaats": "Heemstede", "merk": "Stibat", "puntType": "inzamelbak", "materialen": ["batterijen"], "uitbetaling": [], "vrijToegankelijk": false, "gemeenteBeperking": null, "openingstijden": null, "latitude": 52.3470122, "longitude": 4.6203926, "bronId": "L032899"}}, {"type": "Feature", "geometry": {"type": "Point", "coordinates": [4.6208238, 52.3482469]}, "properties": {"type": "inleverpunt", "locatieNaam": "Primera", "straatNaam": "Raadhuisstraat", "straatNr": "30", "postcode": "2101 HH", "plaats": "Heemstede", "merk": "Stibat", "puntType": "inzamelbak", "materialen": ["batterijen"], "uitbetaling": [], "vrijToegankelijk": false, "gemeenteBeperking": null, "openingstijden": null, "latitude": 52.3482469, "longitude": 4.6208238, "bronId": "L024636"}}, {"type": "Feature", "geometry": {"type": "Point", "coordinates": [4.6204812, 52.3482858]}, "properties": {"type": "inleverpunt", "locatieNaam": "Schoonenberg Hoorcomfort", "straatNaam": "Raadhuisstraat", "straatNr": "53", "postcode": "2101 HD", "plaats": "Heemstede", "merk": "Stibat", "puntType": "inzamelbak", "materialen": ["batterijen"], "uitbetaling": [], "vrijToegankelijk": false, "gemeenteBeperking": null, "openingstijden": null, "latitude": 52.3482858, "longitude": 4.6204812, "bronId": "L020623"}}, {"type": "Feature", "geometry": {"type": "Point", "coordinates": [4.620496, 52.3484339]}, "properties": {"type": "inleverpunt", "locatieNaam": "Van der Wolf fietsen", "straatNaam": "Raadhuisstraat", "straatNr": "63", "postcode": "2101 HD", "plaats": "Heemstede", "merk": "Stibat", "puntType": "inzamelbak", "materialen": ["batterijen"], "uitbetaling": [], "vrijToegankelijk": false, "gemeenteBeperking": null, "openingstijden": null, "latitude": 52.3484339, "longitude": 4.620496, "bronId": "L046081"}}, {"type": "Feature", "geometry": {"type": "Point", "coordinates": [4.6215892, 52.3505376]}, "properties": {"type": "inleverpunt", "locatieNaam": "Dekamarkt", "straatNaam": "Binnenweg", "straatNr": "16-18", "postcode": "2101 JK", "plaats": "Heemstede", "merk": "Stibat", "puntType": "inzamelbak", "materialen": ["batterijen"], "uitbetaling": [], "vrijToegankelijk": false, "gemeenteBeperking": null, "openingstijden": null, "latitude": 52.3505376, "longitude": 4.6215892, "bronId": "L005850"}}, {"type": "Feature", "geometry": {"type": "Point", "coordinates": [4.6212906, 52.3506702]}, "properties": {"type": "inleverpunt", "locatieNaam": "7496 Etos", "straatNaam": "Binnenweg", "straatNr": "15", "postcode": "2101 JA", "plaats": "Heemstede", "merk": "Stibat", "puntType": "inzamelbak", "materialen": ["batterijen"], "uitbetaling": [], "vrijToegankelijk": false, "gemeenteBeperking": null, "openingstijden": null, "latitude": 52.3506702, "longitude": 4.6212906, "bronId": "L023094"}}, {"type": "Feature", "geometry": {"type": "Point", "coordinates": [4.6218426, 52.3520468]}, "properties": {"type": "inleverpunt", "locatieNaam": "Vomar", "straatNaam": "Binnenweg", "straatNr": "78", "postcode": "2101 JM", "plaats": "Heemstede", "merk": "Stibat", "puntType": "inzamelbak", "materialen": ["batterijen"], "uitbetaling": [], "vrijToegankelijk": false, "gemeenteBeperking": null, "openingstijden": null, "latitude": 52.3520468, "longitude": 4.6218426, "bronId": "L048126"}}, {"type": "Feature", "geometry": {"type": "Point", "coordinates": [4.6219253, 52.3526039]}, "properties": {"type": "inleverpunt", "locatieNaam": "DOUGLAS", "straatNaam": "Binnenweg 104", "straatNr": "104", "postcode": "2101 JM", "plaats": "Heemstede", "merk": "Stibat", "puntType": "inzamelbak", "materialen": ["batterijen"], "uitbetaling": [], "vrijToegankelijk": false, "gemeenteBeperking": null, "openingstijden": null, "latitude": 52.3526039, "longitude": 4.6219253, "bronId": "L049150"}}, {"type": "Feature", "geometry": {"type": "Point", "coordinates": [4.6213868, 52.3524953]}, "properties": {"type": "inleverpunt", "locatieNaam": "Kruidvat", "straatNaam": "Binnenweg", "straatNr": "67", "postcode": "2101 JC", "plaats": "Heemstede", "merk": "Stibat", "puntType": "inzamelbak", "materialen": ["batterijen"], "uitbetaling": [], "vrijToegankelijk": false, "gemeenteBeperking": null, "openingstijden": null, "latitude": 52.3524953, "longitude": 4.6213868, "bronId": "L015973"}}, {"type": "Feature", "geometry": {"type": "Point", "coordinates": [4.6212215, 52.3528994]}, "properties": {"type": "inleverpunt", "locatieNaam": "Vomar", "straatNaam": "Binnenweg", "straatNr": "79", "postcode": "2101 WH", "plaats": "Heemstede", "merk": "Stibat", "puntType": "inzamelbak", "materialen": ["batterijen"], "uitbetaling": [], "vrijToegankelijk": false, "gemeenteBeperking": null, "openingstijden": null, "latitude": 52.3528994, "longitude": 4.6212215, "bronId": "L005811"}}, {"type": "Feature", "geometry": {"type": "Point", "coordinates": [4.6285027, 52.360145]}, "properties": {"type": "inleverpunt", "locatieNaam": "PLUS", "straatNaam": "Jan van Goyenstraat", "straatNr": "21-23", "postcode": "2102 CA", "plaats": "Heemstede", "merk": "Stibat", "puntType": "inzamelbak", "materialen": ["batterijen"], "uitbetaling": [], "vrijToegankelijk": false, "gemeenteBeperking": null, "openingstijden": null, "latitude": 52.360145, "longitude": 4.6285027, "bronId": "L023391"}}, {"type": "Feature", "geometry": {"type": "Point", "coordinates": [4.6212286, 52.3529172]}, "properties": {"type": "inleverpunt", "locatieNaam": "HEMA Binnenweg", "straatNaam": "Binnenweg", "straatNr": "79", "postcode": "2101 JD", "plaats": "Heemstede", "merk": "Stibat", "puntType": "inzamelbak", "materialen": ["batterijen"], "uitbetaling": [], "vrijToegankelijk": false, "gemeenteBeperking": null, "openingstijden": null, "latitude": 52.3529172, "longitude": 4.6212286, "bronId": "L008028"}}, {"type": "Feature", "geometry": {"type": "Point", "coordinates": [4.6211884, 52.3531975]}, "properties": {"type": "inleverpunt", "locatieNaam": "Xenos", "straatNaam": "Binnenweg", "straatNr": "81", "postcode": "2101 JD", "plaats": "Heemstede", "merk": "Stibat", "puntType": "inzamelbak", "materialen": ["batterijen"], "uitbetaling": [], "vrijToegankelijk": false, "gemeenteBeperking": null, "openingstijden": null, "latitude": 52.3531975, "longitude": 4.6211884, "bronId": "L049653"}}, {"type": "Feature", "geometry": {"type": "Point", "coordinates": [4.6277876, 52.3598977]}, "properties": {"type": "inleverpunt", "locatieNaam": "Hoorcentrum JvG", "straatNaam": "Jan van Goyenstraat", "straatNr": "7", "postcode": "2102 CA", "plaats": "Heemstede", "merk": "Stibat", "puntType": "inzamelbak", "materialen": ["batterijen"], "uitbetaling": [], "vrijToegankelijk": false, "gemeenteBeperking": null, "openingstijden": null, "latitude": 52.3598977, "longitude": 4.6277876, "bronId": "L030668"}}, {"type": "Feature", "geometry": {"type": "Point", "coordinates": [4.6277936, 52.3599159]}, "properties": {"type": "inleverpunt", "locatieNaam": "Oorwerk", "straatNaam": "Jan van Goyenstraat", "straatNr": "7", "postcode": "2102 CA", "plaats": "Heemstede", "merk": "Stibat", "puntType": "inzamelbak", "materialen": ["batterijen"], "uitbetaling": [], "vrijToegankelijk": false, "gemeenteBeperking": null, "openingstijden": null, "latitude": 52.3599159, "longitude": 4.6277936, "bronId": "L048260"}}, {"type": "Feature", "geometry": {"type": "Point", "coordinates": [4.6210175, 52.3533477]}, "properties": {"type": "inleverpunt", "locatieNaam": "Zeeman", "straatNaam": "Binnenweg", "straatNr": "87", "postcode": "2101 JH", "plaats": "Heemstede", "merk": "Stibat", "puntType": "inzamelbak", "materialen": ["batterijen"], "uitbetaling": [], "vrijToegankelijk": false, "gemeenteBeperking": null, "openingstijden": null, "latitude": 52.3533477, "longitude": 4.6210175, "bronId": "L021588"}}, {"type": "Feature", "geometry": {"type": "Point", "coordinates": [4.6209715, 52.3536656]}, "properties": {"type": "inleverpunt", "locatieNaam": "Doe het zelf Heemstede", "straatNaam": "Binnenweg", "straatNr": "93-95", "postcode": "2101 JE", "plaats": "Heemstede", "merk": "Stibat", "puntType": "inzamelbak", "materialen": ["batterijen"], "uitbetaling": [], "vrijToegankelijk": false, "gemeenteBeperking": null, "openingstijden": null, "latitude": 52.3536656, "longitude": 4.6209715, "bronId": "L015202"}}, {"type": "Feature", "geometry": {"type": "Point", "coordinates": [4.6209321, 52.3537756]}, "properties": {"type": "inleverpunt", "locatieNaam": "Sanders Tweewielers", "straatNaam": "Binnenweg", "straatNr": "101", "postcode": "2101 JE", "plaats": "Heemstede", "merk": "Stibat", "puntType": "inzamelbak", "materialen": ["batterijen"], "uitbetaling": [], "vrijToegankelijk": false, "gemeenteBeperking": null, "openingstijden": null, "latitude": 52.3537756, "longitude": 4.6209321, "bronId": "L036839"}}, {"type": "Feature", "geometry": {"type": "Point", "coordinates": [4.620815, 52.354193]}, "properties": {"type": "inleverpunt", "locatieNaam": "Hans Anders", "straatNaam": "Binnenweg", "straatNr": "117", "postcode": "2101 JE", "plaats": "Heemstede", "merk": "Stibat", "puntType": "inzamelbak", "materialen": ["batterijen"], "uitbetaling": [], "vrijToegankelijk": false, "gemeenteBeperking": null, "openingstijden": null, "latitude": 52.354193, "longitude": 4.620815, "bronId": "L037829"}}, {"type": "Feature", "geometry": {"type": "Point", "coordinates": [4.62073, 52.3544304]}, "properties": {"type": "inleverpunt", "locatieNaam": "Bruna", "straatNaam": "Binnenweg", "straatNr": "125", "postcode": "2101 JE", "plaats": "Heemstede", "merk": "Stibat", "puntType": "inzamelbak", "materialen": ["batterijen"], "uitbetaling": [], "vrijToegankelijk": false, "gemeenteBeperking": null, "openingstijden": null, "latitude": 52.3544304, "longitude": 4.62073, "bronId": "L045183"}}, {"type": "Feature", "geometry": {"type": "Point", "coordinates": [4.6220034, 52.3566215]}, "properties": {"type": "inleverpunt", "locatieNaam": "Aldi", "straatNaam": "Bronsteeweg", "straatNr": "2", "postcode": "2101 AC", "plaats": "Heemstede", "merk": "Stibat", "puntType": "inzamelbak", "materialen": ["batterijen"], "uitbetaling": [], "vrijToegankelijk": false, "gemeenteBeperking": null, "openingstijden": null, "latitude": 52.3566215, "longitude": 4.6220034, "bronId": "L041168"}}, {"type": "Feature", "geometry": {"type": "Point", "coordinates": [4.6209228, 52.3555596]}, "properties": {"type": "inleverpunt", "locatieNaam": "Intertoys", "straatNaam": "Binnenweg", "straatNr": "161", "postcode": "2101 JH", "plaats": "Heemstede", "merk": "Stibat", "puntType": "inzamelbak", "materialen": ["batterijen"], "uitbetaling": [], "vrijToegankelijk": false, "gemeenteBeperking": null, "openingstijden": null, "latitude": 52.3555596, "longitude": 4.6209228, "bronId": "L043522"}}, {"type": "Feature", "geometry": {"type": "Point", "coordinates": [4.6210191, 52.3556927]}, "properties": {"type": "inleverpunt", "locatieNaam": "Beter Horen", "straatNaam": "Binnenweg", "straatNr": "165", "postcode": "2101 JH", "plaats": "Heemstede", "merk": "Stibat", "puntType": "inzamelbak", "materialen": ["batterijen"], "uitbetaling": [], "vrijToegankelijk": false, "gemeenteBeperking": null, "openingstijden": null, "latitude": 52.3556927, "longitude": 4.6210191, "bronId": "L030886"}}, {"type": "Feature", "geometry": {"type": "Point", "coordinates": [4.6202375, 52.3562283]}, "properties": {"type": "inleverpunt", "locatieNaam": "1463 Albert Heijn", "straatNaam": "Blekervaartweg", "straatNr": "57", "postcode": "2101 CD", "plaats": "Heemstede", "merk": "Stibat", "puntType": "inzamelbak", "materialen": ["batterijen"], "uitbetaling": [], "vrijToegankelijk": false, "gemeenteBeperking": null, "openingstijden": null, "latitude": 52.3562283, "longitude": 4.6202375, "bronId": "L006095"}}, {"type": "Feature", "geometry": {"type": "Point", "coordinates": [4.6079899, 52.3522368]}, "properties": {"type": "inleverpunt", "locatieNaam": "Spar", "straatNaam": "Te Winkelhof", "straatNr": "25", "postcode": "2105 TA", "plaats": "Heemstede", "merk": "Stibat", "puntType": "inzamelbak", "materialen": ["batterijen"], "uitbetaling": [], "vrijToegankelijk": false, "gemeenteBeperking": null, "openingstijden": null, "latitude": 52.3522368, "longitude": 4.6079899, "bronId": "L008401"}}, {"type": "Feature", "geometry": {"type": "Point", "coordinates": [4.6141818, 52.3591927]}, "properties": {"type": "inleverpunt", "locatieNaam": "Rijwielspecialist Hart", "straatNaam": "Zandvoortselaan", "straatNr": "34", "postcode": "2106 CP", "plaats": "Heemstede", "merk": "Stibat", "puntType": "inzamelbak", "materialen": ["batterijen"], "uitbetaling": [], "vrijToegankelijk": false, "gemeenteBeperking": null, "openingstijden": null, "latitude": 52.3591927, "longitude": 4.6141818, "bronId": "L049586"}}, {"type": "Feature", "geometry": {"type": "Point", "coordinates": [4.6043661, 52.3596233]}, "properties": {"type": "inleverpunt", "locatieNaam": "1348 Albert Heijn", "straatNaam": "Zandvoortselaan", "straatNr": "169", "postcode": "2106 AM", "plaats": "Heemstede", "merk": "Stibat", "puntType": "inzamelbak", "materialen": ["batterijen"], "uitbetaling": [], "vrijToegankelijk": false, "gemeenteBeperking": null, "openingstijden": null, "latitude": 52.3596233, "longitude": 4.6043661, "bronId": "L006297"}}, {"type": "Feature", "geometry": {"type": "Polygon", "coordinates": [[[4.607367000942591, 52.323376004112625], [4.607660000942895, 52.32359000411275], [4.608666000943868, 52.322959004112356], [4.611384000946544, 52.322205004111915], [4.611475000946769, 52.3247900041135], [4.612565000947978, 52.32707000411488], [4.616664000952309, 52.331574004117556], [4.619094000954824, 52.33327500411855], [4.629741000965671, 52.33731000412097], [4.639648000975651, 52.33890600412197], [4.639381000975473, 52.34062900412297], [4.640421000976583, 52.341974004123784], [4.6410340009772995, 52.34398600412493], [4.640305000976659, 52.34567100412595], [4.6403860009769575, 52.34983400412843], [4.6396610009762975, 52.35106900412914], [4.636388000973149, 52.35335900413049], [4.634931000971827, 52.35590900413202], [4.635374000972322, 52.356975004132664], [4.637607000974684, 52.35950400413415], [4.636626000973808, 52.361484004135306], [4.633523000970676, 52.36081400413491], [4.630341000967488, 52.360647004134805], [4.625629000962863, 52.36212600413566], [4.623929000961147, 52.36175400413542], [4.622101000959313, 52.36166300413536], [4.62170200095893, 52.36196400413553], [4.621196000958414, 52.36169100413538], [4.617903000955115, 52.36147200413526], [4.605724000943059, 52.36340500413637], [4.604820000942111, 52.36256600413586], [4.595253000931471, 52.34199100412363], [4.590186000925689, 52.32835300411553], [4.59158500092708, 52.328176004115406], [4.591779000927288, 52.3285260041156], [4.593359000928848, 52.32810800411535], [4.5938740009293895, 52.328646004115704], [4.596291000931757, 52.327748004115186], [4.596527000932009, 52.328023004115344], [4.597292000932762, 52.32783100411523], [4.607367000942591, 52.323376004112625]]]}, "properties": {"type": "boundary", "gemeente": "Heemstede"}}]}