{"type": "FeatureCollection", "metadata": {"gemeente": "Heemskerk", "slug": "heemskerk", "generated_at": "2026-07-28T19:03:25.026558Z", "total_points": 78, "merken": ["StatiegeldNederland", "Stibat", "StichtingOPEN"], "bounds": [4.651835, 52.49223, 4.7013609, 52.5206048]}, "features": [{"type": "Feature", "geometry": {"type": "Point", "coordinates": [4.6563477, 52.5206048]}, "properties": {"type": "inleverpunt", "locatieNaam": "Ado20", "straatNaam": "Oosterweg", "straatNr": "4C", "postcode": "1968 KN", "plaats": "Heemskerk", "merk": "StatiegeldNederland", "puntType": "balie", "materialen": ["pet-groot", "pet-klein", "blik"], "uitbetaling": [], "vrijToegankelijk": false, "gemeenteBeperking": null, "openingstijden": {"ma": "Gesloten", "di": "Gesloten", "wo": "Gesloten", "do": "24 uur geopend", "vr": "24 uur geopend", "za": "24 uur geopend", "zo": "24 uur geopend"}, "latitude": 52.5206048, "longitude": 4.6563477, "bronId": "251941"}}, {"type": "Feature", "geometry": {"type": "Point", "coordinates": [4.6784424, 52.4943161]}, "properties": {"type": "inleverpunt", "locatieNaam": "Albert Heijn", "straatNaam": "Europassage", "straatNr": "21", "postcode": "1966 WH", "plaats": "Heemskerk", "merk": "StatiegeldNederland", "puntType": "automaat", "materialen": ["pet-groot", "pet-klein", "blik", "glas", "krat"], "uitbetaling": ["bonnetje", "donatie"], "vrijToegankelijk": true, "gemeenteBeperking": null, "openingstijden": {"ma": "08:00–21:00", "di": "08:00–21:00", "wo": "08:00–21:00", "do": "08:00–21:00", "vr": "08:00–21:00", "za": "08:00–21:00", "zo": "10:00–20:00"}, "latitude": 52.4943161, "longitude": 4.6784424, "bronId": "252217"}}, {"type": "Feature", "geometry": {"type": "Point", "coordinates": [4.6672222, 52.5108333]}, "properties": {"type": "inleverpunt", "locatieNaam": "Albert Heijn", "straatNaam": "Kerkweg", "straatNr": "85", "postcode": "1961 JB", "plaats": "Heemskerk", "merk": "StatiegeldNederland", "puntType": "automaat", "materialen": ["pet-groot", "pet-klein", "blik", "glas", "krat"], "uitbetaling": ["bonnetje", "donatie"], "vrijToegankelijk": true, "gemeenteBeperking": null, "openingstijden": {"ma": "08:00–21:00", "di": "08:00–21:00", "wo": "08:00–21:00", "do": "08:00–21:00", "vr": "08:00–21:00", "za": "08:00–21:00", "zo": "10:00–20:00"}, "latitude": 52.5108333, "longitude": 4.6672222, "bronId": "252400"}}, {"type": "Feature", "geometry": {"type": "Point", "coordinates": [4.6558892, 52.5051435]}, "properties": {"type": "inleverpunt", "locatieNaam": "Albert Heijn", "straatNaam": "Rijksstraatweg", "straatNr": "40", "postcode": "1964 LJ", "plaats": "Heemskerk", "merk": "StatiegeldNederland", "puntType": "automaat", "materialen": ["pet-groot", "pet-klein", "blik", "glas", "krat"], "uitbetaling": ["bonnetje", "donatie"], "vrijToegankelijk": true, "gemeenteBeperking": null, "openingstijden": {"ma": "07:00–22:00", "di": "07:00–22:00", "wo": "07:00–22:00", "do": "07:00–22:00", "vr": "07:00–22:00", "za": "07:00–22:00", "zo": "10:00–20:00"}, "latitude": 52.5051435, "longitude": 4.6558892, "bronId": "252671"}}, {"type": "Feature", "geometry": {"type": "Point", "coordinates": [4.673713, 52.509219]}, "properties": {"type": "inleverpunt", "locatieNaam": "Aldi", "straatNaam": "G. Van Assendelftstr.", "straatNr": "32", "postcode": "1964 NL", "plaats": "Heemskerk", "merk": "StatiegeldNederland", "puntType": "automaat", "materialen": ["pet-groot", "pet-klein", "blik", "glas", "krat"], "uitbetaling": ["bonnetje"], "vrijToegankelijk": true, "gemeenteBeperking": null, "openingstijden": {"ma": "08:00–20:00", "di": "08:00–20:00", "wo": "08:00–20:00", "do": "08:00–20:00", "vr": "08:00–20:00", "za": "08:00–18:00", "zo": "10:00–17:00"}, "latitude": 52.509219, "longitude": 4.673713, "bronId": "253112"}}, {"type": "Feature", "geometry": {"type": "Point", "coordinates": [4.668665, 52.500917]}, "properties": {"type": "inleverpunt", "locatieNaam": "Dali College", "straatNaam": "Plesmanweg", "straatNr": "450", "postcode": "1965 BD", "plaats": "Heemskerk", "merk": "StatiegeldNederland", "puntType": "automaat", "materialen": ["pet-klein", "blik"], "uitbetaling": ["donatie", "tikkie"], "vrijToegankelijk": true, "gemeenteBeperking": null, "openingstijden": null, "latitude": 52.500917, "longitude": 4.668665, "bronId": "254255"}}, {"type": "Feature", "geometry": {"type": "Point", "coordinates": [4.6679687, 52.5108265]}, "properties": {"type": "inleverpunt", "locatieNaam": "Dekamarkt", "straatNaam": "Kerkweg", "straatNr": "43", "postcode": "1961 JB", "plaats": "Heemskerk", "merk": "StatiegeldNederland", "puntType": "automaat", "materialen": ["pet-groot", "pet-klein", "blik", "glas", "krat"], "uitbetaling": ["bonnetje"], "vrijToegankelijk": true, "gemeenteBeperking": null, "openingstijden": {"ma": "07:30–21:00", "di": "07:30–21:00", "wo": "07:30–21:00", "do": "07:30–21:00", "vr": "07:30–21:00", "za": "07:30–21:00", "zo": "10:00–20:00"}, "latitude": 52.5108265, "longitude": 4.6679687, "bronId": "254337"}}, {"type": "Feature", "geometry": {"type": "Point", "coordinates": [4.69984, 52.49906]}, "properties": {"type": "inleverpunt", "locatieNaam": "Esso", "straatNaam": "Rijksweg A9", "straatNr": "", "postcode": "1967 PT", "plaats": "Heemskerk", "merk": "StatiegeldNederland", "puntType": "balie", "materialen": ["pet-groot", "pet-klein", "blik"], "uitbetaling": [], "vrijToegankelijk": true, "gemeenteBeperking": null, "openingstijden": {"ma": "24 uur geopend", "di": "24 uur geopend", "wo": "24 uur geopend", "do": "24 uur geopend", "vr": "24 uur geopend", "za": "24 uur geopend", "zo": "24 uur geopend"}, "latitude": 52.49906, "longitude": 4.69984, "bronId": "254728"}}, {"type": "Feature", "geometry": {"type": "Point", "coordinates": [4.6901211, 52.5076575]}, "properties": {"type": "inleverpunt", "locatieNaam": "H.t.v. Assumburg", "straatNaam": "Communicatieweg", "straatNr": "2", "postcode": "1967 PR", "plaats": "Heemskerk", "merk": "StatiegeldNederland", "puntType": "balie", "materialen": ["pet-groot", "pet-klein", "blik"], "uitbetaling": [], "vrijToegankelijk": false, "gemeenteBeperking": null, "openingstijden": {"ma": "08:00–22:15", "di": "08:00–22:15", "wo": "08:00–22:15", "do": "08:00–22:15", "vr": "08:00–22:15", "za": "08:00–22:15", "zo": "08:00–22:15"}, "latitude": 52.5076575, "longitude": 4.6901211, "bronId": "254921"}}, {"type": "Feature", "geometry": {"type": "Point", "coordinates": [4.676774, 52.512793]}, "properties": {"type": "inleverpunt", "locatieNaam": "Jumbo", "straatNaam": "Haydnplein", "straatNr": "8", "postcode": "1962 KE", "plaats": "Heemskerk", "merk": "StatiegeldNederland", "puntType": "automaat", "materialen": ["pet-groot", "pet-klein", "blik", "glas", "krat"], "uitbetaling": ["bonnetje", "donatie"], "vrijToegankelijk": true, "gemeenteBeperking": null, "openingstijden": {"ma": "06:00–22:00", "di": "06:00–22:00", "wo": "06:00–22:00", "do": "06:00–22:00", "vr": "06:00–22:00", "za": "06:00–22:00", "zo": "10:00–20:00"}, "latitude": 52.512793, "longitude": 4.676774, "bronId": "255405"}}, {"type": "Feature", "geometry": {"type": "Point", "coordinates": [4.67689, 52.4949]}, "properties": {"type": "inleverpunt", "locatieNaam": "Lidl", "straatNaam": "Europassage", "straatNr": "7", "postcode": "1966 WH", "plaats": "Heemskerk", "merk": "StatiegeldNederland", "puntType": "automaat", "materialen": ["pet-groot", "pet-klein", "blik", "glas", "krat"], "uitbetaling": ["bonnetje", "donatie"], "vrijToegankelijk": true, "gemeenteBeperking": null, "openingstijden": {"ma": "08:00–21:00", "di": "08:00–21:00", "wo": "08:00–21:00", "do": "08:00–21:00", "vr": "08:00–21:00", "za": "08:00–21:00", "zo": "10:00–18:00"}, "latitude": 52.4949, "longitude": 4.67689, "bronId": "256151"}}, {"type": "Feature", "geometry": {"type": "Point", "coordinates": [4.7013404, 52.5034065]}, "properties": {"type": "inleverpunt", "locatieNaam": "Rataplan Heemskerk", "straatNaam": "De Trompet", "straatNr": "2999", "postcode": "1967 DD", "plaats": "Heemskerk", "merk": "StatiegeldNederland", "puntType": "automaat", "materialen": ["pet-groot", "pet-klein", "blik", "krat"], "uitbetaling": ["donatie", "tikkie"], "vrijToegankelijk": true, "gemeenteBeperking": null, "openingstijden": {"ma": "09:00–18:00", "di": "09:00–18:00", "wo": "09:00–18:00", "do": "09:00–18:00", "vr": "09:00–18:00", "za": "09:00–17:00", "zo": "12:00–17:00"}, "latitude": 52.5034065, "longitude": 4.7013404, "bronId": "257765"}}, {"type": "Feature", "geometry": {"type": "Point", "coordinates": [4.693238, 52.508177]}, "properties": {"type": "inleverpunt", "locatieNaam": "Shell", "straatNaam": "Communicatieweg", "straatNr": "7", "postcode": "1967 PR", "plaats": "Heemskerk", "merk": "StatiegeldNederland", "puntType": "balie", "materialen": ["pet-groot", "pet-klein", "blik"], "uitbetaling": [], "vrijToegankelijk": true, "gemeenteBeperking": null, "openingstijden": {"ma": "24 uur geopend", "di": "24 uur geopend", "wo": "24 uur geopend", "do": "24 uur geopend", "vr": "24 uur geopend", "za": "24 uur geopend", "zo": "24 uur geopend"}, "latitude": 52.508177, "longitude": 4.693238, "bronId": "258047"}}, {"type": "Feature", "geometry": {"type": "Point", "coordinates": [4.69984, 52.49906]}, "properties": {"type": "inleverpunt", "locatieNaam": "Shell", "straatNaam": "Rijksweg A9", "straatNr": "", "postcode": "1967 PT", "plaats": "Heemskerk", "merk": "StatiegeldNederland", "puntType": "balie", "materialen": ["pet-groot", "pet-klein", "blik"], "uitbetaling": [], "vrijToegankelijk": true, "gemeenteBeperking": null, "openingstijden": {"ma": "24 uur geopend", "di": "24 uur geopend", "wo": "24 uur geopend", "do": "24 uur geopend", "vr": "24 uur geopend", "za": "24 uur geopend", "zo": "24 uur geopend"}, "latitude": 52.49906, "longitude": 4.69984, "bronId": "258176"}}, {"type": "Feature", "geometry": {"type": "Point", "coordinates": [4.7013609, 52.4996525]}, "properties": {"type": "inleverpunt", "locatieNaam": "Spar Express", "straatNaam": "A9 OOST", "straatNr": "", "postcode": "1911 MB", "plaats": "Uitgeest", "merk": "StatiegeldNederland", "puntType": "balie", "materialen": ["pet-groot", "pet-klein", "blik"], "uitbetaling": [], "vrijToegankelijk": true, "gemeenteBeperking": null, "openingstijden": {"ma": "24 uur geopend", "di": "24 uur geopend", "wo": "24 uur geopend", "do": "24 uur geopend", "vr": "24 uur geopend", "za": "24 uur geopend", "zo": "24 uur geopend"}, "latitude": 52.4996525, "longitude": 4.7013609, "bronId": "258530"}}, {"type": "Feature", "geometry": {"type": "Point", "coordinates": [4.6924159, 52.4924844]}, "properties": {"type": "inleverpunt", "locatieNaam": "Vomar", "straatNaam": "Gildenplein", "straatNr": "14", "postcode": "1967 KL", "plaats": "Heemskerk", "merk": "StatiegeldNederland", "puntType": "automaat", "materialen": ["pet-groot", "pet-klein", "blik", "glas", "krat"], "uitbetaling": ["bonnetje", "donatie"], "vrijToegankelijk": true, "gemeenteBeperking": null, "openingstijden": {"ma": "07:30–22:00", "di": "07:30–22:00", "wo": "07:30–22:00", "do": "07:30–22:00", "vr": "07:30–22:00", "za": "07:30–22:00", "zo": "10:00–20:00"}, "latitude": 52.4924844, "longitude": 4.6924159, "bronId": "259665"}}, {"type": "Feature", "geometry": {"type": "Point", "coordinates": [4.6547403, 52.5076149]}, "properties": {"type": "inleverpunt", "locatieNaam": "Vomar", "straatNaam": "Helmlaan", "straatNr": "1", "postcode": "1964 PH", "plaats": "Heemskerk", "merk": "StatiegeldNederland", "puntType": "automaat", "materialen": ["pet-groot", "pet-klein", "blik", "glas", "krat"], "uitbetaling": ["bonnetje", "donatie"], "vrijToegankelijk": true, "gemeenteBeperking": null, "openingstijden": {"ma": "07:30–21:00", "di": "07:30–21:00", "wo": "07:30–21:00", "do": "07:30–21:00", "vr": "07:30–21:00", "za": "07:30–21:00", "zo": "10:00–20:00"}, "latitude": 52.5076149, "longitude": 4.6547403, "bronId": "259669"}}, {"type": "Feature", "geometry": {"type": "Point", "coordinates": [4.6709335, 52.5097028]}, "properties": {"type": "inleverpunt", "locatieNaam": "Vomar", "straatNaam": "M. Van Heemskerckstraat", "straatNr": "1-11", "postcode": "1961 EB", "plaats": "Heemskerk", "merk": "StatiegeldNederland", "puntType": "automaat", "materialen": ["pet-groot", "pet-klein", "blik", "glas", "krat"], "uitbetaling": ["bonnetje", "donatie"], "vrijToegankelijk": true, "gemeenteBeperking": null, "openingstijden": {"ma": "07:30–20:00", "di": "07:30–20:00", "wo": "07:30–20:00", "do": "07:30–20:00", "vr": "07:30–20:00", "za": "07:30–20:00", "zo": "10:00–19:00"}, "latitude": 52.5097028, "longitude": 4.6709335, "bronId": "259691"}}, {"type": "Feature", "geometry": {"type": "Point", "coordinates": [4.69202, 52.49223]}, "properties": {"type": "inleverpunt", "locatieNaam": "Kruidvat Heemskerk", "straatNaam": "Gildenplein", "straatNr": "26", "postcode": "1967 KL", "plaats": "Heemskerk", "merk": "StichtingOPEN", "puntType": "balie", "materialen": ["batterijen", "lampen"], "uitbetaling": [], "vrijToegankelijk": false, "gemeenteBeperking": null, "openingstijden": null, "latitude": 52.49223, "longitude": 4.69202, "bronId": "SP00024869"}}, {"type": "Feature", "geometry": {"type": "Point", "coordinates": [4.69234, 52.4925]}, "properties": {"type": "inleverpunt", "locatieNaam": "Vomar Heemskerk", "straatNaam": "Gildenplein", "straatNr": "14", "postcode": "1967 KL", "plaats": "Heemskerk", "merk": "StichtingOPEN", "puntType": "balie", "materialen": ["batterijen", "lampen"], "uitbetaling": [], "vrijToegankelijk": false, "gemeenteBeperking": null, "openingstijden": null, "latitude": 52.4925, "longitude": 4.69234, "bronId": "SP00030112"}}, {"type": "Feature", "geometry": {"type": "Point", "coordinates": [4.70134, 52.503406]}, "properties": {"type": "inleverpunt", "locatieNaam": "Rataplan Heemskerk", "straatNaam": "De Trompet", "straatNr": "2999", "postcode": "1967 DD", "plaats": "Heemskerk", "merk": "StichtingOPEN", "puntType": "balie", "materialen": ["batterijen", "elektro-klein", "lampen", "tl-buizen"], "uitbetaling": [], "vrijToegankelijk": false, "gemeenteBeperking": null, "openingstijden": null, "latitude": 52.503406, "longitude": 4.70134, "bronId": "SP00041380"}}, {"type": "Feature", "geometry": {"type": "Point", "coordinates": [4.698493, 52.507322]}, "properties": {"type": "inleverpunt", "locatieNaam": "Groenhart Group B.V. Heemskerk", "straatNaam": "De Trompet", "straatNr": "1145-1149", "postcode": "1967 DA", "plaats": "Heemskerk", "merk": "StichtingOPEN", "puntType": "balie", "materialen": ["batterijen", "elektro-klein", "elektro-middel", "lampen", "tl-buizen"], "uitbetaling": [], "vrijToegankelijk": false, "gemeenteBeperking": null, "openingstijden": null, "latitude": 52.507322, "longitude": 4.698493, "bronId": "SP00008834"}}, {"type": "Feature", "geometry": {"type": "Point", "coordinates": [4.680951, 52.498537]}, "properties": {"type": "inleverpunt", "locatieNaam": "Repamatic", "straatNaam": "Denemarkenstraat", "straatNr": "3", "postcode": "1966 NK", "plaats": "Heemskerk", "merk": "StichtingOPEN", "puntType": "balie", "materialen": ["elektro-klein", "elektro-middel"], "uitbetaling": [], "vrijToegankelijk": false, "gemeenteBeperking": null, "openingstijden": null, "latitude": 52.498537, "longitude": 4.680951, "bronId": "SP00003717"}}, {"type": "Feature", "geometry": {"type": "Point", "coordinates": [4.667133, 52.503465]}, "properties": {"type": "inleverpunt", "locatieNaam": "Praxis Heemskerk - 2021", "straatNaam": "Jan Ligthartstraat", "straatNr": "33", "postcode": "1964 HA", "plaats": "Heemskerk", "merk": "StichtingOPEN", "puntType": "balie", "materialen": ["elektro-middel", "lampen", "tl-buizen"], "uitbetaling": [], "vrijToegankelijk": false, "gemeenteBeperking": null, "openingstijden": null, "latitude": 52.503465, "longitude": 4.667133, "bronId": "SP00004557"}}, {"type": "Feature", "geometry": {"type": "Point", "coordinates": [4.673811, 52.50916]}, "properties": {"type": "inleverpunt", "locatieNaam": "Aldi Heemskerk", "straatNaam": "G. van Assendelftstr.", "straatNr": "32", "postcode": "1964 NL", "plaats": "Heemskerk", "merk": "StichtingOPEN", "puntType": "balie", "materialen": ["batterijen", "elektro-klein", "lampen"], "uitbetaling": [], "vrijToegankelijk": false, "gemeenteBeperking": null, "openingstijden": null, "latitude": 52.50916, "longitude": 4.673811, "bronId": "SP00027178"}}, {"type": "Feature", "geometry": {"type": "Point", "coordinates": [4.677995, 52.513187]}, "properties": {"type": "inleverpunt", "locatieNaam": "Action Heemskerk 1321", "straatNaam": "Dr Prinsengalerij", "straatNr": "18", "postcode": "1962 PR", "plaats": "Heemskerk", "merk": "StichtingOPEN", "puntType": "balie", "materialen": ["batterijen", "lampen"], "uitbetaling": [], "vrijToegankelijk": false, "gemeenteBeperking": null, "openingstijden": null, "latitude": 52.513187, "longitude": 4.677995, "bronId": "SP00007602"}}, {"type": "Feature", "geometry": {"type": "Point", "coordinates": [4.676392, 52.51308]}, "properties": {"type": "inleverpunt", "locatieNaam": "Jumbo Heemskerk", "straatNaam": "Haydnplein", "straatNr": "8", "postcode": "1962 KE", "plaats": "Heemskerk", "merk": "StichtingOPEN", "puntType": "balie", "materialen": ["batterijen", "lampen"], "uitbetaling": [], "vrijToegankelijk": false, "gemeenteBeperking": null, "openingstijden": null, "latitude": 52.51308, "longitude": 4.676392, "bronId": "SP00025327"}}, {"type": "Feature", "geometry": {"type": "Point", "coordinates": [4.669494, 52.509671]}, "properties": {"type": "inleverpunt", "locatieNaam": "Action Heemskerk 1120", "straatNaam": "Ruysdaelstraat", "straatNr": "33", "postcode": "1961 RM", "plaats": "Heemskerk", "merk": "StichtingOPEN", "puntType": "balie", "materialen": ["batterijen", "lampen"], "uitbetaling": [], "vrijToegankelijk": false, "gemeenteBeperking": null, "openingstijden": null, "latitude": 52.509671, "longitude": 4.669494, "bronId": "SP00007711"}}, {"type": "Feature", "geometry": {"type": "Point", "coordinates": [4.670575, 52.510904]}, "properties": {"type": "inleverpunt", "locatieNaam": "Kruidvat Heemskerk", "straatNaam": "Deutzstraat", "straatNr": "13-19", "postcode": "1961 NS", "plaats": "Heemskerk", "merk": "StichtingOPEN", "puntType": "balie", "materialen": ["batterijen", "lampen"], "uitbetaling": [], "vrijToegankelijk": false, "gemeenteBeperking": null, "openingstijden": null, "latitude": 52.510904, "longitude": 4.670575, "bronId": "SP00024854"}}, {"type": "Feature", "geometry": {"type": "Point", "coordinates": [4.669035, 52.51055]}, "properties": {"type": "inleverpunt", "locatieNaam": "Xenos Heemskerk", "straatNaam": "Kerkweg", "straatNr": "31", "postcode": "1961 JA", "plaats": "Heemskerk", "merk": "StichtingOPEN", "puntType": "balie", "materialen": ["batterijen", "lampen"], "uitbetaling": [], "vrijToegankelijk": false, "gemeenteBeperking": null, "openingstijden": null, "latitude": 52.51055, "longitude": 4.669035, "bronId": "SP00025732"}}, {"type": "Feature", "geometry": {"type": "Point", "coordinates": [4.668353, 52.510774]}, "properties": {"type": "inleverpunt", "locatieNaam": "Dekamarkt Heemskerk", "straatNaam": "Kerkweg", "straatNr": "43", "postcode": "1961 JB", "plaats": "Heemskerk", "merk": "StichtingOPEN", "puntType": "balie", "materialen": ["batterijen", "lampen"], "uitbetaling": [], "vrijToegankelijk": false, "gemeenteBeperking": null, "openingstijden": null, "latitude": 52.510774, "longitude": 4.668353, "bronId": "SP00023692"}}, {"type": "Feature", "geometry": {"type": "Point", "coordinates": [4.651835, 52.502857]}, "properties": {"type": "inleverpunt", "locatieNaam": "GAMMA Heemskerk", "straatNaam": "De Smidse", "straatNr": "15-17", "postcode": "1969 NA", "plaats": "Heemskerk", "merk": "StichtingOPEN", "puntType": "balie", "materialen": ["batterijen", "elektro-middel", "lampen", "tl-buizen"], "uitbetaling": [], "vrijToegankelijk": false, "gemeenteBeperking": null, "openingstijden": null, "latitude": 52.502857, "longitude": 4.651835, "bronId": "SP00006839"}}, {"type": "Feature", "geometry": {"type": "Point", "coordinates": [4.655244, 52.504958]}, "properties": {"type": "inleverpunt", "locatieNaam": "1625 Albert Heijn Heemskerk", "straatNaam": "Rijksstraatweg", "straatNr": "40", "postcode": "1964 LJ", "plaats": "Heemskerk", "merk": "StichtingOPEN", "puntType": "balie", "materialen": ["batterijen", "elektro-klein", "lampen"], "uitbetaling": [], "vrijToegankelijk": false, "gemeenteBeperking": null, "openingstijden": null, "latitude": 52.504958, "longitude": 4.655244, "bronId": "SP00023113"}}, {"type": "Feature", "geometry": {"type": "Point", "coordinates": [4.655251, 52.506564]}, "properties": {"type": "inleverpunt", "locatieNaam": "Welkoop Heemskerk", "straatNaam": "Rijksstraatweg", "straatNr": "5052", "postcode": "1964 LJ", "plaats": "Heemskerk", "merk": "StichtingOPEN", "puntType": "balie", "materialen": ["lampen"], "uitbetaling": [], "vrijToegankelijk": false, "gemeenteBeperking": null, "openingstijden": null, "latitude": 52.506564, "longitude": 4.655251, "bronId": "SP00020364"}}, {"type": "Feature", "geometry": {"type": "Point", "coordinates": [4.655052, 52.508024]}, "properties": {"type": "inleverpunt", "locatieNaam": "Vomar Heemskerk", "straatNaam": "Helmlaan", "straatNr": "1", "postcode": "1964 PH", "plaats": "Heemskerk", "merk": "StichtingOPEN", "puntType": "balie", "materialen": ["batterijen", "lampen"], "uitbetaling": [], "vrijToegankelijk": false, "gemeenteBeperking": null, "openingstijden": null, "latitude": 52.508024, "longitude": 4.655052, "bronId": "SP00025764"}}, {"type": "Feature", "geometry": {"type": "Point", "coordinates": [4.6920204, 52.4922306]}, "properties": {"type": "inleverpunt", "locatieNaam": "Kruidvat", "straatNaam": "Gildenplein", "straatNr": "2-4-6", "postcode": "1967 KL", "plaats": "Heemskerk", "merk": "Stibat", "puntType": "inzamelbak", "materialen": ["batterijen"], "uitbetaling": [], "vrijToegankelijk": false, "gemeenteBeperking": null, "openingstijden": null, "latitude": 52.4922306, "longitude": 4.6920204, "bronId": "L021213"}}, {"type": "Feature", "geometry": {"type": "Point", "coordinates": [4.6923466, 52.4925046]}, "properties": {"type": "inleverpunt", "locatieNaam": "Vomar", "straatNaam": "Gildenplein", "straatNr": "14", "postcode": "1967 KL", "plaats": "Heemskerk", "merk": "Stibat", "puntType": "inzamelbak", "materialen": ["batterijen"], "uitbetaling": [], "vrijToegankelijk": false, "gemeenteBeperking": null, "openingstijden": null, "latitude": 52.4925046, "longitude": 4.6923466, "bronId": "L020493"}}, {"type": "Feature", "geometry": {"type": "Point", "coordinates": [4.7013404, 52.5034065]}, "properties": {"type": "inleverpunt", "locatieNaam": "Rataplan", "straatNaam": "De Trompet", "straatNr": "2999", "postcode": "1967 DD", "plaats": "Heemskerk", "merk": "Stibat", "puntType": "inzamelbak", "materialen": ["batterijen"], "uitbetaling": [], "vrijToegankelijk": false, "gemeenteBeperking": null, "openingstijden": null, "latitude": 52.5034065, "longitude": 4.7013404, "bronId": "L045839"}}, {"type": "Feature", "geometry": {"type": "Point", "coordinates": [4.684316, 52.4939457]}, "properties": {"type": "inleverpunt", "locatieNaam": "Servicestation Euratom", "straatNaam": "Euratomplein", "straatNr": "7", "postcode": "1966 SP", "plaats": "Heemskerk", "merk": "Stibat", "puntType": "inzamelbak", "materialen": ["batterijen"], "uitbetaling": [], "vrijToegankelijk": false, "gemeenteBeperking": null, "openingstijden": null, "latitude": 52.4939457, "longitude": 4.684316, "bronId": "L031052"}}, {"type": "Feature", "geometry": {"type": "Point", "coordinates": [4.6784424, 52.4943161]}, "properties": {"type": "inleverpunt", "locatieNaam": "2250 Albert Heijn", "straatNaam": "Europassage", "straatNr": "21", "postcode": "1966 WH", "plaats": "Heemskerk", "merk": "Stibat", "puntType": "inzamelbak", "materialen": ["batterijen"], "uitbetaling": [], "vrijToegankelijk": false, "gemeenteBeperking": null, "openingstijden": null, "latitude": 52.4943161, "longitude": 4.6784424, "bronId": "L044264"}}, {"type": "Feature", "geometry": {"type": "Point", "coordinates": [4.6776022, 52.4945847]}, "properties": {"type": "inleverpunt", "locatieNaam": "Primera", "straatNaam": "Europassage", "straatNr": "6", "postcode": "1966 WH", "plaats": "Heemskerk", "merk": "Stibat", "puntType": "inzamelbak", "materialen": ["batterijen"], "uitbetaling": [], "vrijToegankelijk": false, "gemeenteBeperking": null, "openingstijden": null, "latitude": 52.4945847, "longitude": 4.6776022, "bronId": "L047635"}}, {"type": "Feature", "geometry": {"type": "Point", "coordinates": [4.6776401, 52.4947607]}, "properties": {"type": "inleverpunt", "locatieNaam": "Kruidvat", "straatNaam": "Europassage", "straatNr": "9", "postcode": "1966 WH", "plaats": "Heemskerk", "merk": "Stibat", "puntType": "inzamelbak", "materialen": ["batterijen"], "uitbetaling": [], "vrijToegankelijk": false, "gemeenteBeperking": null, "openingstijden": null, "latitude": 52.4947607, "longitude": 4.6776401, "bronId": "L038641"}}, {"type": "Feature", "geometry": {"type": "Point", "coordinates": [4.6775626, 52.4947915]}, "properties": {"type": "inleverpunt", "locatieNaam": "Lidl", "straatNaam": "Europassage", "straatNr": "7", "postcode": "1966 WH", "plaats": "Heemskerk", "merk": "Stibat", "puntType": "inzamelbak", "materialen": ["batterijen"], "uitbetaling": [], "vrijToegankelijk": false, "gemeenteBeperking": null, "openingstijden": null, "latitude": 52.4947915, "longitude": 4.6775626, "bronId": "L047326"}}, {"type": "Feature", "geometry": {"type": "Point", "coordinates": [4.6771374, 52.4946312]}, "properties": {"type": "inleverpunt", "locatieNaam": "Zeeman", "straatNaam": "Europassage", "straatNr": "8-10", "postcode": "1966 WH", "plaats": "Heemskerk", "merk": "Stibat", "puntType": "inzamelbak", "materialen": ["batterijen"], "uitbetaling": [], "vrijToegankelijk": false, "gemeenteBeperking": null, "openingstijden": null, "latitude": 52.4946312, "longitude": 4.6771374, "bronId": "L034776"}}, {"type": "Feature", "geometry": {"type": "Point", "coordinates": [4.6985898, 52.507323]}, "properties": {"type": "inleverpunt", "locatieNaam": "Groenhart gereedschappen, ijzerwaren", "straatNaam": "De Trompet", "straatNr": "1145-1149", "postcode": "1967 DA", "plaats": "Heemskerk", "merk": "Stibat", "puntType": "inzamelbak", "materialen": ["batterijen"], "uitbetaling": [], "vrijToegankelijk": false, "gemeenteBeperking": null, "openingstijden": null, "latitude": 52.507323, "longitude": 4.6985898, "bronId": "L039249"}}, {"type": "Feature", "geometry": {"type": "Point", "coordinates": [4.6903557, 52.5075195]}, "properties": {"type": "inleverpunt", "locatieNaam": "Afvalbrengstation Tolhek", "straatNaam": "Communicatieweg", "straatNr": "1", "postcode": "1967 PR", "plaats": "Heemskerk", "merk": "Stibat", "puntType": "inzamelbak", "materialen": ["batterijen"], "uitbetaling": [], "vrijToegankelijk": false, "gemeenteBeperking": null, "openingstijden": null, "latitude": 52.5075195, "longitude": 4.6903557, "bronId": "L035608"}}, {"type": "Feature", "geometry": {"type": "Point", "coordinates": [4.6670861, 52.5034958]}, "properties": {"type": "inleverpunt", "locatieNaam": "Praxis 2021", "straatNaam": "Jan Ligthartstraat", "straatNr": "33", "postcode": "1964 HA", "plaats": "Heemskerk", "merk": "Stibat", "puntType": "inzamelbak", "materialen": ["batterijen"], "uitbetaling": [], "vrijToegankelijk": false, "gemeenteBeperking": null, "openingstijden": null, "latitude": 52.5034958, "longitude": 4.6670861, "bronId": "L015365"}}, {"type": "Feature", "geometry": {"type": "Point", "coordinates": [4.6737133, 52.5092192]}, "properties": {"type": "inleverpunt", "locatieNaam": "Aldi", "straatNaam": "G. van Assendelftstr.", "straatNr": "32", "postcode": "1964 NL", "plaats": "Heemskerk", "merk": "Stibat", "puntType": "inzamelbak", "materialen": ["batterijen"], "uitbetaling": [], "vrijToegankelijk": false, "gemeenteBeperking": null, "openingstijden": null, "latitude": 52.5092192, "longitude": 4.6737133, "bronId": "L041163"}}, {"type": "Feature", "geometry": {"type": "Point", "coordinates": [4.677417, 52.512798]}, "properties": {"type": "inleverpunt", "locatieNaam": "Primera", "straatNaam": "Haydenplein", "straatNr": "6", "postcode": "1962 KE", "plaats": "Heemskerk", "merk": "Stibat", "puntType": "inzamelbak", "materialen": ["batterijen"], "uitbetaling": [], "vrijToegankelijk": false, "gemeenteBeperking": null, "openingstijden": null, "latitude": 52.512798, "longitude": 4.677417, "bronId": "L022673"}}, {"type": "Feature", "geometry": {"type": "Point", "coordinates": [4.6777124, 52.5131858]}, "properties": {"type": "inleverpunt", "locatieNaam": "1321 Action", "straatNaam": "Dr Prinsengalerij", "straatNr": "18", "postcode": "1962 PR", "plaats": "Heemskerk", "merk": "Stibat", "puntType": "inzamelbak", "materialen": ["batterijen"], "uitbetaling": [], "vrijToegankelijk": false, "gemeenteBeperking": null, "openingstijden": null, "latitude": 52.5131858, "longitude": 4.6777124, "bronId": "L035170"}}, {"type": "Feature", "geometry": {"type": "Point", "coordinates": [4.6729853, 52.5105172]}, "properties": {"type": "inleverpunt", "locatieNaam": "DA", "straatNaam": "G. van Assendelftstraat", "straatNr": "1 B", "postcode": "1961 NH", "plaats": "Heemskerk", "merk": "Stibat", "puntType": "inzamelbak", "materialen": ["batterijen"], "uitbetaling": [], "vrijToegankelijk": false, "gemeenteBeperking": null, "openingstijden": null, "latitude": 52.5105172, "longitude": 4.6729853, "bronId": "L026513"}}, {"type": "Feature", "geometry": {"type": "Point", "coordinates": [4.6731961, 52.5106833]}, "properties": {"type": "inleverpunt", "locatieNaam": "Beentjes Tweewielers", "straatNaam": "Maerelaan", "straatNr": "2C", "postcode": "1961 KA", "plaats": "Heemskerk", "merk": "Stibat", "puntType": "inzamelbak", "materialen": ["batterijen"], "uitbetaling": [], "vrijToegankelijk": false, "gemeenteBeperking": null, "openingstijden": null, "latitude": 52.5106833, "longitude": 4.6731961, "bronId": "L032877"}}, {"type": "Feature", "geometry": {"type": "Point", "coordinates": [4.676774, 52.512793]}, "properties": {"type": "inleverpunt", "locatieNaam": "Jumbo", "straatNaam": "Haydnplein", "straatNr": "8", "postcode": "1962 KE", "plaats": "Heemskerk", "merk": "Stibat", "puntType": "inzamelbak", "materialen": ["batterijen"], "uitbetaling": [], "vrijToegankelijk": false, "gemeenteBeperking": null, "openingstijden": null, "latitude": 52.512793, "longitude": 4.676774, "bronId": "L034650"}}, {"type": "Feature", "geometry": {"type": "Point", "coordinates": [4.6709335, 52.5097028]}, "properties": {"type": "inleverpunt", "locatieNaam": "Vomar", "straatNaam": "Maerten van Heemskerckstraat", "straatNr": "1", "postcode": "1961 EB", "plaats": "Heemskerk", "merk": "Stibat", "puntType": "inzamelbak", "materialen": ["batterijen"], "uitbetaling": [], "vrijToegankelijk": false, "gemeenteBeperking": null, "openingstijden": null, "latitude": 52.5097028, "longitude": 4.6709335, "bronId": "L045093"}}, {"type": "Feature", "geometry": {"type": "Point", "coordinates": [4.6725076, 52.510705]}, "properties": {"type": "inleverpunt", "locatieNaam": "6038 Etos", "straatNaam": "Burgemeester Nielenplein", "straatNr": "30 -32", "postcode": "1961 NV", "plaats": "Heemskerk", "merk": "Stibat", "puntType": "inzamelbak", "materialen": ["batterijen"], "uitbetaling": [], "vrijToegankelijk": false, "gemeenteBeperking": null, "openingstijden": null, "latitude": 52.510705, "longitude": 4.6725076, "bronId": "L023767"}}, {"type": "Feature", "geometry": {"type": "Point", "coordinates": [4.6703595, 52.5094977]}, "properties": {"type": "inleverpunt", "locatieNaam": "Prijsmepper", "straatNaam": "Maerten van Heemskerckstraat", "straatNr": "8", "postcode": "1961 EB", "plaats": "Heemskerk", "merk": "Stibat", "puntType": "inzamelbak", "materialen": ["batterijen"], "uitbetaling": [], "vrijToegankelijk": false, "gemeenteBeperking": null, "openingstijden": null, "latitude": 52.5094977, "longitude": 4.6703595, "bronId": "L039934"}}, {"type": "Feature", "geometry": {"type": "Point", "coordinates": [4.6718508, 52.5110058]}, "properties": {"type": "inleverpunt", "locatieNaam": "HEMA Burgemeester Nielenplein", "straatNaam": "Burgemeester Nielenplein", "straatNr": "8", "postcode": "1961 NV", "plaats": "Heemskerk", "merk": "Stibat", "puntType": "inzamelbak", "materialen": ["batterijen"], "uitbetaling": [], "vrijToegankelijk": false, "gemeenteBeperking": null, "openingstijden": null, "latitude": 52.5110058, "longitude": 4.6718508, "bronId": "L007423"}}, {"type": "Feature", "geometry": {"type": "Point", "coordinates": [4.6704424, 52.510362]}, "properties": {"type": "inleverpunt", "locatieNaam": "Zeeman", "straatNaam": "Kerkweg 3 &", "straatNr": "5", "postcode": "1961 JA", "plaats": "Heemskerk", "merk": "Stibat", "puntType": "inzamelbak", "materialen": ["batterijen"], "uitbetaling": [], "vrijToegankelijk": false, "gemeenteBeperking": null, "openingstijden": null, "latitude": 52.510362, "longitude": 4.6704424, "bronId": "L021682"}}, {"type": "Feature", "geometry": {"type": "Point", "coordinates": [4.6713092, 52.5110622]}, "properties": {"type": "inleverpunt", "locatieNaam": "Photobrandstore Heemskerk", "straatNaam": "Burgemeester Nielenplein", "straatNr": "36", "postcode": "1961 NV", "plaats": "Heemskerk", "merk": "Stibat", "puntType": "inzamelbak", "materialen": ["batterijen"], "uitbetaling": [], "vrijToegankelijk": false, "gemeenteBeperking": null, "openingstijden": null, "latitude": 52.5110622, "longitude": 4.6713092, "bronId": "L047420"}}, {"type": "Feature", "geometry": {"type": "Point", "coordinates": [4.6702959, 52.510642]}, "properties": {"type": "inleverpunt", "locatieNaam": "Intertoys", "straatNaam": "Kerkweg", "straatNr": "20", "postcode": "1961 JD", "plaats": "Heemskerk", "merk": "Stibat", "puntType": "inzamelbak", "materialen": ["batterijen"], "uitbetaling": [], "vrijToegankelijk": false, "gemeenteBeperking": null, "openingstijden": null, "latitude": 52.510642, "longitude": 4.6702959, "bronId": "L043539"}}, {"type": "Feature", "geometry": {"type": "Point", "coordinates": [4.6705601, 52.5109318]}, "properties": {"type": "inleverpunt", "locatieNaam": "Kruidvat", "straatNaam": "Deutzstraat", "straatNr": "13A-19A", "postcode": "1961 NS", "plaats": "Heemskerk", "merk": "Stibat", "puntType": "inzamelbak", "materialen": ["batterijen"], "uitbetaling": [], "vrijToegankelijk": false, "gemeenteBeperking": null, "openingstijden": null, "latitude": 52.5109318, "longitude": 4.6705601, "bronId": "L013967"}}, {"type": "Feature", "geometry": {"type": "Point", "coordinates": [4.6694295, 52.5104168]}, "properties": {"type": "inleverpunt", "locatieNaam": "Beter Horen", "straatNaam": "Kerkweg", "straatNr": "19", "postcode": "1961 JA", "plaats": "Heemskerk", "merk": "Stibat", "puntType": "inzamelbak", "materialen": ["batterijen"], "uitbetaling": [], "vrijToegankelijk": false, "gemeenteBeperking": null, "openingstijden": null, "latitude": 52.5104168, "longitude": 4.6694295, "bronId": "L037233"}}, {"type": "Feature", "geometry": {"type": "Point", "coordinates": [4.669349, 52.51044]}, "properties": {"type": "inleverpunt", "locatieNaam": "Hans Anders", "straatNaam": "Kerkweg", "straatNr": "23", "postcode": "1961 JA", "plaats": "Heemskerk", "merk": "Stibat", "puntType": "inzamelbak", "materialen": ["batterijen"], "uitbetaling": [], "vrijToegankelijk": false, "gemeenteBeperking": null, "openingstijden": null, "latitude": 52.51044, "longitude": 4.669349, "bronId": "L037828"}}, {"type": "Feature", "geometry": {"type": "Point", "coordinates": [4.669383, 52.5106695]}, "properties": {"type": "inleverpunt", "locatieNaam": "Xenos", "straatNaam": "Kerkweg", "straatNr": "31", "postcode": "1961 JA", "plaats": "Heemskerk", "merk": "Stibat", "puntType": "inzamelbak", "materialen": ["batterijen"], "uitbetaling": [], "vrijToegankelijk": false, "gemeenteBeperking": null, "openingstijden": null, "latitude": 52.5106695, "longitude": 4.669383, "bronId": "L037044"}}, {"type": "Feature", "geometry": {"type": "Point", "coordinates": [4.6703379, 52.5116127]}, "properties": {"type": "inleverpunt", "locatieNaam": "Drogisterij/foto Rozenbroek", "straatNaam": "Deutzstraat", "straatNr": "22", "postcode": "1961 NT", "plaats": "Heemskerk", "merk": "Stibat", "puntType": "inzamelbak", "materialen": ["batterijen"], "uitbetaling": [], "vrijToegankelijk": false, "gemeenteBeperking": null, "openingstijden": null, "latitude": 52.5116127, "longitude": 4.6703379, "bronId": "L011741"}}, {"type": "Feature", "geometry": {"type": "Point", "coordinates": [4.6696185, 52.5112692]}, "properties": {"type": "inleverpunt", "locatieNaam": "Oor en Hoor Audiciens", "straatNaam": "van Coevenhovenstraat", "straatNr": "21", "postcode": "1961 NW", "plaats": "Heemskerk", "merk": "Stibat", "puntType": "inzamelbak", "materialen": ["batterijen"], "uitbetaling": [], "vrijToegankelijk": false, "gemeenteBeperking": null, "openingstijden": null, "latitude": 52.5112692, "longitude": 4.6696185, "bronId": "L030825"}}, {"type": "Feature", "geometry": {"type": "Point", "coordinates": [4.6689753, 52.5110086]}, "properties": {"type": "inleverpunt", "locatieNaam": "Stumpel", "straatNaam": "Van Coevenhovenstraat", "straatNr": "35", "postcode": "1961 NW", "plaats": "Heemskerk", "merk": "Stibat", "puntType": "inzamelbak", "materialen": ["batterijen"], "uitbetaling": [], "vrijToegankelijk": false, "gemeenteBeperking": null, "openingstijden": null, "latitude": 52.5110086, "longitude": 4.6689753, "bronId": "L045554"}}, {"type": "Feature", "geometry": {"type": "Point", "coordinates": [4.669595, 52.5114901]}, "properties": {"type": "inleverpunt", "locatieNaam": "HoorCare", "straatNaam": "Van Coevenhovenstraat", "straatNr": "4", "postcode": "1961 NX", "plaats": "Heemskerk", "merk": "Stibat", "puntType": "inzamelbak", "materialen": ["batterijen"], "uitbetaling": [], "vrijToegankelijk": false, "gemeenteBeperking": null, "openingstijden": null, "latitude": 52.5114901, "longitude": 4.669595, "bronId": "L031136"}}, {"type": "Feature", "geometry": {"type": "Point", "coordinates": [4.668353, 52.5107747]}, "properties": {"type": "inleverpunt", "locatieNaam": "Dekamarkt", "straatNaam": "Kerkweg", "straatNr": "43", "postcode": "1961 JB", "plaats": "Heemskerk", "merk": "Stibat", "puntType": "inzamelbak", "materialen": ["batterijen"], "uitbetaling": [], "vrijToegankelijk": false, "gemeenteBeperking": null, "openingstijden": null, "latitude": 52.5107747, "longitude": 4.668353, "bronId": "L007903"}}, {"type": "Feature", "geometry": {"type": "Point", "coordinates": [4.6691034, 52.5113736]}, "properties": {"type": "inleverpunt", "locatieNaam": "Expert", "straatNaam": "Van Coevenhovenstraat", "straatNr": "28", "postcode": "1961 NX", "plaats": "Heemskerk", "merk": "Stibat", "puntType": "inzamelbak", "materialen": ["batterijen"], "uitbetaling": [], "vrijToegankelijk": false, "gemeenteBeperking": null, "openingstijden": null, "latitude": 52.5113736, "longitude": 4.6691034, "bronId": "L010496"}}, {"type": "Feature", "geometry": {"type": "Point", "coordinates": [4.6679893, 52.5111319]}, "properties": {"type": "inleverpunt", "locatieNaam": "Enorm", "straatNaam": "Kerkweg", "straatNr": "68", "postcode": "1961 JE", "plaats": "Heemskerk", "merk": "Stibat", "puntType": "inzamelbak", "materialen": ["batterijen"], "uitbetaling": [], "vrijToegankelijk": false, "gemeenteBeperking": null, "openingstijden": null, "latitude": 52.5111319, "longitude": 4.6679893, "bronId": "L015170"}}, {"type": "Feature", "geometry": {"type": "Point", "coordinates": [4.6533137, 52.5027555]}, "properties": {"type": "inleverpunt", "locatieNaam": "Tweewielerservice Piet Vilten", "straatNaam": "Het Aambeeld", "straatNr": "9-1", "postcode": "1969 NC", "plaats": "Heemskerk", "merk": "Stibat", "puntType": "inzamelbak", "materialen": ["batterijen"], "uitbetaling": [], "vrijToegankelijk": false, "gemeenteBeperking": null, "openingstijden": null, "latitude": 52.5027555, "longitude": 4.6533137, "bronId": "L036180"}}, {"type": "Feature", "geometry": {"type": "Point", "coordinates": [4.6671071, 52.5109527]}, "properties": {"type": "inleverpunt", "locatieNaam": "1123 Albert Heijn", "straatNaam": "Kerkweg", "straatNr": "85", "postcode": "1961 JB", "plaats": "Heemskerk", "merk": "Stibat", "puntType": "inzamelbak", "materialen": ["batterijen"], "uitbetaling": [], "vrijToegankelijk": false, "gemeenteBeperking": null, "openingstijden": null, "latitude": 52.5109527, "longitude": 4.6671071, "bronId": "L005992"}}, {"type": "Feature", "geometry": {"type": "Point", "coordinates": [4.65575, 52.50442]}, "properties": {"type": "inleverpunt", "locatieNaam": "1625 Albert Heijn", "straatNaam": "Rijksstraatweg", "straatNr": "40", "postcode": "1964 LJ", "plaats": "Heemskerk", "merk": "Stibat", "puntType": "inzamelbak", "materialen": ["batterijen"], "uitbetaling": [], "vrijToegankelijk": false, "gemeenteBeperking": null, "openingstijden": null, "latitude": 52.50442, "longitude": 4.65575, "bronId": "L031057"}}, {"type": "Feature", "geometry": {"type": "Point", "coordinates": [4.6520241, 52.5032508]}, "properties": {"type": "inleverpunt", "locatieNaam": "Gamma", "straatNaam": "De Smidse", "straatNr": "15-17", "postcode": "1969 NA", "plaats": "Heemskerk", "merk": "Stibat", "puntType": "inzamelbak", "materialen": ["batterijen"], "uitbetaling": [], "vrijToegankelijk": false, "gemeenteBeperking": null, "openingstijden": null, "latitude": 52.5032508, "longitude": 4.6520241, "bronId": "L007283"}}, {"type": "Feature", "geometry": {"type": "Point", "coordinates": [4.6552944, 52.5059629]}, "properties": {"type": "inleverpunt", "locatieNaam": "Presto Cycle Sport", "straatNaam": "Rijksstraatweg", "straatNr": "46", "postcode": "1964 LJ", "plaats": "Heemskerk", "merk": "Stibat", "puntType": "inzamelbak", "materialen": ["batterijen"], "uitbetaling": [], "vrijToegankelijk": false, "gemeenteBeperking": null, "openingstijden": null, "latitude": 52.5059629, "longitude": 4.6552944, "bronId": "L048902"}}, {"type": "Feature", "geometry": {"type": "Point", "coordinates": [4.6550112, 52.5064682]}, "properties": {"type": "inleverpunt", "locatieNaam": "Welkoop", "straatNaam": "Rijksstraatweg", "straatNr": "50-52", "postcode": "1964 LJ", "plaats": "Heemskerk", "merk": "Stibat", "puntType": "inzamelbak", "materialen": ["batterijen"], "uitbetaling": [], "vrijToegankelijk": false, "gemeenteBeperking": null, "openingstijden": null, "latitude": 52.5064682, "longitude": 4.6550112, "bronId": "L018515"}}, {"type": "Feature", "geometry": {"type": "Point", "coordinates": [4.6551423, 52.5077087]}, "properties": {"type": "inleverpunt", "locatieNaam": "Vomar", "straatNaam": "Helmlaan", "straatNr": "1", "postcode": "1964 PH", "plaats": "Heemskerk", "merk": "Stibat", "puntType": "inzamelbak", "materialen": ["batterijen"], "uitbetaling": [], "vrijToegankelijk": false, "gemeenteBeperking": null, "openingstijden": null, "latitude": 52.5077087, "longitude": 4.6551423, "bronId": "L005582"}}, {"type": "Feature", "geometry": {"type": "Polygon", "coordinates": [[[4.710623001054272, 52.48992100421063], [4.714645001058447, 52.49319500421253], [4.716418001060251, 52.49395500421298], [4.720367001064239, 52.494954004213554], [4.716230001060176, 52.4960750042142], [4.711704001055705, 52.49681700421459], [4.705424001049618, 52.50010800421649], [4.705622001049832, 52.50045500421672], [4.7034430010477974, 52.50310400421824], [4.706096001050626, 52.50665800422031], [4.707938001052433, 52.50614100421999], [4.709025001053604, 52.50789300422103], [4.708810001053457, 52.50913000422173], [4.709152001053832, 52.509856004222144], [4.706547001051266, 52.51040200422245], [4.7038540010484775, 52.50832800422126], [4.702360001047018, 52.50884300422153], [4.7012040010458644, 52.508860004221575], [4.697721001042334, 52.50769600422088], [4.695716001040327, 52.507467004220736], [4.694393001039028, 52.50782600422091], [4.695109001039856, 52.51001700422218], [4.692560001037349, 52.51067700422259], [4.692000001036899, 52.51271000422378], [4.691164001036108, 52.513533004224236], [4.690519001035546, 52.51507100422512], [4.691395001036511, 52.51688700422614], [4.690552001035749, 52.518391004227], [4.690594001035833, 52.51917400422751], [4.691774001037119, 52.52134100422872], [4.693865001039304, 52.52331300422989], [4.694883001040451, 52.52586500423133], [4.695736001041345, 52.52672800423184], [4.685746001031482, 52.52833800423275], [4.659883001005912, 52.53176300423468], [4.656200001002234, 52.53152900423447], [4.65307600099908, 52.53068900423401], [4.598666000944939, 52.53107400423408], [4.583321000929817, 52.53389200423562], [4.576849000922293, 52.51384300422403], [4.571494000916324, 52.50203600421721], [4.587279000931882, 52.49902500421556], [4.591666000936185, 52.49784000421487], [4.591695000936239, 52.49827900421514], [4.593084000937605, 52.49793600421494], [4.595546000940067, 52.4981990042151], [4.597987000942428, 52.49682500421431], [4.599931000944387, 52.49726100421457], [4.598636000943028, 52.495945004213795], [4.604314000948601, 52.494389004212934], [4.606940000951243, 52.494956004213286], [4.607471000951755, 52.49457500421304], [4.611474000955849, 52.49663100421424], [4.612100000956454, 52.49630900421408], [4.612508000956886, 52.4967290042143], [4.61303700095739, 52.49633100421407], [4.615344000959723, 52.49698500421447], [4.615451000959821, 52.496773004214354], [4.621401000965803, 52.497862004215015], [4.633894000978301, 52.49890300421565], [4.635000000979437, 52.499529004215994], [4.6350200009794325, 52.49906100421573], [4.645016000989403, 52.499325004215905], [4.6451060009895055, 52.49956900421604], [4.646319000990686, 52.49907100421576], [4.649426000993785, 52.49912300421581], [4.6493650009937, 52.4986980042156], [4.650073000994391, 52.498390004215366], [4.651280000995616, 52.49886500421565], [4.652710000997008, 52.49822500421528], [4.655379000999649, 52.49792500421514], [4.6574370010017265, 52.49837200421544], [4.657327001001629, 52.49865400421559], [4.660369001004723, 52.49988500421629], [4.666054001010482, 52.501744004217336], [4.666876001011264, 52.501000004216905], [4.6663020010106795, 52.5007440042168], [4.666696001011055, 52.500457004216614], [4.667712001012034, 52.499812004216274], [4.668186001012519, 52.50003100421639], [4.66850100101282, 52.49978100421624], [4.668134001012441, 52.49955700421613], [4.669886001014126, 52.49839800421546], [4.670182001014429, 52.49855500421553], [4.67504700101912, 52.495561004213826], [4.67440800101846, 52.49515500421359], [4.67536100101938, 52.49457400421326], [4.675841001019874, 52.49488500421342], [4.676978001020985, 52.49442000421317], [4.678031001021999, 52.49380200421282], [4.677649001021605, 52.493562004212656], [4.67799300102194, 52.49336500421255], [4.678610001022573, 52.493719004212764], [4.679924001023853, 52.49316900421246], [4.680508001024457, 52.49354000421265], [4.681558001025469, 52.49293100421228], [4.683955001027849, 52.49275000421222], [4.686149001029977, 52.49165400421159], [4.68708700103095, 52.49239200421202], [4.690383001034152, 52.49083000421111], [4.690850001034643, 52.4913160042114], [4.694742001038522, 52.49133900421145], [4.694986001038716, 52.490380004210856], [4.694551001038173, 52.48830000420965], [4.695509001039083, 52.48738500420914], [4.697581001041148, 52.48744700420916], [4.699666001043347, 52.48979900421052], [4.703721001047323, 52.488533004209835], [4.703048001046603, 52.487570004209225], [4.707969001051444, 52.48633200420852], [4.708445001052036, 52.488626004209856], [4.710623001054272, 52.48992100421063]]]}, "properties": {"type": "boundary", "gemeente": "Heemskerk"}}]}