{"type": "FeatureCollection", "metadata": {"gemeente": "Heerlen", "slug": "heerlen", "generated_at": "2026-07-28T09:25:50.134599Z", "total_points": 168, "merken": ["StatiegeldNederland", "Stibat", "StichtingOPEN"], "bounds": [5.9168656, 50.82304, 6.0203758, 50.929875]}, "features": [{"type": "Feature", "geometry": {"type": "Point", "coordinates": [5.9416575, 50.9263191]}, "properties": {"type": "inleverpunt", "locatieNaam": "Albert Heijn", "straatNaam": "Akerstraat-Noord", "straatNr": "282-286", "postcode": "6431 HW", "plaats": "Hoensbroek", "merk": "StatiegeldNederland", "puntType": "automaat", "materialen": ["pet-groot", "pet-klein", "blik", "glas", "krat"], "uitbetaling": ["bonnetje", "donatie"], "vrijToegankelijk": true, "gemeenteBeperking": null, "openingstijden": {"ma": "08:00–21:00", "di": "08:00–21:00", "wo": "08:00–21:00", "do": "08:00–21:00", "vr": "08:00–21:00", "za": "08:00–21:00", "zo": "09:00–20:00"}, "latitude": 50.9263191, "longitude": 5.9416575, "bronId": "251968"}}, {"type": "Feature", "geometry": {"type": "Point", "coordinates": [6.0064046, 50.8675456]}, "properties": {"type": "inleverpunt", "locatieNaam": "Albert Heijn", "straatNaam": "Bautscherweg", "straatNr": "43", "postcode": "6418 EJ", "plaats": "Heerlen", "merk": "StatiegeldNederland", "puntType": "automaat", "materialen": ["pet-groot", "pet-klein", "blik", "glas", "krat"], "uitbetaling": ["bonnetje", "donatie"], "vrijToegankelijk": true, "gemeenteBeperking": null, "openingstijden": {"ma": "08:00–21:00", "di": "08:00–21:00", "wo": "08:00–21:00", "do": "08:00–21:00", "vr": "08:00–21:00", "za": "08:00–21:00", "zo": "09:00–20:00"}, "latitude": 50.8675456, "longitude": 6.0064046, "bronId": "252000"}}, {"type": "Feature", "geometry": {"type": "Point", "coordinates": [5.9697715, 50.8863462]}, "properties": {"type": "inleverpunt", "locatieNaam": "Albert Heijn", "straatNaam": "Homerusplein", "straatNr": "9", "postcode": "6411 AW", "plaats": "Heerlen", "merk": "StatiegeldNederland", "puntType": "automaat", "materialen": ["pet-groot", "pet-klein", "blik", "glas", "krat"], "uitbetaling": ["bonnetje", "donatie"], "vrijToegankelijk": true, "gemeenteBeperking": null, "openingstijden": {"ma": "08:00–22:00", "di": "08:00–22:00", "wo": "08:00–22:00", "do": "08:00–22:00", "vr": "08:00–22:00", "za": "08:00–22:00", "zo": "09:00–20:00"}, "latitude": 50.8863462, "longitude": 5.9697715, "bronId": "252322"}}, {"type": "Feature", "geometry": {"type": "Point", "coordinates": [5.9311774, 50.9252898]}, "properties": {"type": "inleverpunt", "locatieNaam": "Albert Heijn", "straatNaam": "Kouvenderstraat", "straatNr": "100", "postcode": "6431 HH", "plaats": "Hoensbroek", "merk": "StatiegeldNederland", "puntType": "automaat", "materialen": ["pet-groot", "pet-klein", "blik", "glas", "krat"], "uitbetaling": ["bonnetje", "donatie"], "vrijToegankelijk": true, "gemeenteBeperking": null, "openingstijden": {"ma": "08:00–21:00", "di": "08:00–21:00", "wo": "08:00–21:00", "do": "08:00–21:00", "vr": "08:00–21:00", "za": "08:00–21:00", "zo": "09:00–20:00"}, "latitude": 50.9252898, "longitude": 5.9311774, "bronId": "252434"}}, {"type": "Feature", "geometry": {"type": "Point", "coordinates": [5.9847162, 50.8906674]}, "properties": {"type": "inleverpunt", "locatieNaam": "Albert Heijn", "straatNaam": "Schandelerboord", "straatNr": "25", "postcode": "6415 AA", "plaats": "Heerlen", "merk": "StatiegeldNederland", "puntType": "automaat", "materialen": ["pet-groot", "pet-klein", "blik", "glas", "krat"], "uitbetaling": ["bonnetje", "donatie"], "vrijToegankelijk": true, "gemeenteBeperking": null, "openingstijden": {"ma": "08:00–22:00", "di": "08:00–22:00", "wo": "08:00–22:00", "do": "08:00–22:00", "vr": "08:00–22:00", "za": "08:00–22:00", "zo": "09:00–20:00"}, "latitude": 50.8906674, "longitude": 5.9847162, "bronId": "252705"}}, {"type": "Feature", "geometry": {"type": "Point", "coordinates": [5.9719392, 50.9009405]}, "properties": {"type": "inleverpunt", "locatieNaam": "Albert Heijn", "straatNaam": "Sittarderweg", "straatNr": "152", "postcode": "6412 CM", "plaats": "Heerlen", "merk": "StatiegeldNederland", "puntType": "automaat", "materialen": ["pet-groot", "pet-klein", "blik", "glas", "krat"], "uitbetaling": ["bonnetje", "donatie"], "vrijToegankelijk": true, "gemeenteBeperking": null, "openingstijden": {"ma": "08:00–21:00", "di": "08:00–21:00", "wo": "08:00–21:00", "do": "08:00–21:00", "vr": "08:00–21:00", "za": "08:00–21:00", "zo": "09:00–20:00"}, "latitude": 50.9009405, "longitude": 5.9719392, "bronId": "252735"}}, {"type": "Feature", "geometry": {"type": "Point", "coordinates": [5.9702754, 50.8854989]}, "properties": {"type": "inleverpunt", "locatieNaam": "Aldi", "straatNaam": "Apollolaan", "straatNr": "22", "postcode": "6411 BB", "plaats": "Heerlen", "merk": "StatiegeldNederland", "puntType": "automaat", "materialen": ["pet-groot", "pet-klein", "blik", "glas", "krat"], "uitbetaling": ["bonnetje"], "vrijToegankelijk": true, "gemeenteBeperking": null, "openingstijden": {"ma": "08:00–20:00", "di": "08:00–20:00", "wo": "08:00–20:00", "do": "08:00–20:00", "vr": "08:00–20:00", "za": "08:00–20:00", "zo": "09:00–18:00"}, "latitude": 50.8854989, "longitude": 5.9702754, "bronId": "253003"}}, {"type": "Feature", "geometry": {"type": "Point", "coordinates": [6.0042632, 50.8642901]}, "properties": {"type": "inleverpunt", "locatieNaam": "Aldi", "straatNaam": "Heerlerbaan", "straatNr": "239", "postcode": "6418 CV", "plaats": "Heerlen", "merk": "StatiegeldNederland", "puntType": "automaat", "materialen": ["pet-groot", "pet-klein", "blik", "glas", "krat"], "uitbetaling": ["bonnetje"], "vrijToegankelijk": true, "gemeenteBeperking": null, "openingstijden": {"ma": "08:00–20:00", "di": "08:00–20:00", "wo": "08:00–20:00", "do": "08:00–20:00", "vr": "08:00–20:00", "za": "08:00–20:00", "zo": "09:00–18:00"}, "latitude": 50.8642901, "longitude": 6.0042632, "bronId": "253143"}}, {"type": "Feature", "geometry": {"type": "Point", "coordinates": [5.9253166, 50.922752]}, "properties": {"type": "inleverpunt", "locatieNaam": "Aldi", "straatNaam": "Markt", "straatNr": "16", "postcode": "6431 LG", "plaats": "Hoensbroek", "merk": "StatiegeldNederland", "puntType": "automaat", "materialen": ["pet-groot", "pet-klein", "blik", "glas", "krat"], "uitbetaling": ["bonnetje"], "vrijToegankelijk": true, "gemeenteBeperking": null, "openingstijden": {"ma": "08:00–20:00", "di": "08:00–20:00", "wo": "08:00–20:00", "do": "08:00–20:00", "vr": "08:00–20:00", "za": "08:00–20:00", "zo": "09:00–18:00"}, "latitude": 50.922752, "longitude": 5.9253166, "bronId": "253248"}}, {"type": "Feature", "geometry": {"type": "Point", "coordinates": [5.9743379, 50.8840694]}, "properties": {"type": "inleverpunt", "locatieNaam": "Appel 2627 - Obvion", "straatNaam": "Burgemeester de Hesselleplein", "straatNr": "31", "postcode": "6411 CH", "plaats": "Heerlen", "merk": "StatiegeldNederland", "puntType": "balie", "materialen": ["pet-groot", "pet-klein", "blik"], "uitbetaling": [], "vrijToegankelijk": true, "gemeenteBeperking": null, "openingstijden": {"ma": "08:30–17:30", "di": "08:30–17:30", "wo": "08:30–17:30", "do": "08:30–17:30", "vr": "08:30–17:30", "za": "Gesloten", "zo": "Gesloten"}, "latitude": 50.8840694, "longitude": 5.9743379, "bronId": "253606"}}, {"type": "Feature", "geometry": {"type": "Point", "coordinates": [5.9748708, 50.8818635]}, "properties": {"type": "inleverpunt", "locatieNaam": "APG", "straatNaam": "Oude Lindestraat", "straatNr": "70", "postcode": "6411 EJ", "plaats": "Heerlen", "merk": "StatiegeldNederland", "puntType": "automaat", "materialen": ["pet-klein", "blik"], "uitbetaling": ["donatie", "tikkie"], "vrijToegankelijk": false, "gemeenteBeperking": null, "openingstijden": null, "latitude": 50.8818635, "longitude": 5.9748708, "bronId": "253722"}}, {"type": "Feature", "geometry": {"type": "Point", "coordinates": [5.9691809, 50.8861426]}, "properties": {"type": "inleverpunt", "locatieNaam": "BudgetFood", "straatNaam": "Apollolaan", "straatNr": "154", "postcode": "6411 BE", "plaats": "Heerlen", "merk": "StatiegeldNederland", "puntType": "automaat", "materialen": ["pet-groot", "pet-klein", "blik"], "uitbetaling": ["bonnetje", "donatie"], "vrijToegankelijk": true, "gemeenteBeperking": null, "openingstijden": null, "latitude": 50.8861426, "longitude": 5.9691809, "bronId": "253921"}}, {"type": "Feature", "geometry": {"type": "Point", "coordinates": [5.9496868, 50.8895193]}, "properties": {"type": "inleverpunt", "locatieNaam": "Fill And Go Terworm", "straatNaam": "Antwerpseweg", "straatNr": "1", "postcode": "6411 RR", "plaats": "Heerlen", "merk": "StatiegeldNederland", "puntType": "balie", "materialen": ["pet-groot", "pet-klein", "blik"], "uitbetaling": [], "vrijToegankelijk": true, "gemeenteBeperking": null, "openingstijden": {"ma": "24 uur geopend", "di": "24 uur geopend", "wo": "24 uur geopend", "do": "24 uur geopend", "vr": "24 uur geopend", "za": "24 uur geopend", "zo": "24 uur geopend"}, "latitude": 50.8895193, "longitude": 5.9496868, "bronId": "254788"}}, {"type": "Feature", "geometry": {"type": "Point", "coordinates": [6.003491, 50.877981]}, "properties": {"type": "inleverpunt", "locatieNaam": "Hc Nova", "straatNaam": "Stadionbaan", "straatNr": "38", "postcode": "6416 CS", "plaats": "Heerlen", "merk": "StatiegeldNederland", "puntType": "balie", "materialen": ["pet-groot", "pet-klein", "blik"], "uitbetaling": [], "vrijToegankelijk": false, "gemeenteBeperking": null, "openingstijden": null, "latitude": 50.877981, "longitude": 6.003491, "bronId": "254951"}}, {"type": "Feature", "geometry": {"type": "Point", "coordinates": [5.95359, 50.91575]}, "properties": {"type": "inleverpunt", "locatieNaam": "Jumbo", "straatNaam": "Ganzeweide", "straatNr": "74", "postcode": "6413 GH", "plaats": "Heerlen", "merk": "StatiegeldNederland", "puntType": "automaat", "materialen": ["pet-groot", "pet-klein", "blik", "glas", "krat"], "uitbetaling": ["bonnetje"], "vrijToegankelijk": true, "gemeenteBeperking": null, "openingstijden": {"ma": "08:00–21:00", "di": "08:00–21:00", "wo": "08:00–21:00", "do": "08:00–21:00", "vr": "08:00–21:00", "za": "08:00–21:00", "zo": "09:00–20:00"}, "latitude": 50.91575, "longitude": 5.95359, "bronId": "255374"}}, {"type": "Feature", "geometry": {"type": "Point", "coordinates": [5.96981, 50.92346]}, "properties": {"type": "inleverpunt", "locatieNaam": "Lidl", "straatNaam": "Anjelierstraat", "straatNr": "68-76", "postcode": "6416 EW", "plaats": "Heerlen", "merk": "StatiegeldNederland", "puntType": "automaat", "materialen": ["pet-groot", "pet-klein", "blik", "glas", "krat"], "uitbetaling": ["bonnetje", "donatie"], "vrijToegankelijk": true, "gemeenteBeperking": null, "openingstijden": {"ma": "08:00–20:00", "di": "08:00–20:00", "wo": "08:00–20:00", "do": "08:00–20:00", "vr": "08:00–20:00", "za": "08:00–20:00", "zo": "09:00–18:00"}, "latitude": 50.92346, "longitude": 5.96981, "bronId": "256066"}}, {"type": "Feature", "geometry": {"type": "Point", "coordinates": [5.92358, 50.92374]}, "properties": {"type": "inleverpunt", "locatieNaam": "Lidl", "straatNaam": "Hoofdstraat", "straatNr": "66", "postcode": "6432 GG", "plaats": "Hoensbroek", "merk": "StatiegeldNederland", "puntType": "automaat", "materialen": ["pet-groot", "pet-klein", "blik", "glas", "krat"], "uitbetaling": ["bonnetje", "donatie"], "vrijToegankelijk": true, "gemeenteBeperking": null, "openingstijden": {"ma": "08:00–21:00", "di": "08:00–21:00", "wo": "08:00–21:00", "do": "08:00–21:00", "vr": "08:00–21:00", "za": "08:00–20:00", "zo": "09:00–18:00"}, "latitude": 50.92374, "longitude": 5.92358, "bronId": "256198"}}, {"type": "Feature", "geometry": {"type": "Point", "coordinates": [5.9962977, 50.8874511]}, "properties": {"type": "inleverpunt", "locatieNaam": "Lidl", "straatNaam": "Zondagstraat", "straatNr": "57", "postcode": "6416 BE", "plaats": "Heerlen", "merk": "StatiegeldNederland", "puntType": "automaat", "materialen": ["pet-groot", "pet-klein", "blik", "glas", "krat"], "uitbetaling": ["bonnetje", "donatie"], "vrijToegankelijk": true, "gemeenteBeperking": null, "openingstijden": {"ma": "08:00–20:00", "di": "08:00–20:00", "wo": "08:00–20:00", "do": "08:00–20:00", "vr": "08:00–20:00", "za": "08:00–20:00", "zo": "09:00–18:00"}, "latitude": 50.8874511, "longitude": 5.9962977, "bronId": "256478"}}, {"type": "Feature", "geometry": {"type": "Point", "coordinates": [5.9559259, 50.9157784]}, "properties": {"type": "inleverpunt", "locatieNaam": "Medikamente die Grenze", "straatNaam": "Wannerstraat", "straatNr": "11", "postcode": "6413 ET", "plaats": "Heerlen", "merk": "StatiegeldNederland", "puntType": "automaat", "materialen": ["pet-groot", "pet-klein", "blik"], "uitbetaling": ["bonnetje"], "vrijToegankelijk": true, "gemeenteBeperking": null, "openingstijden": {"ma": "09:00–18:00", "di": "09:00–18:00", "wo": "09:00–18:00", "do": "09:00–18:00", "vr": "09:00–18:00", "za": "09:00–18:00", "zo": "09:00–18:00"}, "latitude": 50.9157784, "longitude": 5.9559259, "bronId": "256747"}}, {"type": "Feature", "geometry": {"type": "Point", "coordinates": [5.944076, 50.9219017]}, "properties": {"type": "inleverpunt", "locatieNaam": "Passart-vkc", "straatNaam": "Maastrichterstraat", "straatNr": "89", "postcode": "6444 GC", "plaats": "Brunssum", "merk": "StatiegeldNederland", "puntType": "balie", "materialen": ["pet-groot", "pet-klein", "blik"], "uitbetaling": [], "vrijToegankelijk": false, "gemeenteBeperking": null, "openingstijden": null, "latitude": 50.9219017, "longitude": 5.944076, "bronId": "257154"}}, {"type": "Feature", "geometry": {"type": "Point", "coordinates": [5.96887, 50.87431]}, "properties": {"type": "inleverpunt", "locatieNaam": "Plus", "straatNaam": "De Doom", "straatNr": "3", "postcode": "6419 CW", "plaats": "Heerle", "merk": "StatiegeldNederland", "puntType": "automaat", "materialen": ["pet-groot", "pet-klein", "blik", "glas", "krat"], "uitbetaling": ["bonnetje", "donatie"], "vrijToegankelijk": true, "gemeenteBeperking": null, "openingstijden": {"ma": "07:30–21:00", "di": "07:30–21:00", "wo": "07:30–21:00", "do": "07:30–21:00", "vr": "07:30–21:00", "za": "08:00–21:00", "zo": "09:00–19:00"}, "latitude": 50.87431, "longitude": 5.96887, "bronId": "257245"}}, {"type": "Feature", "geometry": {"type": "Point", "coordinates": [5.92625, 50.9255]}, "properties": {"type": "inleverpunt", "locatieNaam": "Plus", "straatNaam": "Gebrookerplein", "straatNr": "22", "postcode": "6431 LX", "plaats": "Hoensbroek", "merk": "StatiegeldNederland", "puntType": "automaat", "materialen": ["pet-groot", "pet-klein", "blik", "glas", "krat"], "uitbetaling": ["bonnetje"], "vrijToegankelijk": true, "gemeenteBeperking": null, "openingstijden": {"ma": "07:00–21:00", "di": "07:00–21:00", "wo": "07:00–21:00", "do": "07:00–21:00", "vr": "07:00–21:00", "za": "07:00–21:00", "zo": "09:00–20:00"}, "latitude": 50.9255, "longitude": 5.92625, "bronId": "257311"}}, {"type": "Feature", "geometry": {"type": "Point", "coordinates": [5.95631, 50.91722]}, "properties": {"type": "inleverpunt", "locatieNaam": "Plus", "straatNaam": "Groeët Genhei", "straatNr": "24", "postcode": "6413 GN", "plaats": "Heerlen", "merk": "StatiegeldNederland", "puntType": "automaat", "materialen": ["pet-groot", "pet-klein", "blik", "glas", "krat"], "uitbetaling": ["bonnetje"], "vrijToegankelijk": true, "gemeenteBeperking": null, "openingstijden": {"ma": "08:00–21:00", "di": "08:00–21:00", "wo": "08:00–21:00", "do": "08:00–21:00", "vr": "08:00–21:00", "za": "08:00–21:00", "zo": "09:00–20:00"}, "latitude": 50.91722, "longitude": 5.95631, "bronId": "257320"}}, {"type": "Feature", "geometry": {"type": "Point", "coordinates": [6.00457, 50.8635]}, "properties": {"type": "inleverpunt", "locatieNaam": "Plus", "straatNaam": "Heerlerbaan", "straatNr": "239", "postcode": "6418 CE", "plaats": "Heerlen", "merk": "StatiegeldNederland", "puntType": "automaat", "materialen": ["pet-groot", "pet-klein", "blik", "glas", "krat"], "uitbetaling": ["bonnetje", "donatie"], "vrijToegankelijk": true, "gemeenteBeperking": null, "openingstijden": {"ma": "07:30–22:00", "di": "07:30–22:00", "wo": "07:30–22:00", "do": "07:30–22:00", "vr": "07:30–22:00", "za": "07:30–22:00", "zo": "09:00–20:00"}, "latitude": 50.8635, "longitude": 6.00457, "bronId": "257332"}}, {"type": "Feature", "geometry": {"type": "Point", "coordinates": [5.9831731, 50.8756314]}, "properties": {"type": "inleverpunt", "locatieNaam": "Plus", "straatNaam": "Van Weerden Poelmanstraat", "straatNr": "47a", "postcode": "6417 EJ", "plaats": "Heerlen", "merk": "StatiegeldNederland", "puntType": "automaat", "materialen": ["pet-groot", "pet-klein", "blik", "glas", "krat"], "uitbetaling": ["bonnetje", "donatie"], "vrijToegankelijk": true, "gemeenteBeperking": null, "openingstijden": {"ma": "07:00–21:00", "di": "07:00–21:00", "wo": "07:00–21:00", "do": "07:00–21:00", "vr": "07:00–21:00", "za": "07:00–21:00", "zo": "09:00–20:00"}, "latitude": 50.8756314, "longitude": 5.9831731, "bronId": "257565"}}, {"type": "Feature", "geometry": {"type": "Point", "coordinates": [5.94561, 50.897144]}, "properties": {"type": "inleverpunt", "locatieNaam": "Shell", "straatNaam": "Antwerpseweg", "straatNr": "50", "postcode": "6411 RR", "plaats": "Heerlen", "merk": "StatiegeldNederland", "puntType": "balie", "materialen": ["pet-groot", "pet-klein", "blik"], "uitbetaling": [], "vrijToegankelijk": true, "gemeenteBeperking": null, "openingstijden": {"ma": "24 uur geopend", "di": "24 uur geopend", "wo": "24 uur geopend", "do": "24 uur geopend", "vr": "24 uur geopend", "za": "24 uur geopend", "zo": "24 uur geopend"}, "latitude": 50.897144, "longitude": 5.94561, "bronId": "258028"}}, {"type": "Feature", "geometry": {"type": "Point", "coordinates": [6.019434, 50.82304]}, "properties": {"type": "inleverpunt", "locatieNaam": "Shell", "straatNaam": "Rijksweg A76", "straatNr": "4", "postcode": "6422 PW", "plaats": "Heerlen", "merk": "StatiegeldNederland", "puntType": "balie", "materialen": ["pet-groot", "pet-klein", "blik"], "uitbetaling": [], "vrijToegankelijk": true, "gemeenteBeperking": null, "openingstijden": {"ma": "24 uur geopend", "di": "24 uur geopend", "wo": "24 uur geopend", "do": "24 uur geopend", "vr": "24 uur geopend", "za": "24 uur geopend", "zo": "24 uur geopend"}, "latitude": 50.82304, "longitude": 6.019434, "bronId": "258207"}}, {"type": "Feature", "geometry": {"type": "Point", "coordinates": [5.929991, 50.914101]}, "properties": {"type": "inleverpunt", "locatieNaam": "Spar", "straatNaam": "Mgr. Hanssenlaan", "straatNr": "83", "postcode": "6433 BK", "plaats": "Hoensbroek", "merk": "StatiegeldNederland", "puntType": "automaat", "materialen": ["pet-groot", "pet-klein", "blik", "glas", "krat"], "uitbetaling": ["bonnetje", "donatie"], "vrijToegankelijk": true, "gemeenteBeperking": null, "openingstijden": {"ma": "08:00–20:00", "di": "08:00–20:00", "wo": "08:00–20:00", "do": "08:00–20:00", "vr": "08:00–20:00", "za": "08:00–20:00", "zo": "09:00–19:00"}, "latitude": 50.914101, "longitude": 5.929991, "bronId": "258418"}}, {"type": "Feature", "geometry": {"type": "Point", "coordinates": [6.0203758, 50.8239295]}, "properties": {"type": "inleverpunt", "locatieNaam": "Spar Express", "straatNaam": "RIJKSWEG A76 NOORDZIJDE", "straatNr": "", "postcode": "6422 PW", "plaats": "Heerlen", "merk": "StatiegeldNederland", "puntType": "balie", "materialen": ["pet-groot", "pet-klein", "blik"], "uitbetaling": [], "vrijToegankelijk": true, "gemeenteBeperking": null, "openingstijden": null, "latitude": 50.8239295, "longitude": 6.0203758, "bronId": "258600"}}, {"type": "Feature", "geometry": {"type": "Point", "coordinates": [5.971659, 50.9021182]}, "properties": {"type": "inleverpunt", "locatieNaam": "Summum Food Group", "straatNaam": "Palemigerboord", "straatNr": "401", "postcode": "6412 TG", "plaats": "Heerlen", "merk": "StatiegeldNederland", "puntType": "automaat", "materialen": ["pet-groot", "pet-klein", "blik", "krat"], "uitbetaling": ["bonnetje", "donatie", "tikkie"], "vrijToegankelijk": true, "gemeenteBeperking": null, "openingstijden": {"ma": "13:00–18:00", "di": "09:00–17:00", "wo": "09:00–17:00", "do": "09:00–17:00", "vr": "09:00–17:00", "za": "09:00–12:00", "zo": "Gesloten"}, "latitude": 50.9021182, "longitude": 5.971659, "bronId": "258749"}}, {"type": "Feature", "geometry": {"type": "Point", "coordinates": [6.0032584, 50.8479509]}, "properties": {"type": "inleverpunt", "locatieNaam": "Vending@Work GXO Heerlen", "straatNaam": "Beitel", "straatNr": "80", "postcode": "6422 PD", "plaats": "Heerlen", "merk": "StatiegeldNederland", "puntType": "automaat", "materialen": ["pet-groot", "pet-klein", "blik"], "uitbetaling": ["bonnetje", "donatie", "tikkie"], "vrijToegankelijk": true, "gemeenteBeperking": null, "openingstijden": null, "latitude": 50.8479509, "longitude": 6.0032584, "bronId": "259175"}}, {"type": "Feature", "geometry": {"type": "Point", "coordinates": [5.9916625, 50.8992868]}, "properties": {"type": "inleverpunt", "locatieNaam": "ViaTim", "straatNaam": "Breitnerstraat", "straatNr": "4", "postcode": "6415 TV", "plaats": "Heerlen", "merk": "StatiegeldNederland", "puntType": "balie", "materialen": ["pet-groot", "pet-klein", "blik"], "uitbetaling": ["tikkie"], "vrijToegankelijk": true, "gemeenteBeperking": null, "openingstijden": {"ma": "15:30–21:00", "di": "15:30–21:00", "wo": "15:30–21:00", "do": "15:30–21:00", "vr": "15:30–21:00", "za": "15:30–21:00", "zo": "Gesloten"}, "latitude": 50.8992868, "longitude": 5.9916625, "bronId": "259235"}}, {"type": "Feature", "geometry": {"type": "Point", "coordinates": [5.9168656, 50.919866]}, "properties": {"type": "inleverpunt", "locatieNaam": "ViaTim", "straatNaam": "Hoofdstraat", "straatNr": "384", "postcode": "6432 GN", "plaats": "Hoensbroek", "merk": "StatiegeldNederland", "puntType": "balie", "materialen": ["pet-groot", "pet-klein", "blik"], "uitbetaling": ["tikkie"], "vrijToegankelijk": true, "gemeenteBeperking": null, "openingstijden": null, "latitude": 50.919866, "longitude": 5.9168656, "bronId": "259325"}}, {"type": "Feature", "geometry": {"type": "Point", "coordinates": [5.9660604, 50.9207706]}, "properties": {"type": "inleverpunt", "locatieNaam": "ViaTim", "straatNaam": "Nederlandlaan", "straatNr": "25", "postcode": "6414 HA", "plaats": "Heerlen", "merk": "StatiegeldNederland", "puntType": "balie", "materialen": ["pet-groot", "pet-klein", "blik"], "uitbetaling": ["tikkie"], "vrijToegankelijk": true, "gemeenteBeperking": null, "openingstijden": {"ma": "16:00–20:00", "di": "16:00–20:00", "wo": "16:00–20:00", "do": "16:00–20:00", "vr": "16:00–20:00", "za": "16:00–20:00", "zo": "Gesloten"}, "latitude": 50.9207706, "longitude": 5.9660604, "bronId": "259423"}}, {"type": "Feature", "geometry": {"type": "Point", "coordinates": [5.9820369, 50.892586]}, "properties": {"type": "inleverpunt", "locatieNaam": "ViaTim", "straatNaam": "Schandelerstraat", "straatNr": "18", "postcode": "6412 XN", "plaats": "Heerlen", "merk": "StatiegeldNederland", "puntType": "balie", "materialen": ["pet-groot", "pet-klein", "blik"], "uitbetaling": ["tikkie"], "vrijToegankelijk": true, "gemeenteBeperking": null, "openingstijden": {"ma": "14:00–20:00", "di": "14:00–20:00", "wo": "14:00–20:00", "do": "14:00–20:00", "vr": "14:00–20:00", "za": "Gesloten", "zo": "Gesloten"}, "latitude": 50.892586, "longitude": 5.9820369, "bronId": "259477"}}, {"type": "Feature", "geometry": {"type": "Point", "coordinates": [5.936237, 50.929875]}, "properties": {"type": "inleverpunt", "locatieNaam": "Eggen Witgoedservice", "straatNaam": "Akerstraat-Noord", "straatNr": "160", "postcode": "6431 HR", "plaats": "Hoensbroek", "merk": "StichtingOPEN", "puntType": "balie", "materialen": ["elektro-groot", "elektro-klein"], "uitbetaling": [], "vrijToegankelijk": false, "gemeenteBeperking": null, "openingstijden": null, "latitude": 50.929875, "longitude": 5.936237, "bronId": "SP00030423"}}, {"type": "Feature", "geometry": {"type": "Point", "coordinates": [5.926099, 50.925306]}, "properties": {"type": "inleverpunt", "locatieNaam": "PLUS Hoensbroek", "straatNaam": "Gebrookerplein", "straatNr": "22", "postcode": "6431 LX", "plaats": "Hoensbroek", "merk": "StichtingOPEN", "puntType": "balie", "materialen": ["batterijen", "lampen"], "uitbetaling": [], "vrijToegankelijk": false, "gemeenteBeperking": null, "openingstijden": null, "latitude": 50.925306, "longitude": 5.926099, "bronId": "SP00024061"}}, {"type": "Feature", "geometry": {"type": "Point", "coordinates": [5.928994, 50.925311]}, "properties": {"type": "inleverpunt", "locatieNaam": "8688 Albert Heijn Hoensbroek", "straatNaam": "Kouvenderstraat", "straatNr": "100", "postcode": "6431 HH", "plaats": "Hoensbroek", "merk": "StichtingOPEN", "puntType": "balie", "materialen": ["batterijen", "elektro-klein", "lampen"], "uitbetaling": [], "vrijToegankelijk": false, "gemeenteBeperking": null, "openingstijden": null, "latitude": 50.925311, "longitude": 5.928994, "bronId": "SP00022508"}}, {"type": "Feature", "geometry": {"type": "Point", "coordinates": [5.92515, 50.924416]}, "properties": {"type": "inleverpunt", "locatieNaam": "Elektro van Kan", "straatNaam": "Hoofdstraat", "straatNr": "30", "postcode": "6431 LC", "plaats": "Hoensbroek", "merk": "StichtingOPEN", "puntType": "balie", "materialen": ["batterijen", "elektro-groot", "elektro-klein", "elektro-middel", "lampen", "tl-buizen"], "uitbetaling": [], "vrijToegankelijk": false, "gemeenteBeperking": null, "openingstijden": null, "latitude": 50.924416, "longitude": 5.92515, "bronId": "SP00008741"}}, {"type": "Feature", "geometry": {"type": "Point", "coordinates": [5.942068, 50.926546]}, "properties": {"type": "inleverpunt", "locatieNaam": "8716 Albert Heijn Hoensbroek", "straatNaam": "Akerstraat-Noord", "straatNr": "282", "postcode": "6431 HW", "plaats": "Hoensbroek", "merk": "StichtingOPEN", "puntType": "balie", "materialen": ["batterijen", "elektro-klein", "lampen"], "uitbetaling": [], "vrijToegankelijk": false, "gemeenteBeperking": null, "openingstijden": null, "latitude": 50.926546, "longitude": 5.942068, "bronId": "SP00022509"}}, {"type": "Feature", "geometry": {"type": "Point", "coordinates": [5.938653, 50.923298]}, "properties": {"type": "inleverpunt", "locatieNaam": "Aldi Hoensbroek", "straatNaam": "Prof. van 't Hoffstraat", "straatNr": "11", "postcode": "6431 VB", "plaats": "Hoensbroek", "merk": "StichtingOPEN", "puntType": "balie", "materialen": ["batterijen", "elektro-klein", "lampen"], "uitbetaling": [], "vrijToegankelijk": false, "gemeenteBeperking": null, "openingstijden": null, "latitude": 50.923298, "longitude": 5.938653, "bronId": "SP00027074"}}, {"type": "Feature", "geometry": {"type": "Point", "coordinates": [5.949794, 50.919913]}, "properties": {"type": "inleverpunt", "locatieNaam": "Action Heerlen 1161", "straatNaam": "Stanleystraat", "straatNr": "6", "postcode": "6413 HS", "plaats": "Heerlen", "merk": "StichtingOPEN", "puntType": "balie", "materialen": ["batterijen", "lampen"], "uitbetaling": [], "vrijToegankelijk": false, "gemeenteBeperking": null, "openingstijden": null, "latitude": 50.919913, "longitude": 5.949794, "bronId": "SP00007745"}}, {"type": "Feature", "geometry": {"type": "Point", "coordinates": [5.929992, 50.914092]}, "properties": {"type": "inleverpunt", "locatieNaam": "Spar Hoensbroek", "straatNaam": "Mgr. Hanssenlaan", "straatNr": "83", "postcode": "6433 BK", "plaats": "Hoensbroek", "merk": "StichtingOPEN", "puntType": "balie", "materialen": ["batterijen", "lampen"], "uitbetaling": [], "vrijToegankelijk": false, "gemeenteBeperking": null, "openingstijden": null, "latitude": 50.914092, "longitude": 5.929992, "bronId": "SP00022361"}}, {"type": "Feature", "geometry": {"type": "Point", "coordinates": [5.9534, 50.917634]}, "properties": {"type": "inleverpunt", "locatieNaam": "PLUS Heerlen", "straatNaam": "Corneliuslaan", "straatNr": "24", "postcode": "6413 GN", "plaats": "Heerlen", "merk": "StichtingOPEN", "puntType": "balie", "materialen": ["batterijen", "lampen"], "uitbetaling": [], "vrijToegankelijk": false, "gemeenteBeperking": null, "openingstijden": null, "latitude": 50.917634, "longitude": 5.9534, "bronId": "SP00024015"}}, {"type": "Feature", "geometry": {"type": "Point", "coordinates": [5.952544, 50.915823]}, "properties": {"type": "inleverpunt", "locatieNaam": "Knibbeler Electro", "straatNaam": "Ganzeweide", "straatNr": "79", "postcode": "6413 GB", "plaats": "Heerlen", "merk": "StichtingOPEN", "puntType": "balie", "materialen": ["elektro-middel", "lampen"], "uitbetaling": [], "vrijToegankelijk": false, "gemeenteBeperking": null, "openingstijden": null, "latitude": 50.915823, "longitude": 5.952544, "bronId": "SP00002500"}}, {"type": "Feature", "geometry": {"type": "Point", "coordinates": [5.955714, 50.916288]}, "properties": {"type": "inleverpunt", "locatieNaam": "Aldi Heerlen", "straatNaam": "Groeët Genhei", "straatNr": "4", "postcode": "6413 GN", "plaats": "Heerlen", "merk": "StichtingOPEN", "puntType": "balie", "materialen": ["batterijen", "elektro-klein", "lampen"], "uitbetaling": [], "vrijToegankelijk": false, "gemeenteBeperking": null, "openingstijden": null, "latitude": 50.916288, "longitude": 5.955714, "bronId": "SP00027072"}}, {"type": "Feature", "geometry": {"type": "Point", "coordinates": [5.953588, 50.915747]}, "properties": {"type": "inleverpunt", "locatieNaam": "Albert Heijn Heerlen", "straatNaam": "Ganzeweide", "straatNr": "74", "postcode": "6413 GH", "plaats": "Heerlen", "merk": "StichtingOPEN", "puntType": "balie", "materialen": ["batterijen", "lampen"], "uitbetaling": [], "vrijToegankelijk": false, "gemeenteBeperking": null, "openingstijden": null, "latitude": 50.915747, "longitude": 5.953588, "bronId": "SP00025582"}}, {"type": "Feature", "geometry": {"type": "Point", "coordinates": [5.954747, 50.91554]}, "properties": {"type": "inleverpunt", "locatieNaam": "Kruidvat Heerlen", "straatNaam": "Wannerstraat", "straatNr": "10", "postcode": "6413 EV", "plaats": "Heerlen", "merk": "StichtingOPEN", "puntType": "balie", "materialen": ["batterijen", "lampen"], "uitbetaling": [], "vrijToegankelijk": false, "gemeenteBeperking": null, "openingstijden": null, "latitude": 50.91554, "longitude": 5.954747, "bronId": "SP00024457"}}, {"type": "Feature", "geometry": {"type": "Point", "coordinates": [5.955866, 50.915409]}, "properties": {"type": "inleverpunt", "locatieNaam": "EP Zijlstra", "straatNaam": "Wannerplein", "straatNr": "2", "postcode": "6413 ET", "plaats": "Heerlen", "merk": "StichtingOPEN", "puntType": "balie", "materialen": ["elektro-klein", "elektro-middel"], "uitbetaling": [], "vrijToegankelijk": false, "gemeenteBeperking": null, "openingstijden": null, "latitude": 50.915409, "longitude": 5.955866, "bronId": "SP00000577"}}, {"type": "Feature", "geometry": {"type": "Point", "coordinates": [5.945632, 50.902733]}, "properties": {"type": "inleverpunt", "locatieNaam": "7 - Bouwmaat Heerlen", "straatNaam": "Breukerweg", "straatNr": "185A", "postcode": "6412 ZK", "plaats": "Heerlen", "merk": "StichtingOPEN", "puntType": "balie", "materialen": ["lampen", "tl-buizen"], "uitbetaling": [], "vrijToegankelijk": false, "gemeenteBeperking": null, "openingstijden": null, "latitude": 50.902733, "longitude": 5.945632, "bronId": "SP00032946"}}, {"type": "Feature", "geometry": {"type": "Point", "coordinates": [5.945109, 50.899331]}, "properties": {"type": "inleverpunt", "locatieNaam": "IKEA Heerlen", "straatNaam": "In de Cramer", "straatNr": "142", "postcode": "6412 PM", "plaats": "Heerlen", "merk": "StichtingOPEN", "puntType": "balie", "materialen": ["batterijen", "elektro-groot", "elektro-klein", "elektro-middel", "lampen", "tl-buizen"], "uitbetaling": [], "vrijToegankelijk": false, "gemeenteBeperking": null, "openingstijden": null, "latitude": 50.899331, "longitude": 5.945109, "bronId": "SP00000275"}}, {"type": "Feature", "geometry": {"type": "Point", "coordinates": [5.947463, 50.898068]}, "properties": {"type": "inleverpunt", "locatieNaam": "Bijstox Heerlen", "straatNaam": "In de Cramer 140", "straatNr": "21", "postcode": "6421 PM", "plaats": "Heerlen", "merk": "StichtingOPEN", "puntType": "balie", "materialen": ["batterijen", "elektro-klein", "elektro-middel", "lampen", "tl-buizen"], "uitbetaling": [], "vrijToegankelijk": false, "gemeenteBeperking": null, "openingstijden": null, "latitude": 50.898068, "longitude": 5.947463, "bronId": "SP00020394"}}, {"type": "Feature", "geometry": {"type": "Point", "coordinates": [5.947463, 50.898068]}, "properties": {"type": "inleverpunt", "locatieNaam": "Tuincentrum Heerlen", "straatNaam": "In de Cramer", "straatNr": "140", "postcode": "6412 PM", "plaats": "Heerlen", "merk": "StichtingOPEN", "puntType": "balie", "materialen": ["elektro-middel", "lampen", "tl-buizen"], "uitbetaling": [], "vrijToegankelijk": false, "gemeenteBeperking": null, "openingstijden": null, "latitude": 50.898068, "longitude": 5.947463, "bronId": "SP00021843"}}, {"type": "Feature", "geometry": {"type": "Point", "coordinates": [5.94878, 50.89748]}, "properties": {"type": "inleverpunt", "locatieNaam": "Leen Bakker Heerlen", "straatNaam": "In de Cramer", "straatNr": "66", "postcode": "6412 PM", "plaats": "Heerlen", "merk": "StichtingOPEN", "puntType": "balie", "materialen": ["batterijen", "lampen"], "uitbetaling": [], "vrijToegankelijk": false, "gemeenteBeperking": null, "openingstijden": null, "latitude": 50.89748, "longitude": 5.94878, "bronId": "SP00030066"}}, {"type": "Feature", "geometry": {"type": "Point", "coordinates": [5.95071, 50.897786]}, "properties": {"type": "inleverpunt", "locatieNaam": "Praxis Heerlen - 2082", "straatNaam": "In de Cramer", "straatNr": "82", "postcode": "6412 PM", "plaats": "Heerlen", "merk": "StichtingOPEN", "puntType": "balie", "materialen": ["batterijen", "elektro-klein", "elektro-middel", "lampen", "tl-buizen"], "uitbetaling": [], "vrijToegankelijk": false, "gemeenteBeperking": null, "openingstijden": null, "latitude": 50.897786, "longitude": 5.95071, "bronId": "SP00020620"}}, {"type": "Feature", "geometry": {"type": "Point", "coordinates": [5.960075, 50.898792]}, "properties": {"type": "inleverpunt", "locatieNaam": "Aldi Heerlen", "straatNaam": "Zeswegenlaan", "straatNr": "283", "postcode": "6412 HK", "plaats": "Heerlen", "merk": "StichtingOPEN", "puntType": "balie", "materialen": ["batterijen", "elektro-klein", "lampen"], "uitbetaling": [], "vrijToegankelijk": false, "gemeenteBeperking": null, "openingstijden": null, "latitude": 50.898792, "longitude": 5.960075, "bronId": "SP00027071"}}, {"type": "Feature", "geometry": {"type": "Point", "coordinates": [5.971568, 50.900903]}, "properties": {"type": "inleverpunt", "locatieNaam": "Albert Heijn Heerlen", "straatNaam": "Sittarderweg", "straatNr": "152", "postcode": "6412 CM", "plaats": "Heerlen", "merk": "StichtingOPEN", "puntType": "balie", "materialen": ["batterijen", "lampen"], "uitbetaling": [], "vrijToegankelijk": false, "gemeenteBeperking": null, "openingstijden": null, "latitude": 50.900903, "longitude": 5.971568, "bronId": "SP00025581"}}, {"type": "Feature", "geometry": {"type": "Point", "coordinates": [5.950244, 50.895967]}, "properties": {"type": "inleverpunt", "locatieNaam": "GAMMA Heerlen", "straatNaam": "In de Cramer", "straatNr": "125", "postcode": "6412 PM", "plaats": "Heerlen", "merk": "StichtingOPEN", "puntType": "balie", "materialen": ["batterijen", "elektro-middel", "lampen", "tl-buizen"], "uitbetaling": [], "vrijToegankelijk": false, "gemeenteBeperking": null, "openingstijden": null, "latitude": 50.895967, "longitude": 5.950244, "bronId": "SP00003022"}}, {"type": "Feature", "geometry": {"type": "Point", "coordinates": [5.975101, 50.891777]}, "properties": {"type": "inleverpunt", "locatieNaam": "Action Heerlen", "straatNaam": "Spoorsingel", "straatNr": "83", "postcode": "6412 AA", "plaats": "Heerlen", "merk": "StichtingOPEN", "puntType": "balie", "materialen": ["batterijen", "lampen"], "uitbetaling": [], "vrijToegankelijk": false, "gemeenteBeperking": null, "openingstijden": null, "latitude": 50.891777, "longitude": 5.975101, "bronId": "SP00025561"}}, {"type": "Feature", "geometry": {"type": "Point", "coordinates": [5.975244, 50.891707]}, "properties": {"type": "inleverpunt", "locatieNaam": "Jumbo Heerlen", "straatNaam": "Spoorsingel", "straatNr": "81", "postcode": "6412 AA", "plaats": "Heerlen", "merk": "StichtingOPEN", "puntType": "balie", "materialen": ["batterijen", "lampen"], "uitbetaling": [], "vrijToegankelijk": false, "gemeenteBeperking": null, "openingstijden": null, "latitude": 50.891707, "longitude": 5.975244, "bronId": "SP00025473"}}, {"type": "Feature", "geometry": {"type": "Point", "coordinates": [5.975677, 50.888868]}, "properties": {"type": "inleverpunt", "locatieNaam": "Media Markt Heerlen", "straatNaam": "Corio Center", "straatNr": "9", "postcode": "6411 LX", "plaats": "Heerlen", "merk": "StichtingOPEN", "puntType": "balie", "materialen": ["elektro-klein", "elektro-middel", "lampen", "tl-buizen"], "uitbetaling": [], "vrijToegankelijk": false, "gemeenteBeperking": null, "openingstijden": null, "latitude": 50.888868, "longitude": 5.975677, "bronId": "SP00003120"}}, {"type": "Feature", "geometry": {"type": "Point", "coordinates": [5.984606, 50.890597]}, "properties": {"type": "inleverpunt", "locatieNaam": "1396 Albert Heijn Heerlen", "straatNaam": "Schandelerboord", "straatNr": "25", "postcode": "6415 AA", "plaats": "Heerlen", "merk": "StichtingOPEN", "puntType": "balie", "materialen": ["batterijen", "lampen"], "uitbetaling": [], "vrijToegankelijk": false, "gemeenteBeperking": null, "openingstijden": null, "latitude": 50.890597, "longitude": 5.984606, "bronId": "SP00022506"}}, {"type": "Feature", "geometry": {"type": "Point", "coordinates": [5.969798, 50.886393]}, "properties": {"type": "inleverpunt", "locatieNaam": "Kruidvat Heerlen", "straatNaam": "Homerusplein", "straatNr": "8", "postcode": "6411 AW", "plaats": "Heerlen", "merk": "StichtingOPEN", "puntType": "balie", "materialen": ["batterijen", "lampen"], "uitbetaling": [], "vrijToegankelijk": false, "gemeenteBeperking": null, "openingstijden": null, "latitude": 50.886393, "longitude": 5.969798, "bronId": "SP00024453"}}, {"type": "Feature", "geometry": {"type": "Point", "coordinates": [5.969835, 50.88635]}, "properties": {"type": "inleverpunt", "locatieNaam": "1058 Albert Heijn Heerlen", "straatNaam": "Homerusplein", "straatNr": "9", "postcode": "6411 AW", "plaats": "Heerlen", "merk": "StichtingOPEN", "puntType": "balie", "materialen": ["batterijen", "elektro-klein", "lampen"], "uitbetaling": [], "vrijToegankelijk": false, "gemeenteBeperking": null, "openingstijden": null, "latitude": 50.88635, "longitude": 5.969835, "bronId": "SP00022504"}}, {"type": "Feature", "geometry": {"type": "Point", "coordinates": [5.96918, 50.886142]}, "properties": {"type": "inleverpunt", "locatieNaam": "Action Heerlen 1118", "straatNaam": "Apollolaan", "straatNr": "154", "postcode": "6411 BE", "plaats": "Heerlen", "merk": "StichtingOPEN", "puntType": "balie", "materialen": ["lampen"], "uitbetaling": [], "vrijToegankelijk": false, "gemeenteBeperking": null, "openingstijden": null, "latitude": 50.886142, "longitude": 5.96918, "bronId": "SP00007710"}}, {"type": "Feature", "geometry": {"type": "Point", "coordinates": [5.97774, 50.887348]}, "properties": {"type": "inleverpunt", "locatieNaam": "Kruidvat Heerlen", "straatNaam": "Promenade", "straatNr": "27", "postcode": "6411 JB", "plaats": "Heerlen", "merk": "StichtingOPEN", "puntType": "balie", "materialen": ["batterijen", "lampen"], "uitbetaling": [], "vrijToegankelijk": false, "gemeenteBeperking": null, "openingstijden": null, "latitude": 50.887348, "longitude": 5.97774, "bronId": "SP00024454"}}, {"type": "Feature", "geometry": {"type": "Point", "coordinates": [5.977998, 50.884217]}, "properties": {"type": "inleverpunt", "locatieNaam": "Albert Heijn Heerlen", "straatNaam": "Nobelstraat", "straatNr": "48", "postcode": "6411 EP", "plaats": "Heerlen", "merk": "StichtingOPEN", "puntType": "balie", "materialen": ["batterijen", "lampen"], "uitbetaling": [], "vrijToegankelijk": false, "gemeenteBeperking": null, "openingstijden": null, "latitude": 50.884217, "longitude": 5.977998, "bronId": "SP00025580"}}, {"type": "Feature", "geometry": {"type": "Point", "coordinates": [5.969205, 50.874459]}, "properties": {"type": "inleverpunt", "locatieNaam": "PLUS Heerlen", "straatNaam": "De Doom", "straatNr": "3", "postcode": "6419 CW", "plaats": "Heerlen", "merk": "StichtingOPEN", "puntType": "balie", "materialen": ["batterijen", "lampen"], "uitbetaling": [], "vrijToegankelijk": false, "gemeenteBeperking": null, "openingstijden": null, "latitude": 50.874459, "longitude": 5.969205, "bronId": "SP00024018"}}, {"type": "Feature", "geometry": {"type": "Point", "coordinates": [5.983173, 50.875631]}, "properties": {"type": "inleverpunt", "locatieNaam": "PLUS Heerlen", "straatNaam": "Van Weerden Poelmanstraat", "straatNr": "47a", "postcode": "6417 EJ", "plaats": "Heerlen", "merk": "StichtingOPEN", "puntType": "balie", "materialen": ["batterijen", "lampen"], "uitbetaling": [], "vrijToegankelijk": false, "gemeenteBeperking": null, "openingstijden": null, "latitude": 50.875631, "longitude": 5.983173, "bronId": "SP00024198"}}, {"type": "Feature", "geometry": {"type": "Point", "coordinates": [5.998882, 50.86982]}, "properties": {"type": "inleverpunt", "locatieNaam": "Action Heerlen 1176", "straatNaam": "Caumerboord", "straatNr": "27-29", "postcode": "6418 BK", "plaats": "Heerlen", "merk": "StichtingOPEN", "puntType": "balie", "materialen": ["batterijen", "lampen"], "uitbetaling": [], "vrijToegankelijk": false, "gemeenteBeperking": null, "openingstijden": null, "latitude": 50.86982, "longitude": 5.998882, "bronId": "SP00007756"}}, {"type": "Feature", "geometry": {"type": "Point", "coordinates": [6.006367, 50.867604]}, "properties": {"type": "inleverpunt", "locatieNaam": "Albert Heijn Heerlen", "straatNaam": "Bautscherweg", "straatNr": "43", "postcode": "6418 EJ", "plaats": "Heerlen", "merk": "StichtingOPEN", "puntType": "balie", "materialen": ["batterijen", "lampen"], "uitbetaling": [], "vrijToegankelijk": false, "gemeenteBeperking": null, "openingstijden": null, "latitude": 50.867604, "longitude": 6.006367, "bronId": "SP00025578"}}, {"type": "Feature", "geometry": {"type": "Point", "coordinates": [6.004291, 50.864568]}, "properties": {"type": "inleverpunt", "locatieNaam": "PLUS Heerlen", "straatNaam": "Heerlerbaan", "straatNr": "239", "postcode": "6418 CE", "plaats": "Heerlen", "merk": "StichtingOPEN", "puntType": "balie", "materialen": ["batterijen", "lampen"], "uitbetaling": [], "vrijToegankelijk": false, "gemeenteBeperking": null, "openingstijden": null, "latitude": 50.864568, "longitude": 6.004291, "bronId": "SP00024067"}}, {"type": "Feature", "geometry": {"type": "Point", "coordinates": [6.004263, 50.86429]}, "properties": {"type": "inleverpunt", "locatieNaam": "Aldi Heerlen", "straatNaam": "Heerlerbaan", "straatNr": "239a", "postcode": "6418 CE", "plaats": "Heerlen", "merk": "StichtingOPEN", "puntType": "balie", "materialen": ["batterijen", "elektro-klein", "lampen"], "uitbetaling": [], "vrijToegankelijk": false, "gemeenteBeperking": null, "openingstijden": null, "latitude": 50.86429, "longitude": 6.004263, "bronId": "SP00027070"}}, {"type": "Feature", "geometry": {"type": "Point", "coordinates": [5.955615, 50.905917]}, "properties": {"type": "inleverpunt", "locatieNaam": "Rd4 Milieupark Heerlen", "straatNaam": "Huisbergerstraat", "straatNr": "250", "postcode": "6413 VR", "plaats": "Heerlen", "merk": "StichtingOPEN", "puntType": "milieustraat", "materialen": ["batterijen", "elektro-groot", "elektro-klein", "elektro-middel", "lampen", "tl-buizen"], "uitbetaling": [], "vrijToegankelijk": false, "gemeenteBeperking": ["Heerlen", "Landgraaf", "Brunssum", "Kerkrade", "Simpelveld", "Vaals", "Voerendaal", "Gulpen-Wittem", "Eijsden-Margraten", "Beekdaelen"], "openingstijden": null, "latitude": 50.905917, "longitude": 5.955615, "bronId": "SP00001490"}}, {"type": "Feature", "geometry": {"type": "Point", "coordinates": [5.99545, 50.84893]}, "properties": {"type": "inleverpunt", "locatieNaam": "RD 4 kringloopcentrum (ROS)", "straatNaam": "Nijverheidsweg", "straatNr": "4a", "postcode": "6422 PD", "plaats": "Heerlen", "merk": "StichtingOPEN", "puntType": "milieustraat", "materialen": ["batterijen", "elektro-groot", "elektro-klein", "elektro-middel", "lampen", "tl-buizen"], "uitbetaling": [], "vrijToegankelijk": false, "gemeenteBeperking": ["Heerlen", "Landgraaf", "Brunssum", "Kerkrade", "Simpelveld", "Vaals", "Voerendaal", "Eijsden-Margraten", "Beekdaelen"], "openingstijden": null, "latitude": 50.84893, "longitude": 5.99545, "bronId": "SP00001492"}}, {"type": "Feature", "geometry": {"type": "Point", "coordinates": [5.9348879, 50.9275012]}, "properties": {"type": "inleverpunt", "locatieNaam": "Rekers Tweewielers", "straatNaam": "Kouvenderstraat", "straatNr": "181", "postcode": "6431 HE", "plaats": "HOENSBROEK", "merk": "Stibat", "puntType": "inzamelbak", "materialen": ["batterijen"], "uitbetaling": [], "vrijToegankelijk": false, "gemeenteBeperking": null, "openingstijden": null, "latitude": 50.9275012, "longitude": 5.9348879, "bronId": "L033744"}}, {"type": "Feature", "geometry": {"type": "Point", "coordinates": [5.9258225, 50.9254786]}, "properties": {"type": "inleverpunt", "locatieNaam": "7702 Etos", "straatNaam": "Gebrookerplein", "straatNr": "4", "postcode": "6431 LX", "plaats": "HOENSBROEK", "merk": "Stibat", "puntType": "inzamelbak", "materialen": ["batterijen"], "uitbetaling": [], "vrijToegankelijk": false, "gemeenteBeperking": null, "openingstijden": null, "latitude": 50.9254786, "longitude": 5.9258225, "bronId": "L022961"}}, {"type": "Feature", "geometry": {"type": "Point", "coordinates": [5.9258225, 50.9254786]}, "properties": {"type": "inleverpunt", "locatieNaam": "HEMA Gebrookerplein", "straatNaam": "Gebrookerplein", "straatNr": "3", "postcode": "6431 LX", "plaats": "HOENSBROEK", "merk": "Stibat", "puntType": "inzamelbak", "materialen": ["batterijen"], "uitbetaling": [], "vrijToegankelijk": false, "gemeenteBeperking": null, "openingstijden": null, "latitude": 50.9254786, "longitude": 5.9258225, "bronId": "L015865"}}, {"type": "Feature", "geometry": {"type": "Point", "coordinates": [5.9258225, 50.9254786]}, "properties": {"type": "inleverpunt", "locatieNaam": "PLUS", "straatNaam": "Gebrookerplein", "straatNr": "22", "postcode": "6431 LX", "plaats": "HOENSBROEK", "merk": "Stibat", "puntType": "inzamelbak", "materialen": ["batterijen"], "uitbetaling": [], "vrijToegankelijk": false, "gemeenteBeperking": null, "openingstijden": null, "latitude": 50.9254786, "longitude": 5.9258225, "bronId": "L021210"}}, {"type": "Feature", "geometry": {"type": "Point", "coordinates": [5.9296512, 50.9255024]}, "properties": {"type": "inleverpunt", "locatieNaam": "Intertoys", "straatNaam": "Kouvenderstraat", "straatNr": "73", "postcode": "6431 HB", "plaats": "HOENSBROEK", "merk": "Stibat", "puntType": "inzamelbak", "materialen": ["batterijen"], "uitbetaling": [], "vrijToegankelijk": false, "gemeenteBeperking": null, "openingstijden": null, "latitude": 50.9255024, "longitude": 5.9296512, "bronId": "L006583"}}, {"type": "Feature", "geometry": {"type": "Point", "coordinates": [5.9290741, 50.9253481]}, "properties": {"type": "inleverpunt", "locatieNaam": "Kruidvat", "straatNaam": "Kouvenderstraat", "straatNr": "59", "postcode": "6431 HB", "plaats": "HOENSBROEK", "merk": "Stibat", "puntType": "inzamelbak", "materialen": ["batterijen"], "uitbetaling": [], "vrijToegankelijk": false, "gemeenteBeperking": null, "openingstijden": null, "latitude": 50.9253481, "longitude": 5.9290741, "bronId": "L014299"}}, {"type": "Feature", "geometry": {"type": "Point", "coordinates": [5.9295853, 50.9252831]}, "properties": {"type": "inleverpunt", "locatieNaam": "Van Geemen gereedschappen", "straatNaam": "Kouvenderstraat", "straatNr": "72", "postcode": "6431 HG", "plaats": "HOENSBROEK", "merk": "Stibat", "puntType": "inzamelbak", "materialen": ["batterijen"], "uitbetaling": [], "vrijToegankelijk": false, "gemeenteBeperking": null, "openingstijden": null, "latitude": 50.9252831, "longitude": 5.9295853, "bronId": "L013074"}}, {"type": "Feature", "geometry": {"type": "Point", "coordinates": [5.9282748, 50.9249889]}, "properties": {"type": "inleverpunt", "locatieNaam": "Zeeman", "straatNaam": "Kouvenderstraat", "straatNr": "50", "postcode": "6431 HG", "plaats": "Hoensbroek", "merk": "Stibat", "puntType": "inzamelbak", "materialen": ["batterijen"], "uitbetaling": [], "vrijToegankelijk": false, "gemeenteBeperking": null, "openingstijden": null, "latitude": 50.9249889, "longitude": 5.9282748, "bronId": "L019480"}}, {"type": "Feature", "geometry": {"type": "Point", "coordinates": [5.924578, 50.9241139]}, "properties": {"type": "inleverpunt", "locatieNaam": "Electro World Van Kan", "straatNaam": "Hoofdstraat", "straatNr": "44", "postcode": "6431 LC", "plaats": "HOENSBROEK", "merk": "Stibat", "puntType": "inzamelbak", "materialen": ["batterijen"], "uitbetaling": [], "vrijToegankelijk": false, "gemeenteBeperking": null, "openingstijden": null, "latitude": 50.9241139, "longitude": 5.924578, "bronId": "L038836"}}, {"type": "Feature", "geometry": {"type": "Point", "coordinates": [5.9310347, 50.9254473]}, "properties": {"type": "inleverpunt", "locatieNaam": "8688 Albert Heijn", "straatNaam": "Kouvenderstraat", "straatNr": "100", "postcode": "6431 HH", "plaats": "HOENSBROEK", "merk": "Stibat", "puntType": "inzamelbak", "materialen": ["batterijen"], "uitbetaling": [], "vrijToegankelijk": false, "gemeenteBeperking": null, "openingstijden": null, "latitude": 50.9254473, "longitude": 5.9310347, "bronId": "L005612"}}, {"type": "Feature", "geometry": {"type": "Point", "coordinates": [5.9277416, 50.9245579]}, "properties": {"type": "inleverpunt", "locatieNaam": "Schoonenberg hoorcomfort", "straatNaam": "Nieuwstraat", "straatNr": "13", "postcode": "6431 KP", "plaats": "HOENSBROEK", "merk": "Stibat", "puntType": "inzamelbak", "materialen": ["batterijen"], "uitbetaling": [], "vrijToegankelijk": false, "gemeenteBeperking": null, "openingstijden": null, "latitude": 50.9245579, "longitude": 5.9277416, "bronId": "L038059"}}, {"type": "Feature", "geometry": {"type": "Point", "coordinates": [5.9239097, 50.9234451]}, "properties": {"type": "inleverpunt", "locatieNaam": "Lidl", "straatNaam": "Hoofdstraat", "straatNr": "66", "postcode": "6432 GG", "plaats": "Hoensbroek", "merk": "Stibat", "puntType": "inzamelbak", "materialen": ["batterijen"], "uitbetaling": [], "vrijToegankelijk": false, "gemeenteBeperking": null, "openingstijden": null, "latitude": 50.9234451, "longitude": 5.9239097, "bronId": "L018137"}}, {"type": "Feature", "geometry": {"type": "Point", "coordinates": [5.9419879, 50.9266475]}, "properties": {"type": "inleverpunt", "locatieNaam": "8716 Albert Heijn", "straatNaam": "Akerstraat Noord", "straatNr": "282", "postcode": "6431 HW", "plaats": "HOENSBROEK", "merk": "Stibat", "puntType": "inzamelbak", "materialen": ["batterijen"], "uitbetaling": [], "vrijToegankelijk": false, "gemeenteBeperking": null, "openingstijden": null, "latitude": 50.9266475, "longitude": 5.9419879, "bronId": "L026758"}}, {"type": "Feature", "geometry": {"type": "Point", "coordinates": [5.9253166, 50.922752]}, "properties": {"type": "inleverpunt", "locatieNaam": "Aldi", "straatNaam": "Markt", "straatNr": "16", "postcode": "6431 LG", "plaats": "HOENSBROEK", "merk": "Stibat", "puntType": "inzamelbak", "materialen": ["batterijen"], "uitbetaling": [], "vrijToegankelijk": false, "gemeenteBeperking": null, "openingstijden": null, "latitude": 50.922752, "longitude": 5.9253166, "bronId": "L041412"}}, {"type": "Feature", "geometry": {"type": "Point", "coordinates": [5.9300502, 50.9214601]}, "properties": {"type": "inleverpunt", "locatieNaam": "Pctwins", "straatNaam": "Nieuwstraat", "straatNr": "127", "postcode": "6431 KR", "plaats": "HOENSBROEK", "merk": "Stibat", "puntType": "inzamelbak", "materialen": ["batterijen"], "uitbetaling": [], "vrijToegankelijk": false, "gemeenteBeperking": null, "openingstijden": null, "latitude": 50.9214601, "longitude": 5.9300502, "bronId": "L045952"}}, {"type": "Feature", "geometry": {"type": "Point", "coordinates": [5.9248784, 50.9198534]}, "properties": {"type": "inleverpunt", "locatieNaam": "Frabe", "straatNaam": "Slakkenstraat", "straatNr": "92", "postcode": "6431 NK", "plaats": "HOENSBROEK", "merk": "Stibat", "puntType": "inzamelbak", "materialen": ["batterijen"], "uitbetaling": [], "vrijToegankelijk": false, "gemeenteBeperking": null, "openingstijden": null, "latitude": 50.9198534, "longitude": 5.9248784, "bronId": "L015502"}}, {"type": "Feature", "geometry": {"type": "Point", "coordinates": [5.9458315, 50.9204454]}, "properties": {"type": "inleverpunt", "locatieNaam": "Total", "straatNaam": "Terhoevenderweg", "straatNr": "200", "postcode": "6413 EZ", "plaats": "HEERLEN", "merk": "Stibat", "puntType": "inzamelbak", "materialen": ["batterijen"], "uitbetaling": [], "vrijToegankelijk": false, "gemeenteBeperking": null, "openingstijden": null, "latitude": 50.9204454, "longitude": 5.9458315, "bronId": "L021421"}}, {"type": "Feature", "geometry": {"type": "Point", "coordinates": [5.9497262, 50.9198962]}, "properties": {"type": "inleverpunt", "locatieNaam": "1161 Action", "straatNaam": "Stanleystraat", "straatNr": "6", "postcode": "6413 HS", "plaats": "HEERLEN", "merk": "Stibat", "puntType": "inzamelbak", "materialen": ["batterijen"], "uitbetaling": [], "vrijToegankelijk": false, "gemeenteBeperking": null, "openingstijden": null, "latitude": 50.9198962, "longitude": 5.9497262, "bronId": "L017732"}}, {"type": "Feature", "geometry": {"type": "Point", "coordinates": [5.9694613, 50.9233601]}, "properties": {"type": "inleverpunt", "locatieNaam": "Lidl", "straatNaam": "Anjelierstraat", "straatNr": "72", "postcode": "6414 EW", "plaats": "HEERLEN", "merk": "Stibat", "puntType": "inzamelbak", "materialen": ["batterijen"], "uitbetaling": [], "vrijToegankelijk": false, "gemeenteBeperking": null, "openingstijden": null, "latitude": 50.9233601, "longitude": 5.9694613, "bronId": "L016548"}}, {"type": "Feature", "geometry": {"type": "Point", "coordinates": [5.9299833, 50.914088]}, "properties": {"type": "inleverpunt", "locatieNaam": "Spar", "straatNaam": "Mgr. Hanssenlaan", "straatNr": "83", "postcode": "6433 BK", "plaats": "HOENSBROEK", "merk": "Stibat", "puntType": "inzamelbak", "materialen": ["batterijen"], "uitbetaling": [], "vrijToegankelijk": false, "gemeenteBeperking": null, "openingstijden": null, "latitude": 50.914088, "longitude": 5.9299833, "bronId": "L009959"}}, {"type": "Feature", "geometry": {"type": "Point", "coordinates": [5.9563237, 50.9171511]}, "properties": {"type": "inleverpunt", "locatieNaam": "PLUS", "straatNaam": "Groeet Genhei", "straatNr": "24", "postcode": "6413 GN", "plaats": "HEERLEN", "merk": "Stibat", "puntType": "inzamelbak", "materialen": ["batterijen"], "uitbetaling": [], "vrijToegankelijk": false, "gemeenteBeperking": null, "openingstijden": null, "latitude": 50.9171511, "longitude": 5.9563237, "bronId": "L011965"}}, {"type": "Feature", "geometry": {"type": "Point", "coordinates": [5.9525481, 50.9158372]}, "properties": {"type": "inleverpunt", "locatieNaam": "Witgoed specialist", "straatNaam": "Ganzeweide", "straatNr": "79", "postcode": "6413 GB", "plaats": "HEERLEN", "merk": "Stibat", "puntType": "inzamelbak", "materialen": ["batterijen"], "uitbetaling": [], "vrijToegankelijk": false, "gemeenteBeperking": null, "openingstijden": null, "latitude": 50.9158372, "longitude": 5.9525481, "bronId": "L014144"}}, {"type": "Feature", "geometry": {"type": "Point", "coordinates": [5.9535882, 50.9157479]}, "properties": {"type": "inleverpunt", "locatieNaam": "Jumbo", "straatNaam": "Ganzeweide", "straatNr": "74", "postcode": "6413 GH", "plaats": "HEERLEN", "merk": "Stibat", "puntType": "inzamelbak", "materialen": ["batterijen"], "uitbetaling": [], "vrijToegankelijk": false, "gemeenteBeperking": null, "openingstijden": null, "latitude": 50.9157479, "longitude": 5.9535882, "bronId": "L047402"}}, {"type": "Feature", "geometry": {"type": "Point", "coordinates": [5.9556115, 50.915971]}, "properties": {"type": "inleverpunt", "locatieNaam": "Kruidvat", "straatNaam": "Wannerstraat", "straatNr": "10", "postcode": "6413 EV", "plaats": "HEERLEN", "merk": "Stibat", "puntType": "inzamelbak", "materialen": ["batterijen"], "uitbetaling": [], "vrijToegankelijk": false, "gemeenteBeperking": null, "openingstijden": null, "latitude": 50.915971, "longitude": 5.9556115, "bronId": "L016269"}}, {"type": "Feature", "geometry": {"type": "Point", "coordinates": [5.9550328, 50.9156522]}, "properties": {"type": "inleverpunt", "locatieNaam": "Zeeman", "straatNaam": "Wannerstraat", "straatNr": "16B", "postcode": "6413 EV", "plaats": "HEERLEN", "merk": "Stibat", "puntType": "inzamelbak", "materialen": ["batterijen"], "uitbetaling": [], "vrijToegankelijk": false, "gemeenteBeperking": null, "openingstijden": null, "latitude": 50.9156522, "longitude": 5.9550328, "bronId": "L020533"}}, {"type": "Feature", "geometry": {"type": "Point", "coordinates": [5.9551956, 50.9156494]}, "properties": {"type": "inleverpunt", "locatieNaam": "KiK Heerlen", "straatNaam": "Wannerstraat", "straatNr": "12-14", "postcode": "6413 EV", "plaats": "HEERLEN", "merk": "Stibat", "puntType": "inzamelbak", "materialen": ["batterijen"], "uitbetaling": [], "vrijToegankelijk": false, "gemeenteBeperking": null, "openingstijden": null, "latitude": 50.9156494, "longitude": 5.9551956, "bronId": "L037417"}}, {"type": "Feature", "geometry": {"type": "Point", "coordinates": [5.9558314, 50.9157647]}, "properties": {"type": "inleverpunt", "locatieNaam": "6110 Etos", "straatNaam": "Wannerstraat", "straatNr": "9", "postcode": "6413 EV", "plaats": "HEERLEN", "merk": "Stibat", "puntType": "inzamelbak", "materialen": ["batterijen"], "uitbetaling": [], "vrijToegankelijk": false, "gemeenteBeperking": null, "openingstijden": null, "latitude": 50.9157647, "longitude": 5.9558314, "bronId": "L027377"}}, {"type": "Feature", "geometry": {"type": "Point", "coordinates": [5.9558314, 50.9157647]}, "properties": {"type": "inleverpunt", "locatieNaam": "Wibra", "straatNaam": "Wannerstraat", "straatNr": "7", "postcode": "6413 EV", "plaats": "HEERLEN", "merk": "Stibat", "puntType": "inzamelbak", "materialen": ["batterijen"], "uitbetaling": [], "vrijToegankelijk": false, "gemeenteBeperking": null, "openingstijden": null, "latitude": 50.9157647, "longitude": 5.9558314, "bronId": "L023318"}}, {"type": "Feature", "geometry": {"type": "Point", "coordinates": [5.9556656, 50.9157292]}, "properties": {"type": "inleverpunt", "locatieNaam": "Primera", "straatNaam": "Wannerstraat", "straatNr": "19", "postcode": "6413 EV", "plaats": "HEERLEN", "merk": "Stibat", "puntType": "inzamelbak", "materialen": ["batterijen"], "uitbetaling": [], "vrijToegankelijk": false, "gemeenteBeperking": null, "openingstijden": null, "latitude": 50.9157292, "longitude": 5.9556656, "bronId": "L024316"}}, {"type": "Feature", "geometry": {"type": "Point", "coordinates": [5.9556234, 50.9155843]}, "properties": {"type": "inleverpunt", "locatieNaam": "EP:", "straatNaam": "Wannerplein", "straatNr": "2", "postcode": "6413 ET", "plaats": "Heerlen", "merk": "Stibat", "puntType": "inzamelbak", "materialen": ["batterijen"], "uitbetaling": [], "vrijToegankelijk": false, "gemeenteBeperking": null, "openingstijden": null, "latitude": 50.9155843, "longitude": 5.9556234, "bronId": "L018585"}}, {"type": "Feature", "geometry": {"type": "Point", "coordinates": [5.9549569, 50.9151002]}, "properties": {"type": "inleverpunt", "locatieNaam": "Janssen Tweewielers", "straatNaam": "Ganzeweide", "straatNr": "54-56", "postcode": "6413 GG", "plaats": "HEERLEN", "merk": "Stibat", "puntType": "inzamelbak", "materialen": ["batterijen"], "uitbetaling": [], "vrijToegankelijk": false, "gemeenteBeperking": null, "openingstijden": null, "latitude": 50.9151002, "longitude": 5.9549569, "bronId": "L033740"}}, {"type": "Feature", "geometry": {"type": "Point", "coordinates": [5.9429584, 50.9122186]}, "properties": {"type": "inleverpunt", "locatieNaam": "Kabeldirect", "straatNaam": "De Koumen", "straatNr": "86", "postcode": "6433 KE", "plaats": "HOENSBROEK", "merk": "Stibat", "puntType": "inzamelbak", "materialen": ["batterijen"], "uitbetaling": [], "vrijToegankelijk": false, "gemeenteBeperking": null, "openingstijden": null, "latitude": 50.9122186, "longitude": 5.9429584, "bronId": "L035504"}}, {"type": "Feature", "geometry": {"type": "Point", "coordinates": [5.9370656, 50.9089297]}, "properties": {"type": "inleverpunt", "locatieNaam": "Total", "straatNaam": "Koumenweg", "straatNr": "15", "postcode": "6433 KJ", "plaats": "HOENSBROEK (Heerlen)", "merk": "Stibat", "puntType": "inzamelbak", "materialen": ["batterijen"], "uitbetaling": [], "vrijToegankelijk": false, "gemeenteBeperking": null, "openingstijden": null, "latitude": 50.9089297, "longitude": 5.9370656, "bronId": "L020406"}}, {"type": "Feature", "geometry": {"type": "Point", "coordinates": [5.9435368, 50.9076194]}, "properties": {"type": "inleverpunt", "locatieNaam": "Picnic", "straatNaam": "Wijngaardsweg", "straatNr": "99", "postcode": "6433 KA", "plaats": "HOENSBROEK", "merk": "Stibat", "puntType": "inzamelbak", "materialen": ["batterijen"], "uitbetaling": [], "vrijToegankelijk": false, "gemeenteBeperking": null, "openingstijden": null, "latitude": 50.9076194, "longitude": 5.9435368, "bronId": "L043732"}}, {"type": "Feature", "geometry": {"type": "Point", "coordinates": [5.9445842, 50.9072368]}, "properties": {"type": "inleverpunt", "locatieNaam": "Enckevort", "straatNaam": "Wijngaardsweg", "straatNr": "30", "postcode": "6412 PJ", "plaats": "HEERLEN", "merk": "Stibat", "puntType": "inzamelbak", "materialen": ["batterijen"], "uitbetaling": [], "vrijToegankelijk": false, "gemeenteBeperking": null, "openingstijden": null, "latitude": 50.9072368, "longitude": 5.9445842, "bronId": "L045128"}}, {"type": "Feature", "geometry": {"type": "Point", "coordinates": [5.9471905, 50.9055524]}, "properties": {"type": "inleverpunt", "locatieNaam": "van Walraven Heerlen", "straatNaam": "Breukerweg", "straatNr": "192", "postcode": "6412 ZL", "plaats": "HEERLEN", "merk": "Stibat", "puntType": "inzamelbak", "materialen": ["batterijen"], "uitbetaling": [], "vrijToegankelijk": false, "gemeenteBeperking": null, "openingstijden": null, "latitude": 50.9055524, "longitude": 5.9471905, "bronId": "L046217"}}, {"type": "Feature", "geometry": {"type": "Point", "coordinates": [5.9422831, 50.9035487]}, "properties": {"type": "inleverpunt", "locatieNaam": "Bouwmaat", "straatNaam": "Breukerweg", "straatNr": "185a", "postcode": "6412 ZK", "plaats": "HEERLEN", "merk": "Stibat", "puntType": "inzamelbak", "materialen": ["batterijen"], "uitbetaling": [], "vrijToegankelijk": false, "gemeenteBeperking": null, "openingstijden": null, "latitude": 50.9035487, "longitude": 5.9422831, "bronId": "L028400"}}, {"type": "Feature", "geometry": {"type": "Point", "coordinates": [5.9560003, 50.9059256]}, "properties": {"type": "inleverpunt", "locatieNaam": "Rd4 Milieupark Heerlen", "straatNaam": "Huisbergerstraat", "straatNr": "250", "postcode": "6413 VR", "plaats": "HEERLEN", "merk": "Stibat", "puntType": "inzamelbak", "materialen": ["batterijen"], "uitbetaling": [], "vrijToegankelijk": false, "gemeenteBeperking": null, "openingstijden": null, "latitude": 50.9059256, "longitude": 5.9560003, "bronId": "L035806"}}, {"type": "Feature", "geometry": {"type": "Point", "coordinates": [5.942974, 50.900338]}, "properties": {"type": "inleverpunt", "locatieNaam": "Prenatal HEERLEN", "straatNaam": "In de Cramer", "straatNr": "162", "postcode": "6412 PM", "plaats": "HEERLEN", "merk": "Stibat", "puntType": "inzamelbak", "materialen": ["batterijen"], "uitbetaling": [], "vrijToegankelijk": false, "gemeenteBeperking": null, "openingstijden": null, "latitude": 50.900338, "longitude": 5.942974, "bronId": "L039623"}}, {"type": "Feature", "geometry": {"type": "Point", "coordinates": [5.9594795, 50.9037149]}, "properties": {"type": "inleverpunt", "locatieNaam": "Sieben", "straatNaam": "Huisbergerstraat", "straatNr": "95", "postcode": "6413 VL", "plaats": "HEERLEN", "merk": "Stibat", "puntType": "inzamelbak", "materialen": ["batterijen"], "uitbetaling": [], "vrijToegankelijk": false, "gemeenteBeperking": null, "openingstijden": null, "latitude": 50.9037149, "longitude": 5.9594795, "bronId": "L028237"}}, {"type": "Feature", "geometry": {"type": "Point", "coordinates": [5.9452023, 50.8993883]}, "properties": {"type": "inleverpunt", "locatieNaam": "Ikea", "straatNaam": "In de Cramer", "straatNr": "142", "postcode": "6412 PM", "plaats": "HEERLEN", "merk": "Stibat", "puntType": "inzamelbak", "materialen": ["batterijen"], "uitbetaling": [], "vrijToegankelijk": false, "gemeenteBeperking": null, "openingstijden": null, "latitude": 50.8993883, "longitude": 5.9452023, "bronId": "L024787"}}, {"type": "Feature", "geometry": {"type": "Point", "coordinates": [5.9474638, 50.8980682]}, "properties": {"type": "inleverpunt", "locatieNaam": "Tuincentrum bijSTOX", "straatNaam": "In de Cramer", "straatNr": "140", "postcode": "6412 PM", "plaats": "HEERLEN", "merk": "Stibat", "puntType": "inzamelbak", "materialen": ["batterijen"], "uitbetaling": [], "vrijToegankelijk": false, "gemeenteBeperking": null, "openingstijden": null, "latitude": 50.8980682, "longitude": 5.9474638, "bronId": "L042175"}}, {"type": "Feature", "geometry": {"type": "Point", "coordinates": [5.9507104, 50.8977867]}, "properties": {"type": "inleverpunt", "locatieNaam": "Praxis 2082", "straatNaam": "In de Cramer", "straatNr": "82 unit 1", "postcode": "6412 PM", "plaats": "HEERLEN", "merk": "Stibat", "puntType": "inzamelbak", "materialen": ["batterijen"], "uitbetaling": [], "vrijToegankelijk": false, "gemeenteBeperking": null, "openingstijden": null, "latitude": 50.8977867, "longitude": 5.9507104, "bronId": "L015817"}}, {"type": "Feature", "geometry": {"type": "Point", "coordinates": [5.9501577, 50.8976075]}, "properties": {"type": "inleverpunt", "locatieNaam": "Gamma", "straatNaam": "In de Cramer", "straatNr": "125", "postcode": "6412 PM", "plaats": "HEERLEN", "merk": "Stibat", "puntType": "inzamelbak", "materialen": ["batterijen"], "uitbetaling": [], "vrijToegankelijk": false, "gemeenteBeperking": null, "openingstijden": null, "latitude": 50.8976075, "longitude": 5.9501577, "bronId": "L005705"}}, {"type": "Feature", "geometry": {"type": "Point", "coordinates": [5.950563, 50.8972108]}, "properties": {"type": "inleverpunt", "locatieNaam": "Leen Bakker", "straatNaam": "In De Cramer", "straatNr": "66", "postcode": "6412 PM", "plaats": "HEERLEN", "merk": "Stibat", "puntType": "inzamelbak", "materialen": ["batterijen"], "uitbetaling": [], "vrijToegankelijk": false, "gemeenteBeperking": null, "openingstijden": null, "latitude": 50.8972108, "longitude": 5.950563, "bronId": "L019127"}}, {"type": "Feature", "geometry": {"type": "Point", "coordinates": [5.9513584, 50.8969748]}, "properties": {"type": "inleverpunt", "locatieNaam": "Kwantum", "straatNaam": "In de Cramer", "straatNr": "70", "postcode": "6412 PM", "plaats": "HEERLEN", "merk": "Stibat", "puntType": "inzamelbak", "materialen": ["batterijen"], "uitbetaling": [], "vrijToegankelijk": false, "gemeenteBeperking": null, "openingstijden": null, "latitude": 50.8969748, "longitude": 5.9513584, "bronId": "L016875"}}, {"type": "Feature", "geometry": {"type": "Point", "coordinates": [5.9719392, 50.9009405]}, "properties": {"type": "inleverpunt", "locatieNaam": "4133 Albert Heijn", "straatNaam": "Sittarderweg", "straatNr": "152", "postcode": "6412 CM", "plaats": "HEERLEN", "merk": "Stibat", "puntType": "inzamelbak", "materialen": ["batterijen"], "uitbetaling": [], "vrijToegankelijk": false, "gemeenteBeperking": null, "openingstijden": null, "latitude": 50.9009405, "longitude": 5.9719392, "bronId": "L047185"}}, {"type": "Feature", "geometry": {"type": "Point", "coordinates": [5.9699246, 50.8896284]}, "properties": {"type": "inleverpunt", "locatieNaam": "Fietsvoordeelshop.nl", "straatNaam": "Laanderstraat", "straatNr": "81", "postcode": "6411 VB", "plaats": "HEERLEN", "merk": "Stibat", "puntType": "inzamelbak", "materialen": ["batterijen"], "uitbetaling": [], "vrijToegankelijk": false, "gemeenteBeperking": null, "openingstijden": null, "latitude": 50.8896284, "longitude": 5.9699246, "bronId": "L044333"}}, {"type": "Feature", "geometry": {"type": "Point", "coordinates": [5.9755231, 50.8905836]}, "properties": {"type": "inleverpunt", "locatieNaam": "AKO", "straatNaam": "Spoorplein", "straatNr": "58", "postcode": "6411 NZ", "plaats": "HEERLEN", "merk": "Stibat", "puntType": "inzamelbak", "materialen": ["batterijen"], "uitbetaling": [], "vrijToegankelijk": false, "gemeenteBeperking": null, "openingstijden": null, "latitude": 50.8905836, "longitude": 5.9755231, "bronId": "L045330"}}, {"type": "Feature", "geometry": {"type": "Point", "coordinates": [5.9763628, 50.8896497]}, "properties": {"type": "inleverpunt", "locatieNaam": "Intertoys", "straatNaam": "Saroleastraat", "straatNr": "65", "postcode": "6411 LS", "plaats": "HEERLEN", "merk": "Stibat", "puntType": "inzamelbak", "materialen": ["batterijen"], "uitbetaling": [], "vrijToegankelijk": false, "gemeenteBeperking": null, "openingstijden": null, "latitude": 50.8896497, "longitude": 5.9763628, "bronId": "L044846"}}, {"type": "Feature", "geometry": {"type": "Point", "coordinates": [5.9754596, 50.8890862]}, "properties": {"type": "inleverpunt", "locatieNaam": "1118 Action", "straatNaam": "Corio Center", "straatNr": "39", "postcode": "6411 LX", "plaats": "HEERLEN", "merk": "Stibat", "puntType": "inzamelbak", "materialen": ["batterijen"], "uitbetaling": [], "vrijToegankelijk": false, "gemeenteBeperking": null, "openingstijden": null, "latitude": 50.8890862, "longitude": 5.9754596, "bronId": "L017214"}}, {"type": "Feature", "geometry": {"type": "Point", "coordinates": [5.9759086, 50.8891252]}, "properties": {"type": "inleverpunt", "locatieNaam": "Xenos", "straatNaam": "Corio Center", "straatNr": "46", "postcode": "6411 LX", "plaats": "HEERLEN", "merk": "Stibat", "puntType": "inzamelbak", "materialen": ["batterijen"], "uitbetaling": [], "vrijToegankelijk": false, "gemeenteBeperking": null, "openingstijden": null, "latitude": 50.8891252, "longitude": 5.9759086, "bronId": "L036899"}}, {"type": "Feature", "geometry": {"type": "Point", "coordinates": [5.9755421, 50.8890003]}, "properties": {"type": "inleverpunt", "locatieNaam": "Kruidvat", "straatNaam": "Corio Center", "straatNr": "6", "postcode": "6411 LX", "plaats": "HEERLEN", "merk": "Stibat", "puntType": "inzamelbak", "materialen": ["batterijen"], "uitbetaling": [], "vrijToegankelijk": false, "gemeenteBeperking": null, "openingstijden": null, "latitude": 50.8890003, "longitude": 5.9755421, "bronId": "L015240"}}, {"type": "Feature", "geometry": {"type": "Point", "coordinates": [5.9757188, 50.8889414]}, "properties": {"type": "inleverpunt", "locatieNaam": "BelCompany", "straatNaam": "Corio Center", "straatNr": "17", "postcode": "6411 LX", "plaats": "HEERLEN", "merk": "Stibat", "puntType": "inzamelbak", "materialen": ["batterijen"], "uitbetaling": [], "vrijToegankelijk": false, "gemeenteBeperking": null, "openingstijden": null, "latitude": 50.8889414, "longitude": 5.9757188, "bronId": "L015098"}}, {"type": "Feature", "geometry": {"type": "Point", "coordinates": [5.9757188, 50.8889414]}, "properties": {"type": "inleverpunt", "locatieNaam": "MediaMarkt", "straatNaam": "Corio Center", "straatNr": "9", "postcode": "6411 LX", "plaats": "HEERLEN", "merk": "Stibat", "puntType": "inzamelbak", "materialen": ["batterijen"], "uitbetaling": [], "vrijToegankelijk": false, "gemeenteBeperking": null, "openingstijden": null, "latitude": 50.8889414, "longitude": 5.9757188, "bronId": "L020414"}}, {"type": "Feature", "geometry": {"type": "Point", "coordinates": [5.9771524, 50.8891603]}, "properties": {"type": "inleverpunt", "locatieNaam": "KPN winkel", "straatNaam": "Saroleastraat", "straatNr": "50A", "postcode": "6411 LV", "plaats": "HEERLEN", "merk": "Stibat", "puntType": "inzamelbak", "materialen": ["batterijen"], "uitbetaling": [], "vrijToegankelijk": false, "gemeenteBeperking": null, "openingstijden": null, "latitude": 50.8891603, "longitude": 5.9771524, "bronId": "L005699"}}, {"type": "Feature", "geometry": {"type": "Point", "coordinates": [5.9846094, 50.8906]}, "properties": {"type": "inleverpunt", "locatieNaam": "1396 Albert Heijn", "straatNaam": "Schandelerboord", "straatNr": "25", "postcode": "6415 AA", "plaats": "HEERLEN", "merk": "Stibat", "puntType": "inzamelbak", "materialen": ["batterijen"], "uitbetaling": [], "vrijToegankelijk": false, "gemeenteBeperking": null, "openingstijden": null, "latitude": 50.8906, "longitude": 5.9846094, "bronId": "L007434"}}, {"type": "Feature", "geometry": {"type": "Point", "coordinates": [5.975629, 50.888638]}, "properties": {"type": "inleverpunt", "locatieNaam": "Hans Anders", "straatNaam": "Corio Center", "straatNr": "4", "postcode": "6411 LX", "plaats": "HEERLEN", "merk": "Stibat", "puntType": "inzamelbak", "materialen": ["batterijen"], "uitbetaling": [], "vrijToegankelijk": false, "gemeenteBeperking": null, "openingstijden": null, "latitude": 50.888638, "longitude": 5.975629, "bronId": "L037833"}}, {"type": "Feature", "geometry": {"type": "Point", "coordinates": [5.9767347, 50.8888185]}, "properties": {"type": "inleverpunt", "locatieNaam": "HEMA Maessenstraat", "straatNaam": "Maessenstraat", "straatNr": "1", "postcode": "6411 LP", "plaats": "HEERLEN", "merk": "Stibat", "puntType": "inzamelbak", "materialen": ["batterijen"], "uitbetaling": [], "vrijToegankelijk": false, "gemeenteBeperking": null, "openingstijden": null, "latitude": 50.8888185, "longitude": 5.9767347, "bronId": "L006328"}}, {"type": "Feature", "geometry": {"type": "Point", "coordinates": [5.9774882, 50.8888944]}, "properties": {"type": "inleverpunt", "locatieNaam": "7331 Etos", "straatNaam": "Saroleastraat", "straatNr": "40 -41", "postcode": "6411 LV", "plaats": "HEERLEN", "merk": "Stibat", "puntType": "inzamelbak", "materialen": ["batterijen"], "uitbetaling": [], "vrijToegankelijk": false, "gemeenteBeperking": null, "openingstijden": null, "latitude": 50.8888944, "longitude": 5.9774882, "bronId": "L024563"}}, {"type": "Feature", "geometry": {"type": "Point", "coordinates": [5.977314, 50.888721]}, "properties": {"type": "inleverpunt", "locatieNaam": "ivizi/Apple Store", "straatNaam": "Saroleastraat", "straatNr": "45", "postcode": "6411 LR", "plaats": "HEERLEN", "merk": "Stibat", "puntType": "inzamelbak", "materialen": ["batterijen"], "uitbetaling": [], "vrijToegankelijk": false, "gemeenteBeperking": null, "openingstijden": null, "latitude": 50.888721, "longitude": 5.977314, "bronId": "L028997"}}, {"type": "Feature", "geometry": {"type": "Point", "coordinates": [5.977841, 50.8887805]}, "properties": {"type": "inleverpunt", "locatieNaam": "ANWB", "straatNaam": "Saroleastraat", "straatNr": "32", "postcode": "6411 LV", "plaats": "HEERLEN", "merk": "Stibat", "puntType": "inzamelbak", "materialen": ["batterijen"], "uitbetaling": [], "vrijToegankelijk": false, "gemeenteBeperking": null, "openingstijden": null, "latitude": 50.8887805, "longitude": 5.977841, "bronId": "L044639"}}, {"type": "Feature", "geometry": {"type": "Point", "coordinates": [5.9773826, 50.8886613]}, "properties": {"type": "inleverpunt", "locatieNaam": "E-Plaza", "straatNaam": "Saroleastraat", "straatNr": "43", "postcode": "6411 LR", "plaats": "HEERLEN", "merk": "Stibat", "puntType": "inzamelbak", "materialen": ["batterijen"], "uitbetaling": [], "vrijToegankelijk": false, "gemeenteBeperking": null, "openingstijden": null, "latitude": 50.8886613, "longitude": 5.9773826, "bronId": "L027603"}}, {"type": "Feature", "geometry": {"type": "Point", "coordinates": [5.978024, 50.8884188]}, "properties": {"type": "inleverpunt", "locatieNaam": "Specsavers", "straatNaam": "Saroleastraat", "straatNr": "22", "postcode": "6411 LT", "plaats": "HEERLEN", "merk": "Stibat", "puntType": "inzamelbak", "materialen": ["batterijen"], "uitbetaling": [], "vrijToegankelijk": false, "gemeenteBeperking": null, "openingstijden": null, "latitude": 50.8884188, "longitude": 5.978024, "bronId": "L038506"}}, {"type": "Feature", "geometry": {"type": "Point", "coordinates": [5.9740333, 50.8875042]}, "properties": {"type": "inleverpunt", "locatieNaam": "Schoonenberg hoorcomfort", "straatNaam": "Geerstraat", "straatNr": "24", "postcode": "6411 NR", "plaats": "HEERLEN", "merk": "Stibat", "puntType": "inzamelbak", "materialen": ["batterijen"], "uitbetaling": [], "vrijToegankelijk": false, "gemeenteBeperking": null, "openingstijden": null, "latitude": 50.8875042, "longitude": 5.9740333, "bronId": "L038057"}}, {"type": "Feature", "geometry": {"type": "Point", "coordinates": [5.9695976, 50.8864943]}, "properties": {"type": "inleverpunt", "locatieNaam": "Wibra", "straatNaam": "Homerusplein", "straatNr": "10", "postcode": "6411 AW", "plaats": "Heerlen", "merk": "Stibat", "puntType": "inzamelbak", "materialen": ["batterijen"], "uitbetaling": [], "vrijToegankelijk": false, "gemeenteBeperking": null, "openingstijden": null, "latitude": 50.8864943, "longitude": 5.9695976, "bronId": "L024132"}}, {"type": "Feature", "geometry": {"type": "Point", "coordinates": [5.9698383, 50.8863526]}, "properties": {"type": "inleverpunt", "locatieNaam": "1058 Albert Heijn", "straatNaam": "Homerusplein", "straatNr": "9", "postcode": "6411 AW", "plaats": "HEERLEN", "merk": "Stibat", "puntType": "inzamelbak", "materialen": ["batterijen"], "uitbetaling": [], "vrijToegankelijk": false, "gemeenteBeperking": null, "openingstijden": null, "latitude": 50.8863526, "longitude": 5.9698383, "bronId": "L007667"}}, {"type": "Feature", "geometry": {"type": "Point", "coordinates": [5.9783318, 50.8881464]}, "properties": {"type": "inleverpunt", "locatieNaam": "DOUGLAS", "straatNaam": "Saroleastraat", "straatNr": "8", "postcode": "6411 LT", "plaats": "HEERLEN", "merk": "Stibat", "puntType": "inzamelbak", "materialen": ["batterijen"], "uitbetaling": [], "vrijToegankelijk": false, "gemeenteBeperking": null, "openingstijden": null, "latitude": 50.8881464, "longitude": 5.9783318, "bronId": "L049157"}}, {"type": "Feature", "geometry": {"type": "Point", "coordinates": [5.9691809, 50.8861426]}, "properties": {"type": "inleverpunt", "locatieNaam": "Budget Food", "straatNaam": "Apollolaan", "straatNr": "154", "postcode": "6411 BE", "plaats": "Heerlen", "merk": "Stibat", "puntType": "inzamelbak", "materialen": ["batterijen"], "uitbetaling": [], "vrijToegankelijk": false, "gemeenteBeperking": null, "openingstijden": null, "latitude": 50.8861426, "longitude": 5.9691809, "bronId": "L045757"}}, {"type": "Feature", "geometry": {"type": "Point", "coordinates": [5.9700157, 50.8862479]}, "properties": {"type": "inleverpunt", "locatieNaam": "Kruidvat", "straatNaam": "Homerusplein", "straatNr": "8", "postcode": "6411 AW", "plaats": "HEERLEN", "merk": "Stibat", "puntType": "inzamelbak", "materialen": ["batterijen"], "uitbetaling": [], "vrijToegankelijk": false, "gemeenteBeperking": null, "openingstijden": null, "latitude": 50.8862479, "longitude": 5.9700157, "bronId": "L016315"}}, {"type": "Feature", "geometry": {"type": "Point", "coordinates": [5.9773984, 50.8877927]}, "properties": {"type": "inleverpunt", "locatieNaam": "Phone House", "straatNaam": "Promenade", "straatNr": "10", "postcode": "6411 JK", "plaats": "Heerlen", "merk": "Stibat", "puntType": "inzamelbak", "materialen": ["batterijen"], "uitbetaling": [], "vrijToegankelijk": false, "gemeenteBeperking": null, "openingstijden": null, "latitude": 50.8877927, "longitude": 5.9773984, "bronId": "L023805"}}, {"type": "Feature", "geometry": {"type": "Point", "coordinates": [5.9698314, 50.8858402]}, "properties": {"type": "inleverpunt", "locatieNaam": "Perry", "straatNaam": "Homeruspassage", "straatNr": "6", "postcode": "6411 AX", "plaats": "HEERLEN", "merk": "Stibat", "puntType": "inzamelbak", "materialen": ["batterijen"], "uitbetaling": [], "vrijToegankelijk": false, "gemeenteBeperking": null, "openingstijden": null, "latitude": 50.8858402, "longitude": 5.9698314, "bronId": "L022974"}}, {"type": "Feature", "geometry": {"type": "Point", "coordinates": [5.975361, 50.8868745]}, "properties": {"type": "inleverpunt", "locatieNaam": "Zeeman", "straatNaam": "Promenade", "straatNr": "143-151", "postcode": "6411 JE", "plaats": "HEERLEN", "merk": "Stibat", "puntType": "inzamelbak", "materialen": ["batterijen"], "uitbetaling": [], "vrijToegankelijk": false, "gemeenteBeperking": null, "openingstijden": null, "latitude": 50.8868745, "longitude": 5.975361, "bronId": "L021719"}}, {"type": "Feature", "geometry": {"type": "Point", "coordinates": [5.9704935, 50.885716]}, "properties": {"type": "inleverpunt", "locatieNaam": "HEMA Homerus Passage", "straatNaam": "Homerus Passage", "straatNr": "5", "postcode": "6411 AX", "plaats": "HEERLEN", "merk": "Stibat", "puntType": "inzamelbak", "materialen": ["batterijen"], "uitbetaling": [], "vrijToegankelijk": false, "gemeenteBeperking": null, "openingstijden": null, "latitude": 50.885716, "longitude": 5.9704935, "bronId": "L006858"}}, {"type": "Feature", "geometry": {"type": "Point", "coordinates": [5.9785176, 50.8873079]}, "properties": {"type": "inleverpunt", "locatieNaam": "Handyman", "straatNaam": "Saroleastraat", "straatNr": "1", "postcode": "6411 LR", "plaats": "HEERLEN", "merk": "Stibat", "puntType": "inzamelbak", "materialen": ["batterijen"], "uitbetaling": [], "vrijToegankelijk": false, "gemeenteBeperking": null, "openingstijden": null, "latitude": 50.8873079, "longitude": 5.9785176, "bronId": "L014687"}}, {"type": "Feature", "geometry": {"type": "Point", "coordinates": [5.9799153, 50.8862877]}, "properties": {"type": "inleverpunt", "locatieNaam": "Papa's Bikeshop", "straatNaam": "Akerstraat", "straatNr": "22a", "postcode": "6411 HA", "plaats": "HEERLEN", "merk": "Stibat", "puntType": "inzamelbak", "materialen": ["batterijen"], "uitbetaling": [], "vrijToegankelijk": false, "gemeenteBeperking": null, "openingstijden": null, "latitude": 50.8862877, "longitude": 5.9799153, "bronId": "L049491"}}, {"type": "Feature", "geometry": {"type": "Point", "coordinates": [5.9991616, 50.8898892]}, "properties": {"type": "inleverpunt", "locatieNaam": "Sligro", "straatNaam": "Kissel", "straatNr": "30", "postcode": "6416 AC", "plaats": "HEERLEN", "merk": "Stibat", "puntType": "inzamelbak", "materialen": ["batterijen"], "uitbetaling": [], "vrijToegankelijk": false, "gemeenteBeperking": null, "openingstijden": null, "latitude": 50.8898892, "longitude": 5.9991616, "bronId": "L025910"}}, {"type": "Feature", "geometry": {"type": "Point", "coordinates": [5.9808901, 50.8858422]}, "properties": {"type": "inleverpunt", "locatieNaam": "Beter Horen", "straatNaam": "Akerstraat", "straatNr": "21", "postcode": "6411 GW", "plaats": "HEERLEN", "merk": "Stibat", "puntType": "inzamelbak", "materialen": ["batterijen"], "uitbetaling": [], "vrijToegankelijk": false, "gemeenteBeperking": null, "openingstijden": null, "latitude": 50.8858422, "longitude": 5.9808901, "bronId": "L018732"}}, {"type": "Feature", "geometry": {"type": "Point", "coordinates": [5.9963019, 50.8873454]}, "properties": {"type": "inleverpunt", "locatieNaam": "Lidl", "straatNaam": "Zondagstraat", "straatNr": "57-59", "postcode": "6416 BE", "plaats": "Heerlen", "merk": "Stibat", "puntType": "inzamelbak", "materialen": ["batterijen"], "uitbetaling": [], "vrijToegankelijk": false, "gemeenteBeperking": null, "openingstijden": null, "latitude": 50.8873454, "longitude": 5.9963019, "bronId": "L018945"}}, {"type": "Feature", "geometry": {"type": "Point", "coordinates": [5.9785285, 50.8820706]}, "properties": {"type": "inleverpunt", "locatieNaam": "Marsael B.V.", "straatNaam": "Benzenraderweg", "straatNr": "24", "postcode": "6411 ED", "plaats": "HEERLEN", "merk": "Stibat", "puntType": "inzamelbak", "materialen": ["batterijen"], "uitbetaling": [], "vrijToegankelijk": false, "gemeenteBeperking": null, "openingstijden": null, "latitude": 50.8820706, "longitude": 5.9785285, "bronId": "L033738"}}, {"type": "Feature", "geometry": {"type": "Point", "coordinates": [5.9978894, 50.8828207]}, "properties": {"type": "inleverpunt", "locatieNaam": "Trek Bicycle", "straatNaam": "Kerkraderweg", "straatNr": "84", "postcode": "6416 CL", "plaats": "Heerlen", "merk": "Stibat", "puntType": "inzamelbak", "materialen": ["batterijen"], "uitbetaling": [], "vrijToegankelijk": false, "gemeenteBeperking": null, "openingstijden": null, "latitude": 50.8828207, "longitude": 5.9978894, "bronId": "L033742"}}, {"type": "Feature", "geometry": {"type": "Point", "coordinates": [5.9692651, 50.8744923]}, "properties": {"type": "inleverpunt", "locatieNaam": "PLUS", "straatNaam": "De Doom", "straatNr": "3", "postcode": "6419 CW", "plaats": "HEERLEN", "merk": "Stibat", "puntType": "inzamelbak", "materialen": ["batterijen"], "uitbetaling": [], "vrijToegankelijk": false, "gemeenteBeperking": null, "openingstijden": null, "latitude": 50.8744923, "longitude": 5.9692651, "bronId": "L023592"}}, {"type": "Feature", "geometry": {"type": "Point", "coordinates": [5.9830554, 50.8762623]}, "properties": {"type": "inleverpunt", "locatieNaam": "PLUS", "straatNaam": "Van Weerden Poelmanstraat", "straatNr": "47 A", "postcode": "6417 EJ", "plaats": "HEERLEN", "merk": "Stibat", "puntType": "inzamelbak", "materialen": ["batterijen"], "uitbetaling": [], "vrijToegankelijk": false, "gemeenteBeperking": null, "openingstijden": null, "latitude": 50.8762623, "longitude": 5.9830554, "bronId": "L010542"}}, {"type": "Feature", "geometry": {"type": "Point", "coordinates": [5.9825693, 50.8758344]}, "properties": {"type": "inleverpunt", "locatieNaam": "8361 Etos", "straatNaam": "van Weerd Poelmanstr.", "straatNr": "42", "postcode": "6417 EN", "plaats": "HEERLEN", "merk": "Stibat", "puntType": "inzamelbak", "materialen": ["batterijen"], "uitbetaling": [], "vrijToegankelijk": false, "gemeenteBeperking": null, "openingstijden": null, "latitude": 50.8758344, "longitude": 5.9825693, "bronId": "L026080"}}, {"type": "Feature", "geometry": {"type": "Point", "coordinates": [5.9770936, 50.8687815]}, "properties": {"type": "inleverpunt", "locatieNaam": "AKO", "straatNaam": "Henri Dunantstraat", "straatNr": "5A", "postcode": "6419 PC", "plaats": "HEERLEN", "merk": "Stibat", "puntType": "inzamelbak", "materialen": ["batterijen"], "uitbetaling": [], "vrijToegankelijk": false, "gemeenteBeperking": null, "openingstijden": null, "latitude": 50.8687815, "longitude": 5.9770936, "bronId": "L045334"}}, {"type": "Feature", "geometry": {"type": "Point", "coordinates": [5.9989209, 50.8697783]}, "properties": {"type": "inleverpunt", "locatieNaam": "1176 Action", "straatNaam": "Caumerboord", "straatNr": "27-29", "postcode": "6418 BK", "plaats": "HEERLEN", "merk": "Stibat", "puntType": "inzamelbak", "materialen": ["batterijen"], "uitbetaling": [], "vrijToegankelijk": false, "gemeenteBeperking": null, "openingstijden": null, "latitude": 50.8697783, "longitude": 5.9989209, "bronId": "L020354"}}, {"type": "Feature", "geometry": {"type": "Point", "coordinates": [6.0048378, 50.8690328]}, "properties": {"type": "inleverpunt", "locatieNaam": "Zeeman", "straatNaam": "Corisbergweg", "straatNr": "203 (WC .B", "postcode": "6418 CV", "plaats": "Heerlen", "merk": "Stibat", "puntType": "inzamelbak", "materialen": ["batterijen"], "uitbetaling": [], "vrijToegankelijk": false, "gemeenteBeperking": null, "openingstijden": null, "latitude": 50.8690328, "longitude": 6.0048378, "bronId": "L021156"}}, {"type": "Feature", "geometry": {"type": "Point", "coordinates": [5.9922141, 50.8660901]}, "properties": {"type": "inleverpunt", "locatieNaam": "Service supermarkt", "straatNaam": "Parc Imstenrade", "straatNr": "66a", "postcode": "6418 PP", "plaats": "HEERLEN", "merk": "Stibat", "puntType": "inzamelbak", "materialen": ["batterijen"], "uitbetaling": [], "vrijToegankelijk": false, "gemeenteBeperking": null, "openingstijden": null, "latitude": 50.8660901, "longitude": 5.9922141, "bronId": "L017890"}}, {"type": "Feature", "geometry": {"type": "Point", "coordinates": [6.0063671, 50.8676048]}, "properties": {"type": "inleverpunt", "locatieNaam": "4134 Albert Heijn", "straatNaam": "Bautscherweg", "straatNr": "43", "postcode": "6418 EJ", "plaats": "HEERLEN", "merk": "Stibat", "puntType": "inzamelbak", "materialen": ["batterijen"], "uitbetaling": [], "vrijToegankelijk": false, "gemeenteBeperking": null, "openingstijden": null, "latitude": 50.8676048, "longitude": 6.0063671, "bronId": "L047263"}}, {"type": "Feature", "geometry": {"type": "Point", "coordinates": [6.0039206, 50.8646424]}, "properties": {"type": "inleverpunt", "locatieNaam": "DA", "straatNaam": "Heerlerbaan", "straatNr": "237", "postcode": "6418 CE", "plaats": "Heerlen", "merk": "Stibat", "puntType": "inzamelbak", "materialen": ["batterijen"], "uitbetaling": [], "vrijToegankelijk": false, "gemeenteBeperking": null, "openingstijden": null, "latitude": 50.8646424, "longitude": 6.0039206, "bronId": "L026382"}}, {"type": "Feature", "geometry": {"type": "Point", "coordinates": [6.0040596, 50.8645014]}, "properties": {"type": "inleverpunt", "locatieNaam": "PLUS", "straatNaam": "Heerlerbaan", "straatNr": "239", "postcode": "6418 CE", "plaats": "HEERLEN", "merk": "Stibat", "puntType": "inzamelbak", "materialen": ["batterijen"], "uitbetaling": [], "vrijToegankelijk": false, "gemeenteBeperking": null, "openingstijden": null, "latitude": 50.8645014, "longitude": 6.0040596, "bronId": "L012572"}}, {"type": "Feature", "geometry": {"type": "Point", "coordinates": [6.0042632, 50.8642901]}, "properties": {"type": "inleverpunt", "locatieNaam": "Aldi", "straatNaam": "Heerlerbaan", "straatNr": "239a", "postcode": "6418 CE", "plaats": "Heerlen", "merk": "Stibat", "puntType": "inzamelbak", "materialen": ["batterijen"], "uitbetaling": [], "vrijToegankelijk": false, "gemeenteBeperking": null, "openingstijden": null, "latitude": 50.8642901, "longitude": 6.0042632, "bronId": "L041411"}}, {"type": "Feature", "geometry": {"type": "Point", "coordinates": [6.0203077, 50.8239554]}, "properties": {"type": "inleverpunt", "locatieNaam": "Esso", "straatNaam": "Autoweg A76", "straatNr": "9", "postcode": "6422 PW", "plaats": "HEERLEN", "merk": "Stibat", "puntType": "inzamelbak", "materialen": ["batterijen"], "uitbetaling": [], "vrijToegankelijk": false, "gemeenteBeperking": null, "openingstijden": null, "latitude": 50.8239554, "longitude": 6.0203077, "bronId": "L025076"}}, {"type": "Feature", "geometry": {"type": "Polygon", "coordinates": [[[6.021858002308912, 50.82014800310491], [6.023723002310749, 50.81840300310358], [6.025642002312723, 50.81918400310408], [6.026355002313475, 50.82003300310469], [6.024698002311842, 50.821595003105834], [6.0239560023112055, 50.825104003108365], [6.022744002310025, 50.82660600310947], [6.025270002312631, 50.82782100311029], [6.018769002306093, 50.829695003111844], [6.01631600230374, 50.8338840031149], [6.018450002306018, 50.83732900311728], [6.015942002303522, 50.838796003118404], [6.017959002305735, 50.84380500312196], [6.0157420023034875, 50.84381100312207], [6.012423002300191, 50.84617300312376], [6.012024002299787, 50.846116003123775], [6.008999002296845, 50.84993000312659], [6.005812002293682, 50.85218600312827], [6.000568002288543, 50.85773500313239], [6.002668002290702, 50.85848700313286], [6.005911002294002, 50.85872900313296], [6.008172002296319, 50.859423003133365], [6.0069770022951525, 50.860801003134405], [6.008537002296763, 50.86168000313499], [6.010341002298652, 50.863434003136156], [6.020309002308945, 50.8687910031398], [6.018781002307431, 50.86983100314057], [6.018315002306951, 50.869676003140455], [6.017991002306637, 50.87004800314075], [6.017394002306019, 50.86977200314053], [6.017142002305786, 50.87046700314106], [6.015860002304479, 50.870220003140886], [6.015694002304383, 50.87251400314255], [6.015087002303801, 50.873515003143275], [6.0133810023021015, 50.87453300314409], [6.010018002298787, 50.87744900314623], [6.00953400229833, 50.878476003146986], [6.009084002298059, 50.88404700315098], [6.008265002297277, 50.88556200315208], [6.001686002290764, 50.89045700315573], [6.000039002289118, 50.891269003156374], [5.9997760022888444, 50.89115300315629], [5.999130002288216, 50.89191300315682], [5.998505002287579, 50.89180300315682], [5.998624002287737, 50.892918003157575], [5.996608002285677, 50.89252300315734], [5.994809002283954, 50.89557500315958], [5.9945050022839075, 50.90351400316524], [5.993368002282758, 50.903644003165375], [5.993702002283124, 50.90440800316588], [5.993040002282467, 50.90484300316621], [5.991605002281015, 50.90505700316638], [5.9923790022818375, 50.90613100316716], [5.990627002280059, 50.90619300316725], [5.993269002282872, 50.91008300316996], [6.003231002293214, 50.91722500317476], [6.006105002296177, 50.91867900317573], [6.012383002302794, 50.926273003180974], [5.97548000226545, 50.92900300318386], [5.974720002264671, 50.92878700318371], [5.971214002261186, 50.930992003185374], [5.966405002256347, 50.93220700318638], [5.964197002254147, 50.93335800318722], [5.96391900225388, 50.93381100318755], [5.960598002250524, 50.93422200318792], [5.954564002244386, 50.93372400318774], [5.95411300224392, 50.93354800318764], [5.954238002244027, 50.93295900318718], [5.952279002242025, 50.93247800318691], [5.946049002235611, 50.929765003185125], [5.945264002234763, 50.92823000318409], [5.9429260022323716, 50.92766200318372], [5.943104002232544, 50.92739100318353], [5.94185900223127, 50.927086003183334], [5.93871100222812, 50.928507003184436], [5.930564002220035, 50.933849003188435], [5.928470002218002, 50.93661200319042], [5.928130002217654, 50.93650700319039], [5.920138002209436, 50.93334800318833], [5.918934002208211, 50.93322400318828], [5.920210002209454, 50.93171200318715], [5.914709002203782, 50.92910900318546], [5.912781002201779, 50.92774700318449], [5.910058002198989, 50.92697400318399], [5.90715700219605, 50.92713500318421], [5.905274002194152, 50.92755300318458], [5.902865002191631, 50.92529900318302], [5.901141002189871, 50.92508700318291], [5.900745002189402, 50.92298300318143], [5.898225002186854, 50.923309003181735], [5.897674002186279, 50.922819003181374], [5.89545600218393, 50.92003800317945], [5.895758002184202, 50.91896800317867], [5.899586002188015, 50.916824003177084], [5.900520002188959, 50.91671600317696], [5.90226700219075, 50.91721900317731], [5.904104002192616, 50.917284003177265], [5.907960002196476, 50.91561600317602], [5.908249002196762, 50.91545900317589], [5.907430002195914, 50.91494000317554], [5.905816002194257, 50.914446003175236], [5.904880002193312, 50.91446500317527], [5.904207002192594, 50.913448003174565], [5.916305002204754, 50.90996500317178], [5.9202860022087265, 50.90784500317019], [5.923517002211931, 50.905570003168464], [5.921759002210143, 50.905563003168524], [5.923721002212113, 50.90496500316803], [5.923518002211886, 50.90433300316759], [5.924181002212578, 50.90484400316793], [5.925297002213681, 50.903949003167305], [5.92593400221426, 50.90193300316583], [5.928645002216963, 50.900439003164685], [5.931513002219781, 50.897657003162664], [5.932478002220709, 50.896186003161546], [5.939831002227948, 50.8895130031566], [5.946054002234103, 50.88460500315298], [5.954831002242709, 50.87555000314633], [5.957534002245375, 50.873231003144554], [5.957266002245096, 50.8731110031445], [5.9651750022528995, 50.86625500313939], [5.969362002256943, 50.860080003134875], [5.969699002257289, 50.86019500313493], [5.9709610022585204, 50.858696003133836], [5.972561002260043, 50.85562100313159], [5.97740800226479, 50.850466003127785], [5.98070600226807, 50.84843600312626], [5.986791002274162, 50.845796003124185], [5.989525002276882, 50.84417000312296], [5.988955002276295, 50.84389100312277], [5.989921002277262, 50.84349100312246], [5.99066600227803, 50.84384700312265], [5.992377002279754, 50.84342200312238], [5.994353002281723, 50.84227500312145], [5.994270002281615, 50.84158400312097], [5.99488600228225, 50.84187800312115], [5.997770002285156, 50.84125400312063], [5.999779002287166, 50.840320003119906], [5.999490002286867, 50.840107003119805], [6.003040002290404, 50.838104003118275], [6.003301002290672, 50.83824800311835], [6.004915002292264, 50.83683700311732], [6.005397002292691, 50.83494200311592], [6.0046240022918465, 50.833151003114686], [6.003021002290183, 50.83202600311391], [6.004086002291243, 50.83142000311346], [6.00601000229321, 50.831870003113714], [6.00864700229588, 50.83163400311349], [6.010419002297664, 50.83123800311314], [6.011817002299063, 50.8305440031126], [6.017030002304193, 50.82570200310897], [6.016072002303207, 50.825180003108656], [6.016671002303783, 50.82424600310798], [6.015746002302827, 50.82381200310767], [6.01747200230451, 50.82168500310612], [6.020631002307652, 50.8197390031046], [6.021858002308912, 50.82014800310491]]]}, "properties": {"type": "boundary", "gemeente": "Heerlen"}}]}