{"type": "FeatureCollection", "metadata": {"gemeente": "Heerenveen", "slug": "heerenveen", "generated_at": "2026-07-28T19:03:25.026558Z", "total_points": 104, "merken": ["StatiegeldNederland", "Stibat", "StichtingOPEN"], "bounds": [5.8358255, 52.9337014, 6.1288044, 53.0512909]}, "features": [{"type": "Feature", "geometry": {"type": "Point", "coordinates": [5.9262775, 52.9590484]}, "properties": {"type": "inleverpunt", "locatieNaam": "Albert Heijn", "straatNaam": "De Passage", "straatNr": "2", "postcode": "8442 PH", "plaats": "Heerenveen", "merk": "StatiegeldNederland", "puntType": "automaat", "materialen": ["pet-groot", "pet-klein", "blik", "glas", "krat"], "uitbetaling": ["bonnetje", "donatie"], "vrijToegankelijk": true, "gemeenteBeperking": null, "openingstijden": {"ma": "08:00–22:00", "di": "08:00–22:00", "wo": "08:00–22:00", "do": "08:00–22:00", "vr": "08:00–22:00", "za": "08:00–22:00", "zo": "09:00–20:00"}, "latitude": 52.9590484, "longitude": 5.9262775, "bronId": "252141"}}, {"type": "Feature", "geometry": {"type": "Point", "coordinates": [6.0535043, 52.9500126]}, "properties": {"type": "inleverpunt", "locatieNaam": "Albert Heijn", "straatNaam": "Schoterlandseweg", "straatNr": "43", "postcode": "8414 LN", "plaats": "Nieuwehorne", "merk": "StatiegeldNederland", "puntType": "automaat", "materialen": ["pet-groot", "pet-klein", "blik", "glas", "krat"], "uitbetaling": ["bonnetje", "donatie"], "vrijToegankelijk": true, "gemeenteBeperking": null, "openingstijden": {"ma": "08:00–20:00", "di": "08:00–20:00", "wo": "08:00–20:00", "do": "08:00–20:00", "vr": "08:00–20:00", "za": "08:00–20:00", "zo": "09:00–18:00"}, "latitude": 52.9500126, "longitude": 6.0535043, "bronId": "252719"}}, {"type": "Feature", "geometry": {"type": "Point", "coordinates": [5.9236797, 52.9577496]}, "properties": {"type": "inleverpunt", "locatieNaam": "Aldi", "straatNaam": "Molenplein", "straatNr": "28", "postcode": "8448 LM", "plaats": "Heerenveen", "merk": "StatiegeldNederland", "puntType": "automaat", "materialen": ["pet-groot", "pet-klein", "blik", "glas", "krat"], "uitbetaling": ["bonnetje"], "vrijToegankelijk": true, "gemeenteBeperking": null, "openingstijden": {"ma": "08:00–20:00", "di": "08:00–20:00", "wo": "08:00–20:00", "do": "08:00–20:00", "vr": "08:00–20:00", "za": "08:00–20:00", "zo": "09:00–18:00"}, "latitude": 52.9577496, "longitude": 5.9236797, "bronId": "253267"}}, {"type": "Feature", "geometry": {"type": "Point", "coordinates": [5.8801636, 52.9722509]}, "properties": {"type": "inleverpunt", "locatieNaam": "Appel 2595 - G4s Heerenveen", "straatNaam": "Duitslanddreef", "straatNr": "29", "postcode": "8447 SE", "plaats": "Heerenveen", "merk": "StatiegeldNederland", "puntType": "balie", "materialen": ["pet-groot", "pet-klein", "blik"], "uitbetaling": [], "vrijToegankelijk": true, "gemeenteBeperking": null, "openingstijden": null, "latitude": 52.9722509, "longitude": 5.8801636, "bronId": "253592"}}, {"type": "Feature", "geometry": {"type": "Point", "coordinates": [5.9265329, 52.9488948]}, "properties": {"type": "inleverpunt", "locatieNaam": "Av Heerenveen", "straatNaam": "Dominee Kingweg", "straatNr": "6", "postcode": "8446 KZ", "plaats": "Heerenveen", "merk": "StatiegeldNederland", "puntType": "balie", "materialen": ["pet-groot", "pet-klein", "blik"], "uitbetaling": [], "vrijToegankelijk": false, "gemeenteBeperking": null, "openingstijden": null, "latitude": 52.9488948, "longitude": 5.9265329, "bronId": "253784"}}, {"type": "Feature", "geometry": {"type": "Point", "coordinates": [5.9250128, 52.9577262]}, "properties": {"type": "inleverpunt", "locatieNaam": "Ekoplaza", "straatNaam": "MOLENPLEIN", "straatNr": "10", "postcode": "8442 LM", "plaats": "Heerenveen", "merk": "StatiegeldNederland", "puntType": "balie", "materialen": ["pet-groot", "pet-klein", "blik"], "uitbetaling": [], "vrijToegankelijk": true, "gemeenteBeperking": null, "openingstijden": {"ma": "10:00–18:00", "di": "09:00–18:00", "wo": "09:00–18:00", "do": "09:00–18:00", "vr": "09:00–18:00", "za": "09:00–17:00", "zo": "Gesloten"}, "latitude": 52.9577262, "longitude": 5.9250128, "bronId": "254670"}}, {"type": "Feature", "geometry": {"type": "Point", "coordinates": [5.9313472, 52.9452379]}, "properties": {"type": "inleverpunt", "locatieNaam": "Hhc Quick Stick", "straatNaam": "It Hege Stik", "straatNr": "11", "postcode": "8445 PZ", "plaats": "Heerenveen", "merk": "StatiegeldNederland", "puntType": "balie", "materialen": ["pet-groot", "pet-klein", "blik"], "uitbetaling": [], "vrijToegankelijk": false, "gemeenteBeperking": null, "openingstijden": null, "latitude": 52.9452379, "longitude": 5.9313472, "bronId": "254979"}}, {"type": "Feature", "geometry": {"type": "Point", "coordinates": [5.914327, 52.953238]}, "properties": {"type": "inleverpunt", "locatieNaam": "Jumbo", "straatNaam": "Jister", "straatNr": "29", "postcode": "8446 CE", "plaats": "Heerenveen", "merk": "StatiegeldNederland", "puntType": "automaat", "materialen": ["pet-groot", "pet-klein", "blik", "glas", "krat"], "uitbetaling": ["bonnetje", "donatie"], "vrijToegankelijk": true, "gemeenteBeperking": null, "openingstijden": {"ma": "08:00–21:00", "di": "08:00–21:00", "wo": "08:00–21:00", "do": "08:00–21:00", "vr": "08:00–21:00", "za": "08:00–21:00", "zo": "09:00–20:00"}, "latitude": 52.953238, "longitude": 5.914327, "bronId": "255453"}}, {"type": "Feature", "geometry": {"type": "Point", "coordinates": [5.9241163, 52.957666]}, "properties": {"type": "inleverpunt", "locatieNaam": "Jumbo", "straatNaam": "Molenplein", "straatNr": "27", "postcode": "8442 LM", "plaats": "Heerenveen", "merk": "StatiegeldNederland", "puntType": "automaat", "materialen": ["pet-groot", "pet-klein", "blik", "glas", "krat"], "uitbetaling": ["bonnetje", "donatie"], "vrijToegankelijk": true, "gemeenteBeperking": null, "openingstijden": {"ma": "08:00–21:00", "di": "08:00–21:00", "wo": "08:00–21:00", "do": "08:00–21:00", "vr": "08:00–21:00", "za": "08:00–21:00", "zo": "09:00–20:00"}, "latitude": 52.957666, "longitude": 5.9241163, "bronId": "255600"}}, {"type": "Feature", "geometry": {"type": "Point", "coordinates": [5.9297663, 52.9467256]}, "properties": {"type": "inleverpunt", "locatieNaam": "Kv Heerenveen", "straatNaam": "It Hege Stik", "straatNr": "9", "postcode": "8445 PZ", "plaats": "Heerenveen", "merk": "StatiegeldNederland", "puntType": "balie", "materialen": ["pet-groot", "pet-klein", "blik"], "uitbetaling": [], "vrijToegankelijk": false, "gemeenteBeperking": null, "openingstijden": null, "latitude": 52.9467256, "longitude": 5.9297663, "bronId": "255972"}}, {"type": "Feature", "geometry": {"type": "Point", "coordinates": [5.93655, 52.94494]}, "properties": {"type": "inleverpunt", "locatieNaam": "Lidl", "straatNaam": "Sallandlaan", "straatNr": "31", "postcode": "8443 BC", "plaats": "Heerenveen", "merk": "StatiegeldNederland", "puntType": "automaat", "materialen": ["pet-groot", "pet-klein", "blik", "glas", "krat"], "uitbetaling": ["bonnetje", "donatie"], "vrijToegankelijk": true, "gemeenteBeperking": null, "openingstijden": {"ma": "07:00–21:00", "di": "07:00–21:00", "wo": "07:00–21:00", "do": "07:00–22:00", "vr": "07:00–22:00", "za": "07:00–22:00", "zo": "09:00–18:00"}, "latitude": 52.94494, "longitude": 5.93655, "bronId": "256372"}}, {"type": "Feature", "geometry": {"type": "Point", "coordinates": [5.9235058, 52.9590564]}, "properties": {"type": "inleverpunt", "locatieNaam": "Medikamente die Grenze", "straatNaam": "Dracht", "straatNr": "44", "postcode": "8442 BR", "plaats": "Heerenveen", "merk": "StatiegeldNederland", "puntType": "automaat", "materialen": ["pet-groot", "pet-klein", "blik"], "uitbetaling": ["bonnetje"], "vrijToegankelijk": true, "gemeenteBeperking": null, "openingstijden": null, "latitude": 52.9590564, "longitude": 5.9235058, "bronId": "256708"}}, {"type": "Feature", "geometry": {"type": "Point", "coordinates": [5.8900262, 52.9761282]}, "properties": {"type": "inleverpunt", "locatieNaam": "OMRIN Milieustraat Heerenveen", "straatNaam": "De Ynfeart", "straatNr": "10", "postcode": "8447 GM", "plaats": "Heerenveen", "merk": "StatiegeldNederland", "puntType": "automaat", "materialen": ["pet-groot", "pet-klein", "blik", "krat"], "uitbetaling": ["donatie", "tikkie"], "vrijToegankelijk": true, "gemeenteBeperking": null, "openingstijden": null, "latitude": 52.9761282, "longitude": 5.8900262, "bronId": "257001"}}, {"type": "Feature", "geometry": {"type": "Point", "coordinates": [6.1221804, 53.004941]}, "properties": {"type": "inleverpunt", "locatieNaam": "Plus", "straatNaam": "P.W. Janssenweg", "straatNr": "86", "postcode": "8411 XV", "plaats": "Jubbega", "merk": "StatiegeldNederland", "puntType": "automaat", "materialen": ["pet-groot", "pet-klein", "blik", "glas", "krat"], "uitbetaling": ["bonnetje", "donatie"], "vrijToegankelijk": true, "gemeenteBeperking": null, "openingstijden": {"ma": "08:00–20:00", "di": "08:00–20:00", "wo": "08:00–20:00", "do": "08:00–20:00", "vr": "08:00–20:00", "za": "08:00–20:00", "zo": "10:00–17:00"}, "latitude": 53.004941, "longitude": 6.1221804, "bronId": "257466"}}, {"type": "Feature", "geometry": {"type": "Point", "coordinates": [5.8370539, 53.0481519]}, "properties": {"type": "inleverpunt", "locatieNaam": "Poiesz", "straatNaam": "It Achterom", "straatNr": "1", "postcode": "8491 BV", "plaats": "Akkrum", "merk": "StatiegeldNederland", "puntType": "automaat", "materialen": ["pet-groot", "pet-klein", "blik", "glas", "krat"], "uitbetaling": ["bonnetje", "donatie"], "vrijToegankelijk": true, "gemeenteBeperking": null, "openingstijden": {"ma": "08:00–21:00", "di": "08:00–21:00", "wo": "08:00–21:00", "do": "08:00–21:00", "vr": "08:00–21:00", "za": "08:00–21:00", "zo": "09:00–20:00"}, "latitude": 53.0481519, "longitude": 5.8370539, "bronId": "257651"}}, {"type": "Feature", "geometry": {"type": "Point", "coordinates": [5.9151444, 52.9530951]}, "properties": {"type": "inleverpunt", "locatieNaam": "Poiesz", "straatNaam": "Jister", "straatNr": "11-15", "postcode": "8446 CD", "plaats": "Heerenveen", "merk": "StatiegeldNederland", "puntType": "automaat", "materialen": ["pet-groot", "pet-klein", "blik", "glas", "krat"], "uitbetaling": ["bonnetje", "donatie"], "vrijToegankelijk": true, "gemeenteBeperking": null, "openingstijden": {"ma": "08:00–21:00", "di": "08:00–21:00", "wo": "08:00–21:00", "do": "08:00–21:00", "vr": "08:00–21:00", "za": "08:00–21:00", "zo": "09:00–20:00"}, "latitude": 52.9530951, "longitude": 5.9151444, "bronId": "257655"}}, {"type": "Feature", "geometry": {"type": "Point", "coordinates": [5.9467262, 52.9683307]}, "properties": {"type": "inleverpunt", "locatieNaam": "Scouting Polaris Heerenveen", "straatNaam": "Neptunus", "straatNr": "20", "postcode": "8448 CN", "plaats": "Heerenveen", "merk": "StatiegeldNederland", "puntType": "balie", "materialen": ["pet-groot", "pet-klein", "blik"], "uitbetaling": [], "vrijToegankelijk": false, "gemeenteBeperking": null, "openingstijden": {"ma": "Gesloten", "di": "Gesloten", "wo": "Gesloten", "do": "Gesloten", "vr": "19:30–22:00", "za": "09:30–12:00", "zo": "Gesloten"}, "latitude": 52.9683307, "longitude": 5.9467262, "bronId": "258002"}}, {"type": "Feature", "geometry": {"type": "Point", "coordinates": [5.848754, 53.038404]}, "properties": {"type": "inleverpunt", "locatieNaam": "Tamoil Akkrum", "straatNaam": "Rijksweg N31 Nr.", "straatNr": "9", "postcode": "5571 KL", "plaats": "Bergeijk", "merk": "StatiegeldNederland", "puntType": "balie", "materialen": ["pet-groot", "pet-klein", "blik"], "uitbetaling": [], "vrijToegankelijk": true, "gemeenteBeperking": null, "openingstijden": {"ma": "24 uur geopend", "di": "24 uur geopend", "wo": "24 uur geopend", "do": "24 uur geopend", "vr": "24 uur geopend", "za": "24 uur geopend", "zo": "24 uur geopend"}, "latitude": 53.038404, "longitude": 5.848754, "bronId": "258881"}}, {"type": "Feature", "geometry": {"type": "Point", "coordinates": [6.1288044, 53.0053353]}, "properties": {"type": "inleverpunt", "locatieNaam": "ViaTim", "straatNaam": "Buntgras", "straatNr": "45", "postcode": "8411 VV", "plaats": "Jubbega", "merk": "StatiegeldNederland", "puntType": "balie", "materialen": ["pet-groot", "pet-klein", "blik"], "uitbetaling": ["tikkie"], "vrijToegankelijk": true, "gemeenteBeperking": null, "openingstijden": null, "latitude": 53.0053353, "longitude": 6.1288044, "bronId": "259237"}}, {"type": "Feature", "geometry": {"type": "Point", "coordinates": [5.8948981, 53.0512909]}, "properties": {"type": "inleverpunt", "locatieNaam": "ViaTim", "straatNaam": "Jikke Benedictusstrjitte", "straatNr": "29", "postcode": "8495 SE", "plaats": "Aldeboarn", "merk": "StatiegeldNederland", "puntType": "balie", "materialen": ["pet-groot", "pet-klein", "blik"], "uitbetaling": ["tikkie"], "vrijToegankelijk": true, "gemeenteBeperking": null, "openingstijden": {"ma": "16:00–21:00", "di": "16:00–21:00", "wo": "16:00–21:00", "do": "16:00–21:00", "vr": "16:00–21:00", "za": "Gesloten", "zo": "Gesloten"}, "latitude": 53.0512909, "longitude": 5.8948981, "bronId": "259352"}}, {"type": "Feature", "geometry": {"type": "Point", "coordinates": [5.914327, 52.953238]}, "properties": {"type": "inleverpunt", "locatieNaam": "Jumbo Heerenveen", "straatNaam": "Jister", "straatNr": "29", "postcode": "8446 CE", "plaats": "Heerenveen", "merk": "StichtingOPEN", "puntType": "balie", "materialen": ["batterijen", "lampen"], "uitbetaling": [], "vrijToegankelijk": false, "gemeenteBeperking": null, "openingstijden": null, "latitude": 52.953238, "longitude": 5.914327, "bronId": "SP00025367"}}, {"type": "Feature", "geometry": {"type": "Point", "coordinates": [5.91489, 52.953221]}, "properties": {"type": "inleverpunt", "locatieNaam": "Poiesz Heerenveen", "straatNaam": "Jister", "straatNr": "11", "postcode": "8446 CD", "plaats": "Heerenveen", "merk": "StichtingOPEN", "puntType": "balie", "materialen": ["batterijen", "lampen"], "uitbetaling": [], "vrijToegankelijk": false, "gemeenteBeperking": null, "openingstijden": null, "latitude": 52.953221, "longitude": 5.91489, "bronId": "SP00023772"}}, {"type": "Feature", "geometry": {"type": "Point", "coordinates": [5.925317, 52.956996]}, "properties": {"type": "inleverpunt", "locatieNaam": "Action Heerenveen 1058", "straatNaam": "Molenplein", "straatNr": "13", "postcode": "8442 LM", "plaats": "Heerenveen", "merk": "StichtingOPEN", "puntType": "balie", "materialen": ["lampen"], "uitbetaling": [], "vrijToegankelijk": false, "gemeenteBeperking": null, "openingstijden": null, "latitude": 52.956996, "longitude": 5.925317, "bronId": "SP00007658"}}, {"type": "Feature", "geometry": {"type": "Point", "coordinates": [5.923445, 52.957637]}, "properties": {"type": "inleverpunt", "locatieNaam": "Action Heerenveen", "straatNaam": "Molenplein", "straatNr": "29", "postcode": "8442 LM", "plaats": "Heerenveen", "merk": "StichtingOPEN", "puntType": "balie", "materialen": ["batterijen", "lampen"], "uitbetaling": [], "vrijToegankelijk": false, "gemeenteBeperking": null, "openingstijden": null, "latitude": 52.957637, "longitude": 5.923445, "bronId": "SP00025536"}}, {"type": "Feature", "geometry": {"type": "Point", "coordinates": [5.92343, 52.957658]}, "properties": {"type": "inleverpunt", "locatieNaam": "Jumbo Heerenveen", "straatNaam": "Molenplein", "straatNr": "27", "postcode": "8442 LM", "plaats": "Heerenveen", "merk": "StichtingOPEN", "puntType": "balie", "materialen": ["batterijen", "lampen"], "uitbetaling": [], "vrijToegankelijk": false, "gemeenteBeperking": null, "openingstijden": null, "latitude": 52.957658, "longitude": 5.92343, "bronId": "SP00025460"}}, {"type": "Feature", "geometry": {"type": "Point", "coordinates": [5.923679, 52.957749]}, "properties": {"type": "inleverpunt", "locatieNaam": "Aldi Heerenveen", "straatNaam": "Molenplein", "straatNr": "28", "postcode": "8442 LM", "plaats": "Heerenveen", "merk": "StichtingOPEN", "puntType": "balie", "materialen": ["batterijen", "elektro-klein", "lampen"], "uitbetaling": [], "vrijToegankelijk": false, "gemeenteBeperking": null, "openingstijden": null, "latitude": 52.957749, "longitude": 5.923679, "bronId": "SP00026899"}}, {"type": "Feature", "geometry": {"type": "Point", "coordinates": [5.92583, 52.95778]}, "properties": {"type": "inleverpunt", "locatieNaam": "Kruidvat Heerenveen", "straatNaam": "Dracht", "straatNr": "103", "postcode": "8442 BM", "plaats": "Heerenveen", "merk": "StichtingOPEN", "puntType": "balie", "materialen": ["batterijen", "lampen"], "uitbetaling": [], "vrijToegankelijk": false, "gemeenteBeperking": null, "openingstijden": null, "latitude": 52.95778, "longitude": 5.92583, "bronId": "SP00029776"}}, {"type": "Feature", "geometry": {"type": "Point", "coordinates": [5.9057415, 52.9631787]}, "properties": {"type": "inleverpunt", "locatieNaam": "Albert Heijn Heerenveen", "straatNaam": "Marktstraat", "straatNr": "21", "postcode": "8447 DM", "plaats": "Heerenveen", "merk": "StichtingOPEN", "puntType": "balie", "materialen": ["batterijen", "lampen"], "uitbetaling": [], "vrijToegankelijk": false, "gemeenteBeperking": null, "openingstijden": null, "latitude": 52.9631787, "longitude": 5.9057415, "bronId": "SP00030077"}}, {"type": "Feature", "geometry": {"type": "Point", "coordinates": [5.9082401, 52.963033]}, "properties": {"type": "inleverpunt", "locatieNaam": "PLUS Heerenveen", "straatNaam": "Dingstraat", "straatNr": "1", "postcode": "8447 DM", "plaats": "Heerenveen", "merk": "StichtingOPEN", "puntType": "balie", "materialen": ["batterijen", "lampen"], "uitbetaling": [], "vrijToegankelijk": false, "gemeenteBeperking": null, "openingstijden": null, "latitude": 52.963033, "longitude": 5.9082401, "bronId": "SP00030092"}}, {"type": "Feature", "geometry": {"type": "Point", "coordinates": [5.90814, 52.96368]}, "properties": {"type": "inleverpunt", "locatieNaam": "Leen Bakker Heerenveen", "straatNaam": "Turfschip", "straatNr": "5a", "postcode": "8447 DM", "plaats": "Heerenveen", "merk": "StichtingOPEN", "puntType": "balie", "materialen": ["batterijen", "lampen"], "uitbetaling": [], "vrijToegankelijk": false, "gemeenteBeperking": null, "openingstijden": null, "latitude": 52.96368, "longitude": 5.90814, "bronId": "SP00030050"}}, {"type": "Feature", "geometry": {"type": "Point", "coordinates": [5.926304, 52.959081]}, "properties": {"type": "inleverpunt", "locatieNaam": "1532 Albert Heijn Heerenveen", "straatNaam": "de Passage", "straatNr": "2", "postcode": "8442 PH", "plaats": "Heerenveen", "merk": "StichtingOPEN", "puntType": "balie", "materialen": ["batterijen", "elektro-klein", "lampen"], "uitbetaling": [], "vrijToegankelijk": false, "gemeenteBeperking": null, "openingstijden": null, "latitude": 52.959081, "longitude": 5.926304, "bronId": "SP00023167"}}, {"type": "Feature", "geometry": {"type": "Point", "coordinates": [5.903931, 52.965432]}, "properties": {"type": "inleverpunt", "locatieNaam": "GAMMA Heerenveen", "straatNaam": "Houtdraaier", "straatNr": "3", "postcode": "8447 GG", "plaats": "Heerenveen", "merk": "StichtingOPEN", "puntType": "balie", "materialen": ["batterijen", "elektro-middel", "lampen", "tl-buizen"], "uitbetaling": [], "vrijToegankelijk": false, "gemeenteBeperking": null, "openingstijden": null, "latitude": 52.965432, "longitude": 5.903931, "bronId": "SP00003020"}}, {"type": "Feature", "geometry": {"type": "Point", "coordinates": [5.904962, 52.965212]}, "properties": {"type": "inleverpunt", "locatieNaam": "Praxis Heerenveen - 2026", "straatNaam": "Jousterweg", "straatNr": "18", "postcode": "8447 RH", "plaats": "Heerenveen", "merk": "StichtingOPEN", "puntType": "balie", "materialen": ["elektro-middel", "lampen", "tl-buizen"], "uitbetaling": [], "vrijToegankelijk": false, "gemeenteBeperking": null, "openingstijden": null, "latitude": 52.965212, "longitude": 5.904962, "bronId": "SP00004555"}}, {"type": "Feature", "geometry": {"type": "Point", "coordinates": [5.905319, 52.965868]}, "properties": {"type": "inleverpunt", "locatieNaam": "Karwei Heerenveen BV", "straatNaam": "Houtdraaier", "straatNr": "1", "postcode": "8447 GG", "plaats": "Heerenveen", "merk": "StichtingOPEN", "puntType": "balie", "materialen": ["elektro-middel", "lampen", "tl-buizen"], "uitbetaling": [], "vrijToegankelijk": false, "gemeenteBeperking": null, "openingstijden": null, "latitude": 52.965868, "longitude": 5.905319, "bronId": "SP00004957"}}, {"type": "Feature", "geometry": {"type": "Point", "coordinates": [5.885936, 52.974489]}, "properties": {"type": "inleverpunt", "locatieNaam": "PreZero Recycling Nederland B.V.", "straatNaam": "Energielaan", "straatNr": "17", "postcode": "8447 SL", "plaats": "Heerenveen", "merk": "StichtingOPEN", "puntType": "balie", "materialen": ["batterijen", "elektro-groot", "elektro-klein", "elektro-middel", "lampen", "tl-buizen"], "uitbetaling": [], "vrijToegankelijk": false, "gemeenteBeperking": null, "openingstijden": null, "latitude": 52.974489, "longitude": 5.885936, "bronId": "SP00036562"}}, {"type": "Feature", "geometry": {"type": "Point", "coordinates": [5.934687, 52.961881]}, "properties": {"type": "inleverpunt", "locatieNaam": "Kringloop It Fean", "straatNaam": "de Opslach", "straatNr": "11", "postcode": "8448 GV", "plaats": "Heerenveen", "merk": "StichtingOPEN", "puntType": "balie", "materialen": ["elektro-groot", "elektro-klein", "elektro-middel", "lampen", "tl-buizen"], "uitbetaling": [], "vrijToegankelijk": false, "gemeenteBeperking": null, "openingstijden": null, "latitude": 52.961881, "longitude": 5.934687, "bronId": "SP00022019"}}, {"type": "Feature", "geometry": {"type": "Point", "coordinates": [5.836817, 53.048189]}, "properties": {"type": "inleverpunt", "locatieNaam": "Poiesz Akkrum", "straatNaam": "It Achterom", "straatNr": "2", "postcode": "8491 BV", "plaats": "Akkrum", "merk": "StichtingOPEN", "puntType": "balie", "materialen": ["batterijen", "elektro-klein", "lampen"], "uitbetaling": [], "vrijToegankelijk": false, "gemeenteBeperking": null, "openingstijden": null, "latitude": 53.048189, "longitude": 5.836817, "bronId": "SP00032560"}}, {"type": "Feature", "geometry": {"type": "Point", "coordinates": [5.837036, 53.049123]}, "properties": {"type": "inleverpunt", "locatieNaam": "Poiesz Akkrum", "straatNaam": "Kleef", "straatNr": "2", "postcode": "8491 BX", "plaats": "Akkrum", "merk": "StichtingOPEN", "puntType": "balie", "materialen": ["batterijen", "lampen"], "uitbetaling": [], "vrijToegankelijk": false, "gemeenteBeperking": null, "openingstijden": null, "latitude": 53.049123, "longitude": 5.837036, "bronId": "SP00023788"}}, {"type": "Feature", "geometry": {"type": "Point", "coordinates": [6.121984, 53.004937]}, "properties": {"type": "inleverpunt", "locatieNaam": "Coop Jubbega", "straatNaam": "P W Janssenweg", "straatNr": "86", "postcode": "8411 XV", "plaats": "Jubbega", "merk": "StichtingOPEN", "puntType": "balie", "materialen": ["batterijen", "lampen"], "uitbetaling": [], "vrijToegankelijk": false, "gemeenteBeperking": null, "openingstijden": null, "latitude": 53.004937, "longitude": 6.121984, "bronId": "SP00024401"}}, {"type": "Feature", "geometry": {"type": "Point", "coordinates": [6.126596, 53.005913]}, "properties": {"type": "inleverpunt", "locatieNaam": "Hubo Jubbega", "straatNaam": "Jelle van Damweg", "straatNr": "49", "postcode": "8411 XB", "plaats": "Jubbega", "merk": "StichtingOPEN", "puntType": "balie", "materialen": ["lampen", "tl-buizen"], "uitbetaling": [], "vrijToegankelijk": false, "gemeenteBeperking": null, "openingstijden": null, "latitude": 53.005913, "longitude": 6.126596, "bronId": "SP00006531"}}, {"type": "Feature", "geometry": {"type": "Point", "coordinates": [5.890036, 52.976264]}, "properties": {"type": "inleverpunt", "locatieNaam": "Milieustraat Heerenveen", "straatNaam": "De Ynfeart", "straatNr": "10", "postcode": "8447 GM", "plaats": "Heerenveen", "merk": "StichtingOPEN", "puntType": "milieustraat", "materialen": ["batterijen", "elektro-groot", "elektro-klein", "elektro-middel", "lampen", "tl-buizen"], "uitbetaling": [], "vrijToegankelijk": false, "gemeenteBeperking": ["Heerenveen"], "openingstijden": null, "latitude": 52.976264, "longitude": 5.890036, "bronId": "SP00002392"}}, {"type": "Feature", "geometry": {"type": "Point", "coordinates": [5.9558986, 52.9337014]}, "properties": {"type": "inleverpunt", "locatieNaam": "De Buurtsuper", "straatNaam": "Marktweg", "straatNr": "2a", "postcode": "8451 CE", "plaats": "Oudeschoot", "merk": "Stibat", "puntType": "inzamelbak", "materialen": ["batterijen"], "uitbetaling": [], "vrijToegankelijk": false, "gemeenteBeperking": null, "openingstijden": null, "latitude": 52.9337014, "longitude": 5.9558986, "bronId": "L040066"}}, {"type": "Feature", "geometry": {"type": "Point", "coordinates": [5.9364005, 52.9449088]}, "properties": {"type": "inleverpunt", "locatieNaam": "Lidl", "straatNaam": "Sallandlaan", "straatNr": "31", "postcode": "8443 BC", "plaats": "Heerenveen", "merk": "Stibat", "puntType": "inzamelbak", "materialen": ["batterijen"], "uitbetaling": [], "vrijToegankelijk": false, "gemeenteBeperking": null, "openingstijden": null, "latitude": 52.9449088, "longitude": 5.9364005, "bronId": "L030530"}}, {"type": "Feature", "geometry": {"type": "Point", "coordinates": [5.9143305, 52.9532402]}, "properties": {"type": "inleverpunt", "locatieNaam": "Jumbo", "straatNaam": "Jister", "straatNr": "29", "postcode": "8446 CE", "plaats": "Heerenveen", "merk": "Stibat", "puntType": "inzamelbak", "materialen": ["batterijen"], "uitbetaling": [], "vrijToegankelijk": false, "gemeenteBeperking": null, "openingstijden": null, "latitude": 52.9532402, "longitude": 5.9143305, "bronId": "L018647"}}, {"type": "Feature", "geometry": {"type": "Point", "coordinates": [5.9148904, 52.9532213]}, "properties": {"type": "inleverpunt", "locatieNaam": "Poiesz", "straatNaam": "Jister", "straatNr": "11", "postcode": "8446 CD", "plaats": "Heerenveen", "merk": "Stibat", "puntType": "inzamelbak", "materialen": ["batterijen"], "uitbetaling": [], "vrijToegankelijk": false, "gemeenteBeperking": null, "openingstijden": null, "latitude": 52.9532213, "longitude": 5.9148904, "bronId": "L036221"}}, {"type": "Feature", "geometry": {"type": "Point", "coordinates": [5.9148809, 52.9532288]}, "properties": {"type": "inleverpunt", "locatieNaam": "DA", "straatNaam": "Jister", "straatNr": "47-51-W.c", "postcode": "8446 CG", "plaats": "Heerenveen", "merk": "Stibat", "puntType": "inzamelbak", "materialen": ["batterijen"], "uitbetaling": [], "vrijToegankelijk": false, "gemeenteBeperking": null, "openingstijden": null, "latitude": 52.9532288, "longitude": 5.9148809, "bronId": "L025845"}}, {"type": "Feature", "geometry": {"type": "Point", "coordinates": [5.9391312, 52.9517712]}, "properties": {"type": "inleverpunt", "locatieNaam": "Total", "straatNaam": "Oranje Nassaulaan", "straatNr": "10", "postcode": "8448 MT", "plaats": "Heerenveen", "merk": "Stibat", "puntType": "inzamelbak", "materialen": ["batterijen"], "uitbetaling": [], "vrijToegankelijk": false, "gemeenteBeperking": null, "openingstijden": null, "latitude": 52.9517712, "longitude": 5.9391312, "bronId": "L021073"}}, {"type": "Feature", "geometry": {"type": "Point", "coordinates": [5.9255517, 52.9570735]}, "properties": {"type": "inleverpunt", "locatieNaam": "1058 Action", "straatNaam": "Molenplein", "straatNr": "29", "postcode": "8442 LM", "plaats": "Heerenveen", "merk": "Stibat", "puntType": "inzamelbak", "materialen": ["batterijen"], "uitbetaling": [], "vrijToegankelijk": false, "gemeenteBeperking": null, "openingstijden": null, "latitude": 52.9570735, "longitude": 5.9255517, "bronId": "L018778"}}, {"type": "Feature", "geometry": {"type": "Point", "coordinates": [5.9255492, 52.9570756]}, "properties": {"type": "inleverpunt", "locatieNaam": "Jumbo", "straatNaam": "Molenplein", "straatNr": "27", "postcode": "8442 LM", "plaats": "Heerenveen", "merk": "Stibat", "puntType": "inzamelbak", "materialen": ["batterijen"], "uitbetaling": [], "vrijToegankelijk": false, "gemeenteBeperking": null, "openingstijden": null, "latitude": 52.9570756, "longitude": 5.9255492, "bronId": "L027819"}}, {"type": "Feature", "geometry": {"type": "Point", "coordinates": [5.9276864, 52.9565662]}, "properties": {"type": "inleverpunt", "locatieNaam": "Service Partner Van der Hoek", "straatNaam": "Burgemeester Falkenaweg", "straatNr": "17 - 19", "postcode": "8442 KX", "plaats": "Heerenveen", "merk": "Stibat", "puntType": "inzamelbak", "materialen": ["batterijen"], "uitbetaling": [], "vrijToegankelijk": false, "gemeenteBeperking": null, "openingstijden": null, "latitude": 52.9565662, "longitude": 5.9276864, "bronId": "L039036"}}, {"type": "Feature", "geometry": {"type": "Point", "coordinates": [5.9256871, 52.9571256]}, "properties": {"type": "inleverpunt", "locatieNaam": "De Jong Electronica", "straatNaam": "Molenplein", "straatNr": "19", "postcode": "8442 LM", "plaats": "Heerenveen", "merk": "Stibat", "puntType": "inzamelbak", "materialen": ["batterijen"], "uitbetaling": [], "vrijToegankelijk": false, "gemeenteBeperking": null, "openingstijden": null, "latitude": 52.9571256, "longitude": 5.9256871, "bronId": "L015981"}}, {"type": "Feature", "geometry": {"type": "Point", "coordinates": [5.9043408, 52.9628095]}, "properties": {"type": "inleverpunt", "locatieNaam": "DEKAS Kantoorservice", "straatNaam": "Trekschuit", "straatNr": "14", "postcode": "8447 CJ", "plaats": "Heerenveen", "merk": "Stibat", "puntType": "inzamelbak", "materialen": ["batterijen"], "uitbetaling": [], "vrijToegankelijk": false, "gemeenteBeperking": null, "openingstijden": null, "latitude": 52.9628095, "longitude": 5.9043408, "bronId": "L026153"}}, {"type": "Feature", "geometry": {"type": "Point", "coordinates": [5.9236797, 52.9577496]}, "properties": {"type": "inleverpunt", "locatieNaam": "Aldi", "straatNaam": "Molenplein", "straatNr": "28", "postcode": "8442 LM", "plaats": "Heerenveen", "merk": "Stibat", "puntType": "inzamelbak", "materialen": ["batterijen"], "uitbetaling": [], "vrijToegankelijk": false, "gemeenteBeperking": null, "openingstijden": null, "latitude": 52.9577496, "longitude": 5.9236797, "bronId": "L041554"}}, {"type": "Feature", "geometry": {"type": "Point", "coordinates": [5.925602, 52.95769]}, "properties": {"type": "inleverpunt", "locatieNaam": "Hans Anders", "straatNaam": "Dracht", "straatNr": "122", "postcode": "8442 BX", "plaats": "Heerenveen", "merk": "Stibat", "puntType": "inzamelbak", "materialen": ["batterijen"], "uitbetaling": [], "vrijToegankelijk": false, "gemeenteBeperking": null, "openingstijden": null, "latitude": 52.95769, "longitude": 5.925602, "bronId": "L037830"}}, {"type": "Feature", "geometry": {"type": "Point", "coordinates": [5.925183, 52.9578773]}, "properties": {"type": "inleverpunt", "locatieNaam": "8432 Etos", "straatNaam": "Dracht", "straatNr": "102 -104", "postcode": "8442 BX", "plaats": "Heerenveen", "merk": "Stibat", "puntType": "inzamelbak", "materialen": ["batterijen"], "uitbetaling": [], "vrijToegankelijk": false, "gemeenteBeperking": null, "openingstijden": null, "latitude": 52.9578773, "longitude": 5.925183, "bronId": "L027337"}}, {"type": "Feature", "geometry": {"type": "Point", "coordinates": [5.9258264, 52.9577788]}, "properties": {"type": "inleverpunt", "locatieNaam": "Kruidvat", "straatNaam": "Dracht", "straatNr": "103", "postcode": "8442 BM", "plaats": "Heerenveen", "merk": "Stibat", "puntType": "inzamelbak", "materialen": ["batterijen"], "uitbetaling": [], "vrijToegankelijk": false, "gemeenteBeperking": null, "openingstijden": null, "latitude": 52.9577788, "longitude": 5.9258264, "bronId": "L016354"}}, {"type": "Feature", "geometry": {"type": "Point", "coordinates": [5.9251645, 52.9580419]}, "properties": {"type": "inleverpunt", "locatieNaam": "Trekpleister", "straatNaam": "Dracht", "straatNr": "96", "postcode": "8442 BW", "plaats": "Heerenveen", "merk": "Stibat", "puntType": "inzamelbak", "materialen": ["batterijen"], "uitbetaling": [], "vrijToegankelijk": false, "gemeenteBeperking": null, "openingstijden": null, "latitude": 52.9580419, "longitude": 5.9251645, "bronId": "L040657"}}, {"type": "Feature", "geometry": {"type": "Point", "coordinates": [5.9253827, 52.9581783]}, "properties": {"type": "inleverpunt", "locatieNaam": "Specsavers", "straatNaam": "Dracht", "straatNr": "83", "postcode": "8442 BM", "plaats": "Heerenveen", "merk": "Stibat", "puntType": "inzamelbak", "materialen": ["batterijen"], "uitbetaling": [], "vrijToegankelijk": false, "gemeenteBeperking": null, "openingstijden": null, "latitude": 52.9581783, "longitude": 5.9253827, "bronId": "L045044"}}, {"type": "Feature", "geometry": {"type": "Point", "coordinates": [5.9054307, 52.9635546]}, "properties": {"type": "inleverpunt", "locatieNaam": "Fietsvoordeelshop.nl", "straatNaam": "Bokslee", "straatNr": "10", "postcode": "8447 CN", "plaats": "Heerenveen", "merk": "Stibat", "puntType": "inzamelbak", "materialen": ["batterijen"], "uitbetaling": [], "vrijToegankelijk": false, "gemeenteBeperking": null, "openingstijden": null, "latitude": 52.9635546, "longitude": 5.9054307, "bronId": "L044866"}}, {"type": "Feature", "geometry": {"type": "Point", "coordinates": [5.9252191, 52.9583157]}, "properties": {"type": "inleverpunt", "locatieNaam": "Xenos", "straatNaam": "Dracht", "straatNr": "73-75", "postcode": "8442 BM", "plaats": "Heerenveen", "merk": "Stibat", "puntType": "inzamelbak", "materialen": ["batterijen"], "uitbetaling": [], "vrijToegankelijk": false, "gemeenteBeperking": null, "openingstijden": null, "latitude": 52.9583157, "longitude": 5.9252191, "bronId": "L036922"}}, {"type": "Feature", "geometry": {"type": "Point", "coordinates": [5.9249006, 52.9585131]}, "properties": {"type": "inleverpunt", "locatieNaam": "BelCompany", "straatNaam": "Dracht", "straatNr": "59", "postcode": "8442 BL", "plaats": "Heerenveen", "merk": "Stibat", "puntType": "inzamelbak", "materialen": ["batterijen"], "uitbetaling": [], "vrijToegankelijk": false, "gemeenteBeperking": null, "openingstijden": null, "latitude": 52.9585131, "longitude": 5.9249006, "bronId": "L015094"}}, {"type": "Feature", "geometry": {"type": "Point", "coordinates": [5.9261649, 52.958172]}, "properties": {"type": "inleverpunt", "locatieNaam": "HEMA Dracht", "straatNaam": "Dracht", "straatNr": "95-97", "postcode": "8442 BM", "plaats": "Heerenveen", "merk": "Stibat", "puntType": "inzamelbak", "materialen": ["batterijen"], "uitbetaling": [], "vrijToegankelijk": false, "gemeenteBeperking": null, "openingstijden": null, "latitude": 52.958172, "longitude": 5.9261649, "bronId": "L006717"}}, {"type": "Feature", "geometry": {"type": "Point", "coordinates": [5.9263426, 52.9581304]}, "properties": {"type": "inleverpunt", "locatieNaam": "Wibra", "straatNaam": "Sieverstraat", "straatNr": "16", "postcode": "8442 CG", "plaats": "Heerenveen", "merk": "Stibat", "puntType": "inzamelbak", "materialen": ["batterijen"], "uitbetaling": [], "vrijToegankelijk": false, "gemeenteBeperking": null, "openingstijden": null, "latitude": 52.9581304, "longitude": 5.9263426, "bronId": "L023225"}}, {"type": "Feature", "geometry": {"type": "Point", "coordinates": [5.9259242, 52.9584703]}, "properties": {"type": "inleverpunt", "locatieNaam": "ANWB", "straatNaam": "Sieversstraat", "straatNr": "10", "postcode": "8442 CG", "plaats": "Heerenveen", "merk": "Stibat", "puntType": "inzamelbak", "materialen": ["batterijen"], "uitbetaling": [], "vrijToegankelijk": false, "gemeenteBeperking": null, "openingstijden": null, "latitude": 52.9584703, "longitude": 5.9259242, "bronId": "L044572"}}, {"type": "Feature", "geometry": {"type": "Point", "coordinates": [5.9233761, 52.9591849]}, "properties": {"type": "inleverpunt", "locatieNaam": "Phone House", "straatNaam": "Dracht", "straatNr": "38", "postcode": "8442 BR", "plaats": "Heerenveen", "merk": "Stibat", "puntType": "inzamelbak", "materialen": ["batterijen"], "uitbetaling": [], "vrijToegankelijk": false, "gemeenteBeperking": null, "openingstijden": null, "latitude": 52.9591849, "longitude": 5.9233761, "bronId": "L024408"}}, {"type": "Feature", "geometry": {"type": "Point", "coordinates": [5.9257503, 52.9586261]}, "properties": {"type": "inleverpunt", "locatieNaam": "Intertoys", "straatNaam": "Sieversstraat", "straatNr": "8b", "postcode": "8442 CG", "plaats": "Heerenveen", "merk": "Stibat", "puntType": "inzamelbak", "materialen": ["batterijen"], "uitbetaling": [], "vrijToegankelijk": false, "gemeenteBeperking": null, "openingstijden": null, "latitude": 52.9586261, "longitude": 5.9257503, "bronId": "L005556"}}, {"type": "Feature", "geometry": {"type": "Point", "coordinates": [5.9220465, 52.959664]}, "properties": {"type": "inleverpunt", "locatieNaam": "E-bike center Heerenveen", "straatNaam": "Gedempte Molenwijk", "straatNr": "4", "postcode": "8442 BG", "plaats": "Heerenveen", "merk": "Stibat", "puntType": "inzamelbak", "materialen": ["batterijen"], "uitbetaling": [], "vrijToegankelijk": false, "gemeenteBeperking": null, "openingstijden": null, "latitude": 52.959664, "longitude": 5.9220465, "bronId": "L048060"}}, {"type": "Feature", "geometry": {"type": "Point", "coordinates": [5.9255885, 52.9587796]}, "properties": {"type": "inleverpunt", "locatieNaam": "Primera", "straatNaam": "Sieversstraat", "straatNr": "6", "postcode": "8442 CG", "plaats": "Heerenveen", "merk": "Stibat", "puntType": "inzamelbak", "materialen": ["batterijen"], "uitbetaling": [], "vrijToegankelijk": false, "gemeenteBeperking": null, "openingstijden": null, "latitude": 52.9587796, "longitude": 5.9255885, "bronId": "L023962"}}, {"type": "Feature", "geometry": {"type": "Point", "coordinates": [5.9059913, 52.9639835]}, "properties": {"type": "inleverpunt", "locatieNaam": "Kwantum", "straatNaam": "Beurtschip", "straatNr": "23", "postcode": "8447 CL", "plaats": "Heerenveen", "merk": "Stibat", "puntType": "inzamelbak", "materialen": ["batterijen"], "uitbetaling": [], "vrijToegankelijk": false, "gemeenteBeperking": null, "openingstijden": null, "latitude": 52.9639835, "longitude": 5.9059913, "bronId": "L018105"}}, {"type": "Feature", "geometry": {"type": "Point", "coordinates": [5.9260606, 52.9586913]}, "properties": {"type": "inleverpunt", "locatieNaam": "Handyman", "straatNaam": "De Passage", "straatNr": "11", "postcode": "8442 PH", "plaats": "Heerenveen", "merk": "Stibat", "puntType": "inzamelbak", "materialen": ["batterijen"], "uitbetaling": [], "vrijToegankelijk": false, "gemeenteBeperking": null, "openingstijden": null, "latitude": 52.9586913, "longitude": 5.9260606, "bronId": "L015938"}}, {"type": "Feature", "geometry": {"type": "Point", "coordinates": [5.9237219, 52.9594709]}, "properties": {"type": "inleverpunt", "locatieNaam": "KPN winkel", "straatNaam": "Dracht", "straatNr": "19", "postcode": "8442 BJ", "plaats": "Heerenveen", "merk": "Stibat", "puntType": "inzamelbak", "materialen": ["batterijen"], "uitbetaling": [], "vrijToegankelijk": false, "gemeenteBeperking": null, "openingstijden": null, "latitude": 52.9594709, "longitude": 5.9237219, "bronId": "L006964"}}, {"type": "Feature", "geometry": {"type": "Point", "coordinates": [5.9081464, 52.9636826]}, "properties": {"type": "inleverpunt", "locatieNaam": "Leen Bakker", "straatNaam": "Turfschip", "straatNr": "5a", "postcode": "8447 DM", "plaats": "Heerenveen", "merk": "Stibat", "puntType": "inzamelbak", "materialen": ["batterijen"], "uitbetaling": [], "vrijToegankelijk": false, "gemeenteBeperking": null, "openingstijden": null, "latitude": 52.9636826, "longitude": 5.9081464, "bronId": "L017011"}}, {"type": "Feature", "geometry": {"type": "Point", "coordinates": [5.9193769, 52.9607305]}, "properties": {"type": "inleverpunt", "locatieNaam": "Klaver B.V.", "straatNaam": "Herenwal", "straatNr": "25", "postcode": "8441 BA", "plaats": "Heerenveen", "merk": "Stibat", "puntType": "inzamelbak", "materialen": ["batterijen"], "uitbetaling": [], "vrijToegankelijk": false, "gemeenteBeperking": null, "openingstijden": null, "latitude": 52.9607305, "longitude": 5.9193769, "bronId": "L034138"}}, {"type": "Feature", "geometry": {"type": "Point", "coordinates": [5.9042277, 52.9647938]}, "properties": {"type": "inleverpunt", "locatieNaam": "Toolstation", "straatNaam": "Jousterweg", "straatNr": "20c", "postcode": "8447 RH", "plaats": "Heerenveen", "merk": "Stibat", "puntType": "inzamelbak", "materialen": ["batterijen"], "uitbetaling": [], "vrijToegankelijk": false, "gemeenteBeperking": null, "openingstijden": null, "latitude": 52.9647938, "longitude": 5.9042277, "bronId": "L043363"}}, {"type": "Feature", "geometry": {"type": "Point", "coordinates": [5.9233684, 52.9597691]}, "properties": {"type": "inleverpunt", "locatieNaam": "Zeeman", "straatNaam": "Dracht", "straatNr": "7A", "postcode": "8442 BJ", "plaats": "Heerenveen", "merk": "Stibat", "puntType": "inzamelbak", "materialen": ["batterijen"], "uitbetaling": [], "vrijToegankelijk": false, "gemeenteBeperking": null, "openingstijden": null, "latitude": 52.9597691, "longitude": 5.9233684, "bronId": "L020460"}}, {"type": "Feature", "geometry": {"type": "Point", "coordinates": [5.9258896, 52.9591002]}, "properties": {"type": "inleverpunt", "locatieNaam": "1532 Albert Heijn", "straatNaam": "De Passage", "straatNr": "2", "postcode": "8442 PH", "plaats": "Heerenveen", "merk": "Stibat", "puntType": "inzamelbak", "materialen": ["batterijen"], "uitbetaling": [], "vrijToegankelijk": false, "gemeenteBeperking": null, "openingstijden": null, "latitude": 52.9591002, "longitude": 5.9258896, "bronId": "L007835"}}, {"type": "Feature", "geometry": {"type": "Point", "coordinates": [5.9233842, 52.9600634]}, "properties": {"type": "inleverpunt", "locatieNaam": "Schoonenberg Hoorcomfort", "straatNaam": "Hoofdbrug", "straatNr": "7-8", "postcode": "8442 PA", "plaats": "Heerenveen", "merk": "Stibat", "puntType": "inzamelbak", "materialen": ["batterijen"], "uitbetaling": [], "vrijToegankelijk": false, "gemeenteBeperking": null, "openingstijden": null, "latitude": 52.9600634, "longitude": 5.9233842, "bronId": "L021907"}}, {"type": "Feature", "geometry": {"type": "Point", "coordinates": [5.9252977, 52.9596348]}, "properties": {"type": "inleverpunt", "locatieNaam": "Expert", "straatNaam": "Gemeenteplein", "straatNr": "43-45", "postcode": "8442 MB", "plaats": "Heerenveen", "merk": "Stibat", "puntType": "inzamelbak", "materialen": ["batterijen"], "uitbetaling": [], "vrijToegankelijk": false, "gemeenteBeperking": null, "openingstijden": null, "latitude": 52.9596348, "longitude": 5.9252977, "bronId": "L038165"}}, {"type": "Feature", "geometry": {"type": "Point", "coordinates": [5.9241155, 52.9600084]}, "properties": {"type": "inleverpunt", "locatieNaam": "Volgers Heerenveen", "straatNaam": "Van Harenspad", "straatNr": "6 - 14", "postcode": "8442 CD", "plaats": "Heerenveen", "merk": "Stibat", "puntType": "inzamelbak", "materialen": ["batterijen"], "uitbetaling": [], "vrijToegankelijk": false, "gemeenteBeperking": null, "openingstijden": null, "latitude": 52.9600084, "longitude": 5.9241155, "bronId": "L028760"}}, {"type": "Feature", "geometry": {"type": "Point", "coordinates": [5.9043038, 52.9653375]}, "properties": {"type": "inleverpunt", "locatieNaam": "Gamma", "straatNaam": "Houtdraaier", "straatNr": "3", "postcode": "8447 GG", "plaats": "Heerenveen", "merk": "Stibat", "puntType": "inzamelbak", "materialen": ["batterijen"], "uitbetaling": [], "vrijToegankelijk": false, "gemeenteBeperking": null, "openingstijden": null, "latitude": 52.9653375, "longitude": 5.9043038, "bronId": "L007138"}}, {"type": "Feature", "geometry": {"type": "Point", "coordinates": [5.9231946, 52.960465]}, "properties": {"type": "inleverpunt", "locatieNaam": "Beter Horen", "straatNaam": "Lindegracht", "straatNr": "7", "postcode": "8441 GJ", "plaats": "Heerenveen", "merk": "Stibat", "puntType": "inzamelbak", "materialen": ["batterijen"], "uitbetaling": [], "vrijToegankelijk": false, "gemeenteBeperking": null, "openingstijden": null, "latitude": 52.960465, "longitude": 5.9231946, "bronId": "L020011"}}, {"type": "Feature", "geometry": {"type": "Point", "coordinates": [5.9048577, 52.9653027]}, "properties": {"type": "inleverpunt", "locatieNaam": "Praxis 2026", "straatNaam": "Jousterweg", "straatNr": "18", "postcode": "8447 RH", "plaats": "Heerenveen", "merk": "Stibat", "puntType": "inzamelbak", "materialen": ["batterijen"], "uitbetaling": [], "vrijToegankelijk": false, "gemeenteBeperking": null, "openingstijden": null, "latitude": 52.9653027, "longitude": 5.9048577, "bronId": "L014669"}}, {"type": "Feature", "geometry": {"type": "Point", "coordinates": [5.9228893, 52.9607417]}, "properties": {"type": "inleverpunt", "locatieNaam": "Bike Totaal Chris Jacobs", "straatNaam": "Geerts Willigenplein", "straatNr": "3", "postcode": "8441 GV", "plaats": "Heerenveen", "merk": "Stibat", "puntType": "inzamelbak", "materialen": ["batterijen"], "uitbetaling": [], "vrijToegankelijk": false, "gemeenteBeperking": null, "openingstijden": null, "latitude": 52.9607417, "longitude": 5.9228893, "bronId": "L034141"}}, {"type": "Feature", "geometry": {"type": "Point", "coordinates": [5.9056739, 52.9655142]}, "properties": {"type": "inleverpunt", "locatieNaam": "Welkoop", "straatNaam": "Jousterweg", "straatNr": "16", "postcode": "8447 RH", "plaats": "Heerenveen", "merk": "Stibat", "puntType": "inzamelbak", "materialen": ["batterijen"], "uitbetaling": [], "vrijToegankelijk": false, "gemeenteBeperking": null, "openingstijden": null, "latitude": 52.9655142, "longitude": 5.9056739, "bronId": "L016601"}}, {"type": "Feature", "geometry": {"type": "Point", "coordinates": [5.9248195, 52.9605961]}, "properties": {"type": "inleverpunt", "locatieNaam": "Euphoria (erotiek winkel)", "straatNaam": "Lindegracht", "straatNr": "43", "postcode": "8441 GK", "plaats": "Heerenveen", "merk": "Stibat", "puntType": "inzamelbak", "materialen": ["batterijen"], "uitbetaling": [], "vrijToegankelijk": false, "gemeenteBeperking": null, "openingstijden": null, "latitude": 52.9605961, "longitude": 5.9248195, "bronId": "L040167"}}, {"type": "Feature", "geometry": {"type": "Point", "coordinates": [5.9249389, 52.9606225]}, "properties": {"type": "inleverpunt", "locatieNaam": "PartsNL", "straatNaam": "Lindegracht", "straatNr": "45", "postcode": "8441 GK", "plaats": "Heerenveen", "merk": "Stibat", "puntType": "inzamelbak", "materialen": ["batterijen"], "uitbetaling": [], "vrijToegankelijk": false, "gemeenteBeperking": null, "openingstijden": null, "latitude": 52.9606225, "longitude": 5.9249389, "bronId": "L036343"}}, {"type": "Feature", "geometry": {"type": "Point", "coordinates": [5.9250461, 52.9606512]}, "properties": {"type": "inleverpunt", "locatieNaam": "Electro World", "straatNaam": "Lindegracht", "straatNr": "47", "postcode": "8441 GK", "plaats": "Heerenveen", "merk": "Stibat", "puntType": "inzamelbak", "materialen": ["batterijen"], "uitbetaling": [], "vrijToegankelijk": false, "gemeenteBeperking": null, "openingstijden": null, "latitude": 52.9606512, "longitude": 5.9250461, "bronId": "L015450"}}, {"type": "Feature", "geometry": {"type": "Point", "coordinates": [5.9250295, 52.9606717]}, "properties": {"type": "inleverpunt", "locatieNaam": "EP:", "straatNaam": "Lindegracht", "straatNr": "47", "postcode": "8441 GK", "plaats": "Heerenveen", "merk": "Stibat", "puntType": "inzamelbak", "materialen": ["batterijen"], "uitbetaling": [], "vrijToegankelijk": false, "gemeenteBeperking": null, "openingstijden": null, "latitude": 52.9606717, "longitude": 5.9250295, "bronId": "L022149"}}, {"type": "Feature", "geometry": {"type": "Point", "coordinates": [5.9051816, 52.9659331]}, "properties": {"type": "inleverpunt", "locatieNaam": "Karwei", "straatNaam": "Houtdraaier", "straatNr": "1", "postcode": "8447 GG", "plaats": "Heerenveen", "merk": "Stibat", "puntType": "inzamelbak", "materialen": ["batterijen"], "uitbetaling": [], "vrijToegankelijk": false, "gemeenteBeperking": null, "openingstijden": null, "latitude": 52.9659331, "longitude": 5.9051816, "bronId": "L028188"}}, {"type": "Feature", "geometry": {"type": "Point", "coordinates": [5.9346877, 52.9618813]}, "properties": {"type": "inleverpunt", "locatieNaam": "Kringloop It Fean", "straatNaam": "De Opslach", "straatNr": "11", "postcode": "8448 GV", "plaats": "Heerenveen", "merk": "Stibat", "puntType": "inzamelbak", "materialen": ["batterijen"], "uitbetaling": [], "vrijToegankelijk": false, "gemeenteBeperking": null, "openingstijden": null, "latitude": 52.9618813, "longitude": 5.9346877, "bronId": "L040262"}}, {"type": "Feature", "geometry": {"type": "Point", "coordinates": [5.8899948, 52.9758021]}, "properties": {"type": "inleverpunt", "locatieNaam": "Milieustraat Heerenveen", "straatNaam": "De Ynfeart", "straatNr": "10", "postcode": "8447 GM", "plaats": "Heerenveen", "merk": "Stibat", "puntType": "inzamelbak", "materialen": ["batterijen"], "uitbetaling": [], "vrijToegankelijk": false, "gemeenteBeperking": null, "openingstijden": null, "latitude": 52.9758021, "longitude": 5.8899948, "bronId": "L015555"}}, {"type": "Feature", "geometry": {"type": "Point", "coordinates": [5.9572295, 52.9680865]}, "properties": {"type": "inleverpunt", "locatieNaam": "Brouwer Fietsen", "straatNaam": "Het Meer", "straatNr": "245", "postcode": "8448 GH", "plaats": "Heerenveen", "merk": "Stibat", "puntType": "inzamelbak", "materialen": ["batterijen"], "uitbetaling": [], "vrijToegankelijk": false, "gemeenteBeperking": null, "openingstijden": null, "latitude": 52.9680865, "longitude": 5.9572295, "bronId": "L026841"}}, {"type": "Feature", "geometry": {"type": "Point", "coordinates": [6.0535278, 52.9500302]}, "properties": {"type": "inleverpunt", "locatieNaam": "4187 Albert Heijn", "straatNaam": "Schoterlandseweg", "straatNr": "43", "postcode": "8414 LN", "plaats": "Nieuwehorne", "merk": "Stibat", "puntType": "inzamelbak", "materialen": ["batterijen"], "uitbetaling": [], "vrijToegankelijk": false, "gemeenteBeperking": null, "openingstijden": null, "latitude": 52.9500302, "longitude": 6.0535278, "bronId": "L048214"}}, {"type": "Feature", "geometry": {"type": "Point", "coordinates": [6.0638712, 52.9541313]}, "properties": {"type": "inleverpunt", "locatieNaam": "De Vries Benzine &amp; Fietsen", "straatNaam": "Schoterlandseweg", "straatNr": "111", "postcode": "8414 LR", "plaats": "Nieuwehorne", "merk": "Stibat", "puntType": "inzamelbak", "materialen": ["batterijen"], "uitbetaling": [], "vrijToegankelijk": false, "gemeenteBeperking": null, "openingstijden": null, "latitude": 52.9541313, "longitude": 6.0638712, "bronId": "L034131"}}, {"type": "Feature", "geometry": {"type": "Point", "coordinates": [5.8366312, 53.0486605]}, "properties": {"type": "inleverpunt", "locatieNaam": "Poiesz", "straatNaam": "It Achterom", "straatNr": "1", "postcode": "8491 BV", "plaats": "Akkrum", "merk": "Stibat", "puntType": "inzamelbak", "materialen": ["batterijen"], "uitbetaling": [], "vrijToegankelijk": false, "gemeenteBeperking": null, "openingstijden": null, "latitude": 53.0486605, "longitude": 5.8366312, "bronId": "L044303"}}, {"type": "Feature", "geometry": {"type": "Point", "coordinates": [5.8365498, 53.0490532]}, "properties": {"type": "inleverpunt", "locatieNaam": "Hubo", "straatNaam": "Buorren", "straatNr": "16", "postcode": "8491 CA", "plaats": "Akkrum", "merk": "Stibat", "puntType": "inzamelbak", "materialen": ["batterijen"], "uitbetaling": [], "vrijToegankelijk": false, "gemeenteBeperking": null, "openingstijden": null, "latitude": 53.0490532, "longitude": 5.8365498, "bronId": "L043801"}}, {"type": "Feature", "geometry": {"type": "Point", "coordinates": [5.8358255, 53.0492168]}, "properties": {"type": "inleverpunt", "locatieNaam": "DA", "straatNaam": "Buorren", "straatNr": "10", "postcode": "8491 CA", "plaats": "Akkrum", "merk": "Stibat", "puntType": "inzamelbak", "materialen": ["batterijen"], "uitbetaling": [], "vrijToegankelijk": false, "gemeenteBeperking": null, "openingstijden": null, "latitude": 53.0492168, "longitude": 5.8358255, "bronId": "L027342"}}, {"type": "Feature", "geometry": {"type": "Point", "coordinates": [5.8378233, 53.0493172]}, "properties": {"type": "inleverpunt", "locatieNaam": "NIJDAM fietsen", "straatNaam": "Kanadeeskestrjitte", "straatNr": "5", "postcode": "8491 BC", "plaats": "Akkrum", "merk": "Stibat", "puntType": "inzamelbak", "materialen": ["batterijen"], "uitbetaling": [], "vrijToegankelijk": false, "gemeenteBeperking": null, "openingstijden": null, "latitude": 53.0493172, "longitude": 5.8378233, "bronId": "L034146"}}, {"type": "Feature", "geometry": {"type": "Point", "coordinates": [6.0994855, 52.9833241]}, "properties": {"type": "inleverpunt", "locatieNaam": "Welkoop", "straatNaam": "Gorredijksterweg", "straatNr": "54", "postcode": "8411 KG", "plaats": "Jubbega", "merk": "Stibat", "puntType": "inzamelbak", "materialen": ["batterijen"], "uitbetaling": [], "vrijToegankelijk": false, "gemeenteBeperking": null, "openingstijden": null, "latitude": 52.9833241, "longitude": 6.0994855, "bronId": "L017782"}}, {"type": "Feature", "geometry": {"type": "Point", "coordinates": [5.8937305, 53.0475846]}, "properties": {"type": "inleverpunt", "locatieNaam": "ACA Computerservice Akkrum", "straatNaam": "Doelhof", "straatNr": "4", "postcode": "8495 KD", "plaats": "Aldeboarn", "merk": "Stibat", "puntType": "inzamelbak", "materialen": ["batterijen"], "uitbetaling": [], "vrijToegankelijk": false, "gemeenteBeperking": null, "openingstijden": null, "latitude": 53.0475846, "longitude": 5.8937305, "bronId": "L038658"}}, {"type": "Feature", "geometry": {"type": "Point", "coordinates": [6.1210796, 53.0042777]}, "properties": {"type": "inleverpunt", "locatieNaam": "De Bever", "straatNaam": "P W Janssenweg", "straatNr": "103", "postcode": "8411 XT", "plaats": "Jubbega", "merk": "Stibat", "puntType": "inzamelbak", "materialen": ["batterijen"], "uitbetaling": [], "vrijToegankelijk": false, "gemeenteBeperking": null, "openingstijden": null, "latitude": 53.0042777, "longitude": 6.1210796, "bronId": "L044870"}}, {"type": "Feature", "geometry": {"type": "Point", "coordinates": [6.1221804, 53.004941]}, "properties": {"type": "inleverpunt", "locatieNaam": "PLUS", "straatNaam": "P W Janssenweg", "straatNr": "86", "postcode": "8411 XV", "plaats": "Jubbega", "merk": "Stibat", "puntType": "inzamelbak", "materialen": ["batterijen"], "uitbetaling": [], "vrijToegankelijk": false, "gemeenteBeperking": null, "openingstijden": null, "latitude": 53.004941, "longitude": 6.1221804, "bronId": "L045541"}}, {"type": "Feature", "geometry": {"type": "Point", "coordinates": [6.1246008, 53.0045456]}, "properties": {"type": "inleverpunt", "locatieNaam": "De Singel Tweewielers", "straatNaam": "Bremsingel", "straatNr": "24", "postcode": "8411 VX", "plaats": "Jubbega", "merk": "Stibat", "puntType": "inzamelbak", "materialen": ["batterijen"], "uitbetaling": [], "vrijToegankelijk": false, "gemeenteBeperking": null, "openingstijden": null, "latitude": 53.0045456, "longitude": 6.1246008, "bronId": "L034130"}}, {"type": "Feature", "geometry": {"type": "Point", "coordinates": [6.1265961, 53.0059136]}, "properties": {"type": "inleverpunt", "locatieNaam": "Hubo", "straatNaam": "Jelle van Damweg", "straatNr": "49", "postcode": "8411 XB", "plaats": "Jubbega", "merk": "Stibat", "puntType": "inzamelbak", "materialen": ["batterijen"], "uitbetaling": [], "vrijToegankelijk": false, "gemeenteBeperking": null, "openingstijden": null, "latitude": 53.0059136, "longitude": 6.1265961, "bronId": "L043797"}}, {"type": "Feature", "geometry": {"type": "Polygon", "coordinates": [[[5.954583002305369, 52.92592000443679], [5.95940500231016, 52.92750700443752], [5.9676230023182795, 52.928395004437746], [5.970725002321327, 52.92823400443757], [5.977220002327692, 52.92708900443676], [5.980289002330716, 52.9271670044367], [5.9869480023373125, 52.928582004437274], [5.998024002348341, 52.933241004439424], [6.0024590023527296, 52.93400700443973], [6.003970002354203, 52.933612004439446], [6.03731200238662, 52.91821900443026], [6.0394710023887335, 52.9177500044299], [6.041824002391052, 52.91779300442986], [6.043612002392823, 52.91822600443002], [6.078675002427671, 52.93165300443615], [6.085045002434054, 52.93642500443844], [6.085803002434802, 52.93644200443846], [6.086349002435351, 52.93688900443864], [6.0860040024350175, 52.937171004438824], [6.091062002440096, 52.9412120044408], [6.092973002441997, 52.94230300444135], [6.115406002464274, 52.951182004445364], [6.124726002473464, 52.95233000444566], [6.126889002475603, 52.95289800444587], [6.1285890024773, 52.953954004446395], [6.144012002492802, 52.96837700445352], [6.1569760025056945, 52.97517700445672], [6.1590300025077305, 52.97596500445704], [6.1957030025439765, 52.98620900446122], [6.200870002549101, 52.98849300446226], [6.200943002549196, 52.9896940044629], [6.202206002550454, 52.99031000446319], [6.205424002554663, 53.03793100448812], [6.203249002552522, 53.03763900448803], [6.200399002549711, 53.03679200448768], [6.199394002548671, 53.034308004486384], [6.198726002548001, 53.03373300448614], [6.19658400254589, 53.03324700448595], [6.195745002545036, 53.03179000448519], [6.1916360025409505, 53.02928300448406], [6.19041800253972, 53.02776900448331], [6.185699002535031, 53.02502000448199], [6.176812002526222, 53.021049004480226], [6.173290002522745, 53.02004600447985], [6.170705002520205, 53.01985000447981], [6.158530002508193, 53.01702300447871], [6.151338002501122, 53.016617004478725], [6.142810002492703, 53.01430100447785], [6.131188002481235, 53.01187900447696], [6.128779002478835, 53.01038500447625], [6.129804002479801, 53.00875700447537], [6.125622002475654, 53.0069470044745], [6.120536002470623, 53.005383004473885], [6.117026002467136, 53.00373100447314], [6.113953002464071, 53.00175000447217], [6.107408002457586, 52.99940600447117], [6.105556002455727, 52.99776900447035], [6.100772002450975, 52.99560600446933], [6.100633002450828, 52.99516900446913], [6.09778000244798, 52.99318400446819], [6.096437002446651, 52.99289700446806], [6.099722002449796, 52.98950000446622], [6.098983002449062, 52.98923800446608], [6.098468002448568, 52.989755004466325], [6.0982640024483645, 52.989599004466285], [6.096453002446549, 52.98806300446553], [6.097508002447558, 52.98695400446491], [6.095275002445341, 52.9860250044645], [6.094251002444307, 52.98496400446395], [6.092327002442397, 52.984203004463595], [6.0877630024378915, 52.983264004463244], [6.086206002436374, 52.98375300446358], [6.0849680024351365, 52.98294700446321], [6.084297002434484, 52.9831730044633], [6.076534002426743, 52.97878000446126], [6.075759002425959, 52.977865004460774], [6.07286700242307, 52.97601600445991], [6.0674930024177165, 52.97316600445856], [6.066835002417085, 52.973716004458865], [6.061059002411336, 52.97093100445759], [6.044347002394784, 52.96623700445561], [6.026853002377533, 52.96436400445518], [6.0268050023774995, 52.96499800445546], [6.020726002371545, 52.965866004456146], [5.977969002329622, 52.9709180044601], [5.958105002310132, 52.97293500446175], [5.964892002316984, 52.97933700446495], [5.962653002314826, 52.98100700446587], [5.97675000232901, 52.99265900447167], [5.974649002326987, 52.99428500447261], [5.979669002332016, 52.997852004474304], [5.976758002329242, 53.000961004476004], [5.9748440023273925, 53.0021190044767], [5.973963002326561, 53.0034250044774], [5.9730090023256786, 53.00553100447856], [5.973912002326587, 53.00621900447887], [5.971942002324743, 53.00967300448074], [5.97712300232985, 53.01016500448089], [5.97677200232953, 53.01120000448142], [5.978177002330993, 53.01413300448293], [5.979116002331943, 53.01518500448346], [5.984525002337535, 53.025539004488714], [5.983914002336963, 53.02655900448927], [5.9787210023319055, 53.02817900449028], [5.9790960023323025, 53.029268004490845], [5.977037002330302, 53.030128004491374], [5.966218002319747, 53.03293900449315], [5.966088002319614, 53.03275700449303], [5.965926002319466, 53.03316700449326], [5.95217900230607, 53.03720800449579], [5.953088002306993, 53.03834900449636], [5.940199002294437, 53.04218000449879], [5.940626002294873, 53.042846004499054], [5.939244002293529, 53.04330000449936], [5.939078002293383, 53.04389200449966], [5.9379990022923295, 53.04426400449988], [5.943949002298182, 53.0443940044998], [5.943333002297657, 53.04734000450135], [5.944158002298472, 53.04756100450143], [5.944545002298897, 53.04911200450223], [5.948595002302876, 53.04918600450216], [5.948821002303122, 53.04995600450254], [5.952837002307069, 53.05004500450249], [5.952928002307185, 53.051106004503026], [5.953614002307887, 53.05207100450354], [5.956268002310494, 53.05214200450346], [5.957613002311859, 53.0536180045042], [5.94263500229714, 53.05348600450461], [5.94386000229838, 53.05478400450523], [5.946190002300789, 53.059188004507455], [5.947328002301995, 53.06248000450913], [5.944268002299067, 53.06525500451067], [5.941090002295911, 53.063900004510074], [5.940700002295533, 53.064148004510194], [5.940015002294856, 53.06401100451015], [5.937889002292795, 53.06499800451072], [5.935540002290531, 53.066505004511605], [5.930870002286054, 53.07041300451376], [5.930554002285765, 53.0712470045142], [5.93226400228745, 53.071386004514196], [5.932351002287557, 53.07213500451461], [5.932730002287931, 53.072235004514624], [5.932305002287539, 53.07322900451516], [5.935952002291137, 53.07381500451535], [5.934335002289602, 53.0757570045164], [5.932917002288218, 53.076044004516596], [5.933645002288959, 53.076827004517], [5.933390002288741, 53.07811100451763], [5.921558002277139, 53.0786580045183], [5.916584002272246, 53.07831600451825], [5.907335002263161, 53.078269004518496], [5.903770002259687, 53.079248004519066], [5.897019002253053, 53.07900400451915], [5.895418002251475, 53.0788370045191], [5.894974002250966, 53.07622900451777], [5.871502002227853, 53.07421000451737], [5.870313002226894, 53.08143200452112], [5.8717650022283285, 53.081802004521286], [5.8721200022286935, 53.082222004521505], [5.871872002228497, 53.08392100452239], [5.873076002229687, 53.084168004522475], [5.872996002229631, 53.084933004522895], [5.874654002231262, 53.085018004522894], [5.873562002230194, 53.08520700452303], [5.8709670022276255, 53.08449400452273], [5.868370002225068, 53.08427000452268], [5.868165002224858, 53.08398600452251], [5.866077002222794, 53.08355700452237], [5.864910002221626, 53.08278200452196], [5.862735002219486, 53.08261300452199], [5.859831002216605, 53.08167600452156], [5.857175002214017, 53.082433004521995], [5.854442002211333, 53.082414004522114], [5.84468000220166, 53.07956200452084], [5.843045002200078, 53.08040200452133], [5.831024002188208, 53.078375004520595], [5.830162002187398, 53.07959500452125], [5.8192740021765905, 53.07586200451959], [5.814179002171478, 53.07239300451792], [5.808243002165468, 53.06658900451502], [5.796386002153574, 53.05883900451127], [5.798749002155817, 53.05619500450985], [5.795508002152589, 53.054866004509236], [5.796458002153491, 53.05373700450862], [5.795750002152787, 53.05345800450852], [5.795818002152838, 53.05301600450827], [5.797947002154833, 53.049809004506564], [5.802223002158946, 53.04679900450486], [5.808859002165379, 53.04375100450309], [5.818888002175137, 53.04034300450108], [5.824058002180155, 53.038117004499775], [5.835034002190762, 53.0318910044962], [5.835965002191651, 53.03099800449569], [5.838552002194163, 53.02998600449512], [5.844772002200166, 53.02607100449292], [5.849335002204589, 53.02390500449163], [5.857603002212517, 53.017008004487806], [5.865315002219634, 53.0010620044792], [5.867324002221536, 52.9984960044778], [5.886077002239568, 52.98402500446966], [5.887267002240667, 52.98151500446829], [5.873648002227199, 52.97925500446746], [5.867215002220846, 52.97862200446729], [5.869239002222551, 52.96874100446198], [5.870971002224128, 52.96444200445964], [5.886840002239828, 52.967049004460634], [5.887571002240549, 52.9670100044606], [5.88807700224103, 52.96645700446025], [5.885989002238962, 52.966111004460124], [5.886154002239116, 52.965711004459905], [5.888480002241386, 52.965090004459526], [5.891027002243797, 52.96169700445766], [5.892019002244782, 52.96203300445778], [5.8916300022444075, 52.96227800445793], [5.894768002247525, 52.963179004458325], [5.895633002248343, 52.96214700445778], [5.897410002250118, 52.963083004458205], [5.902305002254777, 52.957369004455046], [5.9045740022569815, 52.95639600445444], [5.905711002258077, 52.955515004453964], [5.905123002257494, 52.955323004453874], [5.904886002257223, 52.95416400445326], [5.9141810022660595, 52.94292200444701], [5.914249002266107, 52.94240900444671], [5.912975002264805, 52.94063800444585], [5.913747002265533, 52.939550004445216], [5.933327002284128, 52.915055004431565], [5.937847002288488, 52.91174000442967], [5.9485070022992295, 52.920418004434], [5.952570002303355, 52.924848004436306], [5.954583002305369, 52.92592000443679]]]}, "properties": {"type": "boundary", "gemeente": "Heerenveen"}}]}