{"type": "FeatureCollection", "metadata": {"gemeente": "Heiloo", "slug": "heiloo", "generated_at": "2026-07-28T09:25:50.134599Z", "total_points": 47, "merken": ["StatiegeldNederland", "Stibat", "StichtingOPEN"], "bounds": [4.6843665, 52.591766, 4.7200667, 52.6075585]}, "features": [{"type": "Feature", "geometry": {"type": "Point", "coordinates": [4.6881322, 52.6037597]}, "properties": {"type": "inleverpunt", "locatieNaam": "Albert Heijn", "straatNaam": "‘t Hoekstuk", "straatNr": "6", "postcode": "1852 KX", "plaats": "Heiloo", "merk": "StatiegeldNederland", "puntType": "automaat", "materialen": ["pet-groot", "pet-klein", "blik", "glas", "krat"], "uitbetaling": ["bonnetje", "donatie"], "vrijToegankelijk": true, "gemeenteBeperking": null, "openingstijden": {"ma": "08:00–21:00", "di": "08:00–21:00", "wo": "08:00–21:00", "do": "08:00–21:00", "vr": "08:00–21:00", "za": "08:00–21:00", "zo": "09:00–20:00"}, "latitude": 52.6037597, "longitude": 4.6881322, "bronId": "251952"}}, {"type": "Feature", "geometry": {"type": "Point", "coordinates": [4.7122948, 52.5920851]}, "properties": {"type": "inleverpunt", "locatieNaam": "Albert Heijn", "straatNaam": "Rosendaal", "straatNr": "95", "postcode": "1851 RK", "plaats": "Heiloo", "merk": "StatiegeldNederland", "puntType": "automaat", "materialen": ["pet-groot", "pet-klein", "blik", "glas", "krat"], "uitbetaling": ["bonnetje", "donatie"], "vrijToegankelijk": true, "gemeenteBeperking": null, "openingstijden": {"ma": "08:00–21:00", "di": "08:00–21:00", "wo": "08:00–21:00", "do": "08:00–21:00", "vr": "08:00–21:00", "za": "08:00–21:00", "zo": "09:00–20:00"}, "latitude": 52.5920851, "longitude": 4.7122948, "bronId": "252689"}}, {"type": "Feature", "geometry": {"type": "Point", "coordinates": [4.7120693, 52.6057341]}, "properties": {"type": "inleverpunt", "locatieNaam": "Albert Heijn", "straatNaam": "Winkelhof `T Loo", "straatNr": "61", "postcode": "1851 HT", "plaats": "Heiloo", "merk": "StatiegeldNederland", "puntType": "automaat", "materialen": ["pet-groot", "pet-klein", "blik", "glas", "krat"], "uitbetaling": ["bonnetje", "donatie"], "vrijToegankelijk": true, "gemeenteBeperking": null, "openingstijden": {"ma": "08:00–21:00", "di": "08:00–21:00", "wo": "08:00–21:00", "do": "08:00–21:00", "vr": "08:00–21:00", "za": "08:00–21:00", "zo": "09:00–20:00"}, "latitude": 52.6057341, "longitude": 4.7120693, "bronId": "252938"}}, {"type": "Feature", "geometry": {"type": "Point", "coordinates": [4.7018933, 52.5995994]}, "properties": {"type": "inleverpunt", "locatieNaam": "Ekoplaza", "straatNaam": "STATIONSPLEIN", "straatNr": "28", "postcode": "1851 LN", "plaats": "Heiloo", "merk": "StatiegeldNederland", "puntType": "balie", "materialen": ["pet-groot", "pet-klein", "blik"], "uitbetaling": [], "vrijToegankelijk": true, "gemeenteBeperking": null, "openingstijden": {"ma": "08:00–19:00", "di": "08:00–19:00", "wo": "08:00–19:00", "do": "08:00–19:00", "vr": "08:00–19:00", "za": "08:00–18:00", "zo": "10:00–17:00"}, "latitude": 52.5995994, "longitude": 4.7018933, "bronId": "254683"}}, {"type": "Feature", "geometry": {"type": "Point", "coordinates": [4.6876525, 52.5947853]}, "properties": {"type": "inleverpunt", "locatieNaam": "Hv De Terriers", "straatNaam": "Het Zevenhuizen", "straatNr": "52", "postcode": "1852 JC", "plaats": "Heiloo", "merk": "StatiegeldNederland", "puntType": "balie", "materialen": ["pet-groot", "pet-klein", "blik"], "uitbetaling": [], "vrijToegankelijk": false, "gemeenteBeperking": null, "openingstijden": null, "latitude": 52.5947853, "longitude": 4.6876525, "bronId": "255139"}}, {"type": "Feature", "geometry": {"type": "Point", "coordinates": [4.6874929, 52.6038438]}, "properties": {"type": "inleverpunt", "locatieNaam": "Lidl", "straatNaam": "Het Hoekstuk", "straatNr": "10-15", "postcode": "1852 KX", "plaats": "Heiloo", "merk": "StatiegeldNederland", "puntType": "automaat", "materialen": ["pet-groot", "pet-klein", "blik", "glas", "krat"], "uitbetaling": ["bonnetje", "donatie"], "vrijToegankelijk": true, "gemeenteBeperking": null, "openingstijden": {"ma": "08:00–21:00", "di": "08:00–21:00", "wo": "08:00–21:00", "do": "08:00–21:00", "vr": "08:00–21:00", "za": "08:00–20:00", "zo": "10:00–18:00"}, "latitude": 52.6038438, "longitude": 4.6874929, "bronId": "256190"}}, {"type": "Feature", "geometry": {"type": "Point", "coordinates": [4.6843665, 52.5939871]}, "properties": {"type": "inleverpunt", "locatieNaam": "S.v. De Foresters", "straatNaam": "Vennewatersweg", "straatNr": "23", "postcode": "1852 PT", "plaats": "Heiloo", "merk": "StatiegeldNederland", "puntType": "balie", "materialen": ["pet-groot", "pet-klein", "blik"], "uitbetaling": [], "vrijToegankelijk": false, "gemeenteBeperking": null, "openingstijden": {"ma": "06:00–00:00", "di": "06:00–00:00", "wo": "06:00–00:00", "do": "06:00–00:00", "vr": "06:00–00:00", "za": "06:00–00:00", "zo": "06:00–00:00"}, "latitude": 52.5939871, "longitude": 4.6843665, "bronId": "257917"}}, {"type": "Feature", "geometry": {"type": "Point", "coordinates": [4.7015444, 52.5997557]}, "properties": {"type": "inleverpunt", "locatieNaam": "Vomar", "straatNaam": "Stationsplein", "straatNr": "34", "postcode": "1851 LN", "plaats": "Heiloo", "merk": "StatiegeldNederland", "puntType": "automaat", "materialen": ["pet-groot", "pet-klein", "blik", "glas", "krat"], "uitbetaling": ["bonnetje", "donatie"], "vrijToegankelijk": true, "gemeenteBeperking": null, "openingstijden": {"ma": "07:30–22:00", "di": "07:30–22:00", "wo": "07:30–22:00", "do": "07:30–22:00", "vr": "07:30–22:00", "za": "07:30–22:00", "zo": "08:00–22:00"}, "latitude": 52.5997557, "longitude": 4.7015444, "bronId": "259716"}}, {"type": "Feature", "geometry": {"type": "Point", "coordinates": [4.719367, 52.592824]}, "properties": {"type": "inleverpunt", "locatieNaam": "KARWEI Heiloo", "straatNaam": "De Hoefsmid", "straatNr": "2", "postcode": "1851 PZ", "plaats": "Heiloo", "merk": "StichtingOPEN", "puntType": "balie", "materialen": ["elektro-middel", "lampen", "tl-buizen"], "uitbetaling": [], "vrijToegankelijk": false, "gemeenteBeperking": null, "openingstijden": null, "latitude": 52.592824, "longitude": 4.719367, "bronId": "SP00003688"}}, {"type": "Feature", "geometry": {"type": "Point", "coordinates": [4.719174, 52.593869]}, "properties": {"type": "inleverpunt", "locatieNaam": "Dorcas Winkel Heiloo", "straatNaam": "De Oude Werf", "straatNr": "2", "postcode": "1851 PW", "plaats": "Heiloo", "merk": "StichtingOPEN", "puntType": "balie", "materialen": ["elektro-groot", "elektro-klein", "elektro-middel", "lampen", "tl-buizen"], "uitbetaling": [], "vrijToegankelijk": false, "gemeenteBeperking": null, "openingstijden": null, "latitude": 52.593869, "longitude": 4.719174, "bronId": "SP00033571"}}, {"type": "Feature", "geometry": {"type": "Point", "coordinates": [4.712438, 52.592118]}, "properties": {"type": "inleverpunt", "locatieNaam": "1819 Albert Heijn Heiloo", "straatNaam": "Rosendaal", "straatNr": "95", "postcode": "1851 RK", "plaats": "Heiloo", "merk": "StichtingOPEN", "puntType": "balie", "materialen": ["batterijen", "elektro-klein", "lampen"], "uitbetaling": [], "vrijToegankelijk": false, "gemeenteBeperking": null, "openingstijden": null, "latitude": 52.592118, "longitude": 4.712438, "bronId": "SP00023130"}}, {"type": "Feature", "geometry": {"type": "Point", "coordinates": [4.701544, 52.599755]}, "properties": {"type": "inleverpunt", "locatieNaam": "Vomar Heiloo", "straatNaam": "Stationsplein", "straatNr": "34", "postcode": "1851 LN", "plaats": "Heiloo", "merk": "StichtingOPEN", "puntType": "balie", "materialen": ["batterijen", "lampen"], "uitbetaling": [], "vrijToegankelijk": false, "gemeenteBeperking": null, "openingstijden": null, "latitude": 52.599755, "longitude": 4.701544, "bronId": "SP00025783"}}, {"type": "Feature", "geometry": {"type": "Point", "coordinates": [4.71238, 52.604655]}, "properties": {"type": "inleverpunt", "locatieNaam": "Kruidvat Heiloo", "straatNaam": "Raadhuisweg", "straatNr": "12", "postcode": "1851 JA", "plaats": "Heiloo", "merk": "StichtingOPEN", "puntType": "balie", "materialen": ["batterijen", "lampen"], "uitbetaling": [], "vrijToegankelijk": false, "gemeenteBeperking": null, "openingstijden": null, "latitude": 52.604655, "longitude": 4.71238, "bronId": "SP00024789"}}, {"type": "Feature", "geometry": {"type": "Point", "coordinates": [4.701643, 52.600037]}, "properties": {"type": "inleverpunt", "locatieNaam": "Kruidvat Heiloo", "straatNaam": "Stationsplein", "straatNr": "41", "postcode": "1851 LN", "plaats": "Heiloo", "merk": "StichtingOPEN", "puntType": "balie", "materialen": ["batterijen", "lampen"], "uitbetaling": [], "vrijToegankelijk": false, "gemeenteBeperking": null, "openingstijden": null, "latitude": 52.600037, "longitude": 4.701643, "bronId": "SP00024788"}}, {"type": "Feature", "geometry": {"type": "Point", "coordinates": [4.698797, 52.599841]}, "properties": {"type": "inleverpunt", "locatieNaam": "Kösters Audio Witgoed BV Heiloo", "straatNaam": "Westerweg", "straatNr": "258", "postcode": "1852 AR", "plaats": "Heiloo", "merk": "StichtingOPEN", "puntType": "balie", "materialen": ["lampen"], "uitbetaling": [], "vrijToegankelijk": false, "gemeenteBeperking": null, "openingstijden": null, "latitude": 52.599841, "longitude": 4.698797, "bronId": "SP00002726"}}, {"type": "Feature", "geometry": {"type": "Point", "coordinates": [4.712092, 52.605732]}, "properties": {"type": "inleverpunt", "locatieNaam": "1217 Albert Heijn Heiloo", "straatNaam": "'t Loo", "straatNr": "61", "postcode": "1851 HT", "plaats": "Heiloo", "merk": "StichtingOPEN", "puntType": "balie", "materialen": ["batterijen", "elektro-klein", "lampen"], "uitbetaling": [], "vrijToegankelijk": false, "gemeenteBeperking": null, "openingstijden": null, "latitude": 52.605732, "longitude": 4.712092, "bronId": "SP00023133"}}, {"type": "Feature", "geometry": {"type": "Point", "coordinates": [4.709839, 52.604966]}, "properties": {"type": "inleverpunt", "locatieNaam": "Van der Laken Lichtadvies", "straatNaam": "Van der Veldenstraat", "straatNr": "7", "postcode": "1851 HS", "plaats": "Heiloo", "merk": "StichtingOPEN", "puntType": "balie", "materialen": ["lampen", "tl-buizen"], "uitbetaling": [], "vrijToegankelijk": false, "gemeenteBeperking": null, "openingstijden": null, "latitude": 52.604966, "longitude": 4.709839, "bronId": "SP00020521"}}, {"type": "Feature", "geometry": {"type": "Point", "coordinates": [4.687788, 52.603774]}, "properties": {"type": "inleverpunt", "locatieNaam": "Lidl Heiloo", "straatNaam": "Het Hoekstuk", "straatNr": "12", "postcode": "1852 KX", "plaats": "Heiloo", "merk": "StichtingOPEN", "puntType": "balie", "materialen": ["batterijen", "lampen"], "uitbetaling": [], "vrijToegankelijk": false, "gemeenteBeperking": null, "openingstijden": null, "latitude": 52.603774, "longitude": 4.687788, "bronId": "SP00025657"}}, {"type": "Feature", "geometry": {"type": "Point", "coordinates": [4.687531, 52.604185]}, "properties": {"type": "inleverpunt", "locatieNaam": "1606 Albert Heijn Heiloo", "straatNaam": "Het Hoekstuk", "straatNr": "6", "postcode": "1852 KX", "plaats": "Heiloo", "merk": "StichtingOPEN", "puntType": "balie", "materialen": ["batterijen", "elektro-klein", "lampen"], "uitbetaling": [], "vrijToegankelijk": false, "gemeenteBeperking": null, "openingstijden": null, "latitude": 52.604185, "longitude": 4.687531, "bronId": "SP00023132"}}, {"type": "Feature", "geometry": {"type": "Point", "coordinates": [4.715608, 52.591766]}, "properties": {"type": "inleverpunt", "locatieNaam": "Afvalbrengpunt Heiloo", "straatNaam": "Rosendaal", "straatNr": "2", "postcode": "1851 RL", "plaats": "Heiloo", "merk": "StichtingOPEN", "puntType": "milieustraat", "materialen": ["batterijen", "elektro-groot", "elektro-klein", "elektro-middel", "lampen", "tl-buizen"], "uitbetaling": [], "vrijToegankelijk": false, "gemeenteBeperking": ["Heiloo"], "openingstijden": null, "latitude": 52.591766, "longitude": 4.715608, "bronId": "SP00001252"}}, {"type": "Feature", "geometry": {"type": "Point", "coordinates": [4.7195965, 52.592722]}, "properties": {"type": "inleverpunt", "locatieNaam": "Karwei", "straatNaam": "De Hoefsmid", "straatNr": "2", "postcode": "1851 PZ", "plaats": "HEILOO", "merk": "Stibat", "puntType": "inzamelbak", "materialen": ["batterijen"], "uitbetaling": [], "vrijToegankelijk": false, "gemeenteBeperking": null, "openingstijden": null, "latitude": 52.592722, "longitude": 4.7195965, "bronId": "L005658"}}, {"type": "Feature", "geometry": {"type": "Point", "coordinates": [4.7191406, 52.5938869]}, "properties": {"type": "inleverpunt", "locatieNaam": "Dorcas", "straatNaam": "De Oude Werf", "straatNr": "2", "postcode": "1851 PW", "plaats": "HEILOO", "merk": "Stibat", "puntType": "inzamelbak", "materialen": ["batterijen"], "uitbetaling": [], "vrijToegankelijk": false, "gemeenteBeperking": null, "openingstijden": null, "latitude": 52.5938869, "longitude": 4.7191406, "bronId": "L048975"}}, {"type": "Feature", "geometry": {"type": "Point", "coordinates": [4.7200667, 52.5951331]}, "properties": {"type": "inleverpunt", "locatieNaam": "Afvalbrengplaats Heiloo", "straatNaam": "Rosendaal", "straatNr": "2", "postcode": "1851 RL", "plaats": "HEILOO", "merk": "Stibat", "puntType": "inzamelbak", "materialen": ["batterijen"], "uitbetaling": [], "vrijToegankelijk": false, "gemeenteBeperking": null, "openingstijden": null, "latitude": 52.5951331, "longitude": 4.7200667, "bronId": "L035602"}}, {"type": "Feature", "geometry": {"type": "Point", "coordinates": [4.7123744, 52.5922804]}, "properties": {"type": "inleverpunt", "locatieNaam": "1819 Albert Heijn", "straatNaam": "Rosendaal", "straatNr": "95", "postcode": "1851 RK", "plaats": "HEILOO", "merk": "Stibat", "puntType": "inzamelbak", "materialen": ["batterijen"], "uitbetaling": [], "vrijToegankelijk": false, "gemeenteBeperking": null, "openingstijden": null, "latitude": 52.5922804, "longitude": 4.7123744, "bronId": "L005181"}}, {"type": "Feature", "geometry": {"type": "Point", "coordinates": [4.7091316, 52.5962937]}, "properties": {"type": "inleverpunt", "locatieNaam": "TomTrade", "straatNaam": "Kennemerstraatweg", "straatNr": "464-ruimte 0.30", "postcode": "1851 NG", "plaats": "HEILOO", "merk": "Stibat", "puntType": "inzamelbak", "materialen": ["batterijen"], "uitbetaling": [], "vrijToegankelijk": false, "gemeenteBeperking": null, "openingstijden": null, "latitude": 52.5962937, "longitude": 4.7091316, "bronId": "L040400"}}, {"type": "Feature", "geometry": {"type": "Point", "coordinates": [4.7064885, 52.5959493]}, "properties": {"type": "inleverpunt", "locatieNaam": "Radio Bakker", "straatNaam": "Kennemerstraatweg", "straatNr": "255", "postcode": "1851 NA", "plaats": "HEILOO", "merk": "Stibat", "puntType": "inzamelbak", "materialen": ["batterijen"], "uitbetaling": [], "vrijToegankelijk": false, "gemeenteBeperking": null, "openingstijden": null, "latitude": 52.5959493, "longitude": 4.7064885, "bronId": "L034731"}}, {"type": "Feature", "geometry": {"type": "Point", "coordinates": [4.6890297, 52.5917863]}, "properties": {"type": "inleverpunt", "locatieNaam": "Deka Tuin", "straatNaam": "Vennewatersweg", "straatNr": "15", "postcode": "1852 PT", "plaats": "HEILOO", "merk": "Stibat", "puntType": "inzamelbak", "materialen": ["batterijen"], "uitbetaling": [], "vrijToegankelijk": false, "gemeenteBeperking": null, "openingstijden": null, "latitude": 52.5917863, "longitude": 4.6890297, "bronId": "L031841"}}, {"type": "Feature", "geometry": {"type": "Point", "coordinates": [4.7024208, 52.5998662]}, "properties": {"type": "inleverpunt", "locatieNaam": "Rutgers Hoortechniek", "straatNaam": "Heerenweg", "straatNr": "203", "postcode": "1851 KP", "plaats": "HEILOO", "merk": "Stibat", "puntType": "inzamelbak", "materialen": ["batterijen"], "uitbetaling": [], "vrijToegankelijk": false, "gemeenteBeperking": null, "openingstijden": null, "latitude": 52.5998662, "longitude": 4.7024208, "bronId": "L039032"}}, {"type": "Feature", "geometry": {"type": "Point", "coordinates": [4.7030588, 52.6002234]}, "properties": {"type": "inleverpunt", "locatieNaam": "Thuiskantoor", "straatNaam": "Heerenweg", "straatNr": "199", "postcode": "1851 KP", "plaats": "HEILOO", "merk": "Stibat", "puntType": "inzamelbak", "materialen": ["batterijen"], "uitbetaling": [], "vrijToegankelijk": false, "gemeenteBeperking": null, "openingstijden": null, "latitude": 52.6002234, "longitude": 4.7030588, "bronId": "L028703"}}, {"type": "Feature", "geometry": {"type": "Point", "coordinates": [4.7112801, 52.6039755]}, "properties": {"type": "inleverpunt", "locatieNaam": "Bike Totaal Fietsenhandel Boersen", "straatNaam": "Van Aostastraat", "straatNr": "28", "postcode": "1851 JC", "plaats": "HEILOO", "merk": "Stibat", "puntType": "inzamelbak", "materialen": ["batterijen"], "uitbetaling": [], "vrijToegankelijk": false, "gemeenteBeperking": null, "openingstijden": null, "latitude": 52.6039755, "longitude": 4.7112801, "bronId": "L016992"}}, {"type": "Feature", "geometry": {"type": "Point", "coordinates": [4.7015275, 52.5997446]}, "properties": {"type": "inleverpunt", "locatieNaam": "Vomar", "straatNaam": "Stationsplein", "straatNr": "34", "postcode": "1851 LN", "plaats": "HEILOO", "merk": "Stibat", "puntType": "inzamelbak", "materialen": ["batterijen"], "uitbetaling": [], "vrijToegankelijk": false, "gemeenteBeperking": null, "openingstijden": null, "latitude": 52.5997446, "longitude": 4.7015275, "bronId": "L021211"}}, {"type": "Feature", "geometry": {"type": "Point", "coordinates": [4.6972492, 52.5979216]}, "properties": {"type": "inleverpunt", "locatieNaam": "Bosman Tweewielers", "straatNaam": "Westerweg", "straatNr": "295", "postcode": "1852 AH", "plaats": "HEILOO", "merk": "Stibat", "puntType": "inzamelbak", "materialen": ["batterijen"], "uitbetaling": [], "vrijToegankelijk": false, "gemeenteBeperking": null, "openingstijden": null, "latitude": 52.5979216, "longitude": 4.6972492, "bronId": "L032857"}}, {"type": "Feature", "geometry": {"type": "Point", "coordinates": [4.7016642, 52.6000633]}, "properties": {"type": "inleverpunt", "locatieNaam": "Kruidvat", "straatNaam": "Stationsplein", "straatNr": "41", "postcode": "1851 LN", "plaats": "HEILOO", "merk": "Stibat", "puntType": "inzamelbak", "materialen": ["batterijen"], "uitbetaling": [], "vrijToegankelijk": false, "gemeenteBeperking": null, "openingstijden": null, "latitude": 52.6000633, "longitude": 4.7016642, "bronId": "L035978"}}, {"type": "Feature", "geometry": {"type": "Point", "coordinates": [4.7123474, 52.605396]}, "properties": {"type": "inleverpunt", "locatieNaam": "Foto Heiloo", "straatNaam": "'t Loo", "straatNr": "10", "postcode": "1851 HT", "plaats": "HEILOO", "merk": "Stibat", "puntType": "inzamelbak", "materialen": ["batterijen"], "uitbetaling": [], "vrijToegankelijk": false, "gemeenteBeperking": null, "openingstijden": null, "latitude": 52.605396, "longitude": 4.7123474, "bronId": "L020882"}}, {"type": "Feature", "geometry": {"type": "Point", "coordinates": [4.7120961, 52.605419]}, "properties": {"type": "inleverpunt", "locatieNaam": "7245 Etos", "straatNaam": "'t Loo", "straatNr": "11", "postcode": "1851 HT", "plaats": "HEILOO", "merk": "Stibat", "puntType": "inzamelbak", "materialen": ["batterijen"], "uitbetaling": [], "vrijToegankelijk": false, "gemeenteBeperking": null, "openingstijden": null, "latitude": 52.605419, "longitude": 4.7120961, "bronId": "L022323"}}, {"type": "Feature", "geometry": {"type": "Point", "coordinates": [4.7107554, 52.6048424]}, "properties": {"type": "inleverpunt", "locatieNaam": "HEMA Winkelhof 't Loo", "straatNaam": "Winkelhof 't Loo", "straatNr": "36", "postcode": "1851 HT", "plaats": "HEILOO", "merk": "Stibat", "puntType": "inzamelbak", "materialen": ["batterijen"], "uitbetaling": [], "vrijToegankelijk": false, "gemeenteBeperking": null, "openingstijden": null, "latitude": 52.6048424, "longitude": 4.7107554, "bronId": "L006603"}}, {"type": "Feature", "geometry": {"type": "Point", "coordinates": [4.7105591, 52.6047892]}, "properties": {"type": "inleverpunt", "locatieNaam": "Intertoys", "straatNaam": "'t Loo", "straatNr": "42", "postcode": "1851 HT", "plaats": "HEILOO", "merk": "Stibat", "puntType": "inzamelbak", "materialen": ["batterijen"], "uitbetaling": [], "vrijToegankelijk": false, "gemeenteBeperking": null, "openingstijden": null, "latitude": 52.6047892, "longitude": 4.7105591, "bronId": "L039883"}}, {"type": "Feature", "geometry": {"type": "Point", "coordinates": [4.7116667, 52.6052778]}, "properties": {"type": "inleverpunt", "locatieNaam": "Kruidvat", "straatNaam": "'t Loo", "straatNr": "54-57", "postcode": "1851 HT", "plaats": "HEILOO", "merk": "Stibat", "puntType": "inzamelbak", "materialen": ["batterijen"], "uitbetaling": [], "vrijToegankelijk": false, "gemeenteBeperking": null, "openingstijden": null, "latitude": 52.6052778, "longitude": 4.7116667, "bronId": "L015812"}}, {"type": "Feature", "geometry": {"type": "Point", "coordinates": [4.711453, 52.6052048]}, "properties": {"type": "inleverpunt", "locatieNaam": "Phone House", "straatNaam": "t Loo", "straatNr": "53", "postcode": "1851 HT", "plaats": "Heiloo", "merk": "Stibat", "puntType": "inzamelbak", "materialen": ["batterijen"], "uitbetaling": [], "vrijToegankelijk": false, "gemeenteBeperking": null, "openingstijden": null, "latitude": 52.6052048, "longitude": 4.711453, "bronId": "L022637"}}, {"type": "Feature", "geometry": {"type": "Point", "coordinates": [4.7123995, 52.6056433]}, "properties": {"type": "inleverpunt", "locatieNaam": "Zeeman", "straatNaam": "Winkelhof 't Loo", "straatNr": "2-3", "postcode": "1851 HT", "plaats": "Heiloo", "merk": "Stibat", "puntType": "inzamelbak", "materialen": ["batterijen"], "uitbetaling": [], "vrijToegankelijk": false, "gemeenteBeperking": null, "openingstijden": null, "latitude": 52.6056433, "longitude": 4.7123995, "bronId": "L020088"}}, {"type": "Feature", "geometry": {"type": "Point", "coordinates": [4.6987973, 52.5998415]}, "properties": {"type": "inleverpunt", "locatieNaam": "Kosters Audio en Witgoed BV", "straatNaam": "Westerweg", "straatNr": "258", "postcode": "1852 AR", "plaats": "HEILOO", "merk": "Stibat", "puntType": "inzamelbak", "materialen": ["batterijen"], "uitbetaling": [], "vrijToegankelijk": false, "gemeenteBeperking": null, "openingstijden": null, "latitude": 52.5998415, "longitude": 4.6987973, "bronId": "L042086"}}, {"type": "Feature", "geometry": {"type": "Point", "coordinates": [4.7120956, 52.6057341]}, "properties": {"type": "inleverpunt", "locatieNaam": "1217 Albert Heijn", "straatNaam": "'t Loo", "straatNr": "61", "postcode": "1851 HT", "plaats": "HEILOO", "merk": "Stibat", "puntType": "inzamelbak", "materialen": ["batterijen"], "uitbetaling": [], "vrijToegankelijk": false, "gemeenteBeperking": null, "openingstijden": null, "latitude": 52.6057341, "longitude": 4.7120956, "bronId": "L006619"}}, {"type": "Feature", "geometry": {"type": "Point", "coordinates": [4.7149706, 52.6075585]}, "properties": {"type": "inleverpunt", "locatieNaam": "Bruna", "straatNaam": "Heerenweg", "straatNr": "67-69", "postcode": "1851 KL", "plaats": "HEILOO", "merk": "Stibat", "puntType": "inzamelbak", "materialen": ["batterijen"], "uitbetaling": [], "vrijToegankelijk": false, "gemeenteBeperking": null, "openingstijden": null, "latitude": 52.6075585, "longitude": 4.7149706, "bronId": "L031549"}}, {"type": "Feature", "geometry": {"type": "Point", "coordinates": [4.6878869, 52.6037143]}, "properties": {"type": "inleverpunt", "locatieNaam": "Primera", "straatNaam": "Het Hoekstuk", "straatNr": "4", "postcode": "1852 KX", "plaats": "HEILOO", "merk": "Stibat", "puntType": "inzamelbak", "materialen": ["batterijen"], "uitbetaling": [], "vrijToegankelijk": false, "gemeenteBeperking": null, "openingstijden": null, "latitude": 52.6037143, "longitude": 4.6878869, "bronId": "L038580"}}, {"type": "Feature", "geometry": {"type": "Point", "coordinates": [4.6879819, 52.6038558]}, "properties": {"type": "inleverpunt", "locatieNaam": "1606 Albert Heijn", "straatNaam": "Het Hoekstuk", "straatNr": "6", "postcode": "1852 KX", "plaats": "HEILOO", "merk": "Stibat", "puntType": "inzamelbak", "materialen": ["batterijen"], "uitbetaling": [], "vrijToegankelijk": false, "gemeenteBeperking": null, "openingstijden": null, "latitude": 52.6038558, "longitude": 4.6879819, "bronId": "L019357"}}, {"type": "Feature", "geometry": {"type": "Point", "coordinates": [4.6876212, 52.6037127]}, "properties": {"type": "inleverpunt", "locatieNaam": "Lidl", "straatNaam": "Het Hoekstuk", "straatNr": "12", "postcode": "1852 KX", "plaats": "HEILOO", "merk": "Stibat", "puntType": "inzamelbak", "materialen": ["batterijen"], "uitbetaling": [], "vrijToegankelijk": false, "gemeenteBeperking": null, "openingstijden": null, "latitude": 52.6037127, "longitude": 4.6876212, "bronId": "L029691"}}, {"type": "Feature", "geometry": {"type": "Point", "coordinates": [4.6878181, 52.6038879]}, "properties": {"type": "inleverpunt", "locatieNaam": "6296 Etos", "straatNaam": "Hoekstuk", "straatNr": "8", "postcode": "1852 KX", "plaats": "HEILOO", "merk": "Stibat", "puntType": "inzamelbak", "materialen": ["batterijen"], "uitbetaling": [], "vrijToegankelijk": false, "gemeenteBeperking": null, "openingstijden": null, "latitude": 52.6038879, "longitude": 4.6878181, "bronId": "L026078"}}, {"type": "Feature", "geometry": {"type": "Polygon", "coordinates": [[[4.7375460010864145, 52.5938480042703], [4.736966001085937, 52.5957620042714], [4.737930001086978, 52.59739300427231], [4.73650800108567, 52.599446004273496], [4.736148001085454, 52.60220400427506], [4.735410001084804, 52.60382400427599], [4.735496001084949, 52.60498200427663], [4.736413001085887, 52.60546000427691], [4.734634001084194, 52.606951004277754], [4.733348001082946, 52.607547004278096], [4.739451001089338, 52.61386800428169], [4.738099001088072, 52.61537900428254], [4.728851001079105, 52.61978500428501], [4.727663001077948, 52.62026000428529], [4.727476001077753, 52.62007700428518], [4.719972001070452, 52.62314200428691], [4.716241001066842, 52.62502500428798], [4.7152160010658015, 52.624572004287735], [4.714587001065186, 52.62478200428781], [4.713050001063617, 52.62399800428738], [4.711214001061726, 52.62273100428668], [4.710690001061156, 52.621784004286134], [4.707955001058363, 52.620348004285326], [4.7056010010560785, 52.621384004285865], [4.689993001040688, 52.623751004287236], [4.688861001039472, 52.62197900428622], [4.6855610010360556, 52.61942300428472], [4.685806001036214, 52.617770004283805], [4.685014001035368, 52.61665400428317], [4.683587001033732, 52.612532004280844], [4.680767001030812, 52.61027900427957], [4.680482001030436, 52.60855600427858], [4.6784040010282615, 52.60652200427741], [4.678365001028191, 52.60583000427704], [4.6744430010241835, 52.60377100427586], [4.673145001022506, 52.59643200427166], [4.673601001022877, 52.59486400427079], [4.672951001022212, 52.59451100427059], [4.673863001023037, 52.59292900426967], [4.672401001021548, 52.59229700426935], [4.672233001021364, 52.591901004269126], [4.67237200102145, 52.59099700426856], [4.673754001022793, 52.59038300426821], [4.673990001023004, 52.58988600426796], [4.670645001019618, 52.588786004267305], [4.67164100102053, 52.587298004266465], [4.673296001022162, 52.58704500426633], [4.6776350010264025, 52.58557500426549], [4.677969001026714, 52.58520100426528], [4.6775970010262915, 52.58423500426475], [4.679762001028421, 52.583751004264485], [4.680078001028765, 52.5843270042648], [4.68624800103483, 52.58297800426404], [4.685317001033802, 52.58097700426292], [4.691305001039709, 52.580049004262385], [4.691086001039466, 52.57957800426206], [4.694573001042906, 52.57904500426184], [4.696857001045175, 52.578972004261765], [4.698319001046779, 52.58186000426343], [4.703360001051776, 52.58155100426325], [4.702957001051344, 52.58095900426291], [4.70383800105222, 52.5809230042629], [4.703756001052109, 52.58033900426255], [4.7071660010554925, 52.58018600426252], [4.711560001059884, 52.58056500426271], [4.723068001071294, 52.57984800426231], [4.724913001073104, 52.57936800426203], [4.724883001073041, 52.57873700426169], [4.725662001073823, 52.578832004261756], [4.7270920010752935, 52.57973900426226], [4.739993001088086, 52.57892800426181], [4.740640001088791, 52.58020000426255], [4.74042100108863, 52.581281004263126], [4.742041001090339, 52.58318100426422], [4.7413780010896875, 52.58335000426432], [4.742893001091314, 52.58569800426565], [4.744456001093106, 52.59028800426828], [4.750968001099522, 52.58911900426761], [4.7521390011008275, 52.591891004269186], [4.7375460010864145, 52.5938480042703]]]}, "properties": {"type": "boundary", "gemeente": "Heiloo"}}]}