{"type": "FeatureCollection", "metadata": {"gemeente": "Hellendoorn", "slug": "hellendoorn", "generated_at": "2026-08-17T03:07:05.158046Z", "total_points": 92, "merken": ["StatiegeldNederland", "Stibat", "StichtingOPEN"], "bounds": [6.3740735, 52.34654, 6.53805, 52.4321633]}, "features": [{"type": "Feature", "geometry": {"type": "Point", "coordinates": [6.4486417, 52.3904464]}, "properties": {"type": "inleverpunt", "locatieNaam": "Albert Heijn", "straatNaam": "Dorpstraat", "straatNr": "48B", "postcode": "7447 CT", "plaats": "Hellendoorn", "merk": "StatiegeldNederland", "puntType": "automaat", "materialen": ["pet-groot", "pet-klein", "blik", "glas", "krat"], "uitbetaling": ["bonnetje"], "vrijToegankelijk": true, "gemeenteBeperking": null, "openingstijden": {"ma": "08:00–20:00", "di": "08:00–20:00", "wo": "08:00–20:00", "do": "08:00–21:00", "vr": "08:00–21:00", "za": "08:00–21:00", "zo": "12:00–18:00"}, "latitude": 52.3904464, "longitude": 6.4486417, "bronId": "276686"}}, {"type": "Feature", "geometry": {"type": "Point", "coordinates": [6.4661111, 52.3644444]}, "properties": {"type": "inleverpunt", "locatieNaam": "Albert Heijn", "straatNaam": "Spoelerstraat", "straatNr": "6", "postcode": "7442 AA", "plaats": "Nijverdal", "merk": "StatiegeldNederland", "puntType": "automaat", "materialen": ["pet-groot", "pet-klein", "blik", "glas", "krat"], "uitbetaling": ["bonnetje", "donatie"], "vrijToegankelijk": true, "gemeenteBeperking": null, "openingstijden": {"ma": "08:00–22:00", "di": "08:00–22:00", "wo": "08:00–22:00", "do": "08:00–22:00", "vr": "08:00–22:00", "za": "08:00–22:00", "zo": "12:00–18:00"}, "latitude": 52.3644444, "longitude": 6.4661111, "bronId": "277247"}}, {"type": "Feature", "geometry": {"type": "Point", "coordinates": [6.4678205, 52.3650541]}, "properties": {"type": "inleverpunt", "locatieNaam": "Aldi", "straatNaam": "Grotestraat", "straatNr": "92", "postcode": "7443 BL", "plaats": "Nijverdal", "merk": "StatiegeldNederland", "puntType": "automaat", "materialen": ["pet-groot", "pet-klein", "blik", "glas", "krat"], "uitbetaling": ["bonnetje"], "vrijToegankelijk": true, "gemeenteBeperking": null, "openingstijden": {"ma": "08:00–20:00", "di": "08:00–20:00", "wo": "08:00–20:00", "do": "08:00–20:00", "vr": "08:00–20:00", "za": "08:00–20:00", "zo": "12:00–18:00"}, "latitude": 52.3650541, "longitude": 6.4678205, "bronId": "277629"}}, {"type": "Feature", "geometry": {"type": "Point", "coordinates": [6.4358522, 52.3899038]}, "properties": {"type": "inleverpunt", "locatieNaam": "Avonturenpark Hellendoorn", "straatNaam": "Luttenbergerweg", "straatNr": "22", "postcode": "7447 PB", "plaats": "Hellendoorn", "merk": "StatiegeldNederland", "puntType": "automaat", "materialen": ["pet-groot", "pet-klein", "blik"], "uitbetaling": ["bonnetje", "donatie", "tikkie"], "vrijToegankelijk": true, "gemeenteBeperking": null, "openingstijden": null, "latitude": 52.3899038, "longitude": 6.4358522, "bronId": "278299"}}, {"type": "Feature", "geometry": {"type": "Point", "coordinates": [6.37912, 52.359]}, "properties": {"type": "inleverpunt", "locatieNaam": "Buurtsuper", "straatNaam": "Kerkweg", "straatNr": "7", "postcode": "7448 AC", "plaats": "Haarle", "merk": "StatiegeldNederland", "puntType": "automaat", "materialen": ["glas", "krat"], "uitbetaling": ["bonnetje"], "vrijToegankelijk": true, "gemeenteBeperking": null, "openingstijden": {"ma": "08:30–18:00", "di": "08:30–18:00", "wo": "08:30–18:00", "do": "08:30–18:00", "vr": "08:30–20:00", "za": "08:30–16:00", "zo": "Gesloten"}, "latitude": 52.359, "longitude": 6.37912, "bronId": "278451"}}, {"type": "Feature", "geometry": {"type": "Point", "coordinates": [6.3791098, 52.3590235]}, "properties": {"type": "inleverpunt", "locatieNaam": "Buurtsuper Haarle", "straatNaam": "Kerkweg", "straatNr": "7", "postcode": "7448 AC", "plaats": "Haarle", "merk": "StatiegeldNederland", "puntType": "automaat", "materialen": ["pet-groot", "pet-klein", "blik"], "uitbetaling": ["bonnetje"], "vrijToegankelijk": true, "gemeenteBeperking": null, "openingstijden": null, "latitude": 52.3590235, "longitude": 6.3791098, "bronId": "278459"}}, {"type": "Feature", "geometry": {"type": "Point", "coordinates": [6.4622049, 52.3558017]}, "properties": {"type": "inleverpunt", "locatieNaam": "CSG Reggesteyn", "straatNaam": "Noetselerbergweg", "straatNr": "20", "postcode": "7441 BK", "plaats": "Nijverdal", "merk": "StatiegeldNederland", "puntType": "automaat", "materialen": ["pet-klein", "blik"], "uitbetaling": ["donatie"], "vrijToegankelijk": false, "gemeenteBeperking": null, "openingstijden": null, "latitude": 52.3558017, "longitude": 6.4622049, "bronId": "278931"}}, {"type": "Feature", "geometry": {"type": "Point", "coordinates": [6.5379677, 52.4319396]}, "properties": {"type": "inleverpunt", "locatieNaam": "Dagwinkel Maneschijn Daarle", "straatNaam": "n Tip", "straatNr": "9", "postcode": "7688 RR", "plaats": "Daarle", "merk": "StatiegeldNederland", "puntType": "automaat", "materialen": ["pet-groot", "pet-klein", "blik"], "uitbetaling": ["bonnetje"], "vrijToegankelijk": true, "gemeenteBeperking": null, "openingstijden": {"ma": "16:00–00:00", "di": "16:00–00:00", "wo": "11:00–00:00", "do": "11:00–00:00", "vr": "11:00–01:00", "za": "11:00–01:00", "zo": "Gesloten"}, "latitude": 52.4319396, "longitude": 6.5379677, "bronId": "278968"}}, {"type": "Feature", "geometry": {"type": "Point", "coordinates": [6.4602419, 52.3713517]}, "properties": {"type": "inleverpunt", "locatieNaam": "Hockey Club Hellendoorn-nijverdal", "straatNaam": "Koersendijk", "straatNr": "3", "postcode": "7443 PP", "plaats": "Nijverdal", "merk": "StatiegeldNederland", "puntType": "balie", "materialen": ["pet-groot", "pet-klein", "blik"], "uitbetaling": [], "vrijToegankelijk": false, "gemeenteBeperking": null, "openingstijden": {"ma": "Gesloten", "di": "Gesloten", "wo": "Gesloten", "do": "Gesloten", "vr": "Gesloten", "za": "08:00–20:00", "zo": "08:00–20:00"}, "latitude": 52.3713517, "longitude": 6.4602419, "bronId": "279711"}}, {"type": "Feature", "geometry": {"type": "Point", "coordinates": [6.456592, 52.365477]}, "properties": {"type": "inleverpunt", "locatieNaam": "Jumbo", "straatNaam": "Grotestraat", "straatNr": "135", "postcode": "7443 BE", "plaats": "Nijverdal", "merk": "StatiegeldNederland", "puntType": "automaat", "materialen": ["pet-groot", "pet-klein", "blik", "glas", "krat"], "uitbetaling": ["bonnetje", "donatie"], "vrijToegankelijk": true, "gemeenteBeperking": null, "openingstijden": {"ma": "08:00–21:00", "di": "08:00–21:00", "wo": "08:00–21:00", "do": "08:00–21:00", "vr": "08:00–21:00", "za": "08:00–21:00", "zo": "12:00–18:00"}, "latitude": 52.365477, "longitude": 6.456592, "bronId": "280121"}}, {"type": "Feature", "geometry": {"type": "Point", "coordinates": [6.482797, 52.377312]}, "properties": {"type": "inleverpunt", "locatieNaam": "Jumbo", "straatNaam": "Kuperserf", "straatNr": "13", "postcode": "7443 HC", "plaats": "Nijverdal", "merk": "StatiegeldNederland", "puntType": "automaat", "materialen": ["pet-groot", "pet-klein", "blik", "glas", "krat"], "uitbetaling": ["bonnetje", "donatie"], "vrijToegankelijk": true, "gemeenteBeperking": null, "openingstijden": {"ma": "08:00–21:00", "di": "08:00–21:00", "wo": "08:00–21:00", "do": "08:00–21:00", "vr": "08:00–21:00", "za": "08:00–21:00", "zo": "12:00–18:00"}, "latitude": 52.377312, "longitude": 6.482797, "bronId": "280240"}}, {"type": "Feature", "geometry": {"type": "Point", "coordinates": [6.46856, 52.36532]}, "properties": {"type": "inleverpunt", "locatieNaam": "Lidl", "straatNaam": "Grotestraat", "straatNr": "76", "postcode": "7443 BK", "plaats": "Nijverdal", "merk": "StatiegeldNederland", "puntType": "automaat", "materialen": ["pet-groot", "pet-klein", "blik", "glas", "krat"], "uitbetaling": ["bonnetje", "donatie"], "vrijToegankelijk": true, "gemeenteBeperking": null, "openingstijden": {"ma": "07:00–21:00", "di": "07:00–21:00", "wo": "07:00–21:00", "do": "07:00–21:00", "vr": "07:00–21:00", "za": "07:00–21:00", "zo": "12:00–18:00"}, "latitude": 52.36532, "longitude": 6.46856, "bronId": "280909"}}, {"type": "Feature", "geometry": {"type": "Point", "coordinates": [6.5060258, 52.3610766]}, "properties": {"type": "inleverpunt", "locatieNaam": "Leus Splash Nijverdal", "straatNaam": "Rudolf Dieselstraat", "straatNr": "19", "postcode": "7442 DR", "plaats": "Nijverdal", "merk": "StatiegeldNederland", "puntType": "automaat", "materialen": ["pet-groot", "pet-klein", "blik", "krat"], "uitbetaling": ["donatie", "tikkie"], "vrijToegankelijk": true, "gemeenteBeperking": null, "openingstijden": {"ma": "08:00–22:00", "di": "08:00–20:00", "wo": "08:00–20:00", "do": "08:00–20:00", "vr": "08:00–20:00", "za": "08:00–20:00", "zo": "08:00–20:00"}, "latitude": 52.3610766, "longitude": 6.5060258, "bronId": "281218"}}, {"type": "Feature", "geometry": {"type": "Point", "coordinates": [6.4618719, 52.3651503]}, "properties": {"type": "inleverpunt", "locatieNaam": "Medikamente die Grenze", "straatNaam": "Grotestraat", "straatNr": "71-73", "postcode": "7443 BC", "plaats": "Nijverdal", "merk": "StatiegeldNederland", "puntType": "automaat", "materialen": ["pet-groot", "pet-klein", "blik"], "uitbetaling": ["bonnetje"], "vrijToegankelijk": true, "gemeenteBeperking": null, "openingstijden": {"ma": "08:00–22:00", "di": "08:00–20:00", "wo": "08:00–20:00", "do": "08:00–20:00", "vr": "08:00–20:00", "za": "08:00–20:00", "zo": "08:00–20:00"}, "latitude": 52.3651503, "longitude": 6.4618719, "bronId": "281452"}}, {"type": "Feature", "geometry": {"type": "Point", "coordinates": [6.4643892, 52.3719816]}, "properties": {"type": "inleverpunt", "locatieNaam": "Nkc51", "straatNaam": "Sportlaan", "straatNr": "1", "postcode": "7443 RC", "plaats": "Nijverdal", "merk": "StatiegeldNederland", "puntType": "balie", "materialen": ["pet-groot", "pet-klein", "blik"], "uitbetaling": [], "vrijToegankelijk": false, "gemeenteBeperking": null, "openingstijden": {"ma": "16:45–23:00", "di": "16:45–23:00", "wo": "16:45–23:00", "do": "16:45–23:00", "vr": "Gesloten", "za": "07:00–23:00", "zo": "Gesloten"}, "latitude": 52.3719816, "longitude": 6.4643892, "bronId": "281672"}}, {"type": "Feature", "geometry": {"type": "Point", "coordinates": [6.4740485, 52.3556312]}, "properties": {"type": "inleverpunt", "locatieNaam": "Plus", "straatNaam": "Portlandweg", "straatNr": "9", "postcode": "7442 VB", "plaats": "Nijverdal", "merk": "StatiegeldNederland", "puntType": "automaat", "materialen": ["pet-groot", "pet-klein", "blik", "glas", "krat"], "uitbetaling": ["bonnetje", "donatie"], "vrijToegankelijk": true, "gemeenteBeperking": null, "openingstijden": {"ma": "08:00–20:00", "di": "08:00–20:00", "wo": "08:00–20:00", "do": "08:00–20:00", "vr": "08:00–20:00", "za": "08:00–20:00", "zo": "12:00–18:00"}, "latitude": 52.3556312, "longitude": 6.4740485, "bronId": "282232"}}, {"type": "Feature", "geometry": {"type": "Point", "coordinates": [6.4556131, 52.3647948]}, "properties": {"type": "inleverpunt", "locatieNaam": "Plus", "straatNaam": "Smidsweg", "straatNr": "7C", "postcode": "7441 EJ", "plaats": "Nijverdal", "merk": "StatiegeldNederland", "puntType": "automaat", "materialen": ["pet-groot", "pet-klein", "blik", "glas", "krat"], "uitbetaling": ["bonnetje"], "vrijToegankelijk": true, "gemeenteBeperking": null, "openingstijden": {"ma": "08:00–21:00", "di": "08:00–21:00", "wo": "08:00–21:00", "do": "08:00–21:00", "vr": "08:00–21:00", "za": "08:00–21:00", "zo": "12:00–18:00"}, "latitude": 52.3647948, "longitude": 6.4556131, "bronId": "282279"}}, {"type": "Feature", "geometry": {"type": "Point", "coordinates": [6.4644648, 52.3704313]}, "properties": {"type": "inleverpunt", "locatieNaam": "Rksv De Zweef", "straatNaam": "Koersendijk", "straatNr": "25", "postcode": "7443 PP", "plaats": "Nijverdal", "merk": "StatiegeldNederland", "puntType": "balie", "materialen": ["pet-groot", "pet-klein", "blik"], "uitbetaling": [], "vrijToegankelijk": false, "gemeenteBeperking": null, "openingstijden": {"ma": "08:00–22:00", "di": "08:00–22:00", "wo": "08:00–22:00", "do": "08:00–22:00", "vr": "08:00–22:00", "za": "08:00–22:00", "zo": "08:00–20:00"}, "latitude": 52.3704313, "longitude": 6.4644648, "bronId": "282559"}}, {"type": "Feature", "geometry": {"type": "Point", "coordinates": [6.3740735, 52.3586678]}, "properties": {"type": "inleverpunt", "locatieNaam": "S.v. Haarle", "straatNaam": "Haarlerveldweg", "straatNr": "1a", "postcode": "7448 PP", "plaats": "Haarle", "merk": "StatiegeldNederland", "puntType": "balie", "materialen": ["pet-groot", "pet-klein", "blik"], "uitbetaling": [], "vrijToegankelijk": false, "gemeenteBeperking": null, "openingstijden": null, "latitude": 52.3586678, "longitude": 6.3740735, "bronId": "282675"}}, {"type": "Feature", "geometry": {"type": "Point", "coordinates": [6.5079279, 52.3834766]}, "properties": {"type": "inleverpunt", "locatieNaam": "Sagitta Et Arcus", "straatNaam": "Noordelijke Hoofddijk", "straatNr": "", "postcode": "7443 RV", "plaats": "Nijverdal", "merk": "StatiegeldNederland", "puntType": "balie", "materialen": ["pet-groot", "pet-klein", "blik"], "uitbetaling": [], "vrijToegankelijk": false, "gemeenteBeperking": null, "openingstijden": {"ma": "Gesloten", "di": "Gesloten", "wo": "18:30–20:30", "do": "Gesloten", "vr": "Gesloten", "za": "15:00–17:00", "zo": "Gesloten"}, "latitude": 52.3834766, "longitude": 6.5079279, "bronId": "282710"}}, {"type": "Feature", "geometry": {"type": "Point", "coordinates": [6.464105, 52.356911]}, "properties": {"type": "inleverpunt", "locatieNaam": "Shell", "straatNaam": "Rijssensestraat", "straatNr": "146", "postcode": "7441 AK", "plaats": "Nijverdal", "merk": "StatiegeldNederland", "puntType": "balie", "materialen": ["pet-groot", "pet-klein", "blik"], "uitbetaling": [], "vrijToegankelijk": true, "gemeenteBeperking": null, "openingstijden": {"ma": "06:00–22:00", "di": "06:00–22:00", "wo": "06:00–22:00", "do": "06:00–22:00", "vr": "06:00–22:00", "za": "09:00–22:00", "zo": "09:00–22:00"}, "latitude": 52.356911, "longitude": 6.464105, "bronId": "282967"}}, {"type": "Feature", "geometry": {"type": "Point", "coordinates": [6.4157987, 52.3826423]}, "properties": {"type": "inleverpunt", "locatieNaam": "Sula B.v.", "straatNaam": "Tunnelweg", "straatNr": "7F", "postcode": "7448 RV", "plaats": "Haarle", "merk": "StatiegeldNederland", "puntType": "balie", "materialen": ["pet-groot", "pet-klein", "blik"], "uitbetaling": [], "vrijToegankelijk": true, "gemeenteBeperking": null, "openingstijden": null, "latitude": 52.3826423, "longitude": 6.4157987, "bronId": "283514"}}, {"type": "Feature", "geometry": {"type": "Point", "coordinates": [6.4870895, 52.3496801]}, "properties": {"type": "inleverpunt", "locatieNaam": "Svvn", "straatNaam": "Rossinistraat", "straatNr": "2", "postcode": "7442 GZ", "plaats": "Nijverdal", "merk": "StatiegeldNederland", "puntType": "balie", "materialen": ["pet-groot", "pet-klein", "blik"], "uitbetaling": [], "vrijToegankelijk": false, "gemeenteBeperking": null, "openingstijden": {"ma": "Gesloten", "di": "Gesloten", "wo": "19:30–23:00", "do": "19:30–23:00", "vr": "Gesloten", "za": "08:00–19:00", "zo": "Gesloten"}, "latitude": 52.3496801, "longitude": 6.4870895, "bronId": "283616"}}, {"type": "Feature", "geometry": {"type": "Point", "coordinates": [6.4672, 52.3588698]}, "properties": {"type": "inleverpunt", "locatieNaam": "ViaTim", "straatNaam": "Jan Steenstraat", "straatNr": "8", "postcode": "7442 KD", "plaats": "Nijverdal", "merk": "StatiegeldNederland", "puntType": "balie", "materialen": ["pet-groot", "pet-klein", "blik"], "uitbetaling": ["tikkie"], "vrijToegankelijk": true, "gemeenteBeperking": null, "openingstijden": {"ma": "16:00–21:00", "di": "16:00–21:00", "wo": "16:00–21:00", "do": "16:00–21:00", "vr": "16:00–21:00", "za": "Gesloten", "zo": "Gesloten"}, "latitude": 52.3588698, "longitude": 6.4672, "bronId": "284146"}}, {"type": "Feature", "geometry": {"type": "Point", "coordinates": [6.3791, 52.35903]}, "properties": {"type": "inleverpunt", "locatieNaam": "Spar Haarle", "straatNaam": "Kerkweg", "straatNr": "7", "postcode": "7448 AC", "plaats": "Haarle", "merk": "StichtingOPEN", "puntType": "balie", "materialen": ["batterijen", "lampen"], "uitbetaling": [], "vrijToegankelijk": false, "gemeenteBeperking": null, "openingstijden": null, "latitude": 52.35903, "longitude": 6.3791, "bronId": "SP00027304"}}, {"type": "Feature", "geometry": {"type": "Point", "coordinates": [6.455639, 52.364742]}, "properties": {"type": "inleverpunt", "locatieNaam": "Action Nijverdal 1193", "straatNaam": "Smidsweg", "straatNr": "9", "postcode": "7441 EJ", "plaats": "Nijverdal", "merk": "StichtingOPEN", "puntType": "balie", "materialen": ["batterijen", "lampen"], "uitbetaling": [], "vrijToegankelijk": false, "gemeenteBeperking": null, "openingstijden": null, "latitude": 52.364742, "longitude": 6.455639, "bronId": "SP00007771"}}, {"type": "Feature", "geometry": {"type": "Point", "coordinates": [6.455858, 52.36483]}, "properties": {"type": "inleverpunt", "locatieNaam": "Coop Nijverdal", "straatNaam": "Smidsweg", "straatNr": "7c", "postcode": "7441 EJ", "plaats": "Nijverdal", "merk": "StichtingOPEN", "puntType": "balie", "materialen": ["batterijen", "lampen"], "uitbetaling": [], "vrijToegankelijk": false, "gemeenteBeperking": null, "openingstijden": null, "latitude": 52.36483, "longitude": 6.455858, "bronId": "SP00024357"}}, {"type": "Feature", "geometry": {"type": "Point", "coordinates": [6.456652, 52.365344]}, "properties": {"type": "inleverpunt", "locatieNaam": "Jumbo Nijverdal", "straatNaam": "Grotestraat", "straatNr": "135", "postcode": "7443 BE", "plaats": "Nijverdal", "merk": "StichtingOPEN", "puntType": "balie", "materialen": ["batterijen", "lampen"], "uitbetaling": [], "vrijToegankelijk": false, "gemeenteBeperking": null, "openingstijden": null, "latitude": 52.365344, "longitude": 6.456652, "bronId": "SP00025303"}}, {"type": "Feature", "geometry": {"type": "Point", "coordinates": [6.457127, 52.365577]}, "properties": {"type": "inleverpunt", "locatieNaam": "Plentyparts Onderdelenhuis", "straatNaam": "Grotestraat", "straatNr": "25225", "postcode": "7443 BW", "plaats": "Nijverdal", "merk": "StichtingOPEN", "puntType": "balie", "materialen": ["batterijen", "elektro-groot", "elektro-klein", "elektro-middel", "lampen", "tl-buizen"], "uitbetaling": [], "vrijToegankelijk": false, "gemeenteBeperking": null, "openingstijden": null, "latitude": 52.365577, "longitude": 6.457127, "bronId": "SP00003415"}}, {"type": "Feature", "geometry": {"type": "Point", "coordinates": [6.459337, 52.362588]}, "properties": {"type": "inleverpunt", "locatieNaam": "Dorcaswinkel Nijverdal", "straatNaam": "Beltmolenweg", "straatNr": "1", "postcode": "7442 NT", "plaats": "Nijverdal", "merk": "StichtingOPEN", "puntType": "balie", "materialen": ["elektro-groot", "elektro-klein", "elektro-middel", "lampen", "tl-buizen"], "uitbetaling": [], "vrijToegankelijk": false, "gemeenteBeperking": null, "openingstijden": null, "latitude": 52.362588, "longitude": 6.459337, "bronId": "SP00036907"}}, {"type": "Feature", "geometry": {"type": "Point", "coordinates": [6.45995, 52.36571]}, "properties": {"type": "inleverpunt", "locatieNaam": "Kruidvat Nijverdal", "straatNaam": "Grotestraat", "straatNr": "178", "postcode": "7443 BR", "plaats": "Nijverdal", "merk": "StichtingOPEN", "puntType": "balie", "materialen": ["batterijen", "lampen"], "uitbetaling": [], "vrijToegankelijk": false, "gemeenteBeperking": null, "openingstijden": null, "latitude": 52.36571, "longitude": 6.45995, "bronId": "SP00029483"}}, {"type": "Feature", "geometry": {"type": "Point", "coordinates": [6.461897, 52.36526]}, "properties": {"type": "inleverpunt", "locatieNaam": "Lidl Nijverdal", "straatNaam": "Grotestraat", "straatNr": "7476", "postcode": "7443 BK", "plaats": "Nijverdal", "merk": "StichtingOPEN", "puntType": "balie", "materialen": ["batterijen", "lampen"], "uitbetaling": [], "vrijToegankelijk": false, "gemeenteBeperking": null, "openingstijden": null, "latitude": 52.36526, "longitude": 6.461897, "bronId": "SP00025640"}}, {"type": "Feature", "geometry": {"type": "Point", "coordinates": [6.464792, 52.364371]}, "properties": {"type": "inleverpunt", "locatieNaam": "EP: Nijverdal", "straatNaam": "Markt", "straatNr": "7", "postcode": "7442 EC", "plaats": "Nijverdal", "merk": "StichtingOPEN", "puntType": "balie", "materialen": ["elektro-middel", "lampen"], "uitbetaling": [], "vrijToegankelijk": false, "gemeenteBeperking": null, "openingstijden": null, "latitude": 52.364371, "longitude": 6.464792, "bronId": "SP00009058"}}, {"type": "Feature", "geometry": {"type": "Point", "coordinates": [6.448653, 52.390448]}, "properties": {"type": "inleverpunt", "locatieNaam": "4036 Albert Heijn Hellendoorn", "straatNaam": "Dorpsstraat", "straatNr": "48b", "postcode": "7447 CT", "plaats": "Hellendoorn", "merk": "StichtingOPEN", "puntType": "balie", "materialen": ["batterijen"], "uitbetaling": [], "vrijToegankelijk": false, "gemeenteBeperking": null, "openingstijden": null, "latitude": 52.390448, "longitude": 6.448653, "bronId": "SP00023309"}}, {"type": "Feature", "geometry": {"type": "Point", "coordinates": [6.465875, 52.364191]}, "properties": {"type": "inleverpunt", "locatieNaam": "1126 Albert Heijn Nijverdal", "straatNaam": "Spoelerstraat", "straatNr": "6", "postcode": "7442 AA", "plaats": "Nijverdal", "merk": "StichtingOPEN", "puntType": "balie", "materialen": ["batterijen", "elektro-klein", "lampen"], "uitbetaling": [], "vrijToegankelijk": false, "gemeenteBeperking": null, "openingstijden": null, "latitude": 52.364191, "longitude": 6.465875, "bronId": "SP00023054"}}, {"type": "Feature", "geometry": {"type": "Point", "coordinates": [6.467898, 52.364998]}, "properties": {"type": "inleverpunt", "locatieNaam": "Aldi Nijverdal", "straatNaam": "Grotestraat", "straatNr": "90-96", "postcode": "7443 BL", "plaats": "Nijverdal", "merk": "StichtingOPEN", "puntType": "balie", "materialen": ["batterijen", "elektro-klein", "lampen"], "uitbetaling": [], "vrijToegankelijk": false, "gemeenteBeperking": null, "openingstijden": null, "latitude": 52.364998, "longitude": 6.467898, "bronId": "SP00027015"}}, {"type": "Feature", "geometry": {"type": "Point", "coordinates": [6.481961, 52.34654]}, "properties": {"type": "inleverpunt", "locatieNaam": "Expert Doornenbal Nijverdal B.V.", "straatNaam": "Rijssensestraat", "straatNr": "280", "postcode": "7441 AN", "plaats": "Nijverdal", "merk": "StichtingOPEN", "puntType": "balie", "materialen": ["batterijen", "elektro-groot", "elektro-klein", "elektro-middel", "lampen"], "uitbetaling": [], "vrijToegankelijk": false, "gemeenteBeperking": null, "openingstijden": null, "latitude": 52.34654, "longitude": 6.481961, "bronId": "SP00002574"}}, {"type": "Feature", "geometry": {"type": "Point", "coordinates": [6.476024, 52.364903]}, "properties": {"type": "inleverpunt", "locatieNaam": "Praxis Nijverdal - 2275", "straatNaam": "Wierdensestraat", "straatNr": "5", "postcode": "7443 AA", "plaats": "Nijverdal", "merk": "StichtingOPEN", "puntType": "balie", "materialen": ["elektro-middel", "lampen", "tl-buizen"], "uitbetaling": [], "vrijToegankelijk": false, "gemeenteBeperking": null, "openingstijden": null, "latitude": 52.364903, "longitude": 6.476024, "bronId": "SP00000828"}}, {"type": "Feature", "geometry": {"type": "Point", "coordinates": [6.487098, 52.354774]}, "properties": {"type": "inleverpunt", "locatieNaam": "Aldi Nijverdal", "straatNaam": "Bachlaan", "straatNr": "30", "postcode": "7442 JG", "plaats": "Nijverdal", "merk": "StichtingOPEN", "puntType": "balie", "materialen": ["batterijen", "elektro-klein", "lampen"], "uitbetaling": [], "vrijToegankelijk": false, "gemeenteBeperking": null, "openingstijden": null, "latitude": 52.354774, "longitude": 6.487098, "bronId": "SP00027029"}}, {"type": "Feature", "geometry": {"type": "Point", "coordinates": [6.48245, 52.377269]}, "properties": {"type": "inleverpunt", "locatieNaam": "Jumbo Nijverdal", "straatNaam": "Kuperserf", "straatNr": "13", "postcode": "7443 HC", "plaats": "Nijverdal", "merk": "StichtingOPEN", "puntType": "balie", "materialen": ["batterijen", "lampen"], "uitbetaling": [], "vrijToegankelijk": false, "gemeenteBeperking": null, "openingstijden": null, "latitude": 52.377269, "longitude": 6.48245, "bronId": "SP00025306"}}, {"type": "Feature", "geometry": {"type": "Point", "coordinates": [6.483489, 52.377274]}, "properties": {"type": "inleverpunt", "locatieNaam": "Kruidvat Nijverdal", "straatNaam": "Kuperserf", "straatNr": "6569", "postcode": "7443 HD", "plaats": "Nijverdal", "merk": "StichtingOPEN", "puntType": "balie", "materialen": ["batterijen", "lampen"], "uitbetaling": [], "vrijToegankelijk": false, "gemeenteBeperking": null, "openingstijden": null, "latitude": 52.377274, "longitude": 6.483489, "bronId": "SP00024755"}}, {"type": "Feature", "geometry": {"type": "Point", "coordinates": [6.494553, 52.361045]}, "properties": {"type": "inleverpunt", "locatieNaam": "GAMMA Nijverdal", "straatNaam": "Industrieweg", "straatNr": "39", "postcode": "7442 CV", "plaats": "Nijverdal", "merk": "StichtingOPEN", "puntType": "balie", "materialen": ["batterijen", "elektro-klein", "elektro-middel", "lampen", "tl-buizen"], "uitbetaling": [], "vrijToegankelijk": false, "gemeenteBeperking": null, "openingstijden": null, "latitude": 52.361045, "longitude": 6.494553, "bronId": "SP00000696"}}, {"type": "Feature", "geometry": {"type": "Point", "coordinates": [6.49456, 52.361696]}, "properties": {"type": "inleverpunt", "locatieNaam": "Kinderboerderij Nijverdal", "straatNaam": "Derde Kampsweg", "straatNr": "51", "postcode": "7442 CC", "plaats": "Nijverdal", "merk": "StichtingOPEN", "puntType": "balie", "materialen": ["elektro-klein", "elektro-middel"], "uitbetaling": [], "vrijToegankelijk": false, "gemeenteBeperking": null, "openingstijden": null, "latitude": 52.361696, "longitude": 6.49456, "bronId": "SP00028675"}}, {"type": "Feature", "geometry": {"type": "Point", "coordinates": [6.53805, 52.43216]}, "properties": {"type": "inleverpunt", "locatieNaam": "Spar Daarle", "straatNaam": "\"n Tip", "straatNr": "9", "postcode": "7688 RR", "plaats": "Daarle", "merk": "StichtingOPEN", "puntType": "balie", "materialen": ["batterijen", "lampen"], "uitbetaling": [], "vrijToegankelijk": false, "gemeenteBeperking": null, "openingstijden": null, "latitude": 52.43216, "longitude": 6.53805, "bronId": "SP00030132"}}, {"type": "Feature", "geometry": {"type": "Point", "coordinates": [6.5024, 52.359955]}, "properties": {"type": "inleverpunt", "locatieNaam": "Milieustraat Hellendoorn", "straatNaam": "Fuutweg", "straatNr": "25", "postcode": "7442 CL", "plaats": "Nijverdal", "merk": "StichtingOPEN", "puntType": "milieustraat", "materialen": ["batterijen", "elektro-groot", "elektro-klein", "elektro-middel", "lampen", "tl-buizen"], "uitbetaling": [], "vrijToegankelijk": false, "gemeenteBeperking": ["Hellendoorn"], "openingstijden": null, "latitude": 52.359955, "longitude": 6.5024, "bronId": "SP00001128"}}, {"type": "Feature", "geometry": {"type": "Point", "coordinates": [6.37639, 52.3581278]}, "properties": {"type": "inleverpunt", "locatieNaam": "Tankstation-Rijwielhandel", "straatNaam": "Poggenbeltweg", "straatNr": "17", "postcode": "7448 PL", "plaats": "Haarle Gem Hellendoorn", "merk": "Stibat", "puntType": "inzamelbak", "materialen": ["batterijen"], "uitbetaling": [], "vrijToegankelijk": false, "gemeenteBeperking": null, "openingstijden": null, "latitude": 52.3581278, "longitude": 6.37639, "bronId": "L016758"}}, {"type": "Feature", "geometry": {"type": "Point", "coordinates": [6.3791089, 52.3590284]}, "properties": {"type": "inleverpunt", "locatieNaam": "Buurtsuper Haarle", "straatNaam": "Kerkweg", "straatNr": "7", "postcode": "7448 AC", "plaats": "Haarle Gem Hellendoorn", "merk": "Stibat", "puntType": "inzamelbak", "materialen": ["batterijen"], "uitbetaling": [], "vrijToegankelijk": false, "gemeenteBeperking": null, "openingstijden": null, "latitude": 52.3590284, "longitude": 6.3791089, "bronId": "L010009"}}, {"type": "Feature", "geometry": {"type": "Point", "coordinates": [6.3756659, 52.3710019]}, "properties": {"type": "inleverpunt", "locatieNaam": "Gulf", "straatNaam": "Almeloseweg", "straatNr": "28a", "postcode": "7448 RN", "plaats": "Haarle Gem Hellendoorn", "merk": "Stibat", "puntType": "inzamelbak", "materialen": ["batterijen"], "uitbetaling": [], "vrijToegankelijk": false, "gemeenteBeperking": null, "openingstijden": null, "latitude": 52.3710019, "longitude": 6.3756659, "bronId": "L028849"}}, {"type": "Feature", "geometry": {"type": "Point", "coordinates": [6.4556131, 52.3647948]}, "properties": {"type": "inleverpunt", "locatieNaam": "Plus", "straatNaam": "Smidsweg", "straatNr": "7c", "postcode": "7441 EJ", "plaats": "Nijverdal", "merk": "Stibat", "puntType": "inzamelbak", "materialen": ["batterijen"], "uitbetaling": [], "vrijToegankelijk": false, "gemeenteBeperking": null, "openingstijden": null, "latitude": 52.3647948, "longitude": 6.4556131, "bronId": "L046189"}}, {"type": "Feature", "geometry": {"type": "Point", "coordinates": [6.4558545, 52.3647872]}, "properties": {"type": "inleverpunt", "locatieNaam": "1193 Action", "straatNaam": "Smidsweg", "straatNr": "9", "postcode": "7441 EJ", "plaats": "Nijverdal", "merk": "Stibat", "puntType": "inzamelbak", "materialen": ["batterijen"], "uitbetaling": [], "vrijToegankelijk": false, "gemeenteBeperking": null, "openingstijden": null, "latitude": 52.3647872, "longitude": 6.4558545, "bronId": "L027590"}}, {"type": "Feature", "geometry": {"type": "Point", "coordinates": [6.4552896, 52.3658405]}, "properties": {"type": "inleverpunt", "locatieNaam": "Plentyparts", "straatNaam": "Grotestraat", "straatNr": "252-254", "postcode": "7443 BW", "plaats": "Nijverdal", "merk": "Stibat", "puntType": "inzamelbak", "materialen": ["batterijen"], "uitbetaling": [], "vrijToegankelijk": false, "gemeenteBeperking": null, "openingstijden": null, "latitude": 52.3658405, "longitude": 6.4552896, "bronId": "L016805"}}, {"type": "Feature", "geometry": {"type": "Point", "coordinates": [6.4197465, 52.4197386]}, "properties": {"type": "inleverpunt", "locatieNaam": "Eelerberg", "straatNaam": "Ossenkampweg", "straatNr": "4", "postcode": "7447 PR", "plaats": "Hellendoorn", "merk": "Stibat", "puntType": "inzamelbak", "materialen": ["batterijen"], "uitbetaling": [], "vrijToegankelijk": false, "gemeenteBeperking": null, "openingstijden": null, "latitude": 52.4197386, "longitude": 6.4197465, "bronId": "L004096"}}, {"type": "Feature", "geometry": {"type": "Point", "coordinates": [6.4565956, 52.3654795]}, "properties": {"type": "inleverpunt", "locatieNaam": "Jumbo", "straatNaam": "Grotestraat", "straatNr": "135", "postcode": "7443 BE", "plaats": "Nijverdal", "merk": "Stibat", "puntType": "inzamelbak", "materialen": ["batterijen"], "uitbetaling": [], "vrijToegankelijk": false, "gemeenteBeperking": null, "openingstijden": null, "latitude": 52.3654795, "longitude": 6.4565956, "bronId": "L029306"}}, {"type": "Feature", "geometry": {"type": "Point", "coordinates": [6.4616863, 52.3606773]}, "properties": {"type": "inleverpunt", "locatieNaam": "Maik Aanstoot Rijwielspecialisten", "straatNaam": "Rijssensestraat", "straatNr": "111", "postcode": "7441 AA", "plaats": "Nijverdal", "merk": "Stibat", "puntType": "inzamelbak", "materialen": ["batterijen"], "uitbetaling": [], "vrijToegankelijk": false, "gemeenteBeperking": null, "openingstijden": null, "latitude": 52.3606773, "longitude": 6.4616863, "bronId": "L033927"}}, {"type": "Feature", "geometry": {"type": "Point", "coordinates": [6.4603046, 52.3630511]}, "properties": {"type": "inleverpunt", "locatieNaam": "Fotovaklab", "straatNaam": "Rijssensestraat", "straatNr": "49 A", "postcode": "7442 MR", "plaats": "Nijverdal", "merk": "Stibat", "puntType": "inzamelbak", "materialen": ["batterijen"], "uitbetaling": [], "vrijToegankelijk": false, "gemeenteBeperking": null, "openingstijden": null, "latitude": 52.3630511, "longitude": 6.4603046, "bronId": "L024736"}}, {"type": "Feature", "geometry": {"type": "Point", "coordinates": [6.458908, 52.365546]}, "properties": {"type": "inleverpunt", "locatieNaam": "Hans Anders", "straatNaam": "Grotestraat", "straatNr": "192", "postcode": "7443 BS", "plaats": "Nijverdal", "merk": "Stibat", "puntType": "inzamelbak", "materialen": ["batterijen"], "uitbetaling": [], "vrijToegankelijk": false, "gemeenteBeperking": null, "openingstijden": null, "latitude": 52.365546, "longitude": 6.458908, "bronId": "L037888"}}, {"type": "Feature", "geometry": {"type": "Point", "coordinates": [6.4595209, 52.3648056]}, "properties": {"type": "inleverpunt", "locatieNaam": "DA", "straatNaam": "Keizerserf", "straatNr": "10c", "postcode": "7442 MN", "plaats": "Nijverdal", "merk": "Stibat", "puntType": "inzamelbak", "materialen": ["batterijen"], "uitbetaling": [], "vrijToegankelijk": false, "gemeenteBeperking": null, "openingstijden": null, "latitude": 52.3648056, "longitude": 6.4595209, "bronId": "L026697"}}, {"type": "Feature", "geometry": {"type": "Point", "coordinates": [6.459522, 52.3649273]}, "properties": {"type": "inleverpunt", "locatieNaam": "Phone House", "straatNaam": "Keizerserf", "straatNr": "6", "postcode": "7442 MN", "plaats": "Nijverdal", "merk": "Stibat", "puntType": "inzamelbak", "materialen": ["batterijen"], "uitbetaling": [], "vrijToegankelijk": false, "gemeenteBeperking": null, "openingstijden": null, "latitude": 52.3649273, "longitude": 6.459522, "bronId": "L023913"}}, {"type": "Feature", "geometry": {"type": "Point", "coordinates": [6.4595206, 52.3650849]}, "properties": {"type": "inleverpunt", "locatieNaam": "HEMA Keizerserf", "straatNaam": "Keizerserf", "straatNr": "22-24", "postcode": "7442 MN", "plaats": "Nijverdal", "merk": "Stibat", "puntType": "inzamelbak", "materialen": ["batterijen"], "uitbetaling": [], "vrijToegankelijk": false, "gemeenteBeperking": null, "openingstijden": null, "latitude": 52.3650849, "longitude": 6.4595206, "bronId": "L006481"}}, {"type": "Feature", "geometry": {"type": "Point", "coordinates": [6.4600596, 52.3641807]}, "properties": {"type": "inleverpunt", "locatieNaam": "Wibra", "straatNaam": "Keizerserf", "straatNr": "21", "postcode": "7442 MG", "plaats": "Nijverdal", "merk": "Stibat", "puntType": "inzamelbak", "materialen": ["batterijen"], "uitbetaling": [], "vrijToegankelijk": false, "gemeenteBeperking": null, "openingstijden": null, "latitude": 52.3641807, "longitude": 6.4600596, "bronId": "L024175"}}, {"type": "Feature", "geometry": {"type": "Point", "coordinates": [6.4598315, 52.3648472]}, "properties": {"type": "inleverpunt", "locatieNaam": "8324 Etos", "straatNaam": "Keizerserf", "straatNr": "9", "postcode": "7442 MG", "plaats": "Nijverdal", "merk": "Stibat", "puntType": "inzamelbak", "materialen": ["batterijen"], "uitbetaling": [], "vrijToegankelijk": false, "gemeenteBeperking": null, "openingstijden": null, "latitude": 52.3648472, "longitude": 6.4598315, "bronId": "L026629"}}, {"type": "Feature", "geometry": {"type": "Point", "coordinates": [6.4612968, 52.3631268]}, "properties": {"type": "inleverpunt", "locatieNaam": "Optie1", "straatNaam": "Constantijnstraat", "straatNr": "29", "postcode": "7442 MD", "plaats": "Nijverdal", "merk": "Stibat", "puntType": "inzamelbak", "materialen": ["batterijen"], "uitbetaling": [], "vrijToegankelijk": false, "gemeenteBeperking": null, "openingstijden": null, "latitude": 52.3631268, "longitude": 6.4612968, "bronId": "L027532"}}, {"type": "Feature", "geometry": {"type": "Point", "coordinates": [6.4599088, 52.3655384]}, "properties": {"type": "inleverpunt", "locatieNaam": "Kruidvat", "straatNaam": "Grotestraat", "straatNr": "178", "postcode": "7443 BR", "plaats": "Nijverdal", "merk": "Stibat", "puntType": "inzamelbak", "materialen": ["batterijen"], "uitbetaling": [], "vrijToegankelijk": false, "gemeenteBeperking": null, "openingstijden": null, "latitude": 52.3655384, "longitude": 6.4599088, "bronId": "L014069"}}, {"type": "Feature", "geometry": {"type": "Point", "coordinates": [6.4600732, 52.365529]}, "properties": {"type": "inleverpunt", "locatieNaam": "Intertoys", "straatNaam": "Grotestraat", "straatNr": "176", "postcode": "7443 BR", "plaats": "Nijverdal", "merk": "Stibat", "puntType": "inzamelbak", "materialen": ["batterijen"], "uitbetaling": [], "vrijToegankelijk": false, "gemeenteBeperking": null, "openingstijden": null, "latitude": 52.365529, "longitude": 6.4600732, "bronId": "L006354"}}, {"type": "Feature", "geometry": {"type": "Point", "coordinates": [6.4607829, 52.3646085]}, "properties": {"type": "inleverpunt", "locatieNaam": "CIGO", "straatNaam": "Henry Dunantplein", "straatNr": "4", "postcode": "7442 NJ", "plaats": "Nijverdal", "merk": "Stibat", "puntType": "inzamelbak", "materialen": ["batterijen"], "uitbetaling": [], "vrijToegankelijk": false, "gemeenteBeperking": null, "openingstijden": null, "latitude": 52.3646085, "longitude": 6.4607829, "bronId": "L034939"}}, {"type": "Feature", "geometry": {"type": "Point", "coordinates": [6.4611165, 52.3642975]}, "properties": {"type": "inleverpunt", "locatieNaam": "Primera", "straatNaam": "Willem Alexanderstraat", "straatNr": "9", "postcode": "7442 MA", "plaats": "Nijverdal", "merk": "Stibat", "puntType": "inzamelbak", "materialen": ["batterijen"], "uitbetaling": [], "vrijToegankelijk": false, "gemeenteBeperking": null, "openingstijden": null, "latitude": 52.3642975, "longitude": 6.4611165, "bronId": "L022053"}}, {"type": "Feature", "geometry": {"type": "Point", "coordinates": [6.4609483, 52.364886]}, "properties": {"type": "inleverpunt", "locatieNaam": "Zeeman", "straatNaam": "Henry Dunantplein", "straatNr": "10", "postcode": "7442 NJ", "plaats": "Nijverdal", "merk": "Stibat", "puntType": "inzamelbak", "materialen": ["batterijen"], "uitbetaling": [], "vrijToegankelijk": false, "gemeenteBeperking": null, "openingstijden": null, "latitude": 52.364886, "longitude": 6.4609483, "bronId": "L020626"}}, {"type": "Feature", "geometry": {"type": "Point", "coordinates": [6.4621423, 52.3645314]}, "properties": {"type": "inleverpunt", "locatieNaam": "Perik Horen &amp; Zien", "straatNaam": "Willem-Alexanderstraat", "straatNr": "2g", "postcode": "7442 MA", "plaats": "Nyverdal", "merk": "Stibat", "puntType": "inzamelbak", "materialen": ["batterijen"], "uitbetaling": [], "vrijToegankelijk": false, "gemeenteBeperking": null, "openingstijden": null, "latitude": 52.3645314, "longitude": 6.4621423, "bronId": "L031455"}}, {"type": "Feature", "geometry": {"type": "Point", "coordinates": [6.4631166, 52.3643057]}, "properties": {"type": "inleverpunt", "locatieNaam": "Schoonenberg Hoorcomfort", "straatNaam": "Willem Alexanderstraat", "straatNr": "5", "postcode": "7442 MA", "plaats": "Nijverdal", "merk": "Stibat", "puntType": "inzamelbak", "materialen": ["batterijen"], "uitbetaling": [], "vrijToegankelijk": false, "gemeenteBeperking": null, "openingstijden": null, "latitude": 52.3643057, "longitude": 6.4631166, "bronId": "L021075"}}, {"type": "Feature", "geometry": {"type": "Point", "coordinates": [6.4468815, 52.3902664]}, "properties": {"type": "inleverpunt", "locatieNaam": "Het Kluspunt", "straatNaam": "Geerhard Boschstraat", "straatNr": "2 AA", "postcode": "7447 HA", "plaats": "Hellendoorn", "merk": "Stibat", "puntType": "inzamelbak", "materialen": ["batterijen"], "uitbetaling": [], "vrijToegankelijk": false, "gemeenteBeperking": null, "openingstijden": null, "latitude": 52.3902664, "longitude": 6.4468815, "bronId": "L039139"}}, {"type": "Feature", "geometry": {"type": "Point", "coordinates": [6.4491831, 52.3882234]}, "properties": {"type": "inleverpunt", "locatieNaam": "Marskramer", "straatNaam": "Dorpsstraat", "straatNr": "31", "postcode": "7447 CM", "plaats": "Hellendoorn", "merk": "Stibat", "puntType": "inzamelbak", "materialen": ["batterijen"], "uitbetaling": [], "vrijToegankelijk": false, "gemeenteBeperking": null, "openingstijden": null, "latitude": 52.3882234, "longitude": 6.4491831, "bronId": "L038185"}}, {"type": "Feature", "geometry": {"type": "Point", "coordinates": [6.4489821, 52.3888256]}, "properties": {"type": "inleverpunt", "locatieNaam": "Primera", "straatNaam": "Dorpsstraat", "straatNr": "22", "postcode": "7447 CR", "plaats": "Hellendoorn", "merk": "Stibat", "puntType": "inzamelbak", "materialen": ["batterijen"], "uitbetaling": [], "vrijToegankelijk": false, "gemeenteBeperking": null, "openingstijden": null, "latitude": 52.3888256, "longitude": 6.4489821, "bronId": "L023082"}}, {"type": "Feature", "geometry": {"type": "Point", "coordinates": [6.4495119, 52.3883131]}, "properties": {"type": "inleverpunt", "locatieNaam": "DA", "straatNaam": "Dorpsstraat", "straatNr": "14A", "postcode": "7447 CR", "plaats": "Hellendoorn", "merk": "Stibat", "puntType": "inzamelbak", "materialen": ["batterijen"], "uitbetaling": [], "vrijToegankelijk": false, "gemeenteBeperking": null, "openingstijden": null, "latitude": 52.3883131, "longitude": 6.4495119, "bronId": "L024855"}}, {"type": "Feature", "geometry": {"type": "Point", "coordinates": [6.464792, 52.3643714]}, "properties": {"type": "inleverpunt", "locatieNaam": "EP:", "straatNaam": "Markt", "straatNr": "7", "postcode": "7442 EC", "plaats": "Nijverdal", "merk": "Stibat", "puntType": "inzamelbak", "materialen": ["batterijen"], "uitbetaling": [], "vrijToegankelijk": false, "gemeenteBeperking": null, "openingstijden": null, "latitude": 52.3643714, "longitude": 6.464792, "bronId": "L016655"}}, {"type": "Feature", "geometry": {"type": "Point", "coordinates": [6.4513312, 52.3861521]}, "properties": {"type": "inleverpunt", "locatieNaam": "Uw Groene Vakwinkel", "straatNaam": "Ninaberlaan", "straatNr": "76b", "postcode": "7447 AH", "plaats": "Hellendoorn", "merk": "Stibat", "puntType": "inzamelbak", "materialen": ["batterijen"], "uitbetaling": [], "vrijToegankelijk": false, "gemeenteBeperking": null, "openingstijden": null, "latitude": 52.3861521, "longitude": 6.4513312, "bronId": "L021284"}}, {"type": "Feature", "geometry": {"type": "Point", "coordinates": [6.4487514, 52.3904384]}, "properties": {"type": "inleverpunt", "locatieNaam": "4036 Albert Heijn", "straatNaam": "Dorpsstraat", "straatNr": "48b", "postcode": "7447 CT", "plaats": "Hellendoorn", "merk": "Stibat", "puntType": "inzamelbak", "materialen": ["batterijen"], "uitbetaling": [], "vrijToegankelijk": false, "gemeenteBeperking": null, "openingstijden": null, "latitude": 52.3904384, "longitude": 6.4487514, "bronId": "L034674"}}, {"type": "Feature", "geometry": {"type": "Point", "coordinates": [6.4488587, 52.390868]}, "properties": {"type": "inleverpunt", "locatieNaam": "Trekpleister", "straatNaam": "Dorpsstraat", "straatNr": "63", "postcode": "7447 CP", "plaats": "Hellendoorn", "merk": "Stibat", "puntType": "inzamelbak", "materialen": ["batterijen"], "uitbetaling": [], "vrijToegankelijk": false, "gemeenteBeperking": null, "openingstijden": null, "latitude": 52.390868, "longitude": 6.4488587, "bronId": "L030890"}}, {"type": "Feature", "geometry": {"type": "Point", "coordinates": [6.4674353, 52.3614752]}, "properties": {"type": "inleverpunt", "locatieNaam": "Uw Groene Vakwinkel", "straatNaam": "Parallelweg", "straatNr": "22", "postcode": "7442 EA", "plaats": "Nijverdal", "merk": "Stibat", "puntType": "inzamelbak", "materialen": ["batterijen"], "uitbetaling": [], "vrijToegankelijk": false, "gemeenteBeperking": null, "openingstijden": null, "latitude": 52.3614752, "longitude": 6.4674353, "bronId": "L020558"}}, {"type": "Feature", "geometry": {"type": "Point", "coordinates": [6.465878, 52.3641935]}, "properties": {"type": "inleverpunt", "locatieNaam": "1126 Albert Heijn", "straatNaam": "Spoelerstraat", "straatNr": "6", "postcode": "7442 AA", "plaats": "Nijverdal", "merk": "Stibat", "puntType": "inzamelbak", "materialen": ["batterijen"], "uitbetaling": [], "vrijToegankelijk": false, "gemeenteBeperking": null, "openingstijden": null, "latitude": 52.3641935, "longitude": 6.465878, "bronId": "L007788"}}, {"type": "Feature", "geometry": {"type": "Point", "coordinates": [6.4523452, 52.3865412]}, "properties": {"type": "inleverpunt", "locatieNaam": "Tweewielercentrum van Munster", "straatNaam": "Reggeweg", "straatNr": "6a", "postcode": "7447 AN", "plaats": "Hellendoorn", "merk": "Stibat", "puntType": "inzamelbak", "materialen": ["batterijen"], "uitbetaling": [], "vrijToegankelijk": false, "gemeenteBeperking": null, "openingstijden": null, "latitude": 52.3865412, "longitude": 6.4523452, "bronId": "L033931"}}, {"type": "Feature", "geometry": {"type": "Point", "coordinates": [6.4678988, 52.364998]}, "properties": {"type": "inleverpunt", "locatieNaam": "Aldi", "straatNaam": "Grotestraat", "straatNr": "90-96", "postcode": "7443 BL", "plaats": "Nijverdal", "merk": "Stibat", "puntType": "inzamelbak", "materialen": ["batterijen"], "uitbetaling": [], "vrijToegankelijk": false, "gemeenteBeperking": null, "openingstijden": null, "latitude": 52.364998, "longitude": 6.4678988, "bronId": "L041479"}}, {"type": "Feature", "geometry": {"type": "Point", "coordinates": [6.4743417, 52.3556844]}, "properties": {"type": "inleverpunt", "locatieNaam": "Plus", "straatNaam": "Portlandweg", "straatNr": "9", "postcode": "7442 VB", "plaats": "Nijverdal", "merk": "Stibat", "puntType": "inzamelbak", "materialen": ["batterijen"], "uitbetaling": [], "vrijToegankelijk": false, "gemeenteBeperking": null, "openingstijden": null, "latitude": 52.3556844, "longitude": 6.4743417, "bronId": "L046045"}}, {"type": "Feature", "geometry": {"type": "Point", "coordinates": [6.4688567, 52.3652964]}, "properties": {"type": "inleverpunt", "locatieNaam": "Lidl", "straatNaam": "Grotestraat", "straatNr": "76", "postcode": "7443 BK", "plaats": "Nijverdal", "merk": "Stibat", "puntType": "inzamelbak", "materialen": ["batterijen"], "uitbetaling": [], "vrijToegankelijk": false, "gemeenteBeperking": null, "openingstijden": null, "latitude": 52.3652964, "longitude": 6.4688567, "bronId": "L036827"}}, {"type": "Feature", "geometry": {"type": "Point", "coordinates": [6.4822857, 52.346687]}, "properties": {"type": "inleverpunt", "locatieNaam": "Expert", "straatNaam": "Rijssensestraat", "straatNr": "280", "postcode": "7441 AN", "plaats": "Nijverdal", "merk": "Stibat", "puntType": "inzamelbak", "materialen": ["batterijen"], "uitbetaling": [], "vrijToegankelijk": false, "gemeenteBeperking": null, "openingstijden": null, "latitude": 52.346687, "longitude": 6.4822857, "bronId": "L009726"}}, {"type": "Feature", "geometry": {"type": "Point", "coordinates": [6.4760249, 52.3649031]}, "properties": {"type": "inleverpunt", "locatieNaam": "Praxis 2275", "straatNaam": "Wierdensestraat", "straatNr": "5", "postcode": "7443 AA", "plaats": "Nijverdal", "merk": "Stibat", "puntType": "inzamelbak", "materialen": ["batterijen"], "uitbetaling": [], "vrijToegankelijk": false, "gemeenteBeperking": null, "openingstijden": null, "latitude": 52.3649031, "longitude": 6.4760249, "bronId": "L040365"}}, {"type": "Feature", "geometry": {"type": "Point", "coordinates": [6.4921262, 52.3550597]}, "properties": {"type": "inleverpunt", "locatieNaam": "Bike Totaal Baan", "straatNaam": "Boomcateweg", "straatNr": "77", "postcode": "7442 BG", "plaats": "Nijverdal", "merk": "Stibat", "puntType": "inzamelbak", "materialen": ["batterijen"], "uitbetaling": [], "vrijToegankelijk": false, "gemeenteBeperking": null, "openingstijden": null, "latitude": 52.3550597, "longitude": 6.4921262, "bronId": "L033929"}}, {"type": "Feature", "geometry": {"type": "Point", "coordinates": [6.4828006, 52.377315]}, "properties": {"type": "inleverpunt", "locatieNaam": "Jumbo", "straatNaam": "Kuperserf", "straatNr": "13", "postcode": "7443 HC", "plaats": "Nijverdal", "merk": "Stibat", "puntType": "inzamelbak", "materialen": ["batterijen"], "uitbetaling": [], "vrijToegankelijk": false, "gemeenteBeperking": null, "openingstijden": null, "latitude": 52.377315, "longitude": 6.4828006, "bronId": "L030090"}}, {"type": "Feature", "geometry": {"type": "Point", "coordinates": [6.4834699, 52.3772343]}, "properties": {"type": "inleverpunt", "locatieNaam": "Kruidvat", "straatNaam": "Kuperserf", "straatNr": "65-69", "postcode": "7443 HD", "plaats": "Nijverdal", "merk": "Stibat", "puntType": "inzamelbak", "materialen": ["batterijen"], "uitbetaling": [], "vrijToegankelijk": false, "gemeenteBeperking": null, "openingstijden": null, "latitude": 52.3772343, "longitude": 6.4834699, "bronId": "L014681"}}, {"type": "Feature", "geometry": {"type": "Point", "coordinates": [6.4974755, 52.3536339]}, "properties": {"type": "inleverpunt", "locatieNaam": "Toolstation", "straatNaam": "Bedrijvenweg", "straatNr": "30-30a", "postcode": "7442 CX", "plaats": "Nijverdal", "merk": "Stibat", "puntType": "inzamelbak", "materialen": ["batterijen"], "uitbetaling": [], "vrijToegankelijk": false, "gemeenteBeperking": null, "openingstijden": null, "latitude": 52.3536339, "longitude": 6.4974755, "bronId": "L042550"}}, {"type": "Feature", "geometry": {"type": "Point", "coordinates": [6.4948213, 52.3610535]}, "properties": {"type": "inleverpunt", "locatieNaam": "Gamma", "straatNaam": "Industrieweg", "straatNr": "39", "postcode": "7442 CV", "plaats": "Nijverdal", "merk": "Stibat", "puntType": "inzamelbak", "materialen": ["batterijen"], "uitbetaling": [], "vrijToegankelijk": false, "gemeenteBeperking": null, "openingstijden": null, "latitude": 52.3610535, "longitude": 6.4948213, "bronId": "L025584"}}, {"type": "Feature", "geometry": {"type": "Point", "coordinates": [6.5024536, 52.359966]}, "properties": {"type": "inleverpunt", "locatieNaam": "ABP Nijverdal", "straatNaam": "Fuutweg", "straatNr": "25", "postcode": "7442 CL", "plaats": "Nijverdal", "merk": "Stibat", "puntType": "inzamelbak", "materialen": ["batterijen"], "uitbetaling": [], "vrijToegankelijk": false, "gemeenteBeperking": null, "openingstijden": null, "latitude": 52.359966, "longitude": 6.5024536, "bronId": "L035848"}}, {"type": "Feature", "geometry": {"type": "Point", "coordinates": [6.5380481, 52.4321633]}, "properties": {"type": "inleverpunt", "locatieNaam": "Attent", "straatNaam": "n Tip", "straatNr": "9", "postcode": "7688 RR", "plaats": "Daarle", "merk": "Stibat", "puntType": "inzamelbak", "materialen": ["batterijen"], "uitbetaling": [], "vrijToegankelijk": false, "gemeenteBeperking": null, "openingstijden": null, "latitude": 52.4321633, "longitude": 6.5380481, "bronId": "L005674"}}, {"type": "Feature", "geometry": {"type": "Polygon", "coordinates": [[[6.356016002687272, 52.31821900408049], [6.402035002733059, 52.323140004081736], [6.421896002752819, 52.32569000408241], [6.429733002760576, 52.32506200408175], [6.45501200278556, 52.32080200407823], [6.4609200027914016, 52.320059004077535], [6.486776002817504, 52.34283500409001], [6.4865880028173235, 52.34301800409014], [6.488447002819179, 52.34378500409049], [6.486609002817388, 52.34520900409142], [6.488311002819077, 52.34549000409152], [6.489134002819902, 52.34595500409175], [6.49079500282162, 52.34935500409369], [6.495978002826767, 52.34995500409384], [6.501347002832144, 52.35291600409539], [6.505839002836587, 52.35245000409495], [6.506663002837456, 52.35527600409658], [6.518873002849551, 52.35516100409596], [6.520793002851574, 52.361415004099605], [6.51234800284322, 52.36191100410023], [6.512453002843337, 52.36266800410067], [6.499059002830091, 52.36356200410172], [6.496078002827223, 52.36794300410439], [6.495516002826835, 52.3761800041093], [6.512607002843869, 52.381840004111936], [6.514108002845351, 52.381665004111746], [6.5085390028400445, 52.392152004118145], [6.515982002847681, 52.40612200412603], [6.575952002907216, 52.417513004130186], [6.572469002903874, 52.4233150041337], [6.573968002905359, 52.42331700413363], [6.587735002919157, 52.43391000413921], [6.59814800292954, 52.43902900414176], [6.596387002928077, 52.45480800415099], [6.57163300290347, 52.446504004147215], [6.571064002902945, 52.44839800414836], [6.570048002901935, 52.44807100414822], [6.570522002902395, 52.44752200414788], [6.56677600289867, 52.4462560041473], [6.566327002898231, 52.44681800414764], [6.5628940028948195, 52.44576400414715], [6.5614340028933995, 52.44678900414781], [6.561761002893731, 52.44736200414816], [6.559908002891908, 52.4478610041485], [6.558346002890387, 52.448974004149214], [6.555692002887762, 52.44895500414933], [6.554513002886589, 52.44845800414907], [6.551722002883843, 52.449190004149614], [6.5513590028834985, 52.449877004150046], [6.547726002879912, 52.45020300415039], [6.546225002878438, 52.45068800415073], [6.545792002878007, 52.45048900415063], [6.543071002875331, 52.45123100415116], [6.542177002874439, 52.450803004150934], [6.541384002873659, 52.451040004151125], [6.540555002872837, 52.45087600415108], [6.538344002870631, 52.44971600415049], [6.537871002870164, 52.44974500415049], [6.53787700287015, 52.448752004149966], [6.5362400028685235, 52.44840500414983], [6.53608100286836, 52.447932004149536], [6.531037002863339, 52.44621800414875], [6.53017100286246, 52.44497000414807], [6.531003002863276, 52.44468100414785], [6.5299430028621765, 52.44193900414629], [6.528372002860601, 52.44064800414565], [6.527760002859997, 52.440719004145706], [6.52771900285995, 52.44045100414558], [6.526893002859133, 52.44029600414549], [6.525665002857918, 52.44046500414562], [6.524070002856328, 52.43962600414522], [6.523197002855475, 52.440185004145576], [6.522078002854359, 52.439893004145446], [6.522262002854554, 52.440492004145796], [6.521203002853504, 52.440257004145714], [6.521074002853384, 52.44069600414597], [6.520162002852468, 52.4398380041455], [6.51844100285076, 52.439526004145385], [6.518595002850902, 52.43913600414516], [6.517753002850068, 52.438874004145056], [6.517829002850122, 52.43781800414442], [6.5162160028485205, 52.43745000414427], [6.515624002847939, 52.43784400414453], [6.514211002846541, 52.43793700414464], [6.513815002846161, 52.43831000414488], [6.513343002845686, 52.43802200414474], [6.511857002844217, 52.4380160041448], [6.511412002843773, 52.43779000414467], [6.511739002844087, 52.43734400414441], [6.510901002843255, 52.437173004144334], [6.480015002812764, 52.440326004147444], [6.479748002812518, 52.441134004147905], [6.4792380028120125, 52.44125500414798], [6.477239002810035, 52.44128100414808], [6.475599002808404, 52.4408570041479], [6.474045002806884, 52.44161300414839], [6.4736130028064816, 52.44294800414919], [6.467388002800375, 52.44557200415096], [6.46575800279882, 52.44842300415268], [6.464931002798014, 52.44912600415312], [6.462462002795593, 52.44999800415374], [6.461716002794882, 52.45155200415464], [6.457989002791251, 52.454190004156345], [6.453490002786915, 52.46002200415988], [6.4506910027841435, 52.45997900415999], [6.448550002782032, 52.46030700416028], [6.448760002782261, 52.46113100416071], [6.450098002783583, 52.46125600416076], [6.448001002781519, 52.46169300416107], [6.445935002779465, 52.46117000416086], [6.44492400277844, 52.46002600416027], [6.444607002778101, 52.45878900415955], [6.446132002779588, 52.457605004158786], [6.442960002776434, 52.45693000415849], [6.4417350027751965, 52.45559500415782], [6.442174002775617, 52.45500000415745], [6.444398002777812, 52.454713004157206], [6.443081002776466, 52.45255800415599], [6.4425160027758555, 52.450071004154566], [6.439641002772973, 52.448238004153616], [6.438235002771579, 52.44815000415362], [6.438768002772064, 52.446106004152405], [6.437550002770833, 52.44474300415164], [6.438351002771606, 52.44397200415121], [6.437166002770432, 52.443652004151055], [6.428777002762025, 52.43868700414849], [6.3903150027237166, 52.42814500414383], [6.405170002738158, 52.41554200413591], [6.400815002733619, 52.40508100412998], [6.388410002720779, 52.379782004115604], [6.382475002714914, 52.38064900411638], [6.356965002689539, 52.37698400411515], [6.343082002675611, 52.370032004111565], [6.333502002665681, 52.35139800410095], [6.3385820026705115, 52.34226500409535], [6.342388002674084, 52.33316900408983], [6.346427002677973, 52.32782500408652], [6.356016002687272, 52.31821900408049]]]}, "properties": {"type": "boundary", "gemeente": "Hellendoorn"}}]}