{"type": "FeatureCollection", "metadata": {"gemeente": "Hendrik-Ido-Ambacht", "slug": "hendrik-ido-ambacht", "generated_at": "2026-07-28T10:02:02.095237Z", "total_points": 49, "merken": ["StatiegeldNederland", "Stibat", "StichtingOPEN"], "bounds": [4.6171588, 51.8280077, 4.6565123, 51.856811]}, "features": [{"type": "Feature", "geometry": {"type": "Point", "coordinates": [4.6302778, 51.8452778]}, "properties": {"type": "inleverpunt", "locatieNaam": "Albert Heijn", "straatNaam": "Reeweg", "straatNr": "88", "postcode": "3342 AC", "plaats": "Hendrik-Ido-Ambacht", "merk": "StatiegeldNederland", "puntType": "automaat", "materialen": ["pet-groot", "pet-klein", "blik", "glas", "krat"], "uitbetaling": ["bonnetje", "donatie"], "vrijToegankelijk": true, "gemeenteBeperking": null, "openingstijden": {"ma": "08:00–21:00", "di": "08:00–21:00", "wo": "08:00–21:00", "do": "08:00–21:00", "vr": "08:00–21:00", "za": "08:00–21:00", "zo": "Gesloten"}, "latitude": 51.8452778, "longitude": 4.6302778, "bronId": "252664"}}, {"type": "Feature", "geometry": {"type": "Point", "coordinates": [4.6463007, 51.8353738]}, "properties": {"type": "inleverpunt", "locatieNaam": "Albert Heijn", "straatNaam": "Sophiapromenade", "straatNr": "14", "postcode": "3344 PL", "plaats": "Hendrik-Ido-Ambacht", "merk": "StatiegeldNederland", "puntType": "automaat", "materialen": ["pet-groot", "pet-klein", "blik", "glas", "krat"], "uitbetaling": ["bonnetje"], "vrijToegankelijk": true, "gemeenteBeperking": null, "openingstijden": {"ma": "07:00–22:00", "di": "07:00–22:00", "wo": "07:00–22:00", "do": "07:00–22:00", "vr": "07:00–22:00", "za": "07:00–22:00", "zo": "Gesloten"}, "latitude": 51.8353738, "longitude": 4.6463007, "bronId": "252744"}}, {"type": "Feature", "geometry": {"type": "Point", "coordinates": [4.6460139, 51.834896]}, "properties": {"type": "inleverpunt", "locatieNaam": "Dirk", "straatNaam": "Sophiapromenade", "straatNr": "78", "postcode": "3344 PM", "plaats": "Hendrik-Ido-Ambacht", "merk": "StatiegeldNederland", "puntType": "automaat", "materialen": ["pet-groot", "pet-klein", "blik", "glas", "krat"], "uitbetaling": ["bonnetje", "donatie"], "vrijToegankelijk": true, "gemeenteBeperking": null, "openingstijden": {"ma": "08:00–20:00", "di": "08:00–20:00", "wo": "08:00–20:00", "do": "08:00–21:00", "vr": "08:00–21:00", "za": "08:00–20:00", "zo": "Gesloten"}, "latitude": 51.834896, "longitude": 4.6460139, "bronId": "254546"}}, {"type": "Feature", "geometry": {"type": "Point", "coordinates": [4.6216062, 51.8390442]}, "properties": {"type": "inleverpunt", "locatieNaam": "Easy Catering", "straatNaam": "G.Verstegenstraat", "straatNr": "5", "postcode": "2957 AL", "plaats": "Nieuw-lekkerland", "merk": "StatiegeldNederland", "puntType": "balie", "materialen": ["pet-groot", "pet-klein", "blik"], "uitbetaling": [], "vrijToegankelijk": true, "gemeenteBeperking": null, "openingstijden": {"ma": "09:00–20:00", "di": "09:00–20:00", "wo": "09:00–20:00", "do": "09:00–20:00", "vr": "09:00–20:00", "za": "09:00–20:00", "zo": "Gesloten"}, "latitude": 51.8390442, "longitude": 4.6216062, "bronId": "254621"}}, {"type": "Feature", "geometry": {"type": "Point", "coordinates": [4.6339008, 51.8433159]}, "properties": {"type": "inleverpunt", "locatieNaam": "Ifc", "straatNaam": "Reeweg", "straatNr": "75", "postcode": "3342 AA", "plaats": "Hendrik-ido-ambacht", "merk": "StatiegeldNederland", "puntType": "balie", "materialen": ["pet-groot", "pet-klein", "blik"], "uitbetaling": [], "vrijToegankelijk": false, "gemeenteBeperking": null, "openingstijden": {"ma": "Gesloten", "di": "Gesloten", "wo": "18:00–23:00", "do": "18:00–00:00", "vr": "Gesloten", "za": "07:30–22:00", "zo": "09:00–15:00"}, "latitude": 51.8433159, "longitude": 4.6339008, "bronId": "255159"}}, {"type": "Feature", "geometry": {"type": "Point", "coordinates": [4.6454, 51.849812]}, "properties": {"type": "inleverpunt", "locatieNaam": "Jumbo", "straatNaam": "De Schoof", "straatNr": "120", "postcode": "3341 EB", "plaats": "Hendrik Ido Ambacht", "merk": "StatiegeldNederland", "puntType": "automaat", "materialen": ["pet-groot", "pet-klein", "blik", "glas", "krat"], "uitbetaling": ["bonnetje"], "vrijToegankelijk": true, "gemeenteBeperking": null, "openingstijden": {"ma": "07:00–21:00", "di": "07:00–21:00", "wo": "07:00–21:00", "do": "07:00–21:00", "vr": "07:00–21:00", "za": "07:00–21:00", "zo": "Gesloten"}, "latitude": 51.849812, "longitude": 4.6454, "bronId": "255302"}}, {"type": "Feature", "geometry": {"type": "Point", "coordinates": [4.64516, 51.84998]}, "properties": {"type": "inleverpunt", "locatieNaam": "Lidl", "straatNaam": "W.C. De Schoof", "straatNr": "68", "postcode": "3341 EB", "plaats": "Hendrik-Ido-Ambacht", "merk": "StatiegeldNederland", "puntType": "automaat", "materialen": ["pet-groot", "pet-klein", "blik", "glas", "krat"], "uitbetaling": ["bonnetje", "donatie"], "vrijToegankelijk": true, "gemeenteBeperking": null, "openingstijden": {"ma": "07:00–21:00", "di": "07:00–21:00", "wo": "07:00–21:00", "do": "07:00–21:00", "vr": "07:00–21:00", "za": "07:00–21:00", "zo": "Gesloten"}, "latitude": 51.84998, "longitude": 4.64516, "bronId": "256442"}}, {"type": "Feature", "geometry": {"type": "Point", "coordinates": [4.636395, 51.838405]}, "properties": {"type": "inleverpunt", "locatieNaam": "Plus", "straatNaam": "Louwersplein", "straatNr": "27", "postcode": "3343 RC", "plaats": "Hendrik-Ido-Ambacht", "merk": "StatiegeldNederland", "puntType": "automaat", "materialen": ["pet-groot", "pet-klein", "blik", "glas", "krat"], "uitbetaling": ["bonnetje", "donatie"], "vrijToegankelijk": true, "gemeenteBeperking": null, "openingstijden": {"ma": "08:00–21:00", "di": "08:00–21:00", "wo": "08:00–21:00", "do": "08:00–21:00", "vr": "08:00–21:00", "za": "08:00–21:00", "zo": "Gesloten"}, "latitude": 51.838405, "longitude": 4.636395, "bronId": "257409"}}, {"type": "Feature", "geometry": {"type": "Point", "coordinates": [4.6210137, 51.8336794]}, "properties": {"type": "inleverpunt", "locatieNaam": "Shell", "straatNaam": "Rijksweg A16/E19 OZ", "straatNr": "", "postcode": "3342 LE", "plaats": "Hendrik Ido Ambacht", "merk": "StatiegeldNederland", "puntType": "balie", "materialen": ["pet-groot", "pet-klein", "blik"], "uitbetaling": [], "vrijToegankelijk": true, "gemeenteBeperking": null, "openingstijden": {"ma": "24 uur geopend", "di": "24 uur geopend", "wo": "24 uur geopend", "do": "24 uur geopend", "vr": "24 uur geopend", "za": "24 uur geopend", "zo": "24 uur geopend"}, "latitude": 51.8336794, "longitude": 4.6210137, "bronId": "258188"}}, {"type": "Feature", "geometry": {"type": "Point", "coordinates": [4.638631, 51.846009]}, "properties": {"type": "inleverpunt", "locatieNaam": "Shell", "straatNaam": "Van Godewijckstraat", "straatNr": "22", "postcode": "3341 VG", "plaats": "Hendrik Ido Ambacht", "merk": "StatiegeldNederland", "puntType": "balie", "materialen": ["pet-groot", "pet-klein", "blik"], "uitbetaling": [], "vrijToegankelijk": true, "gemeenteBeperking": null, "openingstijden": {"ma": "06:00–22:00", "di": "06:00–22:00", "wo": "06:00–22:00", "do": "06:00–22:00", "vr": "06:00–22:00", "za": "08:00–22:00", "zo": "09:00–22:00"}, "latitude": 51.846009, "longitude": 4.638631, "bronId": "258237"}}, {"type": "Feature", "geometry": {"type": "Point", "coordinates": [4.649139, 51.853656]}, "properties": {"type": "inleverpunt", "locatieNaam": "Lumeco", "straatNaam": "Grotenoord", "straatNr": "7", "postcode": "3341 LT", "plaats": "Hendrik-Ido-Ambacht", "merk": "StichtingOPEN", "puntType": "balie", "materialen": ["batterijen", "lampen", "tl-buizen"], "uitbetaling": [], "vrijToegankelijk": false, "gemeenteBeperking": null, "openingstijden": null, "latitude": 51.853656, "longitude": 4.649139, "bronId": "SP00003919"}}, {"type": "Feature", "geometry": {"type": "Point", "coordinates": [4.656308, 51.845701]}, "properties": {"type": "inleverpunt", "locatieNaam": "Karwei Hendrik Ido Ambacht", "straatNaam": "Noordeinde", "straatNr": "200", "postcode": "3341 LW", "plaats": "Hendrik-Ido-Ambacht", "merk": "StichtingOPEN", "puntType": "balie", "materialen": ["batterijen", "elektro-klein", "elektro-middel", "lampen", "tl-buizen"], "uitbetaling": [], "vrijToegankelijk": false, "gemeenteBeperking": null, "openingstijden": null, "latitude": 51.845701, "longitude": 4.656308, "bronId": "SP00005892"}}, {"type": "Feature", "geometry": {"type": "Point", "coordinates": [4.64515, 51.84994]}, "properties": {"type": "inleverpunt", "locatieNaam": "Lidl Hendrik-Ido-Ambacht", "straatNaam": "Winkelcentrum De Schoof", "straatNr": "68", "postcode": "3341 EB", "plaats": "Hendrik-Ido-Ambacht", "merk": "StichtingOPEN", "puntType": "balie", "materialen": ["batterijen", "lampen"], "uitbetaling": [], "vrijToegankelijk": false, "gemeenteBeperking": null, "openingstijden": null, "latitude": 51.84994, "longitude": 4.64515, "bronId": "SP00029962"}}, {"type": "Feature", "geometry": {"type": "Point", "coordinates": [4.6442, 51.84942]}, "properties": {"type": "inleverpunt", "locatieNaam": "Action Hendrik-Ido-Ambacht", "straatNaam": "Winkelcentrum De Schoof", "straatNr": "32", "postcode": "3341 EB", "plaats": "Hendrik-Ido-Ambacht", "merk": "StichtingOPEN", "puntType": "balie", "materialen": ["batterijen", "lampen"], "uitbetaling": [], "vrijToegankelijk": false, "gemeenteBeperking": null, "openingstijden": null, "latitude": 51.84942, "longitude": 4.6442, "bronId": "SP00029876"}}, {"type": "Feature", "geometry": {"type": "Point", "coordinates": [4.6442, 51.84899]}, "properties": {"type": "inleverpunt", "locatieNaam": "Kruidvat Hendrik-Ido-Ambacht", "straatNaam": "Winkelcentrum De Schoof", "straatNr": "65", "postcode": "3341 EA", "plaats": "Hendrik-Ido-Ambacht", "merk": "StichtingOPEN", "puntType": "balie", "materialen": ["batterijen", "lampen"], "uitbetaling": [], "vrijToegankelijk": false, "gemeenteBeperking": null, "openingstijden": null, "latitude": 51.84899, "longitude": 4.6442, "bronId": "SP00029490"}}, {"type": "Feature", "geometry": {"type": "Point", "coordinates": [4.647233, 51.835285]}, "properties": {"type": "inleverpunt", "locatieNaam": "PLUS Hendrik-Ido-Ambacht", "straatNaam": "Sophiapromenade", "straatNr": "4", "postcode": "3344 PM", "plaats": "Hendrik-Ido-Ambacht", "merk": "StichtingOPEN", "puntType": "balie", "materialen": ["batterijen", "lampen"], "uitbetaling": [], "vrijToegankelijk": false, "gemeenteBeperking": null, "openingstijden": null, "latitude": 51.835285, "longitude": 4.647233, "bronId": "SP00024183"}}, {"type": "Feature", "geometry": {"type": "Point", "coordinates": [4.639505, 51.842397]}, "properties": {"type": "inleverpunt", "locatieNaam": "Jumbo Hendrik-Ido-Ambacht De Schoof", "straatNaam": "Winkelcentrum De Schoof", "straatNr": "120", "postcode": "3341 EB", "plaats": "Hendrik-Ido-Ambacht", "merk": "StichtingOPEN", "puntType": "balie", "materialen": ["batterijen", "lampen"], "uitbetaling": [], "vrijToegankelijk": false, "gemeenteBeperking": null, "openingstijden": null, "latitude": 51.842397, "longitude": 4.639505, "bronId": "SP00025116"}}, {"type": "Feature", "geometry": {"type": "Point", "coordinates": [4.6463, 51.835373]}, "properties": {"type": "inleverpunt", "locatieNaam": "PLUS Hendrik-Ido-Ambacht", "straatNaam": "Sophiapromenade", "straatNr": "14", "postcode": "3344 PM", "plaats": "Hendrik-Ido-Ambacht", "merk": "StichtingOPEN", "puntType": "balie", "materialen": ["batterijen", "lampen"], "uitbetaling": [], "vrijToegankelijk": false, "gemeenteBeperking": null, "openingstijden": null, "latitude": 51.835373, "longitude": 4.6463, "bronId": "SP00024182"}}, {"type": "Feature", "geometry": {"type": "Point", "coordinates": [4.646446, 51.835071]}, "properties": {"type": "inleverpunt", "locatieNaam": "Dirk Hendrik-Ido-Ambacht", "straatNaam": "Sophiapromenade", "straatNr": "78", "postcode": "3344 PM", "plaats": "Hendrik-Ido-Ambacht", "merk": "StichtingOPEN", "puntType": "balie", "materialen": ["batterijen", "lampen"], "uitbetaling": [], "vrijToegankelijk": false, "gemeenteBeperking": null, "openingstijden": null, "latitude": 51.835071, "longitude": 4.646446, "bronId": "SP00023416"}}, {"type": "Feature", "geometry": {"type": "Point", "coordinates": [4.64311, 51.83389]}, "properties": {"type": "inleverpunt", "locatieNaam": "Kruidvat Hendrik-Ido-Ambacht", "straatNaam": "Druivengaarde", "straatNr": "4", "postcode": "3344 PK", "plaats": "Hendrik-Ido-Ambacht", "merk": "StichtingOPEN", "puntType": "balie", "materialen": ["batterijen", "elektro-klein", "lampen"], "uitbetaling": [], "vrijToegankelijk": false, "gemeenteBeperking": null, "openingstijden": null, "latitude": 51.83389, "longitude": 4.64311, "bronId": "SP00029588"}}, {"type": "Feature", "geometry": {"type": "Point", "coordinates": [4.630764, 51.844771]}, "properties": {"type": "inleverpunt", "locatieNaam": "1639 Albert Heijn Hendrik-Ido-Ambacht", "straatNaam": "Reeweg", "straatNr": "88", "postcode": "3342 AC", "plaats": "Hendrik-Ido-Ambacht", "merk": "StichtingOPEN", "puntType": "balie", "materialen": ["batterijen", "elektro-klein", "lampen"], "uitbetaling": [], "vrijToegankelijk": false, "gemeenteBeperking": null, "openingstijden": null, "latitude": 51.844771, "longitude": 4.630764, "bronId": "SP00022688"}}, {"type": "Feature", "geometry": {"type": "Point", "coordinates": [4.621679, 51.843735]}, "properties": {"type": "inleverpunt", "locatieNaam": "Kinderboerderij Jeugdspeelpark", "straatNaam": "Rossenburgpad", "straatNr": "12", "postcode": "3342 GP", "plaats": "Hendrik-Ido-Ambacht", "merk": "StichtingOPEN", "puntType": "balie", "materialen": ["elektro-klein", "elektro-middel"], "uitbetaling": [], "vrijToegankelijk": false, "gemeenteBeperking": null, "openingstijden": null, "latitude": 51.843735, "longitude": 4.621679, "bronId": "SP00022118"}}, {"type": "Feature", "geometry": {"type": "Point", "coordinates": [4.63374, 51.828066]}, "properties": {"type": "inleverpunt", "locatieNaam": "Intratuin Hendrik Ido Ambacht", "straatNaam": "Langeweg", "straatNr": "21", "postcode": "3343 LD", "plaats": "Hendrik-Ido-Ambacht", "merk": "StichtingOPEN", "puntType": "balie", "materialen": ["batterijen", "elektro-klein", "elektro-middel", "lampen"], "uitbetaling": [], "vrijToegankelijk": false, "gemeenteBeperking": null, "openingstijden": null, "latitude": 51.828066, "longitude": 4.63374, "bronId": "SP00005552"}}, {"type": "Feature", "geometry": {"type": "Point", "coordinates": [4.648389, 51.856811]}, "properties": {"type": "inleverpunt", "locatieNaam": "Milieustraat Noordpolder", "straatNaam": "Crezeepolder", "straatNr": "9", "postcode": "3341 LA", "plaats": "Hendrik-Ido-Ambacht", "merk": "StichtingOPEN", "puntType": "milieustraat", "materialen": ["batterijen", "elektro-groot", "elektro-klein", "elektro-middel", "lampen", "tl-buizen"], "uitbetaling": [], "vrijToegankelijk": false, "gemeenteBeperking": ["Hendrik-Ido-Ambacht", "Alblasserdam", "Ridderkerk", "Zwijndrecht"], "openingstijden": null, "latitude": 51.856811, "longitude": 4.648389, "bronId": "SP00030660"}}, {"type": "Feature", "geometry": {"type": "Point", "coordinates": [4.6531621, 51.8519269]}, "properties": {"type": "inleverpunt", "locatieNaam": "De Haan", "straatNaam": "Noordeinde", "straatNr": "11", "postcode": "3341 LW", "plaats": "Hendrik-Ido-Ambacht", "merk": "Stibat", "puntType": "inzamelbak", "materialen": ["batterijen"], "uitbetaling": [], "vrijToegankelijk": false, "gemeenteBeperking": null, "openingstijden": null, "latitude": 51.8519269, "longitude": 4.6531621, "bronId": "L044826"}}, {"type": "Feature", "geometry": {"type": "Point", "coordinates": [4.6565123, 51.8458484]}, "properties": {"type": "inleverpunt", "locatieNaam": "Karwei", "straatNaam": "Noordeinde", "straatNr": "200", "postcode": "3341 LW", "plaats": "Hendrik Ido Ambacht", "merk": "Stibat", "puntType": "inzamelbak", "materialen": ["batterijen"], "uitbetaling": [], "vrijToegankelijk": false, "gemeenteBeperking": null, "openingstijden": null, "latitude": 51.8458484, "longitude": 4.6565123, "bronId": "L006786"}}, {"type": "Feature", "geometry": {"type": "Point", "coordinates": [4.6499551, 51.8511231]}, "properties": {"type": "inleverpunt", "locatieNaam": "De Fietsen van Ambacht", "straatNaam": "Veersedijk", "straatNr": "55", "postcode": "3341 LL", "plaats": "Hendr Ido Ambacht", "merk": "Stibat", "puntType": "inzamelbak", "materialen": ["batterijen"], "uitbetaling": [], "vrijToegankelijk": false, "gemeenteBeperking": null, "openingstijden": null, "latitude": 51.8511231, "longitude": 4.6499551, "bronId": "L033146"}}, {"type": "Feature", "geometry": {"type": "Point", "coordinates": [4.6452759, 51.8495892]}, "properties": {"type": "inleverpunt", "locatieNaam": "Jumbo", "straatNaam": "De Schoof", "straatNr": "120", "postcode": "3341 EB", "plaats": "Hendr Ido Ambacht", "merk": "Stibat", "puntType": "inzamelbak", "materialen": ["batterijen"], "uitbetaling": [], "vrijToegankelijk": false, "gemeenteBeperking": null, "openingstijden": null, "latitude": 51.8495892, "longitude": 4.6452759, "bronId": "L029205"}}, {"type": "Feature", "geometry": {"type": "Point", "coordinates": [4.6451902, 51.8495077]}, "properties": {"type": "inleverpunt", "locatieNaam": "Lidl", "straatNaam": "W.C. de Schoof", "straatNr": "68", "postcode": "3341 EB", "plaats": "Hendrik Ido Ambacht", "merk": "Stibat", "puntType": "inzamelbak", "materialen": ["batterijen"], "uitbetaling": [], "vrijToegankelijk": false, "gemeenteBeperking": null, "openingstijden": null, "latitude": 51.8495077, "longitude": 4.6451902, "bronId": "L018451"}}, {"type": "Feature", "geometry": {"type": "Point", "coordinates": [4.6451166, 51.8495702]}, "properties": {"type": "inleverpunt", "locatieNaam": "HEMA De Schoof", "straatNaam": "De Schoof", "straatNr": "176", "postcode": "3341 EB", "plaats": "Hendrik Ido Ambacht", "merk": "Stibat", "puntType": "inzamelbak", "materialen": ["batterijen"], "uitbetaling": [], "vrijToegankelijk": false, "gemeenteBeperking": null, "openingstijden": null, "latitude": 51.8495702, "longitude": 4.6451166, "bronId": "L005653"}}, {"type": "Feature", "geometry": {"type": "Point", "coordinates": [4.6446473, 51.8498638]}, "properties": {"type": "inleverpunt", "locatieNaam": "Beter Horen", "straatNaam": "De Schoof", "straatNr": "166", "postcode": "3341 EB", "plaats": "Hendr Ido Ambacht", "merk": "Stibat", "puntType": "inzamelbak", "materialen": ["batterijen"], "uitbetaling": [], "vrijToegankelijk": false, "gemeenteBeperking": null, "openingstijden": null, "latitude": 51.8498638, "longitude": 4.6446473, "bronId": "L031068"}}, {"type": "Feature", "geometry": {"type": "Point", "coordinates": [4.647739, 51.8465552]}, "properties": {"type": "inleverpunt", "locatieNaam": "Milieustraat Noordpolder", "straatNaam": "Crezéepolderweg", "straatNr": "9", "postcode": "3341 LZ", "plaats": "Rotterdam", "merk": "Stibat", "puntType": "inzamelbak", "materialen": ["batterijen"], "uitbetaling": [], "vrijToegankelijk": false, "gemeenteBeperking": null, "openingstijden": null, "latitude": 51.8465552, "longitude": 4.647739, "bronId": "L035668"}}, {"type": "Feature", "geometry": {"type": "Point", "coordinates": [4.6444975, 51.8492696]}, "properties": {"type": "inleverpunt", "locatieNaam": "BelCompany", "straatNaam": "De Schoof", "straatNr": "33", "postcode": "3341 EA", "plaats": "Hendrik Ido Ambacht", "merk": "Stibat", "puntType": "inzamelbak", "materialen": ["batterijen"], "uitbetaling": [], "vrijToegankelijk": false, "gemeenteBeperking": null, "openingstijden": null, "latitude": 51.8492696, "longitude": 4.6444975, "bronId": "L023278"}}, {"type": "Feature", "geometry": {"type": "Point", "coordinates": [4.6443156, 51.8493555]}, "properties": {"type": "inleverpunt", "locatieNaam": "Zeeman", "straatNaam": "De Schoof", "straatNr": "58", "postcode": "3341 EB", "plaats": "Hendrik Ido Ambacht", "merk": "Stibat", "puntType": "inzamelbak", "materialen": ["batterijen"], "uitbetaling": [], "vrijToegankelijk": false, "gemeenteBeperking": null, "openingstijden": null, "latitude": 51.8493555, "longitude": 4.6443156, "bronId": "L021986"}}, {"type": "Feature", "geometry": {"type": "Point", "coordinates": [4.6439724, 51.8493846]}, "properties": {"type": "inleverpunt", "locatieNaam": "De Jong Foto Hobby Art", "straatNaam": "De Schoof", "straatNr": "20", "postcode": "3341 EB", "plaats": "Hendr Ido Ambacht", "merk": "Stibat", "puntType": "inzamelbak", "materialen": ["batterijen"], "uitbetaling": [], "vrijToegankelijk": false, "gemeenteBeperking": null, "openingstijden": null, "latitude": 51.8493846, "longitude": 4.6439724, "bronId": "L038133"}}, {"type": "Feature", "geometry": {"type": "Point", "coordinates": [4.6439615, 51.8493731]}, "properties": {"type": "inleverpunt", "locatieNaam": "1377 Action", "straatNaam": "De Schoof", "straatNr": "32", "postcode": "3341 EB", "plaats": "Hendr Ido Ambacht", "merk": "Stibat", "puntType": "inzamelbak", "materialen": ["batterijen"], "uitbetaling": [], "vrijToegankelijk": false, "gemeenteBeperking": null, "openingstijden": null, "latitude": 51.8493731, "longitude": 4.6439615, "bronId": "L040626"}}, {"type": "Feature", "geometry": {"type": "Point", "coordinates": [4.6441084, 51.8490964]}, "properties": {"type": "inleverpunt", "locatieNaam": "Kruidvat", "straatNaam": "De Schoof", "straatNr": "65", "postcode": "3341 EA", "plaats": "Hendrik Ido Ambacht", "merk": "Stibat", "puntType": "inzamelbak", "materialen": ["batterijen"], "uitbetaling": [], "vrijToegankelijk": false, "gemeenteBeperking": null, "openingstijden": null, "latitude": 51.8490964, "longitude": 4.6441084, "bronId": "L015448"}}, {"type": "Feature", "geometry": {"type": "Point", "coordinates": [4.643651, 51.848357]}, "properties": {"type": "inleverpunt", "locatieNaam": "Hans Anders", "straatNaam": "De Schoof", "straatNr": "226", "postcode": "3341 EB", "plaats": "Hendr Ido Ambacht", "merk": "Stibat", "puntType": "inzamelbak", "materialen": ["batterijen"], "uitbetaling": [], "vrijToegankelijk": false, "gemeenteBeperking": null, "openingstijden": null, "latitude": 51.848357, "longitude": 4.643651, "bronId": "L037821"}}, {"type": "Feature", "geometry": {"type": "Point", "coordinates": [4.6415852, 51.8480917]}, "properties": {"type": "inleverpunt", "locatieNaam": "Shell", "straatNaam": "Van Godewijckstraat", "straatNr": "22", "postcode": "3341 VL", "plaats": "Hendr Ido Ambacht", "merk": "Stibat", "puntType": "inzamelbak", "materialen": ["batterijen"], "uitbetaling": [], "vrijToegankelijk": false, "gemeenteBeperking": null, "openingstijden": null, "latitude": 51.8480917, "longitude": 4.6415852, "bronId": "L025685"}}, {"type": "Feature", "geometry": {"type": "Point", "coordinates": [4.6463007, 51.8353738]}, "properties": {"type": "inleverpunt", "locatieNaam": "4111 Albert Heijn", "straatNaam": "Sophiapromenade", "straatNr": "14", "postcode": "3344 PM", "plaats": "Hendr Ido Ambacht", "merk": "Stibat", "puntType": "inzamelbak", "materialen": ["batterijen"], "uitbetaling": [], "vrijToegankelijk": false, "gemeenteBeperking": null, "openingstijden": null, "latitude": 51.8353738, "longitude": 4.6463007, "bronId": "L042681"}}, {"type": "Feature", "geometry": {"type": "Point", "coordinates": [4.646444, 51.8350439]}, "properties": {"type": "inleverpunt", "locatieNaam": "Dirk", "straatNaam": "Sophiapromenade", "straatNr": "78", "postcode": "3344 PM", "plaats": "Hendr Ido Ambacht", "merk": "Stibat", "puntType": "inzamelbak", "materialen": ["batterijen"], "uitbetaling": [], "vrijToegankelijk": false, "gemeenteBeperking": null, "openingstijden": null, "latitude": 51.8350439, "longitude": 4.646444, "bronId": "L029045"}}, {"type": "Feature", "geometry": {"type": "Point", "coordinates": [4.646219, 51.8349299]}, "properties": {"type": "inleverpunt", "locatieNaam": "Primera", "straatNaam": "Sophiapromenade", "straatNr": "74", "postcode": "3344 PM", "plaats": "Hendr Ido Ambacht", "merk": "Stibat", "puntType": "inzamelbak", "materialen": ["batterijen"], "uitbetaling": [], "vrijToegankelijk": false, "gemeenteBeperking": null, "openingstijden": null, "latitude": 51.8349299, "longitude": 4.646219, "bronId": "L029963"}}, {"type": "Feature", "geometry": {"type": "Point", "coordinates": [4.6432632, 51.8337439]}, "properties": {"type": "inleverpunt", "locatieNaam": "Kruidvat", "straatNaam": "Druivengaarde", "straatNr": "4", "postcode": "3344 PK", "plaats": "Hendr Ido Ambacht", "merk": "Stibat", "puntType": "inzamelbak", "materialen": ["batterijen"], "uitbetaling": [], "vrijToegankelijk": false, "gemeenteBeperking": null, "openingstijden": null, "latitude": 51.8337439, "longitude": 4.6432632, "bronId": "L036285"}}, {"type": "Feature", "geometry": {"type": "Point", "coordinates": [4.6301093, 51.8452497]}, "properties": {"type": "inleverpunt", "locatieNaam": "1639 Albert Heijn", "straatNaam": "Reeweg", "straatNr": "88", "postcode": "3342 AC", "plaats": "Hendrik Ido Ambacht", "merk": "Stibat", "puntType": "inzamelbak", "materialen": ["batterijen"], "uitbetaling": [], "vrijToegankelijk": false, "gemeenteBeperking": null, "openingstijden": null, "latitude": 51.8452497, "longitude": 4.6301093, "bronId": "L019551"}}, {"type": "Feature", "geometry": {"type": "Point", "coordinates": [4.6358829, 51.8383093]}, "properties": {"type": "inleverpunt", "locatieNaam": "CIGO", "straatNaam": "Louwersplein", "straatNr": "11", "postcode": "3343 RC", "plaats": "Hendr Ido Ambacht", "merk": "Stibat", "puntType": "inzamelbak", "materialen": ["batterijen"], "uitbetaling": [], "vrijToegankelijk": false, "gemeenteBeperking": null, "openingstijden": null, "latitude": 51.8383093, "longitude": 4.6358829, "bronId": "L034982"}}, {"type": "Feature", "geometry": {"type": "Point", "coordinates": [4.636052, 51.8378632]}, "properties": {"type": "inleverpunt", "locatieNaam": "PLUS", "straatNaam": "Louwersplein", "straatNr": "27-33", "postcode": "3343 RC", "plaats": "Hendrik Ido Ambacht", "merk": "Stibat", "puntType": "inzamelbak", "materialen": ["batterijen"], "uitbetaling": [], "vrijToegankelijk": false, "gemeenteBeperking": null, "openingstijden": null, "latitude": 51.8378632, "longitude": 4.636052, "bronId": "L009192"}}, {"type": "Feature", "geometry": {"type": "Point", "coordinates": [4.6360079, 51.8378989]}, "properties": {"type": "inleverpunt", "locatieNaam": "Trekpleister", "straatNaam": "Louwersplein", "straatNr": "17", "postcode": "3343 RC", "plaats": "Hendrik Ido Ambacht", "merk": "Stibat", "puntType": "inzamelbak", "materialen": ["batterijen"], "uitbetaling": [], "vrijToegankelijk": false, "gemeenteBeperking": null, "openingstijden": null, "latitude": 51.8378989, "longitude": 4.6360079, "bronId": "L026729"}}, {"type": "Feature", "geometry": {"type": "Point", "coordinates": [4.6336644, 51.8280077]}, "properties": {"type": "inleverpunt", "locatieNaam": "Intratuin", "straatNaam": "Langeweg", "straatNr": "21", "postcode": "3343 LD", "plaats": "Hendrik Ido Ambacht", "merk": "Stibat", "puntType": "inzamelbak", "materialen": ["batterijen"], "uitbetaling": [], "vrijToegankelijk": false, "gemeenteBeperking": null, "openingstijden": null, "latitude": 51.8280077, "longitude": 4.6336644, "bronId": "L022976"}}, {"type": "Feature", "geometry": {"type": "Point", "coordinates": [4.6171588, 51.8329141]}, "properties": {"type": "inleverpunt", "locatieNaam": "De Haan", "straatNaam": "Korte Langesteijn", "straatNr": "2", "postcode": "3342 LH", "plaats": "Hendrik-Ido-Ambacht", "merk": "Stibat", "puntType": "inzamelbak", "materialen": ["batterijen"], "uitbetaling": [], "vrijToegankelijk": false, "gemeenteBeperking": null, "openingstijden": null, "latitude": 51.8329141, "longitude": 4.6171588, "bronId": "L044823"}}, {"type": "Feature", "geometry": {"type": "Polygon", "coordinates": [[[4.63720900094706, 51.82534800380529], [4.6402320009501565, 51.826415003806], [4.642949000952895, 51.82647700380605], [4.643977000953982, 51.827530003806714], [4.644584000954585, 51.82732500380659], [4.661886000972218, 51.83160800380937], [4.664822000974996, 51.82796700380705], [4.670439000980435, 51.823589003804265], [4.669420000979549, 51.82644200380607], [4.6692090009794915, 51.829599003808106], [4.669865000980263, 51.83183300380954], [4.6724130009830285, 51.835883003812114], [4.672702000983445, 51.83841400381373], [4.670173000981083, 51.84214900381609], [4.65902600097029, 51.850837003821646], [4.653064000964634, 51.85774500382601], [4.648850000960598, 51.86184200382862], [4.644785000956653, 51.86481100383049], [4.635334000947392, 51.86984700383364], [4.635607000947616, 51.86879100383301], [4.639022000950793, 51.8636400038297], [4.6428340009544495, 51.860016003827404], [4.647294000958798, 51.85721600382566], [4.646948000958423, 51.8566610038253], [4.644025000955379, 51.85463200382404], [4.641679000952962, 51.85354500382331], [4.638876000950021, 51.85111100382174], [4.636516000947575, 51.849662003820825], [4.635425000946498, 51.850101003821095], [4.633441000944511, 51.850276003821214], [4.629918000941139, 51.85379300382342], [4.627319000938565, 51.85465300382398], [4.623422000934596, 51.85373100382338], [4.621482000932578, 51.85237000382249], [4.618715000929735, 51.85123800382174], [4.612501000923451, 51.85058800382133], [4.608288000919149, 51.84941400382052], [4.608157000918995, 51.8489920038203], [4.606605000917405, 51.84839400381993], [4.604885000915672, 51.848386003819854], [4.600155000910425, 51.83873000381371], [4.63720900094706, 51.82534800380529]]]}, "properties": {"type": "boundary", "gemeente": "Hendrik-Ido-Ambacht"}}]}