{"type": "FeatureCollection", "metadata": {"gemeente": "Heumen", "slug": "heumen", "generated_at": "2026-07-28T10:02:02.095237Z", "total_points": 34, "merken": ["StatiegeldNederland", "Stibat", "StichtingOPEN"], "bounds": [5.7844085, 51.76071, 5.8604705, 51.7952846]}, "features": [{"type": "Feature", "geometry": {"type": "Point", "coordinates": [5.8538751, 51.7821164]}, "properties": {"type": "inleverpunt", "locatieNaam": "Albert Heijn", "straatNaam": "Winkelcentrum", "straatNr": "19", "postcode": "6581 BV", "plaats": "Malden", "merk": "StatiegeldNederland", "puntType": "automaat", "materialen": ["pet-groot", "pet-klein", "blik", "glas", "krat"], "uitbetaling": ["bonnetje", "donatie"], "vrijToegankelijk": true, "gemeenteBeperking": null, "openingstijden": null, "latitude": 51.7821164, "longitude": 5.8538751, "bronId": "252936"}}, {"type": "Feature", "geometry": {"type": "Point", "coordinates": [5.8479105, 51.7640531]}, "properties": {"type": "inleverpunt", "locatieNaam": "Heumense Tennis Club", "straatNaam": "Maasstraat", "straatNr": "9a", "postcode": "6582 AR", "plaats": "Heumen", "merk": "StatiegeldNederland", "puntType": "balie", "materialen": ["pet-groot", "pet-klein", "blik"], "uitbetaling": [], "vrijToegankelijk": false, "gemeenteBeperking": null, "openingstijden": {"ma": "08:00–23:00", "di": "08:00–23:00", "wo": "08:00–23:00", "do": "08:00–23:00", "vr": "08:00–23:00", "za": "08:00–23:00", "zo": "08:00–23:00"}, "latitude": 51.7640531, "longitude": 5.8479105, "bronId": "254975"}}, {"type": "Feature", "geometry": {"type": "Point", "coordinates": [5.7844085, 51.7642948]}, "properties": {"type": "inleverpunt", "locatieNaam": "Plus", "straatNaam": "Lagenhof", "straatNr": "5", "postcode": "6611 AB", "plaats": "Overasselt", "merk": "StatiegeldNederland", "puntType": "automaat", "materialen": ["pet-groot", "pet-klein", "blik", "glas", "krat"], "uitbetaling": ["bonnetje", "donatie"], "vrijToegankelijk": true, "gemeenteBeperking": null, "openingstijden": {"ma": "08:00–20:00", "di": "08:00–20:00", "wo": "08:00–20:00", "do": "08:00–20:00", "vr": "08:00–20:00", "za": "08:00–20:00", "zo": "10:00–19:00"}, "latitude": 51.7642948, "longitude": 5.7844085, "bronId": "257401"}}, {"type": "Feature", "geometry": {"type": "Point", "coordinates": [5.85338, 51.78272]}, "properties": {"type": "inleverpunt", "locatieNaam": "Plus", "straatNaam": "Winkelcentrum", "straatNr": "20", "postcode": "6581 BW", "plaats": "Malden", "merk": "StatiegeldNederland", "puntType": "automaat", "materialen": ["pet-groot", "pet-klein", "blik", "glas", "krat"], "uitbetaling": ["bonnetje", "donatie"], "vrijToegankelijk": true, "gemeenteBeperking": null, "openingstijden": {"ma": "08:00–21:00", "di": "08:00–21:00", "wo": "08:00–21:00", "do": "08:00–21:00", "vr": "08:00–21:00", "za": "08:00–21:00", "zo": "10:00–18:00"}, "latitude": 51.78272, "longitude": 5.85338, "bronId": "257598"}}, {"type": "Feature", "geometry": {"type": "Point", "coordinates": [5.7970265, 51.7840894]}, "properties": {"type": "inleverpunt", "locatieNaam": "Scoutingkampeerterrein St. Walrick", "straatNaam": "St. Walrickweg", "straatNr": "11", "postcode": "6611 KG", "plaats": "Overasselt", "merk": "StatiegeldNederland", "puntType": "balie", "materialen": ["pet-groot", "pet-klein", "blik"], "uitbetaling": [], "vrijToegankelijk": false, "gemeenteBeperking": null, "openingstijden": {"ma": "24 uur geopend", "di": "24 uur geopend", "wo": "24 uur geopend", "do": "24 uur geopend", "vr": "24 uur geopend", "za": "24 uur geopend", "zo": "24 uur geopend"}, "latitude": 51.7840894, "longitude": 5.7970265, "bronId": "258006"}}, {"type": "Feature", "geometry": {"type": "Point", "coordinates": [5.8604705, 51.7686847]}, "properties": {"type": "inleverpunt", "locatieNaam": "Spar", "straatNaam": "SCHUTKOLK", "straatNr": "4", "postcode": "6582 DB", "plaats": "Malden", "merk": "StatiegeldNederland", "puntType": "balie", "materialen": ["pet-groot", "pet-klein", "blik"], "uitbetaling": [], "vrijToegankelijk": true, "gemeenteBeperking": null, "openingstijden": null, "latitude": 51.7686847, "longitude": 5.8604705, "bronId": "258464"}}, {"type": "Feature", "geometry": {"type": "Point", "coordinates": [5.8397374, 51.760858]}, "properties": {"type": "inleverpunt", "locatieNaam": "Watersport Vereniging Maas En Waal", "straatNaam": "Kasteellaan", "straatNr": "1-3", "postcode": "6582 AZ", "plaats": "Heumen", "merk": "StatiegeldNederland", "puntType": "balie", "materialen": ["pet-groot", "pet-klein", "blik"], "uitbetaling": [], "vrijToegankelijk": false, "gemeenteBeperking": null, "openingstijden": null, "latitude": 51.760858, "longitude": 5.8397374, "bronId": "259853"}}, {"type": "Feature", "geometry": {"type": "Point", "coordinates": [5.79069, 51.76071]}, "properties": {"type": "inleverpunt", "locatieNaam": "Coop Overasselt", "straatNaam": "Hoogstraat", "straatNr": "4", "postcode": "6611 BX", "plaats": "Overasselt", "merk": "StichtingOPEN", "puntType": "balie", "materialen": ["batterijen", "lampen"], "uitbetaling": [], "vrijToegankelijk": false, "gemeenteBeperking": null, "openingstijden": null, "latitude": 51.76071, "longitude": 5.79069, "bronId": "SP00029806"}}, {"type": "Feature", "geometry": {"type": "Point", "coordinates": [5.853707, 51.782045]}, "properties": {"type": "inleverpunt", "locatieNaam": "8735 Albert Heijn Malden", "straatNaam": "Promenade", "straatNr": "19", "postcode": "6581 BV", "plaats": "Malden", "merk": "StichtingOPEN", "puntType": "balie", "materialen": ["batterijen", "elektro-klein", "lampen"], "uitbetaling": [], "vrijToegankelijk": false, "gemeenteBeperking": null, "openingstijden": null, "latitude": 51.782045, "longitude": 5.853707, "bronId": "SP00022662"}}, {"type": "Feature", "geometry": {"type": "Point", "coordinates": [5.852872, 51.781195]}, "properties": {"type": "inleverpunt", "locatieNaam": "Action Malden", "straatNaam": "Promenade", "straatNr": "17b", "postcode": "6581 BV", "plaats": "Malden", "merk": "StichtingOPEN", "puntType": "balie", "materialen": ["batterijen", "lampen"], "uitbetaling": [], "vrijToegankelijk": false, "gemeenteBeperking": null, "openingstijden": null, "latitude": 51.781195, "longitude": 5.852872, "bronId": "SP00025549"}}, {"type": "Feature", "geometry": {"type": "Point", "coordinates": [5.853368, 51.780832]}, "properties": {"type": "inleverpunt", "locatieNaam": "PLUS Malden", "straatNaam": "Promenade", "straatNr": "20", "postcode": "6581 BW", "plaats": "Malden", "merk": "StichtingOPEN", "puntType": "balie", "materialen": ["batterijen", "lampen"], "uitbetaling": [], "vrijToegankelijk": false, "gemeenteBeperking": null, "openingstijden": null, "latitude": 51.780832, "longitude": 5.853368, "bronId": "SP00024154"}}, {"type": "Feature", "geometry": {"type": "Point", "coordinates": [5.860236, 51.769604]}, "properties": {"type": "inleverpunt", "locatieNaam": "Praxis Malden - 2417", "straatNaam": "Sluisweg", "straatNr": "5", "postcode": "6582 AG", "plaats": "Heumen", "merk": "StichtingOPEN", "puntType": "balie", "materialen": ["elektro-middel", "lampen", "tl-buizen"], "uitbetaling": [], "vrijToegankelijk": false, "gemeenteBeperking": null, "openingstijden": null, "latitude": 51.769604, "longitude": 5.860236, "bronId": "SP00004617"}}, {"type": "Feature", "geometry": {"type": "Point", "coordinates": [5.860163, 51.767968]}, "properties": {"type": "inleverpunt", "locatieNaam": "Kringloopwinkel Vintage and More", "straatNaam": "Bolder", "straatNr": "18b", "postcode": "6582 BZ", "plaats": "Heumen", "merk": "StichtingOPEN", "puntType": "balie", "materialen": ["batterijen", "elektro-groot", "elektro-klein", "elektro-middel", "lampen", "tl-buizen"], "uitbetaling": [], "vrijToegankelijk": false, "gemeenteBeperking": null, "openingstijden": null, "latitude": 51.767968, "longitude": 5.860163, "bronId": "SP00006645"}}, {"type": "Feature", "geometry": {"type": "Point", "coordinates": [5.847492, 51.780696]}, "properties": {"type": "inleverpunt", "locatieNaam": "Milieustraat Malden", "straatNaam": "Ambachtsweg", "straatNr": "10", "postcode": "6581 AX", "plaats": "Malden", "merk": "StichtingOPEN", "puntType": "milieustraat", "materialen": ["batterijen", "elektro-groot", "elektro-klein", "elektro-middel", "lampen", "tl-buizen"], "uitbetaling": [], "vrijToegankelijk": false, "gemeenteBeperking": ["Heumen"], "openingstijden": null, "latitude": 51.780696, "longitude": 5.847492, "bronId": "SP00004413"}}, {"type": "Feature", "geometry": {"type": "Point", "coordinates": [5.7852613, 51.7639484]}, "properties": {"type": "inleverpunt", "locatieNaam": "Wagenberg Tweewielers", "straatNaam": "Schoonenburgseweg", "straatNr": "4", "postcode": "6611 AB", "plaats": "Overasselt", "merk": "Stibat", "puntType": "inzamelbak", "materialen": ["batterijen"], "uitbetaling": [], "vrijToegankelijk": false, "gemeenteBeperking": null, "openingstijden": null, "latitude": 51.7639484, "longitude": 5.7852613, "bronId": "L033772"}}, {"type": "Feature", "geometry": {"type": "Point", "coordinates": [5.7874873, 51.7649805]}, "properties": {"type": "inleverpunt", "locatieNaam": "Angenendt", "straatNaam": "Kasteelsestraat", "straatNr": "7", "postcode": "6611 KA", "plaats": "Overasselt", "merk": "Stibat", "puntType": "inzamelbak", "materialen": ["batterijen"], "uitbetaling": [], "vrijToegankelijk": false, "gemeenteBeperking": null, "openingstijden": null, "latitude": 51.7649805, "longitude": 5.7874873, "bronId": "L046717"}}, {"type": "Feature", "geometry": {"type": "Point", "coordinates": [5.8496941, 51.7952846]}, "properties": {"type": "inleverpunt", "locatieNaam": "Intratuin", "straatNaam": "Rijksweg", "straatNr": "63", "postcode": "6581 EE", "plaats": "Malden", "merk": "Stibat", "puntType": "inzamelbak", "materialen": ["batterijen"], "uitbetaling": [], "vrijToegankelijk": false, "gemeenteBeperking": null, "openingstijden": null, "latitude": 51.7952846, "longitude": 5.8496941, "bronId": "L024102"}}, {"type": "Feature", "geometry": {"type": "Point", "coordinates": [5.8418687, 51.7884903]}, "properties": {"type": "inleverpunt", "locatieNaam": "Fietsplezier Malden", "straatNaam": "De Hoge Brug", "straatNr": "1", "postcode": "6581 AJ", "plaats": "Malden", "merk": "Stibat", "puntType": "inzamelbak", "materialen": ["batterijen"], "uitbetaling": [], "vrijToegankelijk": false, "gemeenteBeperking": null, "openingstijden": null, "latitude": 51.7884903, "longitude": 5.8418687, "bronId": "L036179"}}, {"type": "Feature", "geometry": {"type": "Point", "coordinates": [5.8440463, 51.7883966]}, "properties": {"type": "inleverpunt", "locatieNaam": "Tuinwereld Malden", "straatNaam": "Broekkant", "straatNr": "90", "postcode": "6581 AH", "plaats": "Malden", "merk": "Stibat", "puntType": "inzamelbak", "materialen": ["batterijen"], "uitbetaling": [], "vrijToegankelijk": false, "gemeenteBeperking": null, "openingstijden": null, "latitude": 51.7883966, "longitude": 5.8440463, "bronId": "L032653"}}, {"type": "Feature", "geometry": {"type": "Point", "coordinates": [5.8198124, 51.7700783]}, "properties": {"type": "inleverpunt", "locatieNaam": "Rekreatiecentrum Heumens Bos", "straatNaam": "Vosseneindseweg", "straatNr": "46", "postcode": "6582 BR", "plaats": "Heumen", "merk": "Stibat", "puntType": "inzamelbak", "materialen": ["batterijen"], "uitbetaling": [], "vrijToegankelijk": false, "gemeenteBeperking": null, "openingstijden": null, "latitude": 51.7700783, "longitude": 5.8198124, "bronId": "L009423"}}, {"type": "Feature", "geometry": {"type": "Point", "coordinates": [5.8476004, 51.7806485]}, "properties": {"type": "inleverpunt", "locatieNaam": "Milieustraat Malden", "straatNaam": "Ambachtsweg", "straatNr": "10", "postcode": "6581 AX", "plaats": "Malden", "merk": "Stibat", "puntType": "inzamelbak", "materialen": ["batterijen"], "uitbetaling": [], "vrijToegankelijk": false, "gemeenteBeperking": null, "openingstijden": null, "latitude": 51.7806485, "longitude": 5.8476004, "bronId": "L035813"}}, {"type": "Feature", "geometry": {"type": "Point", "coordinates": [5.8524113, 51.7824425]}, "properties": {"type": "inleverpunt", "locatieNaam": "Kruidvat", "straatNaam": "Passage", "straatNr": "2", "postcode": "6581 WK", "plaats": "Malden", "merk": "Stibat", "puntType": "inzamelbak", "materialen": ["batterijen"], "uitbetaling": [], "vrijToegankelijk": false, "gemeenteBeperking": null, "openingstijden": null, "latitude": 51.7824425, "longitude": 5.8524113, "bronId": "L015162"}}, {"type": "Feature", "geometry": {"type": "Point", "coordinates": [5.8532441, 51.7825127]}, "properties": {"type": "inleverpunt", "locatieNaam": "7768 Etos", "straatNaam": "Winkelcentrum", "straatNr": "12 -14", "postcode": "6581 BW", "plaats": "Malden", "merk": "Stibat", "puntType": "inzamelbak", "materialen": ["batterijen"], "uitbetaling": [], "vrijToegankelijk": false, "gemeenteBeperking": null, "openingstijden": null, "latitude": 51.7825127, "longitude": 5.8532441, "bronId": "L026347"}}, {"type": "Feature", "geometry": {"type": "Point", "coordinates": [5.8532703, 51.7822786]}, "properties": {"type": "inleverpunt", "locatieNaam": "PLUS", "straatNaam": "Winkelcentrum", "straatNr": "20", "postcode": "6581 BW", "plaats": "Malden", "merk": "Stibat", "puntType": "inzamelbak", "materialen": ["batterijen"], "uitbetaling": [], "vrijToegankelijk": false, "gemeenteBeperking": null, "openingstijden": null, "latitude": 51.7822786, "longitude": 5.8532703, "bronId": "L021985"}}, {"type": "Feature", "geometry": {"type": "Point", "coordinates": [5.8529542, 51.7819227]}, "properties": {"type": "inleverpunt", "locatieNaam": "BelCompany", "straatNaam": "Winkelcentrum", "straatNr": "32", "postcode": "6581 BW", "plaats": "Malden", "merk": "Stibat", "puntType": "inzamelbak", "materialen": ["batterijen"], "uitbetaling": [], "vrijToegankelijk": false, "gemeenteBeperking": null, "openingstijden": null, "latitude": 51.7819227, "longitude": 5.8529542, "bronId": "L023305"}}, {"type": "Feature", "geometry": {"type": "Point", "coordinates": [5.8537627, 51.7822497]}, "properties": {"type": "inleverpunt", "locatieNaam": "1368 Action", "straatNaam": "Winkelcentrum", "straatNr": "17b", "postcode": "6581 BV", "plaats": "Malden", "merk": "Stibat", "puntType": "inzamelbak", "materialen": ["batterijen"], "uitbetaling": [], "vrijToegankelijk": false, "gemeenteBeperking": null, "openingstijden": null, "latitude": 51.7822497, "longitude": 5.8537627, "bronId": "L038541"}}, {"type": "Feature", "geometry": {"type": "Point", "coordinates": [5.8537743, 51.7822418]}, "properties": {"type": "inleverpunt", "locatieNaam": "Intertoys", "straatNaam": "Winkelcentrum", "straatNr": "17A", "postcode": "6581 BV", "plaats": "Malden", "merk": "Stibat", "puntType": "inzamelbak", "materialen": ["batterijen"], "uitbetaling": [], "vrijToegankelijk": false, "gemeenteBeperking": null, "openingstijden": null, "latitude": 51.7822418, "longitude": 5.8537743, "bronId": "L006888"}}, {"type": "Feature", "geometry": {"type": "Point", "coordinates": [5.8532798, 51.7817932]}, "properties": {"type": "inleverpunt", "locatieNaam": "Wibra", "straatNaam": "Winkelcentrum", "straatNr": "46", "postcode": "6581 BW", "plaats": "Malden", "merk": "Stibat", "puntType": "inzamelbak", "materialen": ["batterijen"], "uitbetaling": [], "vrijToegankelijk": false, "gemeenteBeperking": null, "openingstijden": null, "latitude": 51.7817932, "longitude": 5.8532798, "bronId": "L047526"}}, {"type": "Feature", "geometry": {"type": "Point", "coordinates": [5.8537026, 51.7820432]}, "properties": {"type": "inleverpunt", "locatieNaam": "8735 Albert Heijn", "straatNaam": "Winkelcentrum", "straatNr": "19", "postcode": "6581 BV", "plaats": "Malden", "merk": "Stibat", "puntType": "inzamelbak", "materialen": ["batterijen"], "uitbetaling": [], "vrijToegankelijk": false, "gemeenteBeperking": null, "openingstijden": null, "latitude": 51.7820432, "longitude": 5.8537026, "bronId": "L005927"}}, {"type": "Feature", "geometry": {"type": "Point", "coordinates": [5.853352, 51.7817749]}, "properties": {"type": "inleverpunt", "locatieNaam": "Casatronics", "straatNaam": "Winkelcentrum", "straatNr": "36", "postcode": "6581 BW", "plaats": "Malden", "merk": "Stibat", "puntType": "inzamelbak", "materialen": ["batterijen"], "uitbetaling": [], "vrijToegankelijk": false, "gemeenteBeperking": null, "openingstijden": null, "latitude": 51.7817749, "longitude": 5.853352, "bronId": "L008264"}}, {"type": "Feature", "geometry": {"type": "Point", "coordinates": [5.8536589, 51.7807454]}, "properties": {"type": "inleverpunt", "locatieNaam": "HEMA Malden", "straatNaam": "Promenade", "straatNr": "14", "postcode": "6581 BV", "plaats": "Malden", "merk": "Stibat", "puntType": "inzamelbak", "materialen": ["batterijen"], "uitbetaling": [], "vrijToegankelijk": false, "gemeenteBeperking": null, "openingstijden": null, "latitude": 51.7807454, "longitude": 5.8536589, "bronId": "L046876"}}, {"type": "Feature", "geometry": {"type": "Point", "coordinates": [5.8602297, 51.7695863]}, "properties": {"type": "inleverpunt", "locatieNaam": "Praxis 2417", "straatNaam": "Sluisweg", "straatNr": "5", "postcode": "6582 AG", "plaats": "Heumen", "merk": "Stibat", "puntType": "inzamelbak", "materialen": ["batterijen"], "uitbetaling": [], "vrijToegankelijk": false, "gemeenteBeperking": null, "openingstijden": null, "latitude": 51.7695863, "longitude": 5.8602297, "bronId": "L014271"}}, {"type": "Feature", "geometry": {"type": "Point", "coordinates": [5.8599537, 51.7687061]}, "properties": {"type": "inleverpunt", "locatieNaam": "Digital Street", "straatNaam": "Schutkolk", "straatNr": "6", "postcode": "6582 DB", "plaats": "Heumen", "merk": "Stibat", "puntType": "inzamelbak", "materialen": ["batterijen"], "uitbetaling": [], "vrijToegankelijk": false, "gemeenteBeperking": null, "openingstijden": null, "latitude": 51.7687061, "longitude": 5.8599537, "bronId": "L037092"}}, {"type": "Feature", "geometry": {"type": "Point", "coordinates": [5.8601633, 51.7679682]}, "properties": {"type": "inleverpunt", "locatieNaam": "Kringloopwinkel Vintage and More", "straatNaam": "Bolder", "straatNr": "18B", "postcode": "6582 BZ", "plaats": "Heumen", "merk": "Stibat", "puntType": "inzamelbak", "materialen": ["batterijen"], "uitbetaling": [], "vrijToegankelijk": false, "gemeenteBeperking": null, "openingstijden": null, "latitude": 51.7679682, "longitude": 5.8601633, "bronId": "L037249"}}, {"type": "Feature", "geometry": {"type": "Polygon", "coordinates": [[[5.7689720020841575, 51.75237700374737], [5.775320002090537, 51.752101003747086], [5.782564002097838, 51.75242700374709], [5.788363002103696, 51.75314400374745], [5.799969002115445, 51.755351003748586], [5.807220002122771, 51.756305003749056], [5.847804002163692, 51.75927200375], [5.855045002170968, 51.75913500374974], [5.864469002180398, 51.75768200374858], [5.869245002185368, 51.762860003751825], [5.868192002184375, 51.76484200375306], [5.867104002183438, 51.76968600375624], [5.867893002184417, 51.77552100375995], [5.868861002185393, 51.77557100375996], [5.869465002186016, 51.77609200376027], [5.878284002194909, 51.77694700376063], [5.886375002203096, 51.77859000376148], [5.889483002206217, 51.77848700376132], [5.8934090022101415, 51.77785300376082], [5.887979002204846, 51.78298700376426], [5.887211002204146, 51.785240003765715], [5.887443002204707, 51.79537400377223], [5.881025002198451, 51.80144900377626], [5.879110002196786, 51.8095300037815], [5.876311002193987, 51.8099140037818], [5.868976002186622, 51.81009300378209], [5.8646820021822945, 51.809797003782], [5.857512002175047, 51.808389003781315], [5.853134002170635, 51.808047003781176], [5.852816002170296, 51.80750200378082], [5.8514760021689565, 51.80762500378094], [5.851593002169083, 51.8079550037812], [5.849037002166513, 51.80791000378119], [5.848756002166243, 51.808267003781424], [5.848222002165706, 51.808284003781445], [5.841972002159401, 51.80749500378109], [5.8409440021583565, 51.807200003780935], [5.841333002158705, 51.80590400378008], [5.839220002156538, 51.80453900377926], [5.837108002154467, 51.80607600378032], [5.836600002153948, 51.805914003780195], [5.825506002142606, 51.80012800377682], [5.8271590021442465, 51.799425003776285], [5.8136990021304955, 51.79279700377232], [5.810221002126928, 51.790589003771025], [5.800949002117754, 51.79515100377417], [5.800365002117143, 51.79436300377366], [5.799593002116366, 51.79440900377369], [5.79736000211406, 51.792554003772615], [5.7867370021032025, 51.78722700376943], [5.786973002103432, 51.78705600376926], [5.780659002096986, 51.784204003767606], [5.775968002092267, 51.7841590037677], [5.774946002091224, 51.78372700376747], [5.772221002088517, 51.7846660037681], [5.7694730020857685, 51.78518900376848], [5.768779002084983, 51.78260500376685], [5.7448340020607604, 51.7785750037648], [5.740590002056501, 51.778867003765065], [5.740923002056807, 51.7779660037645], [5.740193002056067, 51.77785300376445], [5.736573002052446, 51.77849100376495], [5.733981002049889, 51.77994000376593], [5.733694002049531, 51.77793600376464], [5.732200002048037, 51.778178003764864], [5.731740002047499, 51.77601200376344], [5.73140100204716, 51.776057003763476], [5.7297450020453855, 51.77285100376148], [5.732025002047646, 51.7718940037608], [5.734647002050217, 51.76996300375948], [5.7394290020548455, 51.7645550037559], [5.745239002060507, 51.7591440037523], [5.749291002064512, 51.75697500375083], [5.755068002070253, 51.75495200374938], [5.762296002077471, 51.75325800374807], [5.7689720020841575, 51.75237700374737]]]}, "properties": {"type": "boundary", "gemeente": "Heumen"}}]}