{"type": "FeatureCollection", "metadata": {"gemeente": "Hilvarenbeek", "slug": "hilvarenbeek", "generated_at": "2026-07-28T10:02:02.095237Z", "total_points": 35, "merken": ["StatiegeldNederland", "Stibat", "StichtingOPEN"], "bounds": [5.124755, 51.4509944, 5.2004571, 51.5282752]}, "features": [{"type": "Feature", "geometry": {"type": "Point", "coordinates": [5.1381552, 51.4827082]}, "properties": {"type": "inleverpunt", "locatieNaam": "Albert Heijn", "straatNaam": "Gelderstraat", "straatNr": "52", "postcode": "5081 AD", "plaats": "Hilvarenbeek", "merk": "StatiegeldNederland", "puntType": "automaat", "materialen": ["pet-groot", "pet-klein", "blik", "glas", "krat"], "uitbetaling": ["bonnetje", "donatie"], "vrijToegankelijk": true, "gemeenteBeperking": null, "openingstijden": {"ma": "08:00–21:00", "di": "08:00–21:00", "wo": "08:00–21:00", "do": "08:00–21:00", "vr": "08:00–21:00", "za": "08:00–21:00", "zo": "08:00–20:00"}, "latitude": 51.4827082, "longitude": 5.1381552, "bronId": "252241"}}, {"type": "Feature", "geometry": {"type": "Point", "coordinates": [5.1417132, 51.4853788]}, "properties": {"type": "inleverpunt", "locatieNaam": "Aldi", "straatNaam": "Bloemenstraat", "straatNr": "11", "postcode": "5081 CR", "plaats": "Hilvarenbeek", "merk": "StatiegeldNederland", "puntType": "automaat", "materialen": ["pet-groot", "pet-klein", "blik", "glas", "krat"], "uitbetaling": ["bonnetje"], "vrijToegankelijk": true, "gemeenteBeperking": null, "openingstijden": {"ma": "08:00–20:00", "di": "08:00–20:00", "wo": "08:00–20:00", "do": "08:00–20:00", "vr": "08:00–20:00", "za": "08:00–18:00", "zo": "10:00–18:00"}, "latitude": 51.4853788, "longitude": 5.1417132, "bronId": "253024"}}, {"type": "Feature", "geometry": {"type": "Point", "coordinates": [5.138948, 51.483345]}, "properties": {"type": "inleverpunt", "locatieNaam": "Jumbo", "straatNaam": "Hilverstraat", "straatNr": "99", "postcode": "5081 AV", "plaats": "Hilvarenbeek", "merk": "StatiegeldNederland", "puntType": "automaat", "materialen": ["pet-groot", "pet-klein", "blik", "glas", "krat"], "uitbetaling": ["bonnetje", "donatie"], "vrijToegankelijk": true, "gemeenteBeperking": null, "openingstijden": {"ma": "08:00–21:00", "di": "08:00–21:00", "wo": "08:00–21:00", "do": "08:00–21:00", "vr": "08:00–21:00", "za": "08:00–21:00", "zo": "09:00–19:00"}, "latitude": 51.483345, "longitude": 5.138948, "bronId": "255423"}}, {"type": "Feature", "geometry": {"type": "Point", "coordinates": [5.17884, 51.47867]}, "properties": {"type": "inleverpunt", "locatieNaam": "Plus", "straatNaam": "Julianastraat", "straatNr": "42", "postcode": "5087 BB", "plaats": "Diessen", "merk": "StatiegeldNederland", "puntType": "automaat", "materialen": ["pet-groot", "pet-klein", "blik", "glas", "krat"], "uitbetaling": ["bonnetje"], "vrijToegankelijk": true, "gemeenteBeperking": null, "openingstijden": {"ma": "08:30–20:00", "di": "08:30–20:00", "wo": "08:30–20:00", "do": "08:30–20:00", "vr": "08:30–20:00", "za": "08:30–18:00", "zo": "10:00–18:00"}, "latitude": 51.47867, "longitude": 5.17884, "bronId": "257369"}}, {"type": "Feature", "geometry": {"type": "Point", "coordinates": [5.1443371, 51.4881921]}, "properties": {"type": "inleverpunt", "locatieNaam": "Scouting Hilvarenbeek", "straatNaam": "Bukkumweg", "straatNr": "30c", "postcode": "5081 BC", "plaats": "Hilvarenbeek", "merk": "StatiegeldNederland", "puntType": "balie", "materialen": ["pet-groot", "pet-klein", "blik"], "uitbetaling": [], "vrijToegankelijk": false, "gemeenteBeperking": null, "openingstijden": null, "latitude": 51.4881921, "longitude": 5.1443371, "bronId": "257992"}}, {"type": "Feature", "geometry": {"type": "Point", "coordinates": [5.1385083, 51.5211503]}, "properties": {"type": "inleverpunt", "locatieNaam": "Spar", "straatNaam": "Beekse Bergen", "straatNr": "1", "postcode": "5081 XJ", "plaats": "Hilvarenbeek", "merk": "StatiegeldNederland", "puntType": "automaat", "materialen": ["pet-groot", "pet-klein", "blik", "glas", "krat"], "uitbetaling": ["bonnetje", "donatie"], "vrijToegankelijk": true, "gemeenteBeperking": null, "openingstijden": {"ma": "08:00–18:00", "di": "08:00–18:00", "wo": "08:00–18:00", "do": "08:00–18:00", "vr": "08:00–19:00", "za": "08:00–18:00", "zo": "08:00–17:00"}, "latitude": 51.5211503, "longitude": 5.1385083, "bronId": "258301"}}, {"type": "Feature", "geometry": {"type": "Point", "coordinates": [5.1645507, 51.5072704]}, "properties": {"type": "inleverpunt", "locatieNaam": "Svsos", "straatNaam": "Vossenhol", "straatNr": "22", "postcode": "5084 HK", "plaats": "Biest-houtakker", "merk": "StatiegeldNederland", "puntType": "balie", "materialen": ["pet-groot", "pet-klein", "blik"], "uitbetaling": [], "vrijToegankelijk": false, "gemeenteBeperking": null, "openingstijden": null, "latitude": 51.5072704, "longitude": 5.1645507, "bronId": "258851"}}, {"type": "Feature", "geometry": {"type": "Point", "coordinates": [5.124755, 51.528275]}, "properties": {"type": "inleverpunt", "locatieNaam": "Spar Hilvarenbeek", "straatNaam": "Beekse Bergen", "straatNr": "1", "postcode": "5081 NJ", "plaats": "Hilvarenbeek", "merk": "StichtingOPEN", "puntType": "balie", "materialen": ["batterijen", "lampen"], "uitbetaling": [], "vrijToegankelijk": false, "gemeenteBeperking": null, "openingstijden": null, "latitude": 51.528275, "longitude": 5.124755, "bronId": "SP00031500"}}, {"type": "Feature", "geometry": {"type": "Point", "coordinates": [5.143137, 51.487333]}, "properties": {"type": "inleverpunt", "locatieNaam": "Hubo Hilvarenbeek", "straatNaam": "Bukkumweg", "straatNr": "1", "postcode": "5081 CT", "plaats": "Hilvarenbeek", "merk": "StichtingOPEN", "puntType": "balie", "materialen": ["elektro-middel", "lampen", "tl-buizen"], "uitbetaling": [], "vrijToegankelijk": false, "gemeenteBeperking": null, "openingstijden": null, "latitude": 51.487333, "longitude": 5.143137, "bronId": "SP00004654"}}, {"type": "Feature", "geometry": {"type": "Point", "coordinates": [5.141846, 51.485418]}, "properties": {"type": "inleverpunt", "locatieNaam": "Aldi Hilvarenbeek", "straatNaam": "Bloemenstraat", "straatNr": "11", "postcode": "5081 CR", "plaats": "Hilvarenbeek", "merk": "StichtingOPEN", "puntType": "balie", "materialen": ["batterijen", "elektro-klein", "lampen"], "uitbetaling": [], "vrijToegankelijk": false, "gemeenteBeperking": null, "openingstijden": null, "latitude": 51.485418, "longitude": 5.141846, "bronId": "SP00026786"}}, {"type": "Feature", "geometry": {"type": "Point", "coordinates": [5.139455, 51.484541]}, "properties": {"type": "inleverpunt", "locatieNaam": "Kruidvat Hilvarenbeek", "straatNaam": "Diessenseweg", "straatNr": "31", "postcode": "5081 AE", "plaats": "Hilvarenbeek", "merk": "StichtingOPEN", "puntType": "balie", "materialen": ["batterijen", "elektro-klein", "lampen"], "uitbetaling": [], "vrijToegankelijk": false, "gemeenteBeperking": null, "openingstijden": null, "latitude": 51.484541, "longitude": 5.139455, "bronId": "SP00024490"}}, {"type": "Feature", "geometry": {"type": "Point", "coordinates": [5.137988, 51.483371]}, "properties": {"type": "inleverpunt", "locatieNaam": "Action Hilvarenbeek 1293", "straatNaam": "Gelderstraat", "straatNr": "29", "postcode": "5081 AA", "plaats": "Hilvarenbeek", "merk": "StichtingOPEN", "puntType": "balie", "materialen": ["batterijen", "lampen"], "uitbetaling": [], "vrijToegankelijk": false, "gemeenteBeperking": null, "openingstijden": null, "latitude": 51.483371, "longitude": 5.137988, "bronId": "SP00007863"}}, {"type": "Feature", "geometry": {"type": "Point", "coordinates": [5.138474, 51.483279]}, "properties": {"type": "inleverpunt", "locatieNaam": "Jumbo Hilvarenbeek", "straatNaam": "Hilverstraat", "straatNr": "99", "postcode": "5081 AV", "plaats": "Hilvarenbeek", "merk": "StichtingOPEN", "puntType": "balie", "materialen": ["batterijen", "lampen"], "uitbetaling": [], "vrijToegankelijk": false, "gemeenteBeperking": null, "openingstijden": null, "latitude": 51.483279, "longitude": 5.138474, "bronId": "SP00025007"}}, {"type": "Feature", "geometry": {"type": "Point", "coordinates": [5.138147, 51.482669]}, "properties": {"type": "inleverpunt", "locatieNaam": "1252 Albert Heijn Hilvarenbeek", "straatNaam": "Gelderstraat", "straatNr": "52", "postcode": "5081 AC", "plaats": "Hilvarenbeek", "merk": "StichtingOPEN", "puntType": "balie", "materialen": ["batterijen", "elektro-klein", "lampen"], "uitbetaling": [], "vrijToegankelijk": false, "gemeenteBeperking": null, "openingstijden": null, "latitude": 51.482669, "longitude": 5.138147, "bronId": "SP00022568"}}, {"type": "Feature", "geometry": {"type": "Point", "coordinates": [5.175402, 51.478732]}, "properties": {"type": "inleverpunt", "locatieNaam": "Van Velthoven Elektro B.V.", "straatNaam": "Julianastraat", "straatNr": "17", "postcode": "5087 BA", "plaats": "Diessen", "merk": "StichtingOPEN", "puntType": "balie", "materialen": ["batterijen", "elektro-groot", "elektro-klein", "elektro-middel", "lampen"], "uitbetaling": [], "vrijToegankelijk": false, "gemeenteBeperking": null, "openingstijden": null, "latitude": 51.478732, "longitude": 5.175402, "bronId": "SP00002421"}}, {"type": "Feature", "geometry": {"type": "Point", "coordinates": [5.145, 51.488022]}, "properties": {"type": "inleverpunt", "locatieNaam": "Milieustraat Hilvarenbeek", "straatNaam": "Bukkumweg", "straatNr": "28", "postcode": "5081 CT", "plaats": "Hilvarenbeek", "merk": "StichtingOPEN", "puntType": "milieustraat", "materialen": ["batterijen", "elektro-groot", "elektro-klein", "elektro-middel", "lampen", "tl-buizen"], "uitbetaling": [], "vrijToegankelijk": false, "gemeenteBeperking": ["Hilvarenbeek"], "openingstijden": null, "latitude": 51.488022, "longitude": 5.145, "bronId": "SP00004242"}}, {"type": "Feature", "geometry": {"type": "Point", "coordinates": [5.1247552, 51.5282752]}, "properties": {"type": "inleverpunt", "locatieNaam": "Spar enjoy Beekse Bergen", "straatNaam": "Beekse Bergen", "straatNr": "1", "postcode": "5081 NJ", "plaats": "Hilvarenbeek", "merk": "Stibat", "puntType": "inzamelbak", "materialen": ["batterijen"], "uitbetaling": [], "vrijToegankelijk": false, "gemeenteBeperking": null, "openingstijden": null, "latitude": 51.5282752, "longitude": 5.1247552, "bronId": "L040627"}}, {"type": "Feature", "geometry": {"type": "Point", "coordinates": [5.1359286, 51.4925387]}, "properties": {"type": "inleverpunt", "locatieNaam": "Boerenbond", "straatNaam": "Tilburgseweg", "straatNr": "6", "postcode": "5081 XJ", "plaats": "Hilvarenbeek", "merk": "Stibat", "puntType": "inzamelbak", "materialen": ["batterijen"], "uitbetaling": [], "vrijToegankelijk": false, "gemeenteBeperking": null, "openingstijden": null, "latitude": 51.4925387, "longitude": 5.1359286, "bronId": "L017561"}}, {"type": "Feature", "geometry": {"type": "Point", "coordinates": [5.1450175, 51.4880159]}, "properties": {"type": "inleverpunt", "locatieNaam": "Afvalinzamelstation Hilvarenbeek", "straatNaam": "Bukkumweg", "straatNr": "28", "postcode": "5081 CT", "plaats": "Hilvarenbeek", "merk": "Stibat", "puntType": "inzamelbak", "materialen": ["batterijen"], "uitbetaling": [], "vrijToegankelijk": false, "gemeenteBeperking": null, "openingstijden": null, "latitude": 51.4880159, "longitude": 5.1450175, "bronId": "L035745"}}, {"type": "Feature", "geometry": {"type": "Point", "coordinates": [5.1431375, 51.487333]}, "properties": {"type": "inleverpunt", "locatieNaam": "Hubo", "straatNaam": "Bukkumweg", "straatNr": "1", "postcode": "5081 CT", "plaats": "Hilvarenbeek", "merk": "Stibat", "puntType": "inzamelbak", "materialen": ["batterijen"], "uitbetaling": [], "vrijToegankelijk": false, "gemeenteBeperking": null, "openingstijden": null, "latitude": 51.487333, "longitude": 5.1431375, "bronId": "L042753"}}, {"type": "Feature", "geometry": {"type": "Point", "coordinates": [5.1377515, 51.4870957]}, "properties": {"type": "inleverpunt", "locatieNaam": "Hilvarenbike Peter van Riemsdijk", "straatNaam": "Doelenstraat", "straatNr": "8", "postcode": "5081 CL", "plaats": "Hilvarenbeek", "merk": "Stibat", "puntType": "inzamelbak", "materialen": ["batterijen"], "uitbetaling": [], "vrijToegankelijk": false, "gemeenteBeperking": null, "openingstijden": null, "latitude": 51.4870957, "longitude": 5.1377515, "bronId": "L033469"}}, {"type": "Feature", "geometry": {"type": "Point", "coordinates": [5.1378192, 51.4867619]}, "properties": {"type": "inleverpunt", "locatieNaam": "Primera", "straatNaam": "Doelenstraat", "straatNr": "2", "postcode": "5081 CL", "plaats": "Hilvarenbeek", "merk": "Stibat", "puntType": "inzamelbak", "materialen": ["batterijen"], "uitbetaling": [], "vrijToegankelijk": false, "gemeenteBeperking": null, "openingstijden": null, "latitude": 51.4867619, "longitude": 5.1378192, "bronId": "L039241"}}, {"type": "Feature", "geometry": {"type": "Point", "coordinates": [5.1377966, 51.4867602]}, "properties": {"type": "inleverpunt", "locatieNaam": "Kantoorboekhandel Swaanen", "straatNaam": "Doelenstraat", "straatNr": "2", "postcode": "5081 CL", "plaats": "Hilvarenbeek", "merk": "Stibat", "puntType": "inzamelbak", "materialen": ["batterijen"], "uitbetaling": [], "vrijToegankelijk": false, "gemeenteBeperking": null, "openingstijden": null, "latitude": 51.4867602, "longitude": 5.1377966, "bronId": "L020892"}}, {"type": "Feature", "geometry": {"type": "Point", "coordinates": [5.1418468, 51.4854184]}, "properties": {"type": "inleverpunt", "locatieNaam": "Aldi", "straatNaam": "Bloemenstraat", "straatNr": "11", "postcode": "5081 CR", "plaats": "Hilvarenbeek", "merk": "Stibat", "puntType": "inzamelbak", "materialen": ["batterijen"], "uitbetaling": [], "vrijToegankelijk": false, "gemeenteBeperking": null, "openingstijden": null, "latitude": 51.4854184, "longitude": 5.1418468, "bronId": "L041318"}}, {"type": "Feature", "geometry": {"type": "Point", "coordinates": [5.1379043, 51.4850055]}, "properties": {"type": "inleverpunt", "locatieNaam": "Van Boxtel hoorwinkel", "straatNaam": "Kokkestraat", "straatNr": "18", "postcode": "5081 CN", "plaats": "Hilvarenbeek", "merk": "Stibat", "puntType": "inzamelbak", "materialen": ["batterijen"], "uitbetaling": [], "vrijToegankelijk": false, "gemeenteBeperking": null, "openingstijden": null, "latitude": 51.4850055, "longitude": 5.1379043, "bronId": "L030524"}}, {"type": "Feature", "geometry": {"type": "Point", "coordinates": [5.1407593, 51.4846901]}, "properties": {"type": "inleverpunt", "locatieNaam": "Henk Baars Bike Sports", "straatNaam": "Diessenseweg", "straatNr": "45", "postcode": "5081 AE", "plaats": "Hilvarenbeek", "merk": "Stibat", "puntType": "inzamelbak", "materialen": ["batterijen"], "uitbetaling": [], "vrijToegankelijk": false, "gemeenteBeperking": null, "openingstijden": null, "latitude": 51.4846901, "longitude": 5.1407593, "bronId": "L026427"}}, {"type": "Feature", "geometry": {"type": "Point", "coordinates": [5.1394356, 51.4845345]}, "properties": {"type": "inleverpunt", "locatieNaam": "Kruidvat", "straatNaam": "Diessenseweg", "straatNr": "31", "postcode": "5081 AE", "plaats": "Hilvarenbeek", "merk": "Stibat", "puntType": "inzamelbak", "materialen": ["batterijen"], "uitbetaling": [], "vrijToegankelijk": false, "gemeenteBeperking": null, "openingstijden": null, "latitude": 51.4845345, "longitude": 5.1394356, "bronId": "L016335"}}, {"type": "Feature", "geometry": {"type": "Point", "coordinates": [5.1378525, 51.4844323]}, "properties": {"type": "inleverpunt", "locatieNaam": "Foto Jos Droog", "straatNaam": "Diessenseweg", "straatNr": "5", "postcode": "5081 AE", "plaats": "Hilvarenbeek", "merk": "Stibat", "puntType": "inzamelbak", "materialen": ["batterijen"], "uitbetaling": [], "vrijToegankelijk": false, "gemeenteBeperking": null, "openingstijden": null, "latitude": 51.4844323, "longitude": 5.1378525, "bronId": "L018396"}}, {"type": "Feature", "geometry": {"type": "Point", "coordinates": [5.1370371, 51.4841845]}, "properties": {"type": "inleverpunt", "locatieNaam": "HEMA Hilvarenbeek", "straatNaam": "Gelderstraat", "straatNr": "18", "postcode": "5081 AC", "plaats": "Hilvarenbeek", "merk": "Stibat", "puntType": "inzamelbak", "materialen": ["batterijen"], "uitbetaling": [], "vrijToegankelijk": false, "gemeenteBeperking": null, "openingstijden": null, "latitude": 51.4841845, "longitude": 5.1370371, "bronId": "L046924"}}, {"type": "Feature", "geometry": {"type": "Point", "coordinates": [5.1389513, 51.483348]}, "properties": {"type": "inleverpunt", "locatieNaam": "Jumbo", "straatNaam": "Hilverstraat", "straatNr": "99", "postcode": "5081 AV", "plaats": "Hilvarenbeek", "merk": "Stibat", "puntType": "inzamelbak", "materialen": ["batterijen"], "uitbetaling": [], "vrijToegankelijk": false, "gemeenteBeperking": null, "openingstijden": null, "latitude": 51.483348, "longitude": 5.1389513, "bronId": "L030778"}}, {"type": "Feature", "geometry": {"type": "Point", "coordinates": [5.1379882, 51.4833712]}, "properties": {"type": "inleverpunt", "locatieNaam": "1293 Action", "straatNaam": "Gelderstraat", "straatNr": "29", "postcode": "5081 AA", "plaats": "Hilvarenbeek", "merk": "Stibat", "puntType": "inzamelbak", "materialen": ["batterijen"], "uitbetaling": [], "vrijToegankelijk": false, "gemeenteBeperking": null, "openingstijden": null, "latitude": 51.4833712, "longitude": 5.1379882, "bronId": "L032101"}}, {"type": "Feature", "geometry": {"type": "Point", "coordinates": [5.1381501, 51.4826711]}, "properties": {"type": "inleverpunt", "locatieNaam": "1252 Albert Heijn", "straatNaam": "Gelderstraat", "straatNr": "52", "postcode": "5081 AC", "plaats": "Hilvarenbeek", "merk": "Stibat", "puntType": "inzamelbak", "materialen": ["batterijen"], "uitbetaling": [], "vrijToegankelijk": false, "gemeenteBeperking": null, "openingstijden": null, "latitude": 51.4826711, "longitude": 5.1381501, "bronId": "L007428"}}, {"type": "Feature", "geometry": {"type": "Point", "coordinates": [5.1754403, 51.4787088]}, "properties": {"type": "inleverpunt", "locatieNaam": "De Witgoed Specialist", "straatNaam": "Julianastraat", "straatNr": "17", "postcode": "5087 BA", "plaats": "Diessen", "merk": "Stibat", "puntType": "inzamelbak", "materialen": ["batterijen"], "uitbetaling": [], "vrijToegankelijk": false, "gemeenteBeperking": null, "openingstijden": null, "latitude": 51.4787088, "longitude": 5.1754403, "bronId": "L031189"}}, {"type": "Feature", "geometry": {"type": "Point", "coordinates": [5.1405693, 51.4798898]}, "properties": {"type": "inleverpunt", "locatieNaam": "Total", "straatNaam": "Gelderstraat", "straatNr": "89a", "postcode": "5081 AB", "plaats": "Hilvarenbeek", "merk": "Stibat", "puntType": "inzamelbak", "materialen": ["batterijen"], "uitbetaling": [], "vrijToegankelijk": false, "gemeenteBeperking": null, "openingstijden": null, "latitude": 51.4798898, "longitude": 5.1405693, "bronId": "L021335"}}, {"type": "Feature", "geometry": {"type": "Point", "coordinates": [5.2004571, 51.4509944]}, "properties": {"type": "inleverpunt", "locatieNaam": "Gran Dorado Duc de Brabant", "straatNaam": "Westelbeersedijk", "straatNr": "6", "postcode": "5087 TK", "plaats": "Diessen", "merk": "Stibat", "puntType": "inzamelbak", "materialen": ["batterijen"], "uitbetaling": [], "vrijToegankelijk": false, "gemeenteBeperking": null, "openingstijden": null, "latitude": 51.4509944, "longitude": 5.2004571, "bronId": "L004773"}}, {"type": "Feature", "geometry": {"type": "Polygon", "coordinates": [[[5.191020001488479, 51.430216003544324], [5.2098150015089715, 51.465773003567975], [5.22043500152001, 51.47288000357265], [5.225406001525697, 51.48882200358327], [5.229967001530346, 51.48972700358379], [5.2303780015307915, 51.49046100358428], [5.2303760015308685, 51.49233700358555], [5.2296900015301935, 51.49284700358587], [5.228444001529174, 51.49870000358979], [5.247111001548066, 51.49887900358975], [5.247892001549161, 51.50633600359468], [5.250969001552269, 51.50620900359459], [5.250073001551432, 51.508011003595755], [5.25125000155269, 51.50963100359688], [5.2359430015373825, 51.51391000359987], [5.232363001533557, 51.50892000359658], [5.226534001527602, 51.50747400359569], [5.224435001525873, 51.51714800360214], [5.214732001515839, 51.51172600359862], [5.211021001512089, 51.511851003598736], [5.203034001503931, 51.50994300359754], [5.202754001503658, 51.51016400359766], [5.201924001502809, 51.50992700359755], [5.1954010014962035, 51.50973300359747], [5.19526500149603, 51.50887100359689], [5.193969001494724, 51.508966003596974], [5.190138001490782, 51.50740900359599], [5.189668001490328, 51.50790200359634], [5.18428100148488, 51.50790600359636], [5.183859001484488, 51.50874700359691], [5.179650001480232, 51.508862003597045], [5.178748001479311, 51.50860100359687], [5.178920001479507, 51.50913000359722], [5.1778820014784825, 51.50978800359768], [5.178483001479105, 51.51008600359786], [5.176480001477128, 51.51131100359872], [5.175572001476183, 51.51062200359824], [5.174452001475067, 51.51104700359854], [5.173582001474155, 51.510239003597995], [5.171646001472237, 51.511325003598756], [5.170993001471547, 51.510569003598235], [5.166954001467579, 51.51347400360021], [5.16732000146796, 51.51366100360034], [5.165603001466287, 51.51518600360138], [5.164229001464875, 51.51465900360101], [5.160874001461594, 51.51733200360287], [5.159152001459824, 51.51664300360241], [5.156430001457166, 51.51893900360395], [5.1524230014532, 51.52103800360536], [5.148888001449736, 51.52365800360712], [5.147570001448342, 51.52217700360619], [5.1449660014456775, 51.52149400360571], [5.127739001428689, 51.53177100361271], [5.12620100142721, 51.5335930036139], [5.119117001420551, 51.545496003621864], [5.118799001420246, 51.54591900362216], [5.118018001419451, 51.54574700362204], [5.113051001414269, 51.54204900361965], [5.113708001414896, 51.54116000361906], [5.11252100141365, 51.540023003618316], [5.111020001412125, 51.53987200361824], [5.10982100141089, 51.5393830036179], [5.110645001411703, 51.538902003617586], [5.108668001409633, 51.537237003616454], [5.109589001410545, 51.536805003616195], [5.1056530014064165, 51.53333700361391], [5.104529001405303, 51.533837003614245], [5.10005900140068, 51.53145500361273], [5.1050610014055975, 51.528176003610476], [5.101434001401848, 51.526202003609235], [5.0981410013984645, 51.52495200360841], [5.100490001400753, 51.52297000360708], [5.098751001398954, 51.52200600360647], [5.100947001401113, 51.52052000360543], [5.095024001394982, 51.517252003603325], [5.098442001398359, 51.51536100360199], [5.096035001395691, 51.50991200359839], [5.08818700138781, 51.51129800359937], [5.076322001375514, 51.504460003594886], [5.072998001372084, 51.502875003593886], [5.074506001373565, 51.5018130035932], [5.075007001374082, 51.502090003593324], [5.076915001375956, 51.500797003592474], [5.062512001361037, 51.49273400358721], [5.069293001367647, 51.48683600358322], [5.068368001366646, 51.48533500358222], [5.051580001349734, 51.48713200358353], [5.048792001346255, 51.471914003573346], [5.049865001347337, 51.47182600357332], [5.04974100134718, 51.47110800357284], [5.07231800137003, 51.471100003572666], [5.078094001375898, 51.47151200357288], [5.079324001377132, 51.471321003572776], [5.081179001378858, 51.467839003570404], [5.10457300140099, 51.4313490035458], [5.102021001398305, 51.42892300354416], [5.119459001415935, 51.42827500354361], [5.148405001445266, 51.42872700354369], [5.152444001449368, 51.42902600354384], [5.153151001450053, 51.42829500354336], [5.1534540014503785, 51.42878000354367], [5.154187001451114, 51.428595003543535], [5.154894001451848, 51.42903900354384], [5.154896001451841, 51.42878200354368], [5.157948001454935, 51.42883100354365], [5.1585530014556875, 51.43217400354591], [5.17076600146795, 51.42973300354418], [5.173458001470617, 51.42824000354315], [5.178154001475453, 51.43026100354444], [5.184981001482305, 51.42876400354337], [5.18714400148453, 51.429594003543926], [5.191020001488479, 51.430216003544324]]]}, "properties": {"type": "boundary", "gemeente": "Hilvarenbeek"}}]}