{"type": "FeatureCollection", "metadata": {"gemeente": "Hof van Twente", "slug": "hof-van-twente", "generated_at": "2026-09-14T07:32:33.064092Z", "total_points": 80, "merken": ["StatiegeldNederland", "Stibat", "StichtingOPEN"], "bounds": [6.4932124, 52.1985794, 6.7305164, 52.2657703]}, "features": [{"type": "Feature", "geometry": {"type": "Point", "coordinates": [6.7086468, 52.2616002]}, "properties": {"type": "inleverpunt", "locatieNaam": "Albert Heijn", "straatNaam": "De Kolk", "straatNr": "3", "postcode": "7491 XN", "plaats": "Delden", "merk": "StatiegeldNederland", "puntType": "automaat", "materialen": ["pet-groot", "pet-klein", "blik", "glas", "krat"], "uitbetaling": ["bonnetje", "donatie"], "vrijToegankelijk": true, "gemeenteBeperking": null, "openingstijden": {"ma": "08:00–20:00", "di": "08:00–20:00", "wo": "08:00–20:00", "do": "08:00–20:00", "vr": "08:00–20:00", "za": "08:00–20:00", "zo": "11:00–17:00"}, "latitude": 52.2616002, "longitude": 6.7086468, "bronId": "335692"}}, {"type": "Feature", "geometry": {"type": "Point", "coordinates": [6.5854688, 52.2313423]}, "properties": {"type": "inleverpunt", "locatieNaam": "Albert Heijn", "straatNaam": "Weversplein", "straatNr": "5", "postcode": "7471 VS", "plaats": "Goor", "merk": "StatiegeldNederland", "puntType": "automaat", "materialen": ["pet-groot", "pet-klein", "blik", "glas", "krat"], "uitbetaling": ["bonnetje"], "vrijToegankelijk": true, "gemeenteBeperking": null, "openingstijden": {"ma": "08:00–20:00", "di": "08:00–20:00", "wo": "08:00–20:00", "do": "08:00–20:00", "vr": "08:00–21:00", "za": "08:00–20:00", "zo": "10:00–17:00"}, "latitude": 52.2313423, "longitude": 6.5854688, "bronId": "336487"}}, {"type": "Feature", "geometry": {"type": "Point", "coordinates": [6.5836758, 52.2320046]}, "properties": {"type": "inleverpunt", "locatieNaam": "Aldi", "straatNaam": "Het Jannink", "straatNr": "121", "postcode": "7471 VE", "plaats": "Goor", "merk": "StatiegeldNederland", "puntType": "automaat", "materialen": ["pet-groot", "pet-klein", "blik", "glas", "krat"], "uitbetaling": ["bonnetje"], "vrijToegankelijk": true, "gemeenteBeperking": null, "openingstijden": {"ma": "08:00–20:00", "di": "08:00–20:00", "wo": "08:00–20:00", "do": "08:00–20:00", "vr": "08:00–20:00", "za": "08:00–20:00", "zo": "10:00–17:00"}, "latitude": 52.2320046, "longitude": 6.5836758, "bronId": "336715"}}, {"type": "Feature", "geometry": {"type": "Point", "coordinates": [6.6387404, 52.19931]}, "properties": {"type": "inleverpunt", "locatieNaam": "Coop", "straatNaam": "Diepenheimsestraat", "straatNr": "3", "postcode": "7496 PS", "plaats": "Hengevelde", "merk": "StatiegeldNederland", "puntType": "automaat", "materialen": ["pet-groot", "pet-klein", "blik", "glas", "krat"], "uitbetaling": ["bonnetje", "donatie"], "vrijToegankelijk": true, "gemeenteBeperking": null, "openingstijden": {"ma": "08:00–20:00", "di": "08:00–20:00", "wo": "08:00–20:00", "do": "08:00–20:00", "vr": "08:00–20:00", "za": "08:00–18:00", "zo": "10:00–17:00"}, "latitude": 52.19931, "longitude": 6.6387404, "bronId": "337699"}}, {"type": "Feature", "geometry": {"type": "Point", "coordinates": [6.4942162, 52.2352305]}, "properties": {"type": "inleverpunt", "locatieNaam": "Dirk", "straatNaam": "Grotestraat", "straatNr": "8", "postcode": "7475 AX", "plaats": "Markelo", "merk": "StatiegeldNederland", "puntType": "automaat", "materialen": ["pet-groot", "pet-klein", "blik", "glas", "krat"], "uitbetaling": ["bonnetje", "donatie"], "vrijToegankelijk": true, "gemeenteBeperking": null, "openingstijden": {"ma": "08:00–20:00", "di": "08:00–20:00", "wo": "08:00–20:00", "do": "08:00–20:00", "vr": "08:00–20:00", "za": "08:00–20:00", "zo": "10:00–17:00"}, "latitude": 52.2352305, "longitude": 6.4942162, "bronId": "337993"}}, {"type": "Feature", "geometry": {"type": "Point", "coordinates": [6.7130939, 52.2619232]}, "properties": {"type": "inleverpunt", "locatieNaam": "Dirk", "straatNaam": "Kortestraat", "straatNr": "5", "postcode": "7491 AX", "plaats": "Delden", "merk": "StatiegeldNederland", "puntType": "automaat", "materialen": ["pet-groot", "pet-klein", "blik", "glas", "krat"], "uitbetaling": ["bonnetje", "donatie"], "vrijToegankelijk": true, "gemeenteBeperking": null, "openingstijden": {"ma": "08:00–20:00", "di": "08:00–20:00", "wo": "08:00–20:00", "do": "08:00–20:00", "vr": "08:00–21:00", "za": "08:00–20:00", "zo": "12:00–17:00"}, "latitude": 52.2619232, "longitude": 6.7130939, "bronId": "338015"}}, {"type": "Feature", "geometry": {"type": "Point", "coordinates": [6.5808477, 52.2264338]}, "properties": {"type": "inleverpunt", "locatieNaam": "Goorse T.c.", "straatNaam": "Diepenheimseweg", "straatNr": "37A", "postcode": "7471 LW", "plaats": "Goor", "merk": "StatiegeldNederland", "puntType": "balie", "materialen": ["pet-groot", "pet-klein", "blik"], "uitbetaling": [], "vrijToegankelijk": false, "gemeenteBeperking": null, "openingstijden": {"ma": "08:30–23:00", "di": "08:30–23:00", "wo": "08:30–23:00", "do": "08:30–23:00", "vr": "08:30–23:00", "za": "08:30–23:00", "zo": "08:30–23:00"}, "latitude": 52.2264338, "longitude": 6.5808477, "bronId": "338436"}}, {"type": "Feature", "geometry": {"type": "Point", "coordinates": [6.578758, 52.23423]}, "properties": {"type": "inleverpunt", "locatieNaam": "Jumbo", "straatNaam": "Van Kollaan", "straatNr": "7", "postcode": "7471 DP", "plaats": "Goor", "merk": "StatiegeldNederland", "puntType": "automaat", "materialen": ["pet-groot", "pet-klein", "blik", "glas", "krat"], "uitbetaling": ["bonnetje", "donatie", "tikkie"], "vrijToegankelijk": true, "gemeenteBeperking": null, "openingstijden": {"ma": "08:00–21:00", "di": "08:00–21:00", "wo": "08:00–21:00", "do": "08:00–21:00", "vr": "08:00–21:00", "za": "08:00–21:00", "zo": "08:00–17:00"}, "latitude": 52.23423, "longitude": 6.578758, "bronId": "339445"}}, {"type": "Feature", "geometry": {"type": "Point", "coordinates": [6.6792173, 52.2582092]}, "properties": {"type": "inleverpunt", "locatieNaam": "KLK Kolb B.V.", "straatNaam": "Langestraat", "straatNr": "167", "postcode": "7491 AE", "plaats": "Delden", "merk": "StatiegeldNederland", "puntType": "balie", "materialen": ["pet-groot", "pet-klein", "blik"], "uitbetaling": [], "vrijToegankelijk": false, "gemeenteBeperking": null, "openingstijden": {"ma": "08:00–14:00", "di": "08:00–14:00", "wo": "08:00–14:00", "do": "08:00–14:00", "vr": "08:00–14:00", "za": "Gesloten", "zo": "Gesloten"}, "latitude": 52.2582092, "longitude": 6.6792173, "bronId": "339553"}}, {"type": "Feature", "geometry": {"type": "Point", "coordinates": [6.58224, 52.23275]}, "properties": {"type": "inleverpunt", "locatieNaam": "Lidl", "straatNaam": "Laarstraat", "straatNr": "3", "postcode": "7471 DA", "plaats": "Goor", "merk": "StatiegeldNederland", "puntType": "automaat", "materialen": ["pet-groot", "pet-klein", "blik", "glas", "krat"], "uitbetaling": ["bonnetje", "donatie"], "vrijToegankelijk": true, "gemeenteBeperking": null, "openingstijden": {"ma": "08:00–21:00", "di": "08:00–21:00", "wo": "08:00–21:00", "do": "08:00–21:00", "vr": "08:00–21:00", "za": "08:00–21:00", "zo": "09:00–17:00"}, "latitude": 52.23275, "longitude": 6.58224, "bronId": "339914"}}, {"type": "Feature", "geometry": {"type": "Point", "coordinates": [6.5110926, 52.2399823]}, "properties": {"type": "inleverpunt", "locatieNaam": "Mtv65", "straatNaam": "Potdijk", "straatNr": "5", "postcode": "7475 SL", "plaats": "Markelo", "merk": "StatiegeldNederland", "puntType": "balie", "materialen": ["pet-groot", "pet-klein", "blik"], "uitbetaling": [], "vrijToegankelijk": false, "gemeenteBeperking": null, "openingstijden": {"ma": "09:00–22:00", "di": "09:00–22:00", "wo": "09:00–22:00", "do": "09:00–22:00", "vr": "09:00–22:00", "za": "09:00–18:00", "zo": "09:00–18:00"}, "latitude": 52.2399823, "longitude": 6.5110926, "bronId": "340520"}}, {"type": "Feature", "geometry": {"type": "Point", "coordinates": [6.494243, 52.2344167]}, "properties": {"type": "inleverpunt", "locatieNaam": "Plus", "straatNaam": "Kerkplein", "straatNr": "1", "postcode": "7475 AE", "plaats": "Markelo", "merk": "StatiegeldNederland", "puntType": "automaat", "materialen": ["pet-groot", "pet-klein", "blik", "glas", "krat"], "uitbetaling": ["bonnetje", "donatie"], "vrijToegankelijk": true, "gemeenteBeperking": null, "openingstijden": {"ma": "08:00–20:00", "di": "08:00–20:00", "wo": "08:00–20:00", "do": "08:00–20:00", "vr": "08:00–20:00", "za": "08:00–20:00", "zo": "10:00–17:00"}, "latitude": 52.2344167, "longitude": 6.494243, "bronId": "341098"}}, {"type": "Feature", "geometry": {"type": "Point", "coordinates": [6.7135088, 52.2407305]}, "properties": {"type": "inleverpunt", "locatieNaam": "Psv De Hagmolenruiters", "straatNaam": "O.L. Vrouwestraat", "straatNr": "14", "postcode": "7497 MA", "plaats": "Bentelo", "merk": "StatiegeldNederland", "puntType": "balie", "materialen": ["pet-groot", "pet-klein", "blik"], "uitbetaling": [], "vrijToegankelijk": false, "gemeenteBeperking": null, "openingstijden": null, "latitude": 52.2407305, "longitude": 6.7135088, "bronId": "341463"}}, {"type": "Feature", "geometry": {"type": "Point", "coordinates": [6.7305164, 52.2594638]}, "properties": {"type": "inleverpunt", "locatieNaam": "Scouting Delden", "straatNaam": "Morsweg", "straatNr": "25", "postcode": "7491 ZD", "plaats": "Delden", "merk": "StatiegeldNederland", "puntType": "balie", "materialen": ["pet-groot", "pet-klein", "blik"], "uitbetaling": [], "vrijToegankelijk": false, "gemeenteBeperking": null, "openingstijden": null, "latitude": 52.2594638, "longitude": 6.7305164, "bronId": "341790"}}, {"type": "Feature", "geometry": {"type": "Point", "coordinates": [6.5933016, 52.2463877]}, "properties": {"type": "inleverpunt", "locatieNaam": "Service Station Hoek BV", "straatNaam": "Enterseweg", "straatNr": "10", "postcode": "7472 DG", "plaats": "Goor", "merk": "StatiegeldNederland", "puntType": "automaat", "materialen": ["pet-groot", "pet-klein", "blik"], "uitbetaling": ["bonnetje", "donatie", "tikkie"], "vrijToegankelijk": true, "gemeenteBeperking": null, "openingstijden": null, "latitude": 52.2463877, "longitude": 6.5933016, "bronId": "341815"}}, {"type": "Feature", "geometry": {"type": "Point", "coordinates": [6.5570997, 52.1995665]}, "properties": {"type": "inleverpunt", "locatieNaam": "Spar", "straatNaam": "Goorseweg", "straatNr": "12", "postcode": "7478 DB", "plaats": "Diepenheim", "merk": "StatiegeldNederland", "puntType": "automaat", "materialen": ["pet-groot", "pet-klein", "blik", "glas", "krat"], "uitbetaling": ["bonnetje", "donatie"], "vrijToegankelijk": true, "gemeenteBeperking": null, "openingstijden": {"ma": "08:00–20:00", "di": "08:00–20:00", "wo": "08:00–20:00", "do": "08:00–20:00", "vr": "08:00–20:00", "za": "08:00–20:00", "zo": "10:00–17:00"}, "latitude": 52.1995665, "longitude": 6.5570997, "bronId": "342166"}}, {"type": "Feature", "geometry": {"type": "Point", "coordinates": [6.5815103, 52.2409858]}, "properties": {"type": "inleverpunt", "locatieNaam": "Vv Twenthe", "straatNaam": "Gruttostraat", "straatNr": "46a", "postcode": "7471 ES", "plaats": "Goor", "merk": "StatiegeldNederland", "puntType": "balie", "materialen": ["pet-groot", "pet-klein", "blik"], "uitbetaling": [], "vrijToegankelijk": false, "gemeenteBeperking": null, "openingstijden": null, "latitude": 52.2409858, "longitude": 6.5815103, "bronId": "343944"}}, {"type": "Feature", "geometry": {"type": "Point", "coordinates": [6.494216, 52.234576]}, "properties": {"type": "inleverpunt", "locatieNaam": "PLUS Markelo", "straatNaam": "Kerkplein", "straatNr": "1", "postcode": "7475 AE", "plaats": "Markelo", "merk": "StichtingOPEN", "puntType": "balie", "materialen": ["batterijen", "lampen"], "uitbetaling": [], "vrijToegankelijk": false, "gemeenteBeperking": null, "openingstijden": null, "latitude": 52.234576, "longitude": 6.494216, "bronId": "SP00024085"}}, {"type": "Feature", "geometry": {"type": "Point", "coordinates": [6.494164, 52.235236]}, "properties": {"type": "inleverpunt", "locatieNaam": "Dirk Markelo", "straatNaam": "Grotestraat", "straatNr": "8", "postcode": "7475 AX", "plaats": "Markelo", "merk": "StichtingOPEN", "puntType": "balie", "materialen": ["batterijen", "lampen"], "uitbetaling": [], "vrijToegankelijk": false, "gemeenteBeperking": null, "openingstijden": null, "latitude": 52.235236, "longitude": 6.494164, "bronId": "SP00023461"}}, {"type": "Feature", "geometry": {"type": "Point", "coordinates": [6.557082, 52.199554]}, "properties": {"type": "inleverpunt", "locatieNaam": "Spar Diepenheim", "straatNaam": "Goorseweg", "straatNr": "12", "postcode": "7478 BD", "plaats": "Diepenheim", "merk": "StichtingOPEN", "puntType": "balie", "materialen": ["batterijen", "lampen"], "uitbetaling": [], "vrijToegankelijk": false, "gemeenteBeperking": null, "openingstijden": null, "latitude": 52.199554, "longitude": 6.557082, "bronId": "SP00022434"}}, {"type": "Feature", "geometry": {"type": "Point", "coordinates": [6.578758, 52.23423]}, "properties": {"type": "inleverpunt", "locatieNaam": "Jumbo Goor", "straatNaam": "van Kollaan", "straatNr": "7", "postcode": "7471 DP", "plaats": "Goor", "merk": "StichtingOPEN", "puntType": "balie", "materialen": ["batterijen", "lampen"], "uitbetaling": [], "vrijToegankelijk": false, "gemeenteBeperking": null, "openingstijden": null, "latitude": 52.23423, "longitude": 6.578758, "bronId": "SP00025269"}}, {"type": "Feature", "geometry": {"type": "Point", "coordinates": [6.584153, 52.231784]}, "properties": {"type": "inleverpunt", "locatieNaam": "Aldi Goor", "straatNaam": "Het Jannink", "straatNr": "121", "postcode": "7471 VE", "plaats": "Goor", "merk": "StichtingOPEN", "puntType": "balie", "materialen": ["batterijen", "elektro-klein", "lampen"], "uitbetaling": [], "vrijToegankelijk": false, "gemeenteBeperking": null, "openingstijden": null, "latitude": 52.231784, "longitude": 6.584153, "bronId": "SP00026949"}}, {"type": "Feature", "geometry": {"type": "Point", "coordinates": [6.585358, 52.23131]}, "properties": {"type": "inleverpunt", "locatieNaam": "4029 Albert Heijn Goor", "straatNaam": "Weversplein", "straatNr": "5", "postcode": "7471 VS", "plaats": "Goor", "merk": "StichtingOPEN", "puntType": "balie", "materialen": ["batterijen", "elektro-klein", "lampen"], "uitbetaling": [], "vrijToegankelijk": false, "gemeenteBeperking": null, "openingstijden": null, "latitude": 52.23131, "longitude": 6.585358, "bronId": "SP00023306"}}, {"type": "Feature", "geometry": {"type": "Point", "coordinates": [6.585095, 52.232521]}, "properties": {"type": "inleverpunt", "locatieNaam": "Kruidvat Goor", "straatNaam": "Grotestraat", "straatNr": "117a", "postcode": "7471 BN", "plaats": "Goor", "merk": "StichtingOPEN", "puntType": "balie", "materialen": ["batterijen", "lampen"], "uitbetaling": [], "vrijToegankelijk": false, "gemeenteBeperking": null, "openingstijden": null, "latitude": 52.232521, "longitude": 6.585095, "bronId": "SP00024707"}}, {"type": "Feature", "geometry": {"type": "Point", "coordinates": [6.585855, 52.233829]}, "properties": {"type": "inleverpunt", "locatieNaam": "Action Goor 1145", "straatNaam": "de Hofte", "straatNr": "15-25", "postcode": "7471 DL", "plaats": "Goor", "merk": "StichtingOPEN", "puntType": "balie", "materialen": ["batterijen", "lampen"], "uitbetaling": [], "vrijToegankelijk": false, "gemeenteBeperking": null, "openingstijden": null, "latitude": 52.233829, "longitude": 6.585855, "bronId": "SP00007588"}}, {"type": "Feature", "geometry": {"type": "Point", "coordinates": [6.586435, 52.240962]}, "properties": {"type": "inleverpunt", "locatieNaam": "66510 Hubo Goor", "straatNaam": "Wheeweg", "straatNr": "12", "postcode": "7471 EW", "plaats": "Goor", "merk": "StichtingOPEN", "puntType": "balie", "materialen": ["elektro-middel", "lampen", "tl-buizen"], "uitbetaling": [], "vrijToegankelijk": false, "gemeenteBeperking": null, "openingstijden": null, "latitude": 52.240962, "longitude": 6.586435, "bronId": "SP00007492"}}, {"type": "Feature", "geometry": {"type": "Point", "coordinates": [6.598442, 52.251964]}, "properties": {"type": "inleverpunt", "locatieNaam": "Karwei Goor", "straatNaam": "Mossendamsdwarsweg", "straatNr": "6", "postcode": "7472 DB", "plaats": "Goor", "merk": "StichtingOPEN", "puntType": "balie", "materialen": ["elektro-middel", "lampen", "tl-buizen"], "uitbetaling": [], "vrijToegankelijk": false, "gemeenteBeperking": null, "openingstijden": null, "latitude": 52.251964, "longitude": 6.598442, "bronId": "SP00003940"}}, {"type": "Feature", "geometry": {"type": "Point", "coordinates": [6.63868, 52.19931]}, "properties": {"type": "inleverpunt", "locatieNaam": "COOP Hengevelde", "straatNaam": "Diepenheimsestraat", "straatNr": "8", "postcode": "7496 PS", "plaats": "Hengevelde", "merk": "StichtingOPEN", "puntType": "balie", "materialen": ["batterijen", "lampen"], "uitbetaling": [], "vrijToegankelijk": false, "gemeenteBeperking": null, "openingstijden": null, "latitude": 52.19931, "longitude": 6.63868, "bronId": "SP00029812"}}, {"type": "Feature", "geometry": {"type": "Point", "coordinates": [6.640301, 52.199949]}, "properties": {"type": "inleverpunt", "locatieNaam": "Installatietechniek Semmekrot BV", "straatNaam": "Goorsestraat", "straatNr": "16", "postcode": "7496 AD", "plaats": "Hengevelde", "merk": "StichtingOPEN", "puntType": "balie", "materialen": ["elektro-middel", "lampen"], "uitbetaling": [], "vrijToegankelijk": false, "gemeenteBeperking": null, "openingstijden": null, "latitude": 52.199949, "longitude": 6.640301, "bronId": "SP00002577"}}, {"type": "Feature", "geometry": {"type": "Point", "coordinates": [6.7008, 52.256135]}, "properties": {"type": "inleverpunt", "locatieNaam": "Installatiebedrijf ten Dam BV", "straatNaam": "De Eiken", "straatNr": "1", "postcode": "7491 HP", "plaats": "Delden", "merk": "StichtingOPEN", "puntType": "balie", "materialen": ["batterijen", "elektro-klein", "elektro-middel", "lampen", "tl-buizen"], "uitbetaling": [], "vrijToegankelijk": false, "gemeenteBeperking": null, "openingstijden": null, "latitude": 52.256135, "longitude": 6.7008, "bronId": "SP00006071"}}, {"type": "Feature", "geometry": {"type": "Point", "coordinates": [6.708534, 52.261428]}, "properties": {"type": "inleverpunt", "locatieNaam": "4019 Albert Heijn Delden", "straatNaam": "De Kolk", "straatNr": "3", "postcode": "7491 XN", "plaats": "Delden", "merk": "StichtingOPEN", "puntType": "balie", "materialen": ["batterijen", "lampen"], "uitbetaling": [], "vrijToegankelijk": false, "gemeenteBeperking": null, "openingstijden": null, "latitude": 52.261428, "longitude": 6.708534, "bronId": "SP00023303"}}, {"type": "Feature", "geometry": {"type": "Point", "coordinates": [6.71053, 52.26196]}, "properties": {"type": "inleverpunt", "locatieNaam": "Kruidvat Delden", "straatNaam": "Langestraat", "straatNr": "51", "postcode": "7491 AB", "plaats": "Delden", "merk": "StichtingOPEN", "puntType": "balie", "materialen": ["batterijen", "lampen"], "uitbetaling": [], "vrijToegankelijk": false, "gemeenteBeperking": null, "openingstijden": null, "latitude": 52.26196, "longitude": 6.71053, "bronId": "SP00029683"}}, {"type": "Feature", "geometry": {"type": "Point", "coordinates": [6.712965, 52.261815]}, "properties": {"type": "inleverpunt", "locatieNaam": "Dirk Delden", "straatNaam": "Kortestraat", "straatNr": "5", "postcode": "7491 AX", "plaats": "Delden", "merk": "StichtingOPEN", "puntType": "balie", "materialen": ["batterijen", "lampen"], "uitbetaling": [], "vrijToegankelijk": false, "gemeenteBeperking": null, "openingstijden": null, "latitude": 52.261815, "longitude": 6.712965, "bronId": "SP00023465"}}, {"type": "Feature", "geometry": {"type": "Point", "coordinates": [6.603871, 52.250513]}, "properties": {"type": "inleverpunt", "locatieNaam": "Afvalbrengpunt Goor", "straatNaam": "Mossendamsdwarsweg", "straatNr": "1", "postcode": "7472 DB", "plaats": "Goor", "merk": "StichtingOPEN", "puntType": "milieustraat", "materialen": ["batterijen", "elektro-groot", "elektro-klein", "elektro-middel", "lampen", "tl-buizen"], "uitbetaling": [], "vrijToegankelijk": false, "gemeenteBeperking": ["Hof van Twente"], "openingstijden": null, "latitude": 52.250513, "longitude": 6.603871, "bronId": "SP00004354"}}, {"type": "Feature", "geometry": {"type": "Point", "coordinates": [6.4932124, 52.2356747]}, "properties": {"type": "inleverpunt", "locatieNaam": "Markelo's Tweewielercentum", "straatNaam": "Taets van Amerongenstraat", "straatNr": "4", "postcode": "7475 BT", "plaats": "Markelo", "merk": "Stibat", "puntType": "inzamelbak", "materialen": ["batterijen"], "uitbetaling": [], "vrijToegankelijk": false, "gemeenteBeperking": null, "openingstijden": null, "latitude": 52.2356747, "longitude": 6.4932124, "bronId": "L027618"}}, {"type": "Feature", "geometry": {"type": "Point", "coordinates": [6.4940204, 52.2347446]}, "properties": {"type": "inleverpunt", "locatieNaam": "PLUS", "straatNaam": "Kerkplein", "straatNr": "1", "postcode": "7475 AE", "plaats": "Markelo", "merk": "Stibat", "puntType": "inzamelbak", "materialen": ["batterijen"], "uitbetaling": [], "vrijToegankelijk": false, "gemeenteBeperking": null, "openingstijden": null, "latitude": 52.2347446, "longitude": 6.4940204, "bronId": "L015081"}}, {"type": "Feature", "geometry": {"type": "Point", "coordinates": [6.4939687, 52.2354446]}, "properties": {"type": "inleverpunt", "locatieNaam": "Kruidvat", "straatNaam": "Grotestraat", "straatNr": "10", "postcode": "7475 AX", "plaats": "Markelo", "merk": "Stibat", "puntType": "inzamelbak", "materialen": ["batterijen"], "uitbetaling": [], "vrijToegankelijk": false, "gemeenteBeperking": null, "openingstijden": null, "latitude": 52.2354446, "longitude": 6.4939687, "bronId": "L041670"}}, {"type": "Feature", "geometry": {"type": "Point", "coordinates": [6.4942428, 52.2353065]}, "properties": {"type": "inleverpunt", "locatieNaam": "Dirk", "straatNaam": "Grotestraat", "straatNr": "8", "postcode": "7475 AX", "plaats": "Markelo", "merk": "Stibat", "puntType": "inzamelbak", "materialen": ["batterijen"], "uitbetaling": [], "vrijToegankelijk": false, "gemeenteBeperking": null, "openingstijden": null, "latitude": 52.2353065, "longitude": 6.4942428, "bronId": "L011437"}}, {"type": "Feature", "geometry": {"type": "Point", "coordinates": [6.4949341, 52.2355406]}, "properties": {"type": "inleverpunt", "locatieNaam": "Markelo Tweewielers", "straatNaam": "Taets van Amerongenstraat", "straatNr": "4", "postcode": "7475 BV", "plaats": "Markelo", "merk": "Stibat", "puntType": "inzamelbak", "materialen": ["batterijen"], "uitbetaling": [], "vrijToegankelijk": false, "gemeenteBeperking": null, "openingstijden": null, "latitude": 52.2355406, "longitude": 6.4949341, "bronId": "L039334"}}, {"type": "Feature", "geometry": {"type": "Point", "coordinates": [6.4965255, 52.2355746]}, "properties": {"type": "inleverpunt", "locatieNaam": "Welkoop", "straatNaam": "Prinses Irenestraat", "straatNr": "1b", "postcode": "7475 BW", "plaats": "Markelo", "merk": "Stibat", "puntType": "inzamelbak", "materialen": ["batterijen"], "uitbetaling": [], "vrijToegankelijk": false, "gemeenteBeperking": null, "openingstijden": null, "latitude": 52.2355746, "longitude": 6.4965255, "bronId": "L017679"}}, {"type": "Feature", "geometry": {"type": "Point", "coordinates": [6.5203543, 52.2657703]}, "properties": {"type": "inleverpunt", "locatieNaam": "De Bovenberg", "straatNaam": "Bovenbergweg", "straatNr": "14", "postcode": "7475 ST", "plaats": "Markelo", "merk": "Stibat", "puntType": "inzamelbak", "materialen": ["batterijen"], "uitbetaling": [], "vrijToegankelijk": false, "gemeenteBeperking": null, "openingstijden": null, "latitude": 52.2657703, "longitude": 6.5203543, "bronId": "L003774"}}, {"type": "Feature", "geometry": {"type": "Point", "coordinates": [6.5370209, 52.2352932]}, "properties": {"type": "inleverpunt", "locatieNaam": "Camping \"Monte-Bello\"", "straatNaam": "Goorseweg", "straatNr": "49", "postcode": "7475 BC", "plaats": "Markelo", "merk": "Stibat", "puntType": "inzamelbak", "materialen": ["batterijen"], "uitbetaling": [], "vrijToegankelijk": false, "gemeenteBeperking": null, "openingstijden": null, "latitude": 52.2352932, "longitude": 6.5370209, "bronId": "L012654"}}, {"type": "Feature", "geometry": {"type": "Point", "coordinates": [6.5571012, 52.1995397]}, "properties": {"type": "inleverpunt", "locatieNaam": "Spar", "straatNaam": "Goorseweg", "straatNr": "12", "postcode": "7478 BD", "plaats": "Diepenheim", "merk": "Stibat", "puntType": "inzamelbak", "materialen": ["batterijen"], "uitbetaling": [], "vrijToegankelijk": false, "gemeenteBeperking": null, "openingstijden": null, "latitude": 52.1995397, "longitude": 6.5571012, "bronId": "L029964"}}, {"type": "Feature", "geometry": {"type": "Point", "coordinates": [6.5591446, 52.204135]}, "properties": {"type": "inleverpunt", "locatieNaam": "Uw Groene Vakwinkel", "straatNaam": "Peckedammerstraat", "straatNr": "11a", "postcode": "7478 DE", "plaats": "Diepenheim", "merk": "Stibat", "puntType": "inzamelbak", "materialen": ["batterijen"], "uitbetaling": [], "vrijToegankelijk": false, "gemeenteBeperking": null, "openingstijden": null, "latitude": 52.204135, "longitude": 6.5591446, "bronId": "L019321"}}, {"type": "Feature", "geometry": {"type": "Point", "coordinates": [6.578761, 52.2342322]}, "properties": {"type": "inleverpunt", "locatieNaam": "6186 Etos", "straatNaam": "Van Kollaan", "straatNr": "7", "postcode": "7471 DP", "plaats": "Goor", "merk": "Stibat", "puntType": "inzamelbak", "materialen": ["batterijen"], "uitbetaling": [], "vrijToegankelijk": false, "gemeenteBeperking": null, "openingstijden": null, "latitude": 52.2342322, "longitude": 6.578761, "bronId": "L023267"}}, {"type": "Feature", "geometry": {"type": "Point", "coordinates": [6.578761, 52.2342322]}, "properties": {"type": "inleverpunt", "locatieNaam": "Jumbo", "straatNaam": "van Kollaan", "straatNr": "7", "postcode": "7471 DP", "plaats": "Goor", "merk": "Stibat", "puntType": "inzamelbak", "materialen": ["batterijen"], "uitbetaling": [], "vrijToegankelijk": false, "gemeenteBeperking": null, "openingstijden": null, "latitude": 52.2342322, "longitude": 6.578761, "bronId": "L018474"}}, {"type": "Feature", "geometry": {"type": "Point", "coordinates": [6.5810986, 52.2310897]}, "properties": {"type": "inleverpunt", "locatieNaam": "Raab Karcher", "straatNaam": "Stationslaan", "straatNr": "52", "postcode": "7471 AP", "plaats": "Goor", "merk": "Stibat", "puntType": "inzamelbak", "materialen": ["batterijen"], "uitbetaling": [], "vrijToegankelijk": false, "gemeenteBeperking": null, "openingstijden": null, "latitude": 52.2310897, "longitude": 6.5810986, "bronId": "L043772"}}, {"type": "Feature", "geometry": {"type": "Point", "coordinates": [6.5828377, 52.2330246]}, "properties": {"type": "inleverpunt", "locatieNaam": "Lidl", "straatNaam": "Laarstraat", "straatNr": "3", "postcode": "7471 DA", "plaats": "Goor", "merk": "Stibat", "puntType": "inzamelbak", "materialen": ["batterijen"], "uitbetaling": [], "vrijToegankelijk": false, "gemeenteBeperking": null, "openingstijden": null, "latitude": 52.2330246, "longitude": 6.5828377, "bronId": "L045822"}}, {"type": "Feature", "geometry": {"type": "Point", "coordinates": [6.5836858, 52.2321123]}, "properties": {"type": "inleverpunt", "locatieNaam": "ALL4GSM", "straatNaam": "Grotestraat", "straatNr": "141", "postcode": "7471 BN", "plaats": "Goor", "merk": "Stibat", "puntType": "inzamelbak", "materialen": ["batterijen"], "uitbetaling": [], "vrijToegankelijk": false, "gemeenteBeperking": null, "openingstijden": null, "latitude": 52.2321123, "longitude": 6.5836858, "bronId": "L045627"}}, {"type": "Feature", "geometry": {"type": "Point", "coordinates": [6.5838796, 52.2324007]}, "properties": {"type": "inleverpunt", "locatieNaam": "Primera", "straatNaam": "Grotestraat", "straatNr": "135", "postcode": "7471 BN", "plaats": "Goor", "merk": "Stibat", "puntType": "inzamelbak", "materialen": ["batterijen"], "uitbetaling": [], "vrijToegankelijk": false, "gemeenteBeperking": null, "openingstijden": null, "latitude": 52.2324007, "longitude": 6.5838796, "bronId": "L024162"}}, {"type": "Feature", "geometry": {"type": "Point", "coordinates": [6.5841532, 52.2317845]}, "properties": {"type": "inleverpunt", "locatieNaam": "Aldi", "straatNaam": "Het Jannink", "straatNr": "121", "postcode": "7471 VE", "plaats": "Goor", "merk": "Stibat", "puntType": "inzamelbak", "materialen": ["batterijen"], "uitbetaling": [], "vrijToegankelijk": false, "gemeenteBeperking": null, "openingstijden": null, "latitude": 52.2317845, "longitude": 6.5841532, "bronId": "L041483"}}, {"type": "Feature", "geometry": {"type": "Point", "coordinates": [6.5843737, 52.2324281]}, "properties": {"type": "inleverpunt", "locatieNaam": "Zeeman", "straatNaam": "Grotestraat", "straatNr": "129", "postcode": "7471 BN", "plaats": "Goor", "merk": "Stibat", "puntType": "inzamelbak", "materialen": ["batterijen"], "uitbetaling": [], "vrijToegankelijk": false, "gemeenteBeperking": null, "openingstijden": null, "latitude": 52.2324281, "longitude": 6.5843737, "bronId": "L019272"}}, {"type": "Feature", "geometry": {"type": "Point", "coordinates": [6.5853997, 52.2306436]}, "properties": {"type": "inleverpunt", "locatieNaam": "4029 Albert Heijn", "straatNaam": "Weversplein", "straatNr": "5", "postcode": "7471 VS", "plaats": "Goor", "merk": "Stibat", "puntType": "inzamelbak", "materialen": ["batterijen"], "uitbetaling": [], "vrijToegankelijk": false, "gemeenteBeperking": null, "openingstijden": null, "latitude": 52.2306436, "longitude": 6.5853997, "bronId": "L032335"}}, {"type": "Feature", "geometry": {"type": "Point", "coordinates": [6.5850829, 52.2325168]}, "properties": {"type": "inleverpunt", "locatieNaam": "Kruidvat", "straatNaam": "Grotestraat", "straatNr": "117a", "postcode": "7471 BN", "plaats": "Goor", "merk": "Stibat", "puntType": "inzamelbak", "materialen": ["batterijen"], "uitbetaling": [], "vrijToegankelijk": false, "gemeenteBeperking": null, "openingstijden": null, "latitude": 52.2325168, "longitude": 6.5850829, "bronId": "L016634"}}, {"type": "Feature", "geometry": {"type": "Point", "coordinates": [6.5859019, 52.2336634]}, "properties": {"type": "inleverpunt", "locatieNaam": "1145 Action", "straatNaam": "De Hofte", "straatNr": "15-25", "postcode": "7471 DL", "plaats": "Goor", "merk": "Stibat", "puntType": "inzamelbak", "materialen": ["batterijen"], "uitbetaling": [], "vrijToegankelijk": false, "gemeenteBeperking": null, "openingstijden": null, "latitude": 52.2336634, "longitude": 6.5859019, "bronId": "L017289"}}, {"type": "Feature", "geometry": {"type": "Point", "coordinates": [6.586231, 52.23294]}, "properties": {"type": "inleverpunt", "locatieNaam": "Hans Anders", "straatNaam": "Grotestraat", "straatNr": "78", "postcode": "7471 BR", "plaats": "Goor", "merk": "Stibat", "puntType": "inzamelbak", "materialen": ["batterijen"], "uitbetaling": [], "vrijToegankelijk": false, "gemeenteBeperking": null, "openingstijden": null, "latitude": 52.23294, "longitude": 6.586231, "bronId": "L037815"}}, {"type": "Feature", "geometry": {"type": "Point", "coordinates": [6.5868043, 52.2333687]}, "properties": {"type": "inleverpunt", "locatieNaam": "Bouwhuis Opticien-Audicien", "straatNaam": "Grotestraat", "straatNr": "60-62", "postcode": "7471 BR", "plaats": "Goor", "merk": "Stibat", "puntType": "inzamelbak", "materialen": ["batterijen"], "uitbetaling": [], "vrijToegankelijk": false, "gemeenteBeperking": null, "openingstijden": null, "latitude": 52.2333687, "longitude": 6.5868043, "bronId": "L027615"}}, {"type": "Feature", "geometry": {"type": "Point", "coordinates": [6.5868125, 52.2336743]}, "properties": {"type": "inleverpunt", "locatieNaam": "HEMA Grotestraat", "straatNaam": "Grotestraat", "straatNr": "52", "postcode": "7471 BR", "plaats": "Goor", "merk": "Stibat", "puntType": "inzamelbak", "materialen": ["batterijen"], "uitbetaling": [], "vrijToegankelijk": false, "gemeenteBeperking": null, "openingstijden": null, "latitude": 52.2336743, "longitude": 6.5868125, "bronId": "L014827"}}, {"type": "Feature", "geometry": {"type": "Point", "coordinates": [6.5867256, 52.2342504]}, "properties": {"type": "inleverpunt", "locatieNaam": "Audika Hoorzorg Goor", "straatNaam": "Grotestraat", "straatNr": "38", "postcode": "7471 BP", "plaats": "Goor", "merk": "Stibat", "puntType": "inzamelbak", "materialen": ["batterijen"], "uitbetaling": [], "vrijToegankelijk": false, "gemeenteBeperking": null, "openingstijden": null, "latitude": 52.2342504, "longitude": 6.5867256, "bronId": "L031915"}}, {"type": "Feature", "geometry": {"type": "Point", "coordinates": [6.5872245, 52.2340498]}, "properties": {"type": "inleverpunt", "locatieNaam": "Speelgoedwinkel Zippytoys", "straatNaam": "Grotestraat", "straatNr": "55-57", "postcode": "7471 BL", "plaats": "Goor", "merk": "Stibat", "puntType": "inzamelbak", "materialen": ["batterijen"], "uitbetaling": [], "vrijToegankelijk": false, "gemeenteBeperking": null, "openingstijden": null, "latitude": 52.2340498, "longitude": 6.5872245, "bronId": "L040654"}}, {"type": "Feature", "geometry": {"type": "Point", "coordinates": [6.5873827, 52.2358168]}, "properties": {"type": "inleverpunt", "locatieNaam": "Expert", "straatNaam": "Voorstraat", "straatNr": "2", "postcode": "7471 BZ", "plaats": "Goor", "merk": "Stibat", "puntType": "inzamelbak", "materialen": ["batterijen"], "uitbetaling": [], "vrijToegankelijk": false, "gemeenteBeperking": null, "openingstijden": null, "latitude": 52.2358168, "longitude": 6.5873827, "bronId": "L009918"}}, {"type": "Feature", "geometry": {"type": "Point", "coordinates": [6.5877075, 52.2364606]}, "properties": {"type": "inleverpunt", "locatieNaam": "BikeShop Reiners", "straatNaam": "Voorstraat", "straatNr": "11", "postcode": "7471 BX", "plaats": "Goor", "merk": "Stibat", "puntType": "inzamelbak", "materialen": ["batterijen"], "uitbetaling": [], "vrijToegankelijk": false, "gemeenteBeperking": null, "openingstijden": null, "latitude": 52.2364606, "longitude": 6.5877075, "bronId": "L033940"}}, {"type": "Feature", "geometry": {"type": "Point", "coordinates": [6.5936882, 52.2334874]}, "properties": {"type": "inleverpunt", "locatieNaam": "TWEEWIELERREUS", "straatNaam": "Iependijk", "straatNr": "15", "postcode": "7471 BE", "plaats": "Goor", "merk": "Stibat", "puntType": "inzamelbak", "materialen": ["batterijen"], "uitbetaling": [], "vrijToegankelijk": false, "gemeenteBeperking": null, "openingstijden": null, "latitude": 52.2334874, "longitude": 6.5936882, "bronId": "L033939"}}, {"type": "Feature", "geometry": {"type": "Point", "coordinates": [6.5975971, 52.2512104]}, "properties": {"type": "inleverpunt", "locatieNaam": "Louis Morsink Tweewielers", "straatNaam": "Mossendamdwarsweg", "straatNr": "2", "postcode": "7472 DB", "plaats": "Goor", "merk": "Stibat", "puntType": "inzamelbak", "materialen": ["batterijen"], "uitbetaling": [], "vrijToegankelijk": false, "gemeenteBeperking": null, "openingstijden": null, "latitude": 52.2512104, "longitude": 6.5975971, "bronId": "L033941"}}, {"type": "Feature", "geometry": {"type": "Point", "coordinates": [6.5984533, 52.2520708]}, "properties": {"type": "inleverpunt", "locatieNaam": "Karwei", "straatNaam": "Mossendamsdwarsweg", "straatNr": "6", "postcode": "7472 DB", "plaats": "Goor", "merk": "Stibat", "puntType": "inzamelbak", "materialen": ["batterijen"], "uitbetaling": [], "vrijToegankelijk": false, "gemeenteBeperking": null, "openingstijden": null, "latitude": 52.2520708, "longitude": 6.5984533, "bronId": "L028302"}}, {"type": "Feature", "geometry": {"type": "Point", "coordinates": [6.5995836, 52.2513826]}, "properties": {"type": "inleverpunt", "locatieNaam": "Afvalbrengpunt Goor", "straatNaam": "Mossendamsdwarsweg", "straatNr": "1", "postcode": "7472 DB", "plaats": "Goor", "merk": "Stibat", "puntType": "inzamelbak", "materialen": ["batterijen"], "uitbetaling": [], "vrijToegankelijk": false, "gemeenteBeperking": null, "openingstijden": null, "latitude": 52.2513826, "longitude": 6.5995836, "bronId": "L035851"}}, {"type": "Feature", "geometry": {"type": "Point", "coordinates": [6.6386789, 52.1993091]}, "properties": {"type": "inleverpunt", "locatieNaam": "COOP", "straatNaam": "Diepenheimsestraat", "straatNr": "3", "postcode": "7496 PS", "plaats": "Hengevelde", "merk": "Stibat", "puntType": "inzamelbak", "materialen": ["batterijen"], "uitbetaling": [], "vrijToegankelijk": false, "gemeenteBeperking": null, "openingstijden": null, "latitude": 52.1993091, "longitude": 6.6386789, "bronId": "L038025"}}, {"type": "Feature", "geometry": {"type": "Point", "coordinates": [6.6441028, 52.1985794]}, "properties": {"type": "inleverpunt", "locatieNaam": "Rotink Ijzerwaren", "straatNaam": "Haaksbergerstraat", "straatNr": "2", "postcode": "7496 AX", "plaats": "Hengevelde", "merk": "Stibat", "puntType": "inzamelbak", "materialen": ["batterijen"], "uitbetaling": [], "vrijToegankelijk": false, "gemeenteBeperking": null, "openingstijden": null, "latitude": 52.1985794, "longitude": 6.6441028, "bronId": "L021598"}}, {"type": "Feature", "geometry": {"type": "Point", "coordinates": [6.6814121, 52.224808]}, "properties": {"type": "inleverpunt", "locatieNaam": "Dagwinkel", "straatNaam": "Burgemeester Buyvoetsplein", "straatNr": "4", "postcode": "7497 LD", "plaats": "Bentelo", "merk": "Stibat", "puntType": "inzamelbak", "materialen": ["batterijen"], "uitbetaling": [], "vrijToegankelijk": false, "gemeenteBeperking": null, "openingstijden": null, "latitude": 52.224808, "longitude": 6.6814121, "bronId": "L019081"}}, {"type": "Feature", "geometry": {"type": "Point", "coordinates": [6.6826022, 52.2260418]}, "properties": {"type": "inleverpunt", "locatieNaam": "Ooink", "straatNaam": "Acaciastraat", "straatNr": "1", "postcode": "7497 MD", "plaats": "Bentelo", "merk": "Stibat", "puntType": "inzamelbak", "materialen": ["batterijen"], "uitbetaling": [], "vrijToegankelijk": false, "gemeenteBeperking": null, "openingstijden": null, "latitude": 52.2260418, "longitude": 6.6826022, "bronId": "L033950"}}, {"type": "Feature", "geometry": {"type": "Point", "coordinates": [6.7071986, 52.2618911]}, "properties": {"type": "inleverpunt", "locatieNaam": "Electro World Bas Baake", "straatNaam": "Langestraat", "straatNr": "83", "postcode": "7491 AC", "plaats": "Delden", "merk": "Stibat", "puntType": "inzamelbak", "materialen": ["batterijen"], "uitbetaling": [], "vrijToegankelijk": false, "gemeenteBeperking": null, "openingstijden": null, "latitude": 52.2618911, "longitude": 6.7071986, "bronId": "L020008"}}, {"type": "Feature", "geometry": {"type": "Point", "coordinates": [6.7085248, 52.2612539]}, "properties": {"type": "inleverpunt", "locatieNaam": "4019 Albert Heijn", "straatNaam": "De Kolk", "straatNr": "3", "postcode": "7491 XN", "plaats": "Delden", "merk": "Stibat", "puntType": "inzamelbak", "materialen": ["batterijen"], "uitbetaling": [], "vrijToegankelijk": false, "gemeenteBeperking": null, "openingstijden": null, "latitude": 52.2612539, "longitude": 6.7085248, "bronId": "L032211"}}, {"type": "Feature", "geometry": {"type": "Point", "coordinates": [6.7105316, 52.2619657]}, "properties": {"type": "inleverpunt", "locatieNaam": "Kruidvat", "straatNaam": "Langestraat", "straatNr": "51", "postcode": "7491 AB", "plaats": "Delden", "merk": "Stibat", "puntType": "inzamelbak", "materialen": ["batterijen"], "uitbetaling": [], "vrijToegankelijk": false, "gemeenteBeperking": null, "openingstijden": null, "latitude": 52.2619657, "longitude": 6.7105316, "bronId": "L015891"}}, {"type": "Feature", "geometry": {"type": "Point", "coordinates": [6.711828, 52.2623703]}, "properties": {"type": "inleverpunt", "locatieNaam": "HEMA Delden", "straatNaam": "Langestraat", "straatNr": "33B", "postcode": "7491 AA", "plaats": "Delden", "merk": "Stibat", "puntType": "inzamelbak", "materialen": ["batterijen"], "uitbetaling": [], "vrijToegankelijk": false, "gemeenteBeperking": null, "openingstijden": null, "latitude": 52.2623703, "longitude": 6.711828, "bronId": "L046897"}}, {"type": "Feature", "geometry": {"type": "Point", "coordinates": [6.7130755, 52.2619404]}, "properties": {"type": "inleverpunt", "locatieNaam": "Dirk", "straatNaam": "Kortestraat", "straatNr": "5", "postcode": "7491 AX", "plaats": "Delden", "merk": "Stibat", "puntType": "inzamelbak", "materialen": ["batterijen"], "uitbetaling": [], "vrijToegankelijk": false, "gemeenteBeperking": null, "openingstijden": null, "latitude": 52.2619404, "longitude": 6.7130755, "bronId": "L013666"}}, {"type": "Feature", "geometry": {"type": "Point", "coordinates": [6.7136798, 52.2620289]}, "properties": {"type": "inleverpunt", "locatieNaam": "Zeeman", "straatNaam": "Kortestraat", "straatNr": "15", "postcode": "7491 AX", "plaats": "Delden", "merk": "Stibat", "puntType": "inzamelbak", "materialen": ["batterijen"], "uitbetaling": [], "vrijToegankelijk": false, "gemeenteBeperking": null, "openingstijden": null, "latitude": 52.2620289, "longitude": 6.7136798, "bronId": "L019308"}}, {"type": "Feature", "geometry": {"type": "Point", "coordinates": [6.7138147, 52.2630616]}, "properties": {"type": "inleverpunt", "locatieNaam": "The Read Shop", "straatNaam": "Langestraat", "straatNr": "19", "postcode": "7491 AA", "plaats": "Delden", "merk": "Stibat", "puntType": "inzamelbak", "materialen": ["batterijen"], "uitbetaling": [], "vrijToegankelijk": false, "gemeenteBeperking": null, "openingstijden": null, "latitude": 52.2630616, "longitude": 6.7138147, "bronId": "L022870"}}, {"type": "Feature", "geometry": {"type": "Point", "coordinates": [6.7141697, 52.2632962]}, "properties": {"type": "inleverpunt", "locatieNaam": "Uw Eigen Drogist", "straatNaam": "Langestraat", "straatNr": "4", "postcode": "7491 AE", "plaats": "Delden", "merk": "Stibat", "puntType": "inzamelbak", "materialen": ["batterijen"], "uitbetaling": [], "vrijToegankelijk": false, "gemeenteBeperking": null, "openingstijden": null, "latitude": 52.2632962, "longitude": 6.7141697, "bronId": "L014166"}}, {"type": "Feature", "geometry": {"type": "Point", "coordinates": [6.7192324, 52.2597584]}, "properties": {"type": "inleverpunt", "locatieNaam": "Autobedrijf de Vossenbrink", "straatNaam": "Vossenbrinkweg", "straatNr": "3", "postcode": "7491 DA", "plaats": "Delden", "merk": "Stibat", "puntType": "inzamelbak", "materialen": ["batterijen"], "uitbetaling": [], "vrijToegankelijk": false, "gemeenteBeperking": null, "openingstijden": null, "latitude": 52.2597584, "longitude": 6.7192324, "bronId": "L045990"}}, {"type": "Feature", "geometry": {"type": "Point", "coordinates": [6.7270077, 52.2543533]}, "properties": {"type": "inleverpunt", "locatieNaam": "Park camping International", "straatNaam": "De Mors", "straatNr": "6", "postcode": "7491 DZ", "plaats": "Delden", "merk": "Stibat", "puntType": "inzamelbak", "materialen": ["batterijen"], "uitbetaling": [], "vrijToegankelijk": false, "gemeenteBeperking": null, "openingstijden": null, "latitude": 52.2543533, "longitude": 6.7270077, "bronId": "L005264"}}, {"type": "Feature", "geometry": {"type": "Polygon", "coordinates": [[[6.612147002938292, 52.16316600397725], [6.617210002943357, 52.165195003978276], [6.621692002947868, 52.168417003980025], [6.623614002949772, 52.16828800397987], [6.624952002951108, 52.16865000398004], [6.625930002952095, 52.16954000398055], [6.626564002952758, 52.17145700398165], [6.625154002951373, 52.17210200398212], [6.625840002952062, 52.17249900398232], [6.629101002955288, 52.17203300398189], [6.630527002956717, 52.17289600398237], [6.630545002956752, 52.17360000398283], [6.631190002957379, 52.173087003982424], [6.6348620029610075, 52.17216500398174], [6.640280002966288, 52.167405003978615], [6.641848002967904, 52.17037500398037], [6.647294002973427, 52.17689500398407], [6.642755002969008, 52.181447003987024], [6.641391002967646, 52.18090600398675], [6.639666002965945, 52.18150600398721], [6.636916002963269, 52.18411600398888], [6.635354002961733, 52.18478400398936], [6.634454002960859, 52.185955003990095], [6.6284520029549245, 52.18676100399086], [6.625877002952398, 52.18836600399193], [6.624362002950907, 52.18891700399232], [6.653082002979481, 52.19370100399395], [6.672050002998365, 52.19818700399584], [6.697494003023548, 52.19624800399357], [6.703469003029507, 52.198528003994674], [6.71238800303848, 52.20633100399896], [6.702039003028414, 52.21682200400575], [6.703239003029649, 52.21944200400727], [6.7121400030385745, 52.22602900401084], [6.717088003043734, 52.24098000401959], [6.717642003044259, 52.23981400401884], [6.718800003045396, 52.23917600401845], [6.71866400304524, 52.237911004017654], [6.720937003047494, 52.23808500401769], [6.721503003048072, 52.23929300401837], [6.720751003047345, 52.240262004019], [6.72122100304782, 52.240767004019254], [6.720055003046717, 52.24374200402111], [6.717927003044608, 52.24351400402107], [6.719616003046364, 52.24861700402407], [6.72178100304853, 52.249999004024794], [6.724194003050963, 52.25270700402629], [6.748656003075153, 52.251672004024556], [6.7514530030779225, 52.251878004024526], [6.752960003079423, 52.25237000402477], [6.752277003078755, 52.253047004025184], [6.752773003079253, 52.2533650040254], [6.751641003078201, 52.25761600402797], [6.751065003077635, 52.25774100402807], [6.751376003077947, 52.2581840040283], [6.750577003077217, 52.26174500403051], [6.749378003076068, 52.263966004031865], [6.748941003075667, 52.265890004033025], [6.747905003074662, 52.266866004033645], [6.748816003075561, 52.2670060040337], [6.749413003076187, 52.26906100403492], [6.749257003076045, 52.269931004035456], [6.748564003075367, 52.270167004035585], [6.749368003076174, 52.27101600403608], [6.74869500307556, 52.27420000403803], [6.747139003074086, 52.27824800404047], [6.744782003071806, 52.281380004042425], [6.744335003071372, 52.28170500404268], [6.743606003070647, 52.28154700404263], [6.742886003069962, 52.28311300404361], [6.741867003068964, 52.28390400404411], [6.7328920030601855, 52.289813004048014], [6.732222003059529, 52.290164004048265], [6.730988003058309, 52.28999400404821], [6.730887003058219, 52.29079700404869], [6.729617003056961, 52.290472004048574], [6.729641003056995, 52.29132300404905], [6.7277420030551305, 52.292130004049646], [6.724431003051919, 52.295836004052], [6.723303003050803, 52.295961004052124], [6.72281200305033, 52.29656100405247], [6.722375003049898, 52.29654700405251], [6.721612003049158, 52.297484004053096], [6.717239003044883, 52.30051100405509], [6.7119920030397475, 52.30366800405721], [6.711275003039038, 52.303777004057295], [6.711234003039005, 52.30412400405752], [6.70441500303231, 52.307089004059584], [6.702017003029951, 52.30785200406015], [6.701213003029156, 52.30778400406014], [6.701088003029036, 52.30806900406028], [6.697460003025459, 52.3086100040608], [6.693844003021883, 52.30866600406098], [6.689367003017446, 52.308111004060876], [6.682384003010497, 52.305673004059734], [6.675355003003479, 52.30209500405791], [6.6754390030035555, 52.30178200405774], [6.67502500300315, 52.301979004057856], [6.667902002996046, 52.298855004056335], [6.661035002989209, 52.296559004055275], [6.658073002986268, 52.295890004055], [6.657520002985701, 52.29485400405438], [6.652380002980597, 52.29390600405407], [6.651002002979238, 52.294218004054315], [6.647465002975728, 52.293711004054146], [6.642288002970581, 52.292529004053684], [6.64160400296989, 52.29173600405322], [6.638742002967062, 52.292151004053615], [6.637788002966119, 52.29198600405357], [6.636705002965021, 52.29073800405286], [6.633278002961636, 52.291259004053295], [6.626066002954474, 52.289974004052844], [6.605363002933609, 52.27068900404226], [6.595148002923495, 52.27119900404301], [6.5835120029119425, 52.27004800404281], [6.580696002909143, 52.269518004042595], [6.575383002903873, 52.26931600404272], [6.575326002903811, 52.2691160040426], [6.568191002896759, 52.270144004043516], [6.5643880028930335, 52.272412004045016], [6.554009002882957, 52.28331300405195], [6.541547002870582, 52.28226700405181], [6.541562002870608, 52.28268300405208], [6.535795002864886, 52.28270400405235], [6.534890002863996, 52.28299200405255], [6.5328310028619505, 52.282838004052536], [6.525813002855008, 52.28349900405322], [6.521962002851186, 52.28338600405333], [6.518395002847636, 52.28281900405312], [6.51726400284652, 52.28304800405329], [6.51568700284494, 52.28217900405285], [6.508705002837989, 52.28084600405232], [6.507202002836478, 52.27994800405186], [6.504465002833758, 52.27963800405178], [6.4900300028193625, 52.27591500405015], [6.489782002819108, 52.27557000404994], [6.485260002814604, 52.27460600404957], [6.475564002804913, 52.27128400404797], [6.471231002800572, 52.26931000404692], [6.471002002800311, 52.26768600404596], [6.461797002791082, 52.26340300404376], [6.447812002777081, 52.257843004041], [6.441490002770776, 52.25659700404054], [6.439043002768306, 52.25473000403951], [6.429685002758949, 52.25169800403803], [6.43005700275931, 52.2513420040378], [6.431821002761055, 52.250902004037485], [6.4284860027576824, 52.24820300403599], [6.426226002755449, 52.24886200403646], [6.416422002745565, 52.242166004032825], [6.416313002745372, 52.23818200403045], [6.416807002745838, 52.23712600402979], [6.4231340027520085, 52.23201300402644], [6.424783002753599, 52.22971300402504], [6.425838002754592, 52.227351004023575], [6.428470002757134, 52.22386200402135], [6.4319470027605234, 52.22093500401947], [6.439591002768039, 52.217354004017025], [6.440489002768908, 52.216116004016236], [6.44181100277021, 52.21567300401592], [6.44647600277478, 52.21269800401394], [6.448913002777156, 52.210695004012656], [6.449213002777441, 52.20993700401217], [6.449884002778101, 52.209690004011996], [6.451177002779343, 52.20764300401072], [6.453209002781329, 52.20625300400979], [6.453709002781808, 52.2052930040092], [6.453410002781485, 52.20430600400863], [6.454876002782903, 52.20237800400741], [6.457287002785271, 52.20096500400645], [6.460747002788694, 52.20040300400595], [6.462095002790034, 52.200394004005894], [6.463057002790999, 52.20075100400612], [6.466210002794117, 52.20020000400565], [6.467475002795381, 52.200410004005725], [6.470293002798155, 52.19937400400498], [6.46946400279731, 52.19828200400435], [6.469766002797579, 52.19680400400346], [6.469318002797086, 52.19449000400208], [6.4699990027977226, 52.19269000400096], [6.472244002799895, 52.18994500399919], [6.472973002800584, 52.1883200039982], [6.477558002805074, 52.1851880039961], [6.479216002806663, 52.182258003994285], [6.484869002812257, 52.181349003993496], [6.486389002813746, 52.1804350039929], [6.488560002815906, 52.18055600399287], [6.4908060028181245, 52.17978000399231], [6.492422002819692, 52.17806800399122], [6.492401002819657, 52.17737200399079], [6.495648002822878, 52.17713900399051], [6.504534002831755, 52.17939100399154], [6.514163002841362, 52.18131100399233], [6.5176810028448555, 52.18126800399216], [6.52435900285147, 52.18030100399128], [6.530224002857286, 52.179933003990804], [6.555349002882183, 52.17725600398816], [6.574658002901406, 52.17977800398889], [6.590415002917098, 52.18246400398986], [6.59158500291825, 52.18200400398955], [6.591120002917784, 52.181811003989395], [6.5921400029187955, 52.181703003989334], [6.593597002920218, 52.18038600398848], [6.596115002922704, 52.17983500398802], [6.606327002932711, 52.17308200398352], [6.6062070029325755, 52.17236900398307], [6.604171002930539, 52.17147000398263], [6.60353500292989, 52.17066200398218], [6.603185002929541, 52.17072200398217], [6.602986002929327, 52.169852003981696], [6.603426002929756, 52.169212003981286], [6.6028510029291825, 52.16912100398125], [6.605057002931323, 52.16665600397966], [6.604990002931245, 52.166171003979386], [6.605487002931739, 52.16612000397932], [6.607355002933565, 52.16463100397834], [6.609270002935476, 52.165143003978564], [6.612147002938292, 52.16316600397725]]]}, "properties": {"type": "boundary", "gemeente": "Hof van Twente"}}]}