{"type": "FeatureCollection", "metadata": {"gemeente": "Hoogeveen", "slug": "hoogeveen", "generated_at": "2026-08-10T03:59:13.840938Z", "total_points": 138, "merken": ["StatiegeldNederland", "Stibat", "StichtingOPEN"], "bounds": [6.4218847, 52.6820436, 6.612381, 52.7743715]}, "features": [{"type": "Feature", "geometry": {"type": "Point", "coordinates": [6.4833368, 52.7157599]}, "properties": {"type": "inleverpunt", "locatieNaam": "Albert Heijn", "straatNaam": "De Nije Nering", "straatNr": "50", "postcode": "7906 EW", "plaats": "Hoogeveen", "merk": "StatiegeldNederland", "puntType": "automaat", "materialen": ["pet-groot", "pet-klein", "blik", "glas", "krat"], "uitbetaling": ["bonnetje", "donatie"], "vrijToegankelijk": true, "gemeenteBeperking": null, "openingstijden": {"ma": "08:00–21:00", "di": "08:00–21:00", "wo": "08:00–21:00", "do": "08:00–21:00", "vr": "08:00–21:00", "za": "08:00–21:00", "zo": "10:00–19:00"}, "latitude": 52.7157599, "longitude": 6.4833368, "bronId": "268359"}}, {"type": "Feature", "geometry": {"type": "Point", "coordinates": [6.4518011, 52.7186544]}, "properties": {"type": "inleverpunt", "locatieNaam": "Albert Heijn", "straatNaam": "De Weide", "straatNr": "28", "postcode": "7908 AB", "plaats": "Hoogeveen", "merk": "StatiegeldNederland", "puntType": "automaat", "materialen": ["pet-groot", "pet-klein", "blik", "glas", "krat"], "uitbetaling": ["bonnetje", "donatie"], "vrijToegankelijk": true, "gemeenteBeperking": null, "openingstijden": {"ma": "08:00–20:00", "di": "08:00–20:00", "wo": "08:00–20:00", "do": "08:00–20:00", "vr": "08:00–21:00", "za": "08:00–21:00", "zo": "10:00–19:00"}, "latitude": 52.7186544, "longitude": 6.4518011, "bronId": "268370"}}, {"type": "Feature", "geometry": {"type": "Point", "coordinates": [6.4675764, 52.7228519]}, "properties": {"type": "inleverpunt", "locatieNaam": "Albert Heijn", "straatNaam": "Griendtsveenweg", "straatNr": "20", "postcode": "7901 EA", "plaats": "Hoogeveen", "merk": "StatiegeldNederland", "puntType": "automaat", "materialen": ["pet-groot", "pet-klein", "blik", "glas", "krat"], "uitbetaling": ["bonnetje", "donatie"], "vrijToegankelijk": true, "gemeenteBeperking": null, "openingstijden": {"ma": "08:00–22:00", "di": "08:00–22:00", "wo": "08:00–22:00", "do": "08:00–22:00", "vr": "08:00–22:00", "za": "08:00–22:00", "zo": "10:00–19:00"}, "latitude": 52.7228519, "longitude": 6.4675764, "bronId": "268477"}}, {"type": "Feature", "geometry": {"type": "Point", "coordinates": [6.4520554, 52.7198988]}, "properties": {"type": "inleverpunt", "locatieNaam": "Aldi", "straatNaam": "De Weide", "straatNr": "2A", "postcode": "7908 AB", "plaats": "Hoogeveen", "merk": "StatiegeldNederland", "puntType": "automaat", "materialen": ["pet-groot", "pet-klein", "blik", "glas", "krat"], "uitbetaling": ["bonnetje"], "vrijToegankelijk": true, "gemeenteBeperking": null, "openingstijden": {"ma": "08:00–20:00", "di": "08:00–20:00", "wo": "08:00–20:00", "do": "08:00–20:00", "vr": "08:00–21:00", "za": "08:00–20:00", "zo": "10:00–18:00"}, "latitude": 52.7198988, "longitude": 6.4520554, "bronId": "269288"}}, {"type": "Feature", "geometry": {"type": "Point", "coordinates": [6.4673601, 52.7232062]}, "properties": {"type": "inleverpunt", "locatieNaam": "Aldi", "straatNaam": "Griendtsveenweg", "straatNr": "11", "postcode": "7901 EA", "plaats": "Hoogeveen", "merk": "StatiegeldNederland", "puntType": "automaat", "materialen": ["pet-groot", "pet-klein", "blik", "glas", "krat"], "uitbetaling": ["bonnetje"], "vrijToegankelijk": true, "gemeenteBeperking": null, "openingstijden": {"ma": "08:00–21:00", "di": "08:00–21:00", "wo": "08:00–21:00", "do": "08:00–21:00", "vr": "08:00–21:00", "za": "08:00–21:00", "zo": "10:00–18:00"}, "latitude": 52.7232062, "longitude": 6.4673601, "bronId": "269343"}}, {"type": "Feature", "geometry": {"type": "Point", "coordinates": [6.497823, 52.71723]}, "properties": {"type": "inleverpunt", "locatieNaam": "Aldi", "straatNaam": "Wielewaal", "straatNr": "2", "postcode": "7905 GZ", "plaats": "Hoogeveen", "merk": "StatiegeldNederland", "puntType": "automaat", "materialen": ["pet-groot", "pet-klein", "blik", "glas", "krat"], "uitbetaling": ["bonnetje"], "vrijToegankelijk": true, "gemeenteBeperking": null, "openingstijden": {"ma": "08:00–20:00", "di": "08:00–20:00", "wo": "08:00–20:00", "do": "08:00–20:00", "vr": "08:00–20:00", "za": "08:00–20:00", "zo": "10:00–18:00"}, "latitude": 52.71723, "longitude": 6.497823, "bronId": "269664"}}, {"type": "Feature", "geometry": {"type": "Point", "coordinates": [6.471907, 52.738728]}, "properties": {"type": "inleverpunt", "locatieNaam": "Alfa College", "straatNaam": "Stroom", "straatNr": "3", "postcode": "7901 TG", "plaats": "Hoogeveen", "merk": "StatiegeldNederland", "puntType": "automaat", "materialen": ["pet-klein", "blik"], "uitbetaling": ["donatie", "tikkie"], "vrijToegankelijk": false, "gemeenteBeperking": null, "openingstijden": null, "latitude": 52.738728, "longitude": 6.471907, "bronId": "269685"}}, {"type": "Feature", "geometry": {"type": "Point", "coordinates": [6.4847072, 52.7354238]}, "properties": {"type": "inleverpunt", "locatieNaam": "Alfa College", "straatNaam": "Voltastraat", "straatNr": "33", "postcode": "7903 AA", "plaats": "Hoogeveen", "merk": "StatiegeldNederland", "puntType": "automaat", "materialen": ["pet-klein", "blik"], "uitbetaling": [], "vrijToegankelijk": false, "gemeenteBeperking": null, "openingstijden": null, "latitude": 52.7354238, "longitude": 6.4847072, "bronId": "269686"}}, {"type": "Feature", "geometry": {"type": "Point", "coordinates": [6.4515213, 52.7705673]}, "properties": {"type": "inleverpunt", "locatieNaam": "Boon‘s Markt", "straatNaam": "Dorpsstraat", "straatNr": "55", "postcode": "7933 PE", "plaats": "Pesse", "merk": "StatiegeldNederland", "puntType": "automaat", "materialen": ["pet-groot", "pet-klein", "blik", "glas", "krat"], "uitbetaling": ["bonnetje", "donatie"], "vrijToegankelijk": true, "gemeenteBeperking": null, "openingstijden": {"ma": "08:00–19:00", "di": "08:00–19:00", "wo": "08:00–19:00", "do": "08:00–19:00", "vr": "08:00–19:00", "za": "08:00–18:00", "zo": "12:00–17:00"}, "latitude": 52.7705673, "longitude": 6.4515213, "bronId": "270067"}}, {"type": "Feature", "geometry": {"type": "Point", "coordinates": [6.504226, 52.7344536]}, "properties": {"type": "inleverpunt", "locatieNaam": "Cg 1402 Fokker Aerostructures", "straatNaam": "Edisonstraat", "straatNr": "1", "postcode": "7903 AN", "plaats": "Hoogeveen", "merk": "StatiegeldNederland", "puntType": "balie", "materialen": ["pet-groot", "pet-klein", "blik"], "uitbetaling": [], "vrijToegankelijk": true, "gemeenteBeperking": null, "openingstijden": {"ma": "24 uur geopend", "di": "24 uur geopend", "wo": "24 uur geopend", "do": "24 uur geopend", "vr": "24 uur geopend", "za": "24 uur geopend", "zo": "24 uur geopend"}, "latitude": 52.7344536, "longitude": 6.504226, "bronId": "270272"}}, {"type": "Feature", "geometry": {"type": "Point", "coordinates": [6.4964879, 52.721439]}, "properties": {"type": "inleverpunt", "locatieNaam": "Hzvv", "straatNaam": "Sportveldenweg", "straatNr": "3", "postcode": "7902 NX", "plaats": "Hoogeveen", "merk": "StatiegeldNederland", "puntType": "balie", "materialen": ["pet-groot", "pet-klein", "blik"], "uitbetaling": [], "vrijToegankelijk": false, "gemeenteBeperking": null, "openingstijden": {"ma": "24 uur geopend", "di": "24 uur geopend", "wo": "24 uur geopend", "do": "24 uur geopend", "vr": "24 uur geopend", "za": "24 uur geopend", "zo": "24 uur geopend"}, "latitude": 52.721439, "longitude": 6.4964879, "bronId": "271595"}}, {"type": "Feature", "geometry": {"type": "Point", "coordinates": [6.479598, 52.727123]}, "properties": {"type": "inleverpunt", "locatieNaam": "Jumbo", "straatNaam": "Tamboerpassage", "straatNr": "1", "postcode": "7902 GK", "plaats": "Hoogeveen", "merk": "StatiegeldNederland", "puntType": "automaat", "materialen": ["pet-groot", "pet-klein", "blik", "glas", "krat"], "uitbetaling": ["bonnetje", "donatie"], "vrijToegankelijk": true, "gemeenteBeperking": null, "openingstijden": {"ma": "08:00–21:00", "di": "08:00–21:00", "wo": "08:00–21:00", "do": "08:00–21:00", "vr": "08:00–21:00", "za": "08:00–21:00", "zo": "08:00–21:00"}, "latitude": 52.727123, "longitude": 6.479598, "bronId": "272230"}}, {"type": "Feature", "geometry": {"type": "Point", "coordinates": [6.5730848, 52.6820436]}, "properties": {"type": "inleverpunt", "locatieNaam": "Korfbalvereniging Elko", "straatNaam": "Carstensdijk", "straatNr": "100", "postcode": "7916 TS", "plaats": "Elim", "merk": "StatiegeldNederland", "puntType": "balie", "materialen": ["pet-groot", "pet-klein", "blik"], "uitbetaling": [], "vrijToegankelijk": false, "gemeenteBeperking": null, "openingstijden": null, "latitude": 52.6820436, "longitude": 6.5730848, "bronId": "272374"}}, {"type": "Feature", "geometry": {"type": "Point", "coordinates": [6.5486313, 52.6994996]}, "properties": {"type": "inleverpunt", "locatieNaam": "Korfbalvereniging Hhv", "straatNaam": "Schoonhovenweg", "straatNr": "1D", "postcode": "7913 XH", "plaats": "Hollandscheveld", "merk": "StatiegeldNederland", "puntType": "balie", "materialen": ["pet-groot", "pet-klein", "blik"], "uitbetaling": [], "vrijToegankelijk": false, "gemeenteBeperking": null, "openingstijden": null, "latitude": 52.6994996, "longitude": 6.5486313, "bronId": "272376"}}, {"type": "Feature", "geometry": {"type": "Point", "coordinates": [6.4999044, 52.726413]}, "properties": {"type": "inleverpunt", "locatieNaam": "Korfbalvereniging Thrianta", "straatNaam": "Terpweg", "straatNr": "3", "postcode": "7902 NW", "plaats": "Hoogeveen", "merk": "StatiegeldNederland", "puntType": "balie", "materialen": ["pet-groot", "pet-klein", "blik"], "uitbetaling": [], "vrijToegankelijk": false, "gemeenteBeperking": null, "openingstijden": null, "latitude": 52.726413, "longitude": 6.4999044, "bronId": "272392"}}, {"type": "Feature", "geometry": {"type": "Point", "coordinates": [6.5076566, 52.7245899]}, "properties": {"type": "inleverpunt", "locatieNaam": "Lidl", "straatNaam": "Grote Beer", "straatNr": "2", "postcode": "7904 LW", "plaats": "Hoogeveen", "merk": "StatiegeldNederland", "puntType": "automaat", "materialen": ["pet-groot", "pet-klein", "blik", "glas", "krat"], "uitbetaling": ["bonnetje", "donatie"], "vrijToegankelijk": true, "gemeenteBeperking": null, "openingstijden": {"ma": "08:00–21:00", "di": "08:00–21:00", "wo": "08:00–21:00", "do": "08:00–21:00", "vr": "08:00–21:00", "za": "08:00–21:00", "zo": "10:00–18:00"}, "latitude": 52.7245899, "longitude": 6.5076566, "bronId": "272617"}}, {"type": "Feature", "geometry": {"type": "Point", "coordinates": [6.47678, 52.71917]}, "properties": {"type": "inleverpunt", "locatieNaam": "Lidl", "straatNaam": "Schutsplein", "straatNr": "49", "postcode": "7907 CZ", "plaats": "Hoogeveen", "merk": "StatiegeldNederland", "puntType": "automaat", "materialen": ["pet-groot", "pet-klein", "blik", "glas", "krat"], "uitbetaling": ["bonnetje"], "vrijToegankelijk": true, "gemeenteBeperking": null, "openingstijden": {"ma": "08:00–21:00", "di": "08:00–21:00", "wo": "08:00–21:00", "do": "08:00–21:00", "vr": "08:00–21:00", "za": "08:00–21:00", "zo": "09:00–18:00"}, "latitude": 52.71917, "longitude": 6.47678, "bronId": "272822"}}, {"type": "Feature", "geometry": {"type": "Point", "coordinates": [6.5143551, 52.7327853]}, "properties": {"type": "inleverpunt", "locatieNaam": "M.c. Motorhead", "straatNaam": "Achteromsedijk", "straatNr": "8E", "postcode": "7903 TL", "plaats": "Hoogeveen", "merk": "StatiegeldNederland", "puntType": "balie", "materialen": ["pet-groot", "pet-klein", "blik"], "uitbetaling": [], "vrijToegankelijk": false, "gemeenteBeperking": null, "openingstijden": {"ma": "Gesloten", "di": "Gesloten", "wo": "Gesloten", "do": "24 uur geopend", "vr": "24 uur geopend", "za": "24 uur geopend", "zo": "24 uur geopend"}, "latitude": 52.7327853, "longitude": 6.5143551, "bronId": "272962"}}, {"type": "Feature", "geometry": {"type": "Point", "coordinates": [6.491845, 52.7213792]}, "properties": {"type": "inleverpunt", "locatieNaam": "Markies 6140 Roelof Van Echt", "straatNaam": "Sportveldenweg", "straatNr": "20", "postcode": "7900 BD", "plaats": "Hoogeveen", "merk": "StatiegeldNederland", "puntType": "balie", "materialen": ["pet-groot", "pet-klein", "blik"], "uitbetaling": [], "vrijToegankelijk": true, "gemeenteBeperking": null, "openingstijden": {"ma": "08:00–17:00", "di": "08:00–17:00", "wo": "08:00–17:00", "do": "08:00–17:00", "vr": "08:00–17:00", "za": "Gesloten", "zo": "Gesloten"}, "latitude": 52.7213792, "longitude": 6.491845, "bronId": "273002"}}, {"type": "Feature", "geometry": {"type": "Point", "coordinates": [6.4798296, 52.7351912]}, "properties": {"type": "inleverpunt", "locatieNaam": "Markies 6141 Roelof Van Echt", "straatNaam": "Voltastraat", "straatNr": "27", "postcode": "7903 AA", "plaats": "Hoogeveen", "merk": "StatiegeldNederland", "puntType": "balie", "materialen": ["pet-groot", "pet-klein", "blik"], "uitbetaling": [], "vrijToegankelijk": true, "gemeenteBeperking": null, "openingstijden": {"ma": "08:00–17:00", "di": "08:00–17:00", "wo": "08:00–17:00", "do": "08:00–17:00", "vr": "08:00–17:00", "za": "Gesloten", "zo": "Gesloten"}, "latitude": 52.7351912, "longitude": 6.4798296, "bronId": "273003"}}, {"type": "Feature", "geometry": {"type": "Point", "coordinates": [6.4775363, 52.7215121]}, "properties": {"type": "inleverpunt", "locatieNaam": "Medikamente die Grenze", "straatNaam": "Hoofdstraat", "straatNr": "232", "postcode": "7901 JZ", "plaats": "Hoogeveen", "merk": "StatiegeldNederland", "puntType": "automaat", "materialen": ["pet-groot", "pet-klein", "blik"], "uitbetaling": ["bonnetje"], "vrijToegankelijk": true, "gemeenteBeperking": null, "openingstijden": {"ma": "09:00–18:00", "di": "09:00–18:00", "wo": "09:00–18:00", "do": "09:00–18:00", "vr": "09:00–21:00", "za": "09:00–17:30", "zo": "Gesloten"}, "latitude": 52.7215121, "longitude": 6.4775363, "bronId": "273166"}}, {"type": "Feature", "geometry": {"type": "Point", "coordinates": [6.5351456, 52.706509]}, "properties": {"type": "inleverpunt", "locatieNaam": "Nettorama", "straatNaam": "Het Hoekje 11 -", "straatNr": "13", "postcode": "7913 BA", "plaats": "Hollandscheveld", "merk": "StatiegeldNederland", "puntType": "automaat", "materialen": ["pet-groot", "pet-klein", "blik", "glas", "krat"], "uitbetaling": ["bonnetje"], "vrijToegankelijk": true, "gemeenteBeperking": null, "openingstijden": {"ma": "08:00–21:00", "di": "08:00–21:00", "wo": "08:00–21:00", "do": "08:00–21:00", "vr": "08:00–21:00", "za": "08:00–21:00", "zo": "10:00–18:00"}, "latitude": 52.706509, "longitude": 6.5351456, "bronId": "273323"}}, {"type": "Feature", "geometry": {"type": "Point", "coordinates": [6.474683, 52.7196259]}, "properties": {"type": "inleverpunt", "locatieNaam": "Nettorama", "straatNaam": "Schutsplein", "straatNr": "100", "postcode": "7907 CZ", "plaats": "Hoogeveen", "merk": "StatiegeldNederland", "puntType": "automaat", "materialen": ["pet-groot", "pet-klein", "blik", "glas", "krat"], "uitbetaling": ["bonnetje"], "vrijToegankelijk": true, "gemeenteBeperking": null, "openingstijden": {"ma": "07:00–21:00", "di": "07:00–21:00", "wo": "07:00–21:00", "do": "07:00–21:00", "vr": "07:00–21:00", "za": "07:00–21:00", "zo": "09:00–19:00"}, "latitude": 52.7196259, "longitude": 6.474683, "bronId": "273364"}}, {"type": "Feature", "geometry": {"type": "Point", "coordinates": [6.57919, 52.68253]}, "properties": {"type": "inleverpunt", "locatieNaam": "Plus", "straatNaam": "Carstensdijk", "straatNr": "164", "postcode": "7916 RC", "plaats": "Elim", "merk": "StatiegeldNederland", "puntType": "automaat", "materialen": ["pet-groot", "pet-klein", "blik", "glas", "krat"], "uitbetaling": ["bonnetje"], "vrijToegankelijk": true, "gemeenteBeperking": null, "openingstijden": {"ma": "08:00–20:00", "di": "08:00–20:00", "wo": "08:00–20:00", "do": "08:00–20:00", "vr": "08:00–21:00", "za": "08:00–20:00", "zo": "10:00–18:00"}, "latitude": 52.68253, "longitude": 6.57919, "bronId": "273686"}}, {"type": "Feature", "geometry": {"type": "Point", "coordinates": [6.4993443, 52.7159399]}, "properties": {"type": "inleverpunt", "locatieNaam": "Plus", "straatNaam": "De Wielewaal", "straatNr": "30", "postcode": "7905 GZ", "plaats": "Hoogeveen", "merk": "StatiegeldNederland", "puntType": "automaat", "materialen": ["pet-groot", "pet-klein", "blik", "glas", "krat"], "uitbetaling": ["bonnetje"], "vrijToegankelijk": true, "gemeenteBeperking": null, "openingstijden": {"ma": "08:00–20:00", "di": "08:00–20:00", "wo": "08:00–20:00", "do": "08:00–20:00", "vr": "08:00–21:00", "za": "08:00–20:00", "zo": "10:00–18:00"}, "latitude": 52.7159399, "longitude": 6.4993443, "bronId": "273712"}}, {"type": "Feature", "geometry": {"type": "Point", "coordinates": [6.507849, 52.723771]}, "properties": {"type": "inleverpunt", "locatieNaam": "Plus", "straatNaam": "Grote Beer", "straatNr": "41-43", "postcode": "7904 LW", "plaats": "Hoogeveen", "merk": "StatiegeldNederland", "puntType": "automaat", "materialen": ["pet-groot", "pet-klein", "blik", "glas", "krat"], "uitbetaling": ["bonnetje"], "vrijToegankelijk": true, "gemeenteBeperking": null, "openingstijden": {"ma": "08:00–20:00", "di": "08:00–20:00", "wo": "08:00–20:00", "do": "08:00–20:00", "vr": "08:00–21:00", "za": "08:00–20:00", "zo": "10:00–18:00"}, "latitude": 52.723771, "longitude": 6.507849, "bronId": "273778"}}, {"type": "Feature", "geometry": {"type": "Point", "coordinates": [6.5394, 52.7061]}, "properties": {"type": "inleverpunt", "locatieNaam": "Plus", "straatNaam": "Het Hoekje", "straatNr": "54", "postcode": "7913 BD", "plaats": "Hollandscheveld", "merk": "StatiegeldNederland", "puntType": "automaat", "materialen": ["pet-groot", "pet-klein", "blik", "glas", "krat"], "uitbetaling": ["bonnetje", "donatie"], "vrijToegankelijk": true, "gemeenteBeperking": null, "openingstijden": {"ma": "07:00–20:00", "di": "07:00–20:00", "wo": "07:00–20:00", "do": "07:00–20:00", "vr": "07:00–21:00", "za": "07:00–20:00", "zo": "10:00–18:00"}, "latitude": 52.7061, "longitude": 6.5394, "bronId": "273796"}}, {"type": "Feature", "geometry": {"type": "Point", "coordinates": [6.4774791, 52.7233435]}, "properties": {"type": "inleverpunt", "locatieNaam": "Polski Faworyt Hoogeveen", "straatNaam": "Hoofdstraat", "straatNr": "164", "postcode": "7901 JW", "plaats": "Hoogeveen", "merk": "StatiegeldNederland", "puntType": "automaat", "materialen": ["pet-groot", "pet-klein", "blik"], "uitbetaling": ["bonnetje", "donatie"], "vrijToegankelijk": true, "gemeenteBeperking": null, "openingstijden": {"ma": "08:30–20:00", "di": "08:30–20:00", "wo": "08:30–20:00", "do": "08:30–20:00", "vr": "08:30–20:00", "za": "08:00–18:00", "zo": "10:00–18:00"}, "latitude": 52.7233435, "longitude": 6.4774791, "bronId": "274168"}}, {"type": "Feature", "geometry": {"type": "Point", "coordinates": [6.4569196, 52.7715377]}, "properties": {"type": "inleverpunt", "locatieNaam": "S.v. Pesse Voetbalvereniging", "straatNaam": "De Marke", "straatNr": "4", "postcode": "7933 RD", "plaats": "Pesse", "merk": "StatiegeldNederland", "puntType": "balie", "materialen": ["pet-groot", "pet-klein", "blik"], "uitbetaling": [], "vrijToegankelijk": false, "gemeenteBeperking": null, "openingstijden": null, "latitude": 52.7715377, "longitude": 6.4569196, "bronId": "274392"}}, {"type": "Feature", "geometry": {"type": "Point", "coordinates": [6.5355808, 52.7245724]}, "properties": {"type": "inleverpunt", "locatieNaam": "Spar", "straatNaam": "ZWARTE DIJKJE", "straatNr": "26", "postcode": "7914 PC", "plaats": "Noordscheschut", "merk": "StatiegeldNederland", "puntType": "balie", "materialen": ["pet-groot", "pet-klein", "blik"], "uitbetaling": [], "vrijToegankelijk": true, "gemeenteBeperking": null, "openingstijden": {"ma": "08:00–19:00", "di": "08:00–19:00", "wo": "08:00–19:00", "do": "08:00–19:00", "vr": "08:00–19:00", "za": "08:00–19:00", "zo": "Gesloten"}, "latitude": 52.7245724, "longitude": 6.5355808, "bronId": "274968"}}, {"type": "Feature", "geometry": {"type": "Point", "coordinates": [6.6094773, 52.6961896]}, "properties": {"type": "inleverpunt", "locatieNaam": "Supermarkt Koster", "straatNaam": "JOH POSTSTRAAT", "straatNr": "48", "postcode": "7918 AC", "plaats": "Nieuwlande", "merk": "StatiegeldNederland", "puntType": "balie", "materialen": ["pet-groot", "pet-klein", "blik"], "uitbetaling": [], "vrijToegankelijk": true, "gemeenteBeperking": null, "openingstijden": {"ma": "08:30–12:00, 13:00–18:00", "di": "08:30–12:00", "wo": "08:30–12:00, 13:00–18:00", "do": "08:30–12:00, 13:00–18:00", "vr": "08:30–12:00, 13:00–20:00", "za": "08:30–16:00", "zo": "Gesloten"}, "latitude": 52.6961896, "longitude": 6.6094773, "bronId": "275242"}}, {"type": "Feature", "geometry": {"type": "Point", "coordinates": [6.520473, 52.718276]}, "properties": {"type": "inleverpunt", "locatieNaam": "Tuincentrum Strijker B.V.", "straatNaam": "Krakeel", "straatNr": "26c", "postcode": "7914 TJ", "plaats": "Noorscheschut", "merk": "StatiegeldNederland", "puntType": "automaat", "materialen": ["pet-groot", "pet-klein", "blik"], "uitbetaling": ["donatie", "tikkie"], "vrijToegankelijk": true, "gemeenteBeperking": null, "openingstijden": null, "latitude": 52.718276, "longitude": 6.520473, "bronId": "275538"}}, {"type": "Feature", "geometry": {"type": "Point", "coordinates": [6.5217784, 52.7342301]}, "properties": {"type": "inleverpunt", "locatieNaam": "Vending@Work GXO Hoogeveen", "straatNaam": "Plesmanstraat", "straatNr": "22", "postcode": "7903 BE", "plaats": "Hoogeveen", "merk": "StatiegeldNederland", "puntType": "automaat", "materialen": ["pet-groot", "pet-klein", "blik"], "uitbetaling": ["bonnetje", "donatie", "tikkie"], "vrijToegankelijk": true, "gemeenteBeperking": null, "openingstijden": null, "latitude": 52.7342301, "longitude": 6.5217784, "bronId": "275661"}}, {"type": "Feature", "geometry": {"type": "Point", "coordinates": [6.49514, 52.7160715]}, "properties": {"type": "inleverpunt", "locatieNaam": "ViaTim", "straatNaam": "De Grasmus", "straatNr": "11", "postcode": "7905 AT", "plaats": "Hoogeveen", "merk": "StatiegeldNederland", "puntType": "balie", "materialen": ["pet-groot", "pet-klein", "blik"], "uitbetaling": ["tikkie"], "vrijToegankelijk": true, "gemeenteBeperking": null, "openingstijden": {"ma": "16:00–21:30", "di": "16:00–21:30", "wo": "16:00–21:30", "do": "16:00–21:30", "vr": "16:00–21:30", "za": "15:00–21:30", "zo": "09:00–13:00"}, "latitude": 52.7160715, "longitude": 6.49514, "bronId": "275736"}}, {"type": "Feature", "geometry": {"type": "Point", "coordinates": [6.515704, 52.7248294]}, "properties": {"type": "inleverpunt", "locatieNaam": "ViaTim", "straatNaam": "De Kroon", "straatNr": "198", "postcode": "7904 KZ", "plaats": "Hoogeveen", "merk": "StatiegeldNederland", "puntType": "balie", "materialen": ["pet-groot", "pet-klein", "blik"], "uitbetaling": ["tikkie"], "vrijToegankelijk": true, "gemeenteBeperking": null, "openingstijden": {"ma": "16:00–21:00", "di": "16:00–21:00", "wo": "16:00–21:00", "do": "16:00–21:00", "vr": "16:00–21:00", "za": "12:00–17:00", "zo": "Gesloten"}, "latitude": 52.7248294, "longitude": 6.515704, "bronId": "275742"}}, {"type": "Feature", "geometry": {"type": "Point", "coordinates": [6.5348116, 52.707422]}, "properties": {"type": "inleverpunt", "locatieNaam": "ViaTim", "straatNaam": "Dominee Kooimanstraat", "straatNr": "6", "postcode": "7913 AX", "plaats": "Hollandscheveld", "merk": "StatiegeldNederland", "puntType": "balie", "materialen": ["pet-groot", "pet-klein", "blik"], "uitbetaling": ["tikkie"], "vrijToegankelijk": true, "gemeenteBeperking": null, "openingstijden": null, "latitude": 52.707422, "longitude": 6.5348116, "bronId": "275759"}}, {"type": "Feature", "geometry": {"type": "Point", "coordinates": [6.612381, 52.6954193]}, "properties": {"type": "inleverpunt", "locatieNaam": "ViaTim", "straatNaam": "Dopheide", "straatNr": "9", "postcode": "7918 AP", "plaats": "Nieuwlande", "merk": "StatiegeldNederland", "puntType": "balie", "materialen": ["pet-groot", "pet-klein", "blik"], "uitbetaling": ["tikkie"], "vrijToegankelijk": true, "gemeenteBeperking": null, "openingstijden": null, "latitude": 52.6954193, "longitude": 6.612381, "bronId": "275760"}}, {"type": "Feature", "geometry": {"type": "Point", "coordinates": [6.4449915, 52.7157556]}, "properties": {"type": "inleverpunt", "locatieNaam": "ViaTim", "straatNaam": "Het Anker", "straatNr": "6", "postcode": "7908 GG", "plaats": "Hoogeveen", "merk": "StatiegeldNederland", "puntType": "balie", "materialen": ["pet-groot", "pet-klein", "blik"], "uitbetaling": ["tikkie"], "vrijToegankelijk": true, "gemeenteBeperking": null, "openingstijden": {"ma": "16:00–21:00", "di": "16:00–21:00", "wo": "16:00–21:00", "do": "16:00–21:00", "vr": "16:00–21:00", "za": "Gesloten", "zo": "Gesloten"}, "latitude": 52.7157556, "longitude": 6.4449915, "bronId": "275802"}}, {"type": "Feature", "geometry": {"type": "Point", "coordinates": [6.5395697, 52.7260278]}, "properties": {"type": "inleverpunt", "locatieNaam": "Vof C Giethoorn", "straatNaam": "Drostenraai", "straatNr": "39", "postcode": "7914 RT", "plaats": "Noordscheschut", "merk": "StatiegeldNederland", "puntType": "balie", "materialen": ["pet-groot", "pet-klein", "blik"], "uitbetaling": [], "vrijToegankelijk": true, "gemeenteBeperking": null, "openingstijden": null, "latitude": 52.7260278, "longitude": 6.5395697, "bronId": "276114"}}, {"type": "Feature", "geometry": {"type": "Point", "coordinates": [6.493754, 52.718461]}, "properties": {"type": "inleverpunt", "locatieNaam": "VO Wolfsbos Groene Driehoek", "straatNaam": "Valkenlaan", "straatNr": "1-3", "postcode": "7905 AA", "plaats": "Hoogeveen", "merk": "StatiegeldNederland", "puntType": "automaat", "materialen": ["pet-klein", "blik"], "uitbetaling": ["donatie", "tikkie"], "vrijToegankelijk": true, "gemeenteBeperking": null, "openingstijden": null, "latitude": 52.718461, "longitude": 6.493754, "bronId": "276223"}}, {"type": "Feature", "geometry": {"type": "Point", "coordinates": [6.4916652, 52.7203099]}, "properties": {"type": "inleverpunt", "locatieNaam": "VO Wolfsbos Harm Smeenge", "straatNaam": "Wolfsbosstraat", "straatNr": "3", "postcode": "7905 BZ", "plaats": "Hoogeveen", "merk": "StatiegeldNederland", "puntType": "automaat", "materialen": ["pet-klein", "blik"], "uitbetaling": ["donatie", "tikkie"], "vrijToegankelijk": true, "gemeenteBeperking": null, "openingstijden": null, "latitude": 52.7203099, "longitude": 6.4916652, "bronId": "276224"}}, {"type": "Feature", "geometry": {"type": "Point", "coordinates": [6.5182968, 52.7110722]}, "properties": {"type": "inleverpunt", "locatieNaam": "Wasstraat De Wasbeer Hoogeveen", "straatNaam": "Buitenvaart", "straatNr": "3011", "postcode": "7905 TA", "plaats": "Hoogeveen", "merk": "StatiegeldNederland", "puntType": "automaat", "materialen": ["pet-groot", "pet-klein", "blik", "krat"], "uitbetaling": ["donatie", "tikkie"], "vrijToegankelijk": true, "gemeenteBeperking": null, "openingstijden": {"ma": "08:30–19:00", "di": "08:30–19:00", "wo": "08:30–19:00", "do": "08:30–19:00", "vr": "08:30–19:00", "za": "08:00–18:00", "zo": "10:00–17:00"}, "latitude": 52.7110722, "longitude": 6.5182968, "bronId": "276346"}}, {"type": "Feature", "geometry": {"type": "Point", "coordinates": [6.451886, 52.718647]}, "properties": {"type": "inleverpunt", "locatieNaam": "4041 Albert Heijn Hoogeveen", "straatNaam": "de Weide", "straatNr": "28", "postcode": "7908 AB", "plaats": "Hoogeveen", "merk": "StichtingOPEN", "puntType": "balie", "materialen": ["batterijen", "elektro-klein", "lampen"], "uitbetaling": [], "vrijToegankelijk": false, "gemeenteBeperking": null, "openingstijden": null, "latitude": 52.718647, "longitude": 6.451886, "bronId": "SP00023152"}}, {"type": "Feature", "geometry": {"type": "Point", "coordinates": [6.452026, 52.719055]}, "properties": {"type": "inleverpunt", "locatieNaam": "Kruidvat Hoogeveen", "straatNaam": "de Weide", "straatNr": "711", "postcode": "7908 AB", "plaats": "Hoogeveen", "merk": "StichtingOPEN", "puntType": "balie", "materialen": ["batterijen", "lampen"], "uitbetaling": [], "vrijToegankelijk": false, "gemeenteBeperking": null, "openingstijden": null, "latitude": 52.719055, "longitude": 6.452026, "bronId": "SP00024852"}}, {"type": "Feature", "geometry": {"type": "Point", "coordinates": [6.452022, 52.719904]}, "properties": {"type": "inleverpunt", "locatieNaam": "Aldi Hoogeveen", "straatNaam": "de Weide", "straatNr": "2A", "postcode": "7908 AB", "plaats": "Hoogeveen", "merk": "StichtingOPEN", "puntType": "balie", "materialen": ["batterijen", "elektro-klein", "lampen"], "uitbetaling": [], "vrijToegankelijk": false, "gemeenteBeperking": null, "openingstijden": null, "latitude": 52.719904, "longitude": 6.452022, "bronId": "SP00034462"}}, {"type": "Feature", "geometry": {"type": "Point", "coordinates": [6.467653, 52.72094]}, "properties": {"type": "inleverpunt", "locatieNaam": "Praxis Hoogeveen - 2027", "straatNaam": "Griendtsveenweg", "straatNr": "26", "postcode": "7901 EA", "plaats": "Hoogeveen", "merk": "StichtingOPEN", "puntType": "balie", "materialen": ["elektro-middel", "lampen", "tl-buizen"], "uitbetaling": [], "vrijToegankelijk": false, "gemeenteBeperking": null, "openingstijden": null, "latitude": 52.72094, "longitude": 6.467653, "bronId": "SP00004536"}}, {"type": "Feature", "geometry": {"type": "Point", "coordinates": [6.46736, 52.723206]}, "properties": {"type": "inleverpunt", "locatieNaam": "Aldi Hoogeveen", "straatNaam": "Griendtsveenweg", "straatNr": "20c", "postcode": "7901 ES", "plaats": "Hoogeveen", "merk": "StichtingOPEN", "puntType": "balie", "materialen": ["batterijen", "elektro-klein", "lampen"], "uitbetaling": [], "vrijToegankelijk": false, "gemeenteBeperking": null, "openingstijden": null, "latitude": 52.723206, "longitude": 6.46736, "bronId": "SP00027014"}}, {"type": "Feature", "geometry": {"type": "Point", "coordinates": [6.466277, 52.72402]}, "properties": {"type": "inleverpunt", "locatieNaam": "Karwei Hoogeveen", "straatNaam": "Groenewegenstraat", "straatNr": "1115", "postcode": "7901 ED", "plaats": "Hoogeveen", "merk": "StichtingOPEN", "puntType": "balie", "materialen": ["elektro-middel", "lampen", "tl-buizen"], "uitbetaling": [], "vrijToegankelijk": false, "gemeenteBeperking": null, "openingstijden": null, "latitude": 52.72402, "longitude": 6.466277, "bronId": "SP00020498"}}, {"type": "Feature", "geometry": {"type": "Point", "coordinates": [6.467912, 52.723302]}, "properties": {"type": "inleverpunt", "locatieNaam": "1616 Albert Heijn Hoogeveen", "straatNaam": "Griendtsveenweg", "straatNr": "20", "postcode": "7901 EA", "plaats": "Hoogeveen", "merk": "StichtingOPEN", "puntType": "balie", "materialen": ["batterijen", "elektro-klein", "lampen"], "uitbetaling": [], "vrijToegankelijk": false, "gemeenteBeperking": null, "openingstijden": null, "latitude": 52.723302, "longitude": 6.467912, "bronId": "SP00023155"}}, {"type": "Feature", "geometry": {"type": "Point", "coordinates": [6.467409, 52.723717]}, "properties": {"type": "inleverpunt", "locatieNaam": "Leen Bakker Hoogeveen", "straatNaam": "Griendtsveenweg", "straatNr": "18", "postcode": "7901 EA", "plaats": "Hoogeveen", "merk": "StichtingOPEN", "puntType": "balie", "materialen": ["batterijen", "lampen"], "uitbetaling": [], "vrijToegankelijk": false, "gemeenteBeperking": null, "openingstijden": null, "latitude": 52.723717, "longitude": 6.467409, "bronId": "SP00025800"}}, {"type": "Feature", "geometry": {"type": "Point", "coordinates": [6.466548, 52.724923]}, "properties": {"type": "inleverpunt", "locatieNaam": "GAMMA Hoogeveen", "straatNaam": "Groenewegenstraat", "straatNr": "10", "postcode": "7901 ED", "plaats": "Hoogeveen", "merk": "StichtingOPEN", "puntType": "balie", "materialen": ["batterijen", "elektro-middel", "lampen", "tl-buizen"], "uitbetaling": [], "vrijToegankelijk": false, "gemeenteBeperking": null, "openingstijden": null, "latitude": 52.724923, "longitude": 6.466548, "bronId": "SP00003026"}}, {"type": "Feature", "geometry": {"type": "Point", "coordinates": [6.483608, 52.715741]}, "properties": {"type": "inleverpunt", "locatieNaam": "4042 Albert Heijn Hoogeveen", "straatNaam": "De nije nering", "straatNr": "50", "postcode": "7906 EW", "plaats": "Hoogeveen", "merk": "StichtingOPEN", "puntType": "balie", "materialen": ["batterijen", "elektro-klein", "lampen"], "uitbetaling": [], "vrijToegankelijk": false, "gemeenteBeperking": null, "openingstijden": null, "latitude": 52.715741, "longitude": 6.483608, "bronId": "SP00023151"}}, {"type": "Feature", "geometry": {"type": "Point", "coordinates": [6.483718, 52.716345]}, "properties": {"type": "inleverpunt", "locatieNaam": "Aldi Hoogeveen", "straatNaam": "De Nije Nering", "straatNr": "26-34", "postcode": "7906 EW", "plaats": "Hoogeveen", "merk": "StichtingOPEN", "puntType": "balie", "materialen": ["batterijen", "elektro-klein", "lampen"], "uitbetaling": [], "vrijToegankelijk": false, "gemeenteBeperking": null, "openingstijden": null, "latitude": 52.716345, "longitude": 6.483718, "bronId": "SP00027023"}}, {"type": "Feature", "geometry": {"type": "Point", "coordinates": [6.478339, 52.720335]}, "properties": {"type": "inleverpunt", "locatieNaam": "Telefoon Dokter", "straatNaam": "Het Haagje", "straatNr": "2", "postcode": "7906 AA", "plaats": "Hoogeveen", "merk": "StichtingOPEN", "puntType": "balie", "materialen": ["elektro-klein", "elektro-middel"], "uitbetaling": [], "vrijToegankelijk": false, "gemeenteBeperking": null, "openingstijden": null, "latitude": 52.720335, "longitude": 6.478339, "bronId": "SP00027604"}}, {"type": "Feature", "geometry": {"type": "Point", "coordinates": [6.479356, 52.721559]}, "properties": {"type": "inleverpunt", "locatieNaam": "Action Hoogeveen 1023", "straatNaam": "Kaaplaantje", "straatNr": "20", "postcode": "7902 HH", "plaats": "Hoogeveen", "merk": "StichtingOPEN", "puntType": "balie", "materialen": ["batterijen", "lampen"], "uitbetaling": [], "vrijToegankelijk": false, "gemeenteBeperking": null, "openingstijden": null, "latitude": 52.721559, "longitude": 6.479356, "bronId": "SP00007625"}}, {"type": "Feature", "geometry": {"type": "Point", "coordinates": [6.47798, 52.72388]}, "properties": {"type": "inleverpunt", "locatieNaam": "Kruidvat Hoogeveen", "straatNaam": "Hoofdstraat", "straatNr": "127", "postcode": "7902 ED", "plaats": "Hoogeveen", "merk": "StichtingOPEN", "puntType": "balie", "materialen": ["batterijen", "lampen"], "uitbetaling": [], "vrijToegankelijk": false, "gemeenteBeperking": null, "openingstijden": null, "latitude": 52.72388, "longitude": 6.47798, "bronId": "SP00029680"}}, {"type": "Feature", "geometry": {"type": "Point", "coordinates": [6.49665, 52.71377]}, "properties": {"type": "inleverpunt", "locatieNaam": "Albert Heijn Apeldoorn", "straatNaam": "De Arend", "straatNr": "2", "postcode": "7332 BC", "plaats": "Apeldoorn", "merk": "StichtingOPEN", "puntType": "balie", "materialen": ["batterijen", "lampen"], "uitbetaling": [], "vrijToegankelijk": false, "gemeenteBeperking": null, "openingstijden": null, "latitude": 52.71377, "longitude": 6.49665, "bronId": "SP00030079"}}, {"type": "Feature", "geometry": {"type": "Point", "coordinates": [6.479674, 52.727221]}, "properties": {"type": "inleverpunt", "locatieNaam": "Jumbo Hoogeveen", "straatNaam": "Tamboerpassage", "straatNr": "1", "postcode": "7902 GK", "plaats": "Hoogeveen", "merk": "StichtingOPEN", "puntType": "balie", "materialen": ["batterijen", "lampen"], "uitbetaling": [], "vrijToegankelijk": false, "gemeenteBeperking": null, "openingstijden": null, "latitude": 52.727221, "longitude": 6.479674, "bronId": "SP00025353"}}, {"type": "Feature", "geometry": {"type": "Point", "coordinates": [6.49909, 52.7163]}, "properties": {"type": "inleverpunt", "locatieNaam": "Kruidvat Hoogeveen", "straatNaam": "De Wielewaal", "straatNr": "22", "postcode": "7905 GZ", "plaats": "Hoogeveen", "merk": "StichtingOPEN", "puntType": "balie", "materialen": ["batterijen", "lampen"], "uitbetaling": [], "vrijToegankelijk": false, "gemeenteBeperking": null, "openingstijden": null, "latitude": 52.7163, "longitude": 6.49909, "bronId": "SP00029673"}}, {"type": "Feature", "geometry": {"type": "Point", "coordinates": [6.497822, 52.71723]}, "properties": {"type": "inleverpunt", "locatieNaam": "Aldi Hoogeveen", "straatNaam": "Wielewaal", "straatNr": "2", "postcode": "7905 GZ", "plaats": "Hoogeveen", "merk": "StichtingOPEN", "puntType": "balie", "materialen": ["batterijen", "elektro-klein", "lampen"], "uitbetaling": [], "vrijToegankelijk": false, "gemeenteBeperking": null, "openingstijden": null, "latitude": 52.71723, "longitude": 6.497822, "bronId": "SP00027050"}}, {"type": "Feature", "geometry": {"type": "Point", "coordinates": [6.491635, 52.72735]}, "properties": {"type": "inleverpunt", "locatieNaam": "Hubo Hoogeveen Kanaalweg", "straatNaam": "Kanaalweg", "straatNr": "5a", "postcode": "7902 LH", "plaats": "Hoogeveen", "merk": "StichtingOPEN", "puntType": "balie", "materialen": ["elektro-middel", "lampen", "tl-buizen"], "uitbetaling": [], "vrijToegankelijk": false, "gemeenteBeperking": null, "openingstijden": null, "latitude": 52.72735, "longitude": 6.491635, "bronId": "SP00004491"}}, {"type": "Feature", "geometry": {"type": "Point", "coordinates": [6.480552, 52.738325]}, "properties": {"type": "inleverpunt", "locatieNaam": "Wildkamp", "straatNaam": "A G Bellstraat", "straatNr": "31A", "postcode": "7903 AD", "plaats": "Hoogeveen", "merk": "StichtingOPEN", "puntType": "balie", "materialen": ["lampen", "tl-buizen"], "uitbetaling": [], "vrijToegankelijk": false, "gemeenteBeperking": null, "openingstijden": null, "latitude": 52.738325, "longitude": 6.480552, "bronId": "SP00007961"}}, {"type": "Feature", "geometry": {"type": "Point", "coordinates": [6.53525, 52.70651]}, "properties": {"type": "inleverpunt", "locatieNaam": "PLUS Drachten", "straatNaam": "Het Hoekje", "straatNr": "11-13", "postcode": "9203 JC", "plaats": "Drachten", "merk": "StichtingOPEN", "puntType": "balie", "materialen": ["batterijen", "lampen"], "uitbetaling": [], "vrijToegankelijk": false, "gemeenteBeperking": null, "openingstijden": null, "latitude": 52.70651, "longitude": 6.53525, "bronId": "SP00030093"}}, {"type": "Feature", "geometry": {"type": "Point", "coordinates": [6.535475, 52.706492]}, "properties": {"type": "inleverpunt", "locatieNaam": "EP: Kuik", "straatNaam": "Het Hoekje", "straatNr": "17", "postcode": "7913 BA", "plaats": "Hollandscheveld", "merk": "StichtingOPEN", "puntType": "balie", "materialen": ["elektro-middel", "lampen"], "uitbetaling": [], "vrijToegankelijk": false, "gemeenteBeperking": null, "openingstijden": null, "latitude": 52.706492, "longitude": 6.535475, "bronId": "SP00002606"}}, {"type": "Feature", "geometry": {"type": "Point", "coordinates": [6.535651, 52.724519]}, "properties": {"type": "inleverpunt", "locatieNaam": "Spar Noordscheschut", "straatNaam": "Zwarte Dijkje", "straatNr": "26", "postcode": "7914 PC", "plaats": "Noordscheschut", "merk": "StichtingOPEN", "puntType": "balie", "materialen": ["batterijen", "lampen"], "uitbetaling": [], "vrijToegankelijk": false, "gemeenteBeperking": null, "openingstijden": null, "latitude": 52.724519, "longitude": 6.535651, "bronId": "SP00030045"}}, {"type": "Feature", "geometry": {"type": "Point", "coordinates": [6.60956, 52.69621]}, "properties": {"type": "inleverpunt", "locatieNaam": "Spar Nieuwlande", "straatNaam": "Joh Poststraat", "straatNr": "48", "postcode": "7918 AC", "plaats": "Nieuwlande", "merk": "StichtingOPEN", "puntType": "balie", "materialen": ["batterijen", "lampen"], "uitbetaling": [], "vrijToegankelijk": false, "gemeenteBeperking": null, "openingstijden": null, "latitude": 52.69621, "longitude": 6.60956, "bronId": "SP00030124"}}, {"type": "Feature", "geometry": {"type": "Point", "coordinates": [6.496671, 52.7269765]}, "properties": {"type": "inleverpunt", "locatieNaam": "Milieustraat Hoogeveen", "straatNaam": "De Vos van Steenwijklaan", "straatNr": "75", "postcode": "7902 NP", "plaats": "Hoogeveen", "merk": "StichtingOPEN", "puntType": "milieustraat", "materialen": ["batterijen", "elektro-groot", "elektro-klein", "elektro-middel", "lampen", "tl-buizen"], "uitbetaling": [], "vrijToegankelijk": false, "gemeenteBeperking": ["Hoogeveen"], "openingstijden": null, "latitude": 52.7269765, "longitude": 6.496671, "bronId": "SP00003723"}}, {"type": "Feature", "geometry": {"type": "Point", "coordinates": [6.4218847, 52.7110844]}, "properties": {"type": "inleverpunt", "locatieNaam": "Groencentrum Hoogeveen", "straatNaam": "Nijstad", "straatNr": "11", "postcode": "7909 HS", "plaats": "Hoogeveen", "merk": "Stibat", "puntType": "inzamelbak", "materialen": ["batterijen"], "uitbetaling": [], "vrijToegankelijk": false, "gemeenteBeperking": null, "openingstijden": null, "latitude": 52.7110844, "longitude": 6.4218847, "bronId": "L040253"}}, {"type": "Feature", "geometry": {"type": "Point", "coordinates": [6.4518428, 52.7186572]}, "properties": {"type": "inleverpunt", "locatieNaam": "4041 Albert Heijn", "straatNaam": "De Weide", "straatNr": "28", "postcode": "7908 AB", "plaats": "Hoogeveen", "merk": "Stibat", "puntType": "inzamelbak", "materialen": ["batterijen"], "uitbetaling": [], "vrijToegankelijk": false, "gemeenteBeperking": null, "openingstijden": null, "latitude": 52.7186572, "longitude": 6.4518428, "bronId": "L032240"}}, {"type": "Feature", "geometry": {"type": "Point", "coordinates": [6.4519441, 52.7190629]}, "properties": {"type": "inleverpunt", "locatieNaam": "Kruidvat", "straatNaam": "De Weide", "straatNr": "7-11", "postcode": "7908 AB", "plaats": "Hoogeveen", "merk": "Stibat", "puntType": "inzamelbak", "materialen": ["batterijen"], "uitbetaling": [], "vrijToegankelijk": false, "gemeenteBeperking": null, "openingstijden": null, "latitude": 52.7190629, "longitude": 6.4519441, "bronId": "L015895"}}, {"type": "Feature", "geometry": {"type": "Point", "coordinates": [6.4523247, 52.7188887]}, "properties": {"type": "inleverpunt", "locatieNaam": "Bruna", "straatNaam": "De Weide", "straatNr": "19", "postcode": "7908 AB", "plaats": "Hoogeveen", "merk": "Stibat", "puntType": "inzamelbak", "materialen": ["batterijen"], "uitbetaling": [], "vrijToegankelijk": false, "gemeenteBeperking": null, "openingstijden": null, "latitude": 52.7188887, "longitude": 6.4523247, "bronId": "L026831"}}, {"type": "Feature", "geometry": {"type": "Point", "coordinates": [6.4520223, 52.7199048]}, "properties": {"type": "inleverpunt", "locatieNaam": "Aldi", "straatNaam": "De Weide", "straatNr": "2a", "postcode": "7908 AB", "plaats": "Hoogeveen", "merk": "Stibat", "puntType": "inzamelbak", "materialen": ["batterijen"], "uitbetaling": [], "vrijToegankelijk": false, "gemeenteBeperking": null, "openingstijden": null, "latitude": 52.7199048, "longitude": 6.4520223, "bronId": "L046552"}}, {"type": "Feature", "geometry": {"type": "Point", "coordinates": [6.4613235, 52.7194819]}, "properties": {"type": "inleverpunt", "locatieNaam": "Hotel Hoogeveen", "straatNaam": "Mathijsenstraat", "straatNr": "1", "postcode": "7909 AP", "plaats": "Hoogeveen", "merk": "Stibat", "puntType": "inzamelbak", "materialen": ["batterijen"], "uitbetaling": [], "vrijToegankelijk": false, "gemeenteBeperking": null, "openingstijden": null, "latitude": 52.7194819, "longitude": 6.4613235, "bronId": "L026075"}}, {"type": "Feature", "geometry": {"type": "Point", "coordinates": [6.4674392, 52.7215095]}, "properties": {"type": "inleverpunt", "locatieNaam": "Praxis 2027", "straatNaam": "Griendtsveenweg", "straatNr": "26", "postcode": "7901 EA", "plaats": "Hoogeveen", "merk": "Stibat", "puntType": "inzamelbak", "materialen": ["batterijen"], "uitbetaling": [], "vrijToegankelijk": false, "gemeenteBeperking": null, "openingstijden": null, "latitude": 52.7215095, "longitude": 6.4674392, "bronId": "L015129"}}, {"type": "Feature", "geometry": {"type": "Point", "coordinates": [6.4659535, 52.7240007]}, "properties": {"type": "inleverpunt", "locatieNaam": "Karwei", "straatNaam": "Groenewegenstraat", "straatNr": "11-15", "postcode": "7901 ED", "plaats": "Hoogeveen", "merk": "Stibat", "puntType": "inzamelbak", "materialen": ["batterijen"], "uitbetaling": [], "vrijToegankelijk": false, "gemeenteBeperking": null, "openingstijden": null, "latitude": 52.7240007, "longitude": 6.4659535, "bronId": "L022874"}}, {"type": "Feature", "geometry": {"type": "Point", "coordinates": [6.4672758, 52.7231781]}, "properties": {"type": "inleverpunt", "locatieNaam": "1616 Albert Heijn", "straatNaam": "Griendtsveenweg", "straatNr": "20", "postcode": "7901 EA", "plaats": "Hoogeveen", "merk": "Stibat", "puntType": "inzamelbak", "materialen": ["batterijen"], "uitbetaling": [], "vrijToegankelijk": false, "gemeenteBeperking": null, "openingstijden": null, "latitude": 52.7231781, "longitude": 6.4672758, "bronId": "L017543"}}, {"type": "Feature", "geometry": {"type": "Point", "coordinates": [6.4673601, 52.7232062]}, "properties": {"type": "inleverpunt", "locatieNaam": "Aldi", "straatNaam": "Griendtsveenweg", "straatNr": "20c", "postcode": "7901 EA", "plaats": "Hoogeveen", "merk": "Stibat", "puntType": "inzamelbak", "materialen": ["batterijen"], "uitbetaling": [], "vrijToegankelijk": false, "gemeenteBeperking": null, "openingstijden": null, "latitude": 52.7232062, "longitude": 6.4673601, "bronId": "L041519"}}, {"type": "Feature", "geometry": {"type": "Point", "coordinates": [6.4676439, 52.7237028]}, "properties": {"type": "inleverpunt", "locatieNaam": "Kwantum", "straatNaam": "Griendtsveenweg", "straatNr": "16-18", "postcode": "7901 EA", "plaats": "Hoogeveen", "merk": "Stibat", "puntType": "inzamelbak", "materialen": ["batterijen"], "uitbetaling": [], "vrijToegankelijk": false, "gemeenteBeperking": null, "openingstijden": null, "latitude": 52.7237028, "longitude": 6.4676439, "bronId": "L018316"}}, {"type": "Feature", "geometry": {"type": "Point", "coordinates": [6.4659124, 52.7249228]}, "properties": {"type": "inleverpunt", "locatieNaam": "Gamma", "straatNaam": "Groenenwegenstraat", "straatNr": "10", "postcode": "7901 ED", "plaats": "Hoogeveen", "merk": "Stibat", "puntType": "inzamelbak", "materialen": ["batterijen"], "uitbetaling": [], "vrijToegankelijk": false, "gemeenteBeperking": null, "openingstijden": null, "latitude": 52.7249228, "longitude": 6.4659124, "bronId": "L005780"}}, {"type": "Feature", "geometry": {"type": "Point", "coordinates": [6.467609, 52.7240896]}, "properties": {"type": "inleverpunt", "locatieNaam": "Leen Bakker", "straatNaam": "Griendtsveenweg", "straatNr": "18", "postcode": "7901 EA", "plaats": "Hoogeveen", "merk": "Stibat", "puntType": "inzamelbak", "materialen": ["batterijen"], "uitbetaling": [], "vrijToegankelijk": false, "gemeenteBeperking": null, "openingstijden": null, "latitude": 52.7240896, "longitude": 6.467609, "bronId": "L017465"}}, {"type": "Feature", "geometry": {"type": "Point", "coordinates": [6.4737984, 52.7202159]}, "properties": {"type": "inleverpunt", "locatieNaam": "Beter Horen", "straatNaam": "Schutstraat", "straatNr": "98", "postcode": "7901 EG", "plaats": "Hoogeveen", "merk": "Stibat", "puntType": "inzamelbak", "materialen": ["batterijen"], "uitbetaling": [], "vrijToegankelijk": false, "gemeenteBeperking": null, "openingstijden": null, "latitude": 52.7202159, "longitude": 6.4737984, "bronId": "L017294"}}, {"type": "Feature", "geometry": {"type": "Point", "coordinates": [6.4514064, 52.7365574]}, "properties": {"type": "inleverpunt", "locatieNaam": "Witgoed specialist", "straatNaam": "Fluitenbergseweg", "straatNr": "66", "postcode": "7931 PB", "plaats": "Fluitenberg", "merk": "Stibat", "puntType": "inzamelbak", "materialen": ["batterijen"], "uitbetaling": [], "vrijToegankelijk": false, "gemeenteBeperking": null, "openingstijden": null, "latitude": 52.7365574, "longitude": 6.4514064, "bronId": "L014853"}}, {"type": "Feature", "geometry": {"type": "Point", "coordinates": [6.476783, 52.7191706]}, "properties": {"type": "inleverpunt", "locatieNaam": "Lidl", "straatNaam": "Schutsplein", "straatNr": "49", "postcode": "7907 CZ", "plaats": "Hoogeveen", "merk": "Stibat", "puntType": "inzamelbak", "materialen": ["batterijen"], "uitbetaling": [], "vrijToegankelijk": false, "gemeenteBeperking": null, "openingstijden": null, "latitude": 52.7191706, "longitude": 6.476783, "bronId": "L018965"}}, {"type": "Feature", "geometry": {"type": "Point", "coordinates": [6.4763113, 52.7200778]}, "properties": {"type": "inleverpunt", "locatieNaam": "Xenos", "straatNaam": "Schutstraat", "straatNr": "17", "postcode": "7907 CA", "plaats": "Hoogeveen", "merk": "Stibat", "puntType": "inzamelbak", "materialen": ["batterijen"], "uitbetaling": [], "vrijToegankelijk": false, "gemeenteBeperking": null, "openingstijden": null, "latitude": 52.7200778, "longitude": 6.4763113, "bronId": "L037075"}}, {"type": "Feature", "geometry": {"type": "Point", "coordinates": [6.4773937, 52.71992]}, "properties": {"type": "inleverpunt", "locatieNaam": "Hubo", "straatNaam": "Alteveerstraat", "straatNr": "8", "postcode": "7907 AA", "plaats": "Hoogeveen", "merk": "Stibat", "puntType": "inzamelbak", "materialen": ["batterijen"], "uitbetaling": [], "vrijToegankelijk": false, "gemeenteBeperking": null, "openingstijden": null, "latitude": 52.71992, "longitude": 6.4773937, "bronId": "L010056"}}, {"type": "Feature", "geometry": {"type": "Point", "coordinates": [6.4770901, 52.7202104]}, "properties": {"type": "inleverpunt", "locatieNaam": "Schoonenberg Hoorcomfort", "straatNaam": "Schutstraat", "straatNr": "5", "postcode": "7907 CA", "plaats": "Hoogeveen", "merk": "Stibat", "puntType": "inzamelbak", "materialen": ["batterijen"], "uitbetaling": [], "vrijToegankelijk": false, "gemeenteBeperking": null, "openingstijden": null, "latitude": 52.7202104, "longitude": 6.4770901, "bronId": "L021608"}}, {"type": "Feature", "geometry": {"type": "Point", "coordinates": [6.477514, 52.7205929]}, "properties": {"type": "inleverpunt", "locatieNaam": "Foto Anno Bakker", "straatNaam": "Schutstraat", "straatNr": "10", "postcode": "7901 EC", "plaats": "Hoogeveen", "merk": "Stibat", "puntType": "inzamelbak", "materialen": ["batterijen"], "uitbetaling": [], "vrijToegankelijk": false, "gemeenteBeperking": null, "openingstijden": null, "latitude": 52.7205929, "longitude": 6.477514, "bronId": "L029614"}}, {"type": "Feature", "geometry": {"type": "Point", "coordinates": [6.4844032, 52.7157015]}, "properties": {"type": "inleverpunt", "locatieNaam": "Read Shop", "straatNaam": "De Nije Nering", "straatNr": "52", "postcode": "7906 EW", "plaats": "Hoogeveen", "merk": "Stibat", "puntType": "inzamelbak", "materialen": ["batterijen"], "uitbetaling": [], "vrijToegankelijk": false, "gemeenteBeperking": null, "openingstijden": null, "latitude": 52.7157015, "longitude": 6.4844032, "bronId": "L047489"}}, {"type": "Feature", "geometry": {"type": "Point", "coordinates": [6.4843622, 52.7157644]}, "properties": {"type": "inleverpunt", "locatieNaam": "4042 Albert Heijn", "straatNaam": "De Nije Nering", "straatNr": "50", "postcode": "7906 EW", "plaats": "Hoogeveen", "merk": "Stibat", "puntType": "inzamelbak", "materialen": ["batterijen"], "uitbetaling": [], "vrijToegankelijk": false, "gemeenteBeperking": null, "openingstijden": null, "latitude": 52.7157644, "longitude": 6.4843622, "bronId": "L035271"}}, {"type": "Feature", "geometry": {"type": "Point", "coordinates": [6.478142, 52.7208478]}, "properties": {"type": "inleverpunt", "locatieNaam": "6041 Etos", "straatNaam": "Hoofdstraat", "straatNr": "235", "postcode": "7902 EJ", "plaats": "Hoogeveen", "merk": "Stibat", "puntType": "inzamelbak", "materialen": ["batterijen"], "uitbetaling": [], "vrijToegankelijk": false, "gemeenteBeperking": null, "openingstijden": null, "latitude": 52.7208478, "longitude": 6.478142, "bronId": "L023014"}}, {"type": "Feature", "geometry": {"type": "Point", "coordinates": [6.477633, 52.721212]}, "properties": {"type": "inleverpunt", "locatieNaam": "BelCompany", "straatNaam": "Hoofdstraat", "straatNr": "240", "postcode": "7901 JZ", "plaats": "Hoogeveen", "merk": "Stibat", "puntType": "inzamelbak", "materialen": ["batterijen"], "uitbetaling": [], "vrijToegankelijk": false, "gemeenteBeperking": null, "openingstijden": null, "latitude": 52.721212, "longitude": 6.477633, "bronId": "L014054"}}, {"type": "Feature", "geometry": {"type": "Point", "coordinates": [6.477533, 52.72148]}, "properties": {"type": "inleverpunt", "locatieNaam": "Zeeman", "straatNaam": "Hoofdstraat", "straatNr": "230a", "postcode": "7901 JZ", "plaats": "Hoogeveen", "merk": "Stibat", "puntType": "inzamelbak", "materialen": ["batterijen"], "uitbetaling": [], "vrijToegankelijk": false, "gemeenteBeperking": null, "openingstijden": null, "latitude": 52.72148, "longitude": 6.477533, "bronId": "L020612"}}, {"type": "Feature", "geometry": {"type": "Point", "coordinates": [6.4793414, 52.7204193]}, "properties": {"type": "inleverpunt", "locatieNaam": "Expert", "straatNaam": "Het Haagje", "straatNr": "24", "postcode": "7906 AA", "plaats": "Hoogeveen", "merk": "Stibat", "puntType": "inzamelbak", "materialen": ["batterijen"], "uitbetaling": [], "vrijToegankelijk": false, "gemeenteBeperking": null, "openingstijden": null, "latitude": 52.7204193, "longitude": 6.4793414, "bronId": "L010872"}}, {"type": "Feature", "geometry": {"type": "Point", "coordinates": [6.4775709, 52.7216889]}, "properties": {"type": "inleverpunt", "locatieNaam": "Intertoys", "straatNaam": "Hoofdstraat", "straatNr": "226", "postcode": "7901 JZ", "plaats": "Hoogeveen", "merk": "Stibat", "puntType": "inzamelbak", "materialen": ["batterijen"], "uitbetaling": [], "vrijToegankelijk": false, "gemeenteBeperking": null, "openingstijden": null, "latitude": 52.7216889, "longitude": 6.4775709, "bronId": "L007371"}}, {"type": "Feature", "geometry": {"type": "Point", "coordinates": [6.477475, 52.72183]}, "properties": {"type": "inleverpunt", "locatieNaam": "Prenatal HOOGEVEEN", "straatNaam": "Hoofdstraat", "straatNr": "224", "postcode": "7901 JZ", "plaats": "Hoogeveen", "merk": "Stibat", "puntType": "inzamelbak", "materialen": ["batterijen"], "uitbetaling": [], "vrijToegankelijk": false, "gemeenteBeperking": null, "openingstijden": null, "latitude": 52.72183, "longitude": 6.477475, "bronId": "L039593"}}, {"type": "Feature", "geometry": {"type": "Point", "coordinates": [6.4768457, 52.7222887]}, "properties": {"type": "inleverpunt", "locatieNaam": "Wijbinga de Fietsspecialist", "straatNaam": "Nicolaas Beetsstraat", "straatNr": "1", "postcode": "7901 KH", "plaats": "Hoogeveen", "merk": "Stibat", "puntType": "inzamelbak", "materialen": ["batterijen"], "uitbetaling": [], "vrijToegankelijk": false, "gemeenteBeperking": null, "openingstijden": null, "latitude": 52.7222887, "longitude": 6.4768457, "bronId": "L034039"}}, {"type": "Feature", "geometry": {"type": "Point", "coordinates": [6.4780895, 52.7217111]}, "properties": {"type": "inleverpunt", "locatieNaam": "HEMA Hoofdstraat", "straatNaam": "Hoofdstraat", "straatNr": "211", "postcode": "7902 EH", "plaats": "Hoogeveen", "merk": "Stibat", "puntType": "inzamelbak", "materialen": ["batterijen"], "uitbetaling": [], "vrijToegankelijk": false, "gemeenteBeperking": null, "openingstijden": null, "latitude": 52.7217111, "longitude": 6.4780895, "bronId": "L006739"}}, {"type": "Feature", "geometry": {"type": "Point", "coordinates": [6.4775823, 52.7221472]}, "properties": {"type": "inleverpunt", "locatieNaam": "KPN winkel", "straatNaam": "Hoofdstraat", "straatNr": "208", "postcode": "7901 JX", "plaats": "Hoogeveen", "merk": "Stibat", "puntType": "inzamelbak", "materialen": ["batterijen"], "uitbetaling": [], "vrijToegankelijk": false, "gemeenteBeperking": null, "openingstijden": null, "latitude": 52.7221472, "longitude": 6.4775823, "bronId": "L007347"}}, {"type": "Feature", "geometry": {"type": "Point", "coordinates": [6.4774265, 52.7226513]}, "properties": {"type": "inleverpunt", "locatieNaam": "Specsavers", "straatNaam": "Hoofdstraat", "straatNr": "194", "postcode": "7901 JX", "plaats": "Hoogeveen", "merk": "Stibat", "puntType": "inzamelbak", "materialen": ["batterijen"], "uitbetaling": [], "vrijToegankelijk": false, "gemeenteBeperking": null, "openingstijden": null, "latitude": 52.7226513, "longitude": 6.4774265, "bronId": "L042792"}}, {"type": "Feature", "geometry": {"type": "Point", "coordinates": [6.4795671, 52.7216077]}, "properties": {"type": "inleverpunt", "locatieNaam": "1023 Action", "straatNaam": "Kaaplaantje", "straatNr": "20", "postcode": "7902 HH", "plaats": "Hoogeveen", "merk": "Stibat", "puntType": "inzamelbak", "materialen": ["batterijen"], "uitbetaling": [], "vrijToegankelijk": false, "gemeenteBeperking": null, "openingstijden": null, "latitude": 52.7216077, "longitude": 6.4795671, "bronId": "L016926"}}, {"type": "Feature", "geometry": {"type": "Point", "coordinates": [6.478161, 52.722725]}, "properties": {"type": "inleverpunt", "locatieNaam": "Hans Anders", "straatNaam": "Hoofdstraat", "straatNr": "177", "postcode": "7902 EG", "plaats": "Hoogeveen", "merk": "Stibat", "puntType": "inzamelbak", "materialen": ["batterijen"], "uitbetaling": [], "vrijToegankelijk": false, "gemeenteBeperking": null, "openingstijden": null, "latitude": 52.722725, "longitude": 6.478161, "bronId": "L037840"}}, {"type": "Feature", "geometry": {"type": "Point", "coordinates": [6.4774914, 52.7234491]}, "properties": {"type": "inleverpunt", "locatieNaam": "DOUGLAS", "straatNaam": "Hoofdstraat", "straatNr": "162", "postcode": "7901 JW", "plaats": "Hoogeveen", "merk": "Stibat", "puntType": "inzamelbak", "materialen": ["batterijen"], "uitbetaling": [], "vrijToegankelijk": false, "gemeenteBeperking": null, "openingstijden": null, "latitude": 52.7234491, "longitude": 6.4774914, "bronId": "L049214"}}, {"type": "Feature", "geometry": {"type": "Point", "coordinates": [6.4779805, 52.7238781]}, "properties": {"type": "inleverpunt", "locatieNaam": "Kruidvat", "straatNaam": "Hoofdstraat", "straatNr": "127", "postcode": "7902 ED", "plaats": "Hoogeveen", "merk": "Stibat", "puntType": "inzamelbak", "materialen": ["batterijen"], "uitbetaling": [], "vrijToegankelijk": false, "gemeenteBeperking": null, "openingstijden": null, "latitude": 52.7238781, "longitude": 6.4779805, "bronId": "L015357"}}, {"type": "Feature", "geometry": {"type": "Point", "coordinates": [6.4770403, 52.7245946]}, "properties": {"type": "inleverpunt", "locatieNaam": "Kantoorboekhandel !Pet (Readshop XL)", "straatNaam": "Hoofdstraat", "straatNr": "122", "postcode": "7901 JV", "plaats": "Hoogeveen", "merk": "Stibat", "puntType": "inzamelbak", "materialen": ["batterijen"], "uitbetaling": [], "vrijToegankelijk": false, "gemeenteBeperking": null, "openingstijden": null, "latitude": 52.7245946, "longitude": 6.4770403, "bronId": "L020766"}}, {"type": "Feature", "geometry": {"type": "Point", "coordinates": [6.4779496, 52.7244177]}, "properties": {"type": "inleverpunt", "locatieNaam": "Phone House", "straatNaam": "Hoofdstraat", "straatNr": "134-136", "postcode": "7902 ED", "plaats": "Hoogeveen", "merk": "Stibat", "puntType": "inzamelbak", "materialen": ["batterijen"], "uitbetaling": [], "vrijToegankelijk": false, "gemeenteBeperking": null, "openingstijden": null, "latitude": 52.7244177, "longitude": 6.4779496, "bronId": "L022477"}}, {"type": "Feature", "geometry": {"type": "Point", "coordinates": [6.4776374, 52.7247777]}, "properties": {"type": "inleverpunt", "locatieNaam": "Trekpleister", "straatNaam": "Hoofdstraat", "straatNr": "79", "postcode": "7902 EC", "plaats": "Hoogeveen", "merk": "Stibat", "puntType": "inzamelbak", "materialen": ["batterijen"], "uitbetaling": [], "vrijToegankelijk": false, "gemeenteBeperking": null, "openingstijden": null, "latitude": 52.7247777, "longitude": 6.4776374, "bronId": "L043133"}}, {"type": "Feature", "geometry": {"type": "Point", "coordinates": [6.4772325, 52.7257257]}, "properties": {"type": "inleverpunt", "locatieNaam": "Foto Kado De Bruine Beer", "straatNaam": "Hoofdstraat", "straatNr": "90", "postcode": "7901 JT", "plaats": "Hoogeveen", "merk": "Stibat", "puntType": "inzamelbak", "materialen": ["batterijen"], "uitbetaling": [], "vrijToegankelijk": false, "gemeenteBeperking": null, "openingstijden": null, "latitude": 52.7257257, "longitude": 6.4772325, "bronId": "L040688"}}, {"type": "Feature", "geometry": {"type": "Point", "coordinates": [6.4767312, 52.7261343]}, "properties": {"type": "inleverpunt", "locatieNaam": "Van Boxtel hoorwinkel", "straatNaam": "Raadhuisstraat", "straatNr": "13-15", "postcode": "7901 BK", "plaats": "Hoogeveen", "merk": "Stibat", "puntType": "inzamelbak", "materialen": ["batterijen"], "uitbetaling": [], "vrijToegankelijk": false, "gemeenteBeperking": null, "openingstijden": null, "latitude": 52.7261343, "longitude": 6.4767312, "bronId": "L036238"}}, {"type": "Feature", "geometry": {"type": "Point", "coordinates": [6.4773026, 52.7258954]}, "properties": {"type": "inleverpunt", "locatieNaam": "Wibra", "straatNaam": "Hoofdstraat", "straatNr": "84-86", "postcode": "7901 JT", "plaats": "Hoogeveen", "merk": "Stibat", "puntType": "inzamelbak", "materialen": ["batterijen"], "uitbetaling": [], "vrijToegankelijk": false, "gemeenteBeperking": null, "openingstijden": null, "latitude": 52.7258954, "longitude": 6.4773026, "bronId": "L024385"}}, {"type": "Feature", "geometry": {"type": "Point", "coordinates": [6.4847701, 52.7208297]}, "properties": {"type": "inleverpunt", "locatieNaam": "GJB Computers &amp; Repair Center", "straatNaam": "Het Haagje", "straatNr": "140", "postcode": "7906 AD", "plaats": "Hoogeveen", "merk": "Stibat", "puntType": "inzamelbak", "materialen": ["batterijen"], "uitbetaling": [], "vrijToegankelijk": false, "gemeenteBeperking": null, "openingstijden": null, "latitude": 52.7208297, "longitude": 6.4847701, "bronId": "L015978"}}, {"type": "Feature", "geometry": {"type": "Point", "coordinates": [6.4779755, 52.7256736]}, "properties": {"type": "inleverpunt", "locatieNaam": "Printtotaal.com", "straatNaam": "Hoofdstraat", "straatNr": "67", "postcode": "7902 EB", "plaats": "Hoogeveen", "merk": "Stibat", "puntType": "inzamelbak", "materialen": ["batterijen"], "uitbetaling": [], "vrijToegankelijk": false, "gemeenteBeperking": null, "openingstijden": null, "latitude": 52.7256736, "longitude": 6.4779755, "bronId": "L021540"}}, {"type": "Feature", "geometry": {"type": "Point", "coordinates": [6.4778198, 52.7276452]}, "properties": {"type": "inleverpunt", "locatieNaam": "ANWB", "straatNaam": "Hoofdstraat", "straatNr": "13", "postcode": "7902 EA", "plaats": "Hoogeveen", "merk": "Stibat", "puntType": "inzamelbak", "materialen": ["batterijen"], "uitbetaling": [], "vrijToegankelijk": false, "gemeenteBeperking": null, "openingstijden": null, "latitude": 52.7276452, "longitude": 6.4778198, "bronId": "L044581"}}, {"type": "Feature", "geometry": {"type": "Point", "coordinates": [6.4796009, 52.7271257]}, "properties": {"type": "inleverpunt", "locatieNaam": "Jumbo", "straatNaam": "Tamboerpassage", "straatNr": "1", "postcode": "7902 GK", "plaats": "Hoogeveen", "merk": "Stibat", "puntType": "inzamelbak", "materialen": ["batterijen"], "uitbetaling": [], "vrijToegankelijk": false, "gemeenteBeperking": null, "openingstijden": null, "latitude": 52.7271257, "longitude": 6.4796009, "bronId": "L021697"}}, {"type": "Feature", "geometry": {"type": "Point", "coordinates": [6.477612, 52.7311952]}, "properties": {"type": "inleverpunt", "locatieNaam": "Fonique Hoortechniek", "straatNaam": "Brinkstraat", "straatNr": "5", "postcode": "7902 AC", "plaats": "Hoogeveen", "merk": "Stibat", "puntType": "inzamelbak", "materialen": ["batterijen"], "uitbetaling": [], "vrijToegankelijk": false, "gemeenteBeperking": null, "openingstijden": null, "latitude": 52.7311952, "longitude": 6.477612, "bronId": "L038958"}}, {"type": "Feature", "geometry": {"type": "Point", "coordinates": [6.4993443, 52.7159399]}, "properties": {"type": "inleverpunt", "locatieNaam": "PLUS", "straatNaam": "De Wielewaal", "straatNr": "30", "postcode": "7905 GZ", "plaats": "Hoogeveen", "merk": "Stibat", "puntType": "inzamelbak", "materialen": ["batterijen"], "uitbetaling": [], "vrijToegankelijk": false, "gemeenteBeperking": null, "openingstijden": null, "latitude": 52.7159399, "longitude": 6.4993443, "bronId": "L045972"}}, {"type": "Feature", "geometry": {"type": "Point", "coordinates": [6.4988515, 52.716349]}, "properties": {"type": "inleverpunt", "locatieNaam": "Kruidvat", "straatNaam": "De Wielewaal", "straatNr": "22", "postcode": "7905 GZ", "plaats": "Hoogeveen", "merk": "Stibat", "puntType": "inzamelbak", "materialen": ["batterijen"], "uitbetaling": [], "vrijToegankelijk": false, "gemeenteBeperking": null, "openingstijden": null, "latitude": 52.716349, "longitude": 6.4988515, "bronId": "L035281"}}, {"type": "Feature", "geometry": {"type": "Point", "coordinates": [6.4978229, 52.7172304]}, "properties": {"type": "inleverpunt", "locatieNaam": "Aldi", "straatNaam": "De Wielewaal", "straatNr": "2", "postcode": "7905 GZ", "plaats": "Hoogeveen", "merk": "Stibat", "puntType": "inzamelbak", "materialen": ["batterijen"], "uitbetaling": [], "vrijToegankelijk": false, "gemeenteBeperking": null, "openingstijden": null, "latitude": 52.7172304, "longitude": 6.4978229, "bronId": "L041521"}}, {"type": "Feature", "geometry": {"type": "Point", "coordinates": [6.4954779, 52.7191562]}, "properties": {"type": "inleverpunt", "locatieNaam": "Jannes van der Sleedenhuis", "straatNaam": "Valkenlaan", "straatNr": "5", "postcode": "7905 AA", "plaats": "Hoogeveen", "merk": "Stibat", "puntType": "inzamelbak", "materialen": ["batterijen"], "uitbetaling": [], "vrijToegankelijk": false, "gemeenteBeperking": null, "openingstijden": null, "latitude": 52.7191562, "longitude": 6.4954779, "bronId": "L035507"}}, {"type": "Feature", "geometry": {"type": "Point", "coordinates": [6.4893739, 52.7281117]}, "properties": {"type": "inleverpunt", "locatieNaam": "Het Goed Kringloopwarenhuis", "straatNaam": "Kanaalweg", "straatNr": "2", "postcode": "7902 LM", "plaats": "Hoogeveen", "merk": "Stibat", "puntType": "inzamelbak", "materialen": ["batterijen"], "uitbetaling": [], "vrijToegankelijk": false, "gemeenteBeperking": null, "openingstijden": null, "latitude": 52.7281117, "longitude": 6.4893739, "bronId": "L038307"}}, {"type": "Feature", "geometry": {"type": "Point", "coordinates": [6.4916357, 52.7273501]}, "properties": {"type": "inleverpunt", "locatieNaam": "Hubo", "straatNaam": "Kanaalweg", "straatNr": "5a", "postcode": "7902 LH", "plaats": "Hoogeveen", "merk": "Stibat", "puntType": "inzamelbak", "materialen": ["batterijen"], "uitbetaling": [], "vrijToegankelijk": false, "gemeenteBeperking": null, "openingstijden": null, "latitude": 52.7273501, "longitude": 6.4916357, "bronId": "L043660"}}, {"type": "Feature", "geometry": {"type": "Point", "coordinates": [6.4917805, 52.7299073]}, "properties": {"type": "inleverpunt", "locatieNaam": "Welkoop", "straatNaam": "Dr Anton Philipsstraat", "straatNr": "12", "postcode": "7903 AM", "plaats": "Hoogeveen", "merk": "Stibat", "puntType": "inzamelbak", "materialen": ["batterijen"], "uitbetaling": [], "vrijToegankelijk": false, "gemeenteBeperking": null, "openingstijden": null, "latitude": 52.7299073, "longitude": 6.4917805, "bronId": "L018458"}}, {"type": "Feature", "geometry": {"type": "Point", "coordinates": [6.496666, 52.7269769]}, "properties": {"type": "inleverpunt", "locatieNaam": "Milieustraat Hoogeveen", "straatNaam": "Vos van Steenwijklaan", "straatNr": "75", "postcode": "7902 NP", "plaats": "Hoogeveen", "merk": "Stibat", "puntType": "inzamelbak", "materialen": ["batterijen"], "uitbetaling": [], "vrijToegankelijk": false, "gemeenteBeperking": null, "openingstijden": null, "latitude": 52.7269769, "longitude": 6.496666, "bronId": "L035867"}}, {"type": "Feature", "geometry": {"type": "Point", "coordinates": [6.4945487, 52.7311737]}, "properties": {"type": "inleverpunt", "locatieNaam": "Computerzaak.nl", "straatNaam": "Industrieweg", "straatNr": "80", "postcode": "7903 AK", "plaats": "Hoogeveen", "merk": "Stibat", "puntType": "inzamelbak", "materialen": ["batterijen"], "uitbetaling": [], "vrijToegankelijk": false, "gemeenteBeperking": null, "openingstijden": null, "latitude": 52.7311737, "longitude": 6.4945487, "bronId": "L049789"}}, {"type": "Feature", "geometry": {"type": "Point", "coordinates": [6.491087, 52.7342256]}, "properties": {"type": "inleverpunt", "locatieNaam": "Azor Bike", "straatNaam": "Marconistraat", "straatNr": "7a", "postcode": "7903 AG", "plaats": "Hoogeveen", "merk": "Stibat", "puntType": "inzamelbak", "materialen": ["batterijen"], "uitbetaling": [], "vrijToegankelijk": false, "gemeenteBeperking": null, "openingstijden": null, "latitude": 52.7342256, "longitude": 6.491087, "bronId": "L035228"}}, {"type": "Feature", "geometry": {"type": "Point", "coordinates": [6.5079641, 52.7237142]}, "properties": {"type": "inleverpunt", "locatieNaam": "Primera", "straatNaam": "Grote Beer", "straatNr": "33-35", "postcode": "7904 LW", "plaats": "Hoogeveen", "merk": "Stibat", "puntType": "inzamelbak", "materialen": ["batterijen"], "uitbetaling": [], "vrijToegankelijk": false, "gemeenteBeperking": null, "openingstijden": null, "latitude": 52.7237142, "longitude": 6.5079641, "bronId": "L024592"}}, {"type": "Feature", "geometry": {"type": "Point", "coordinates": [6.5079757, 52.7246901]}, "properties": {"type": "inleverpunt", "locatieNaam": "Lidl", "straatNaam": "Grote Beer", "straatNr": "2", "postcode": "7904 LW", "plaats": "Hoogeveen", "merk": "Stibat", "puntType": "inzamelbak", "materialen": ["batterijen"], "uitbetaling": [], "vrijToegankelijk": false, "gemeenteBeperking": null, "openingstijden": null, "latitude": 52.7246901, "longitude": 6.5079757, "bronId": "L045166"}}, {"type": "Feature", "geometry": {"type": "Point", "coordinates": [6.5108065, 52.7242725]}, "properties": {"type": "inleverpunt", "locatieNaam": "PLUS", "straatNaam": "Grote Beer", "straatNr": "41-43", "postcode": "7904 LW", "plaats": "Hoogeveen", "merk": "Stibat", "puntType": "inzamelbak", "materialen": ["batterijen"], "uitbetaling": [], "vrijToegankelijk": false, "gemeenteBeperking": null, "openingstijden": null, "latitude": 52.7242725, "longitude": 6.5108065, "bronId": "L046095"}}, {"type": "Feature", "geometry": {"type": "Point", "coordinates": [6.5355874, 52.7066911]}, "properties": {"type": "inleverpunt", "locatieNaam": "EP:", "straatNaam": "Het Hoekje", "straatNr": "17", "postcode": "7913 BA", "plaats": "Hollandscheveld", "merk": "Stibat", "puntType": "inzamelbak", "materialen": ["batterijen"], "uitbetaling": [], "vrijToegankelijk": false, "gemeenteBeperking": null, "openingstijden": null, "latitude": 52.7066911, "longitude": 6.5355874, "bronId": "L016709"}}, {"type": "Feature", "geometry": {"type": "Point", "coordinates": [6.5393371, 52.7058977]}, "properties": {"type": "inleverpunt", "locatieNaam": "PLUS", "straatNaam": "Het Hoekje", "straatNr": "54", "postcode": "7913 BD", "plaats": "Hollandscheveld", "merk": "Stibat", "puntType": "inzamelbak", "materialen": ["batterijen"], "uitbetaling": [], "vrijToegankelijk": false, "gemeenteBeperking": null, "openingstijden": null, "latitude": 52.7058977, "longitude": 6.5393371, "bronId": "L023637"}}, {"type": "Feature", "geometry": {"type": "Point", "coordinates": [6.5337205, 52.711131]}, "properties": {"type": "inleverpunt", "locatieNaam": "FIETSWERELD ROMULCO", "straatNaam": "Abraham Niehuesstraat", "straatNr": "2-4", "postcode": "7913 ZW", "plaats": "Hollandscheveld", "merk": "Stibat", "puntType": "inzamelbak", "materialen": ["batterijen"], "uitbetaling": [], "vrijToegankelijk": false, "gemeenteBeperking": null, "openingstijden": null, "latitude": 52.711131, "longitude": 6.5337205, "bronId": "L034041"}}, {"type": "Feature", "geometry": {"type": "Point", "coordinates": [6.5029027, 52.735295]}, "properties": {"type": "inleverpunt", "locatieNaam": "Info/Europa-foto", "straatNaam": "Edisonstraat", "straatNr": "8", "postcode": "7903 AN", "plaats": "Hoogeveen", "merk": "Stibat", "puntType": "inzamelbak", "materialen": ["batterijen"], "uitbetaling": [], "vrijToegankelijk": false, "gemeenteBeperking": null, "openingstijden": null, "latitude": 52.735295, "longitude": 6.5029027, "bronId": "L004551"}}, {"type": "Feature", "geometry": {"type": "Point", "coordinates": [6.5145773, 52.7292262]}, "properties": {"type": "inleverpunt", "locatieNaam": "Van Dijk IJzerhandel", "straatNaam": "Stephensonstraat", "straatNr": "39a", "postcode": "7903 AS", "plaats": "Hoogeveen", "merk": "Stibat", "puntType": "inzamelbak", "materialen": ["batterijen"], "uitbetaling": [], "vrijToegankelijk": false, "gemeenteBeperking": null, "openingstijden": null, "latitude": 52.7292262, "longitude": 6.5145773, "bronId": "L017195"}}, {"type": "Feature", "geometry": {"type": "Point", "coordinates": [6.4499685, 52.7743715]}, "properties": {"type": "inleverpunt", "locatieNaam": "EP:", "straatNaam": "Dorpsstraat", "straatNr": "9", "postcode": "7933 PA", "plaats": "Pesse", "merk": "Stibat", "puntType": "inzamelbak", "materialen": ["batterijen"], "uitbetaling": [], "vrijToegankelijk": false, "gemeenteBeperking": null, "openingstijden": null, "latitude": 52.7743715, "longitude": 6.4499685, "bronId": "L023045"}}, {"type": "Feature", "geometry": {"type": "Point", "coordinates": [6.5802489, 52.6823262]}, "properties": {"type": "inleverpunt", "locatieNaam": "PLUS", "straatNaam": "Carstensdijk", "straatNr": "164", "postcode": "7916 RC", "plaats": "Elim", "merk": "Stibat", "puntType": "inzamelbak", "materialen": ["batterijen"], "uitbetaling": [], "vrijToegankelijk": false, "gemeenteBeperking": null, "openingstijden": null, "latitude": 52.6823262, "longitude": 6.5802489, "bronId": "L012408"}}, {"type": "Feature", "geometry": {"type": "Point", "coordinates": [6.526049, 52.7281863]}, "properties": {"type": "inleverpunt", "locatieNaam": "MTH Machine Techniek", "straatNaam": "Stephensonstraat", "straatNr": "80", "postcode": "7903 AW", "plaats": "Hoogeveen", "merk": "Stibat", "puntType": "inzamelbak", "materialen": ["batterijen"], "uitbetaling": [], "vrijToegankelijk": false, "gemeenteBeperking": null, "openingstijden": null, "latitude": 52.7281863, "longitude": 6.526049, "bronId": "L046749"}}, {"type": "Feature", "geometry": {"type": "Point", "coordinates": [6.5356517, 52.7245198]}, "properties": {"type": "inleverpunt", "locatieNaam": "Spar", "straatNaam": "Zwarte Dijkje", "straatNr": "26", "postcode": "7914 PC", "plaats": "Noordscheschut", "merk": "Stibat", "puntType": "inzamelbak", "materialen": ["batterijen"], "uitbetaling": [], "vrijToegankelijk": false, "gemeenteBeperking": null, "openingstijden": null, "latitude": 52.7245198, "longitude": 6.5356517, "bronId": "L038121"}}, {"type": "Feature", "geometry": {"type": "Point", "coordinates": [6.5357976, 52.7277291]}, "properties": {"type": "inleverpunt", "locatieNaam": "Tweewielercentrum A de Jonge", "straatNaam": "Molenweg", "straatNr": "57", "postcode": "7914 RS", "plaats": "Noordscheschut", "merk": "Stibat", "puntType": "inzamelbak", "materialen": ["batterijen"], "uitbetaling": [], "vrijToegankelijk": false, "gemeenteBeperking": null, "openingstijden": null, "latitude": 52.7277291, "longitude": 6.5357976, "bronId": "L034042"}}, {"type": "Feature", "geometry": {"type": "Point", "coordinates": [6.609515, 52.6961916]}, "properties": {"type": "inleverpunt", "locatieNaam": "Attent", "straatNaam": "Joh Poststraat", "straatNr": "48", "postcode": "7918 AC", "plaats": "Nieuwlande", "merk": "Stibat", "puntType": "inzamelbak", "materialen": ["batterijen"], "uitbetaling": [], "vrijToegankelijk": false, "gemeenteBeperking": null, "openingstijden": null, "latitude": 52.6961916, "longitude": 6.609515, "bronId": "L036142"}}, {"type": "Feature", "geometry": {"type": "Polygon", "coordinates": [[[6.529381002865504, 52.654507004267764], [6.546458002882478, 52.663535004272084], [6.552821002888778, 52.66559500427297], [6.61452700294963, 52.67404900427502], [6.629453002964243, 52.66968800427191], [6.631870002966694, 52.67431700427445], [6.632413002967417, 52.68673000428133], [6.629427002964565, 52.69228200428456], [6.628856002964066, 52.696226004286785], [6.629937002965381, 52.71272700429583], [6.624050002959595, 52.71242300429598], [6.595794002931834, 52.71321800429765], [6.596779002932966, 52.72354700430334], [6.576429002912977, 52.72426500430459], [6.576503002913067, 52.725250004305174], [6.587467002924007, 52.73569000431049], [6.586593002923155, 52.73603400431066], [6.586301002922864, 52.73575400431052], [6.5740360029108915, 52.74052300431373], [6.573160002910017, 52.73987000431341], [6.559661002896833, 52.74506500431683], [6.557400002894619, 52.74536500431707], [6.566385002903778, 52.76557900432787], [6.537521002875412, 52.7652340043289], [6.535367002873342, 52.76810400433053], [6.512729002850996, 52.762084004328194], [6.507609002846083, 52.769103004332294], [6.505437002843931, 52.76801300433178], [6.503234002841788, 52.7693900043326], [6.493156002831907, 52.7709380043339], [6.490669002829462, 52.77088500433396], [6.496164002835131, 52.78622500434214], [6.491805002830969, 52.7931230043461], [6.455451002795371, 52.80055600435164], [6.4497340027896115, 52.79276300434762], [6.447863002787705, 52.78909200434569], [6.446613002786399, 52.78484000434342], [6.446214002785876, 52.7777280043395], [6.446645002786282, 52.776836004339025], [6.446152002785783, 52.77609600433866], [6.445685002785327, 52.77624100433872], [6.444903002784543, 52.77535500433827], [6.443764002783416, 52.774995004338116], [6.437528002777206, 52.77094300433615], [6.4328420027725635, 52.769002004335256], [6.4283370027681075, 52.767960004334874], [6.413891002753861, 52.76606000433442], [6.410134002750138, 52.76488500433391], [6.416145002755872, 52.755317004328376], [6.419403002759091, 52.75599400432861], [6.426286002765776, 52.751423004325844], [6.420523002760045, 52.74822700432435], [6.423456002762841, 52.74357200432165], [6.423193002762573, 52.743000004321296], [6.415392002754851, 52.74085700432045], [6.421325002760512, 52.731415004314975], [6.406802002746153, 52.72841000431389], [6.413242002752344, 52.72057300430925], [6.414637002753709, 52.72022000430904], [6.4139710027530334, 52.719222004308534], [6.414365002753383, 52.7172610043074], [6.410853002749878, 52.71473500430613], [6.409544002748578, 52.71416800430588], [6.40709900274616, 52.71380000430581], [6.405932002744994, 52.71307300430543], [6.403721002742672, 52.70558700430137], [6.404750002743665, 52.704675004300796], [6.407168002746093, 52.70679600430184], [6.416386002755106, 52.703398004299636], [6.420367002758988, 52.70134700429833], [6.420040002758675, 52.701841004298615], [6.423781002762399, 52.70384800429956], [6.42884800276742, 52.705320004300226], [6.429063002767626, 52.70508600430004], [6.430821002769371, 52.70566700430033], [6.435419002773907, 52.70608700430036], [6.451142002789409, 52.706982004300215], [6.4498760027881294, 52.70527500429935], [6.451312002789432, 52.699406004296044], [6.448677002786732, 52.69378800429301], [6.462815002800684, 52.69520300429322], [6.463319002801146, 52.69330800429215], [6.473365002811055, 52.694292004292265], [6.485980002823465, 52.6936330042914], [6.484852002822183, 52.684246004286216], [6.493331002830534, 52.68412600428581], [6.4933220028305145, 52.683582004285505], [6.492926002830121, 52.68358700428551], [6.492574002829637, 52.675971004281266], [6.499774002836725, 52.67564300428079], [6.499552002836466, 52.673554004279644], [6.530556002866979, 52.67247200427773], [6.529381002865504, 52.654507004267764]]]}, "properties": {"type": "boundary", "gemeente": "Hoogeveen"}}]}