{"type": "FeatureCollection", "metadata": {"gemeente": "Horst aan de Maas", "slug": "horst-aan-de-maas", "generated_at": "2026-08-31T08:03:42.037366Z", "total_points": 76, "merken": ["StatiegeldNederland", "Stibat", "StichtingOPEN"], "bounds": [5.9516148, 51.3794328, 6.163873, 51.5133471]}, "features": [{"type": "Feature", "geometry": {"type": "Point", "coordinates": [6.089437, 51.4922922]}, "properties": {"type": "inleverpunt", "locatieNaam": "Albert Heijn", "straatNaam": "Boerenovenweg", "straatNr": "3", "postcode": "5865 BV", "plaats": "Tienray", "merk": "StatiegeldNederland", "puntType": "automaat", "materialen": ["pet-groot", "pet-klein", "blik", "glas", "krat"], "uitbetaling": ["bonnetje", "donatie"], "vrijToegankelijk": true, "gemeenteBeperking": null, "openingstijden": {"ma": "08:00–21:00", "di": "08:00–21:00", "wo": "08:00–21:00", "do": "08:00–21:00", "vr": "08:00–21:00", "za": "08:00–21:00", "zo": "09:00–20:00"}, "latitude": 51.4922922, "longitude": 6.089437, "bronId": "310115"}}, {"type": "Feature", "geometry": {"type": "Point", "coordinates": [6.1455204, 51.4204155]}, "properties": {"type": "inleverpunt", "locatieNaam": "Albert Heijn", "straatNaam": "Kloosterstraat", "straatNr": "70", "postcode": "5971 BD", "plaats": "Grubbenvorst", "merk": "StatiegeldNederland", "puntType": "automaat", "materialen": ["pet-groot", "pet-klein", "blik", "glas", "krat"], "uitbetaling": ["bonnetje", "donatie"], "vrijToegankelijk": true, "gemeenteBeperking": null, "openingstijden": {"ma": "08:00–21:00", "di": "08:00–21:00", "wo": "08:00–21:00", "do": "08:00–21:00", "vr": "08:00–21:00", "za": "08:00–20:00", "zo": "09:00–20:00"}, "latitude": 51.4204155, "longitude": 6.1455204, "bronId": "310493"}}, {"type": "Feature", "geometry": {"type": "Point", "coordinates": [6.03731, 51.41313]}, "properties": {"type": "inleverpunt", "locatieNaam": "Albert Heijn", "straatNaam": "Pastoor Vullinghsstraat", "straatNr": "53", "postcode": "5975 AP", "plaats": "Sevenum", "merk": "StatiegeldNederland", "puntType": "automaat", "materialen": ["pet-groot", "pet-klein", "blik", "glas", "krat"], "uitbetaling": ["bonnetje", "donatie"], "vrijToegankelijk": true, "gemeenteBeperking": null, "openingstijden": {"ma": "08:00–21:00", "di": "08:00–21:00", "wo": "08:00–21:00", "do": "08:00–21:00", "vr": "08:00–21:00", "za": "08:00–21:00", "zo": "09:00–19:00"}, "latitude": 51.41313, "longitude": 6.03731, "bronId": "310700"}}, {"type": "Feature", "geometry": {"type": "Point", "coordinates": [6.0520606, 51.45304]}, "properties": {"type": "inleverpunt", "locatieNaam": "Albert Heijn", "straatNaam": "Steenstraat", "straatNr": "11", "postcode": "5961 ET", "plaats": "Horst", "merk": "StatiegeldNederland", "puntType": "automaat", "materialen": ["pet-groot", "pet-klein", "blik", "glas", "krat"], "uitbetaling": ["bonnetje"], "vrijToegankelijk": true, "gemeenteBeperking": null, "openingstijden": {"ma": "07:00–22:00", "di": "07:00–22:00", "wo": "07:00–22:00", "do": "07:00–22:00", "vr": "07:00–22:00", "za": "07:00–22:00", "zo": "08:00–20:00"}, "latitude": 51.45304, "longitude": 6.0520606, "bronId": "310852"}}, {"type": "Feature", "geometry": {"type": "Point", "coordinates": [5.9516148, 51.4565608]}, "properties": {"type": "inleverpunt", "locatieNaam": "Albron", "straatNaam": "Laagheideweg", "straatNr": "11", "postcode": "5966 PL", "plaats": "America", "merk": "StatiegeldNederland", "puntType": "automaat", "materialen": ["pet-groot", "pet-klein", "blik", "glas"], "uitbetaling": [], "vrijToegankelijk": true, "gemeenteBeperking": null, "openingstijden": null, "latitude": 51.4565608, "longitude": 5.9516148, "bronId": "311064"}}, {"type": "Feature", "geometry": {"type": "Point", "coordinates": [5.9656198, 51.4479861]}, "properties": {"type": "inleverpunt", "locatieNaam": "Albron", "straatNaam": "Peelheideweg", "straatNr": "25", "postcode": "5966 PJ", "plaats": "America", "merk": "StatiegeldNederland", "puntType": "automaat", "materialen": ["pet-groot", "pet-klein", "blik", "glas"], "uitbetaling": ["bonnetje", "donatie"], "vrijToegankelijk": true, "gemeenteBeperking": null, "openingstijden": null, "latitude": 51.4479861, "longitude": 5.9656198, "bronId": "311065"}}, {"type": "Feature", "geometry": {"type": "Point", "coordinates": [6.054592, 51.455692]}, "properties": {"type": "inleverpunt", "locatieNaam": "Aldi", "straatNaam": "Loevestraat", "straatNr": "55-57", "postcode": "5961 TW", "plaats": "Horst", "merk": "StatiegeldNederland", "puntType": "automaat", "materialen": ["pet-groot", "pet-klein", "blik", "glas", "krat"], "uitbetaling": ["bonnetje"], "vrijToegankelijk": true, "gemeenteBeperking": null, "openingstijden": {"ma": "08:00–20:00", "di": "08:00–20:00", "wo": "08:00–20:00", "do": "08:00–20:00", "vr": "08:00–20:00", "za": "08:00–20:00", "zo": "09:00–18:00"}, "latitude": 51.455692, "longitude": 6.054592, "bronId": "311311"}}, {"type": "Feature", "geometry": {"type": "Point", "coordinates": [5.9838827, 51.3794328]}, "properties": {"type": "inleverpunt", "locatieNaam": "Circlek Servauto - Sevenum", "straatNaam": "Midden Peelweg", "straatNr": "3", "postcode": "5975 MZ", "plaats": "Sevenum", "merk": "StatiegeldNederland", "puntType": "balie", "materialen": ["pet-groot", "pet-klein", "blik"], "uitbetaling": [], "vrijToegankelijk": true, "gemeenteBeperking": null, "openingstijden": {"ma": "06:00–23:00", "di": "06:00–23:00", "wo": "06:00–23:00", "do": "06:00–23:00", "vr": "06:00–23:00", "za": "08:00–22:00", "zo": "09:00–22:00"}, "latitude": 51.3794328, "longitude": 5.9838827, "bronId": "312450"}}, {"type": "Feature", "geometry": {"type": "Point", "coordinates": [6.0486286, 51.4399689]}, "properties": {"type": "inleverpunt", "locatieNaam": "Esso", "straatNaam": "Stationsstraat", "straatNr": "90", "postcode": "5961 HS", "plaats": "Horst", "merk": "StatiegeldNederland", "puntType": "automaat", "materialen": ["pet-groot", "pet-klein", "blik"], "uitbetaling": ["bonnetje", "donatie", "tikkie"], "vrijToegankelijk": true, "gemeenteBeperking": null, "openingstijden": {"ma": "09:00–18:00", "di": "09:00–18:00", "wo": "09:00–18:00", "do": "09:00–21:00", "vr": "09:00–18:00", "za": "09:00–18:00", "zo": "Gesloten"}, "latitude": 51.4399689, "longitude": 6.0486286, "bronId": "313034"}}, {"type": "Feature", "geometry": {"type": "Point", "coordinates": [6.035856, 51.424294]}, "properties": {"type": "inleverpunt", "locatieNaam": "Jumbo", "straatNaam": "Horsterweg", "straatNr": "64", "postcode": "5975 NB", "plaats": "Sevenum", "merk": "StatiegeldNederland", "puntType": "automaat", "materialen": ["pet-groot", "pet-klein", "blik", "glas", "krat"], "uitbetaling": ["bonnetje", "donatie"], "vrijToegankelijk": true, "gemeenteBeperking": null, "openingstijden": {"ma": "07:30–20:30", "di": "07:30–20:30", "wo": "07:30–20:30", "do": "07:30–20:30", "vr": "07:30–20:30", "za": "07:30–19:00", "zo": "09:00–18:00"}, "latitude": 51.424294, "longitude": 6.035856, "bronId": "313749"}}, {"type": "Feature", "geometry": {"type": "Point", "coordinates": [6.05425, 51.45175]}, "properties": {"type": "inleverpunt", "locatieNaam": "Jumbo", "straatNaam": "Kerkstraat", "straatNr": "3D", "postcode": "5961 GE", "plaats": "Horst", "merk": "StatiegeldNederland", "puntType": "automaat", "materialen": ["pet-groot", "pet-klein", "blik", "glas", "krat"], "uitbetaling": ["bonnetje", "donatie"], "vrijToegankelijk": true, "gemeenteBeperking": null, "openingstijden": {"ma": "07:30–20:30", "di": "07:30–20:30", "wo": "07:30–20:30", "do": "07:30–20:30", "vr": "07:30–20:30", "za": "07:30–19:00", "zo": "09:00–18:00"}, "latitude": 51.45175, "longitude": 6.05425, "bronId": "313791"}}, {"type": "Feature", "geometry": {"type": "Point", "coordinates": [6.0524247, 51.4521485]}, "properties": {"type": "inleverpunt", "locatieNaam": "Lidl", "straatNaam": "Kerkstraat", "straatNr": "2G", "postcode": "5961 GD", "plaats": "Horst", "merk": "StatiegeldNederland", "puntType": "automaat", "materialen": ["pet-groot", "pet-klein", "blik", "glas", "krat"], "uitbetaling": ["bonnetje", "donatie"], "vrijToegankelijk": true, "gemeenteBeperking": null, "openingstijden": {"ma": "08:00–21:00", "di": "08:00–21:00", "wo": "08:00–21:00", "do": "08:00–21:00", "vr": "08:00–21:00", "za": "08:00–21:00", "zo": "09:00–18:00"}, "latitude": 51.4521485, "longitude": 6.0524247, "bronId": "314555"}}, {"type": "Feature", "geometry": {"type": "Point", "coordinates": [6.0375696, 51.4297128]}, "properties": {"type": "inleverpunt", "locatieNaam": "Markies 6181 - Yuverta Horst", "straatNaam": "Spoorweg", "straatNr": "8", "postcode": "5963 NJ", "plaats": "Horst", "merk": "StatiegeldNederland", "puntType": "balie", "materialen": ["pet-groot", "pet-klein", "blik"], "uitbetaling": [], "vrijToegankelijk": true, "gemeenteBeperking": null, "openingstijden": {"ma": "08:00–17:00", "di": "08:00–17:00", "wo": "08:00–17:00", "do": "08:00–17:00", "vr": "08:00–17:00", "za": "Gesloten", "zo": "Gesloten"}, "latitude": 51.4297128, "longitude": 6.0375696, "bronId": "314895"}}, {"type": "Feature", "geometry": {"type": "Point", "coordinates": [6.0250883, 51.4551407]}, "properties": {"type": "inleverpunt", "locatieNaam": "Ojc Knor", "straatNaam": "Sint janstraat", "straatNr": "2b", "postcode": "5964 AC", "plaats": "Meterik", "merk": "StatiegeldNederland", "puntType": "balie", "materialen": ["pet-groot", "pet-klein", "blik"], "uitbetaling": [], "vrijToegankelijk": false, "gemeenteBeperking": null, "openingstijden": {"ma": "Gesloten", "di": "20:00–01:00", "wo": "20:00–01:00", "do": "20:00–01:00", "vr": "20:00–03:00", "za": "20:00–03:00", "zo": "Gesloten"}, "latitude": 51.4551407, "longitude": 6.0250883, "bronId": "315338"}}, {"type": "Feature", "geometry": {"type": "Point", "coordinates": [6.05294, 51.45182]}, "properties": {"type": "inleverpunt", "locatieNaam": "Plus", "straatNaam": "Patronaat", "straatNr": "13C", "postcode": "5961 TD", "plaats": "Horst", "merk": "StatiegeldNederland", "puntType": "automaat", "materialen": ["pet-groot", "pet-klein", "blik", "glas", "krat"], "uitbetaling": ["bonnetje", "donatie"], "vrijToegankelijk": true, "gemeenteBeperking": null, "openingstijden": {"ma": "07:30–20:30", "di": "07:30–20:30", "wo": "07:30–20:30", "do": "07:30–20:30", "vr": "07:30–21:00", "za": "07:30–20:00", "zo": "08:30–18:00"}, "latitude": 51.45182, "longitude": 6.05294, "bronId": "315825"}}, {"type": "Feature", "geometry": {"type": "Point", "coordinates": [6.0707242, 51.4003553]}, "properties": {"type": "inleverpunt", "locatieNaam": "Polski Supermarkt Greenport Sevenum", "straatNaam": "Erik De Rodeweg", "straatNr": "", "postcode": "5975 WD", "plaats": "Sevenum", "merk": "StatiegeldNederland", "puntType": "automaat", "materialen": ["pet-groot", "pet-klein", "blik"], "uitbetaling": ["bonnetje", "donatie", "tikkie"], "vrijToegankelijk": true, "gemeenteBeperking": null, "openingstijden": {"ma": "07:00–23:00", "di": "07:00–23:00", "wo": "07:00–23:00", "do": "07:00–23:00", "vr": "07:00–23:00", "za": "08:00–23:00", "zo": "09:00–23:00"}, "latitude": 51.4003553, "longitude": 6.0707242, "bronId": "316073"}}, {"type": "Feature", "geometry": {"type": "Point", "coordinates": [6.163873, 51.467677]}, "properties": {"type": "inleverpunt", "locatieNaam": "S.v. Lottum", "straatNaam": "Broekhuizerweg", "straatNr": "47", "postcode": "5973 NW", "plaats": "Lottum", "merk": "StatiegeldNederland", "puntType": "balie", "materialen": ["pet-groot", "pet-klein", "blik"], "uitbetaling": [], "vrijToegankelijk": false, "gemeenteBeperking": null, "openingstijden": {"ma": "Gesloten", "di": "Gesloten", "wo": "Gesloten", "do": "Gesloten", "vr": "Gesloten", "za": "09:00–21:00", "zo": "10:00–20:00"}, "latitude": 51.467677, "longitude": 6.163873, "bronId": "316283"}}, {"type": "Feature", "geometry": {"type": "Point", "coordinates": [5.9759891, 51.3832388]}, "properties": {"type": "inleverpunt", "locatieNaam": "Spar", "straatNaam": "Middenpeelweg", "straatNr": "5", "postcode": "5975 MZ", "plaats": "Sevenum", "merk": "StatiegeldNederland", "puntType": "automaat", "materialen": ["pet-groot", "pet-klein", "blik", "glas", "krat"], "uitbetaling": ["bonnetje", "donatie"], "vrijToegankelijk": true, "gemeenteBeperking": null, "openingstijden": {"ma": "08:00–18:00", "di": "08:00–18:00", "wo": "08:00–18:00", "do": "08:00–18:00", "vr": "08:00–19:00", "za": "08:00–18:00", "zo": "08:00–17:00"}, "latitude": 51.3832388, "longitude": 5.9759891, "bronId": "316781"}}, {"type": "Feature", "geometry": {"type": "Point", "coordinates": [6.0858798, 51.4669397]}, "properties": {"type": "inleverpunt", "locatieNaam": "Sv Melderslo", "straatNaam": "Eikelenbosserdijk", "straatNr": "6A", "postcode": "5962 NV", "plaats": "Melderslo", "merk": "StatiegeldNederland", "puntType": "balie", "materialen": ["pet-groot", "pet-klein", "blik"], "uitbetaling": [], "vrijToegankelijk": false, "gemeenteBeperking": null, "openingstijden": null, "latitude": 51.4669397, "longitude": 6.0858798, "bronId": "317200"}}, {"type": "Feature", "geometry": {"type": "Point", "coordinates": [5.9844138, 51.3953362]}, "properties": {"type": "inleverpunt", "locatieNaam": "Toverland", "straatNaam": "Toverlaan", "straatNr": "2", "postcode": "5975 MR", "plaats": "Sevenum", "merk": "StatiegeldNederland", "puntType": "automaat", "materialen": ["pet-groot", "pet-klein", "blik", "glas"], "uitbetaling": ["donatie", "tikkie"], "vrijToegankelijk": true, "gemeenteBeperking": null, "openingstijden": null, "latitude": 51.3953362, "longitude": 5.9844138, "bronId": "317437"}}, {"type": "Feature", "geometry": {"type": "Point", "coordinates": [6.0703528, 51.4024605]}, "properties": {"type": "inleverpunt", "locatieNaam": "Vending@Work Guess Venlo", "straatNaam": "George Vancouverstraat", "straatNr": "15-21", "postcode": "5975 RX", "plaats": "Sevenum", "merk": "StatiegeldNederland", "puntType": "automaat", "materialen": ["pet-groot", "pet-klein", "blik"], "uitbetaling": ["bonnetje", "donatie", "tikkie"], "vrijToegankelijk": true, "gemeenteBeperking": null, "openingstijden": {"ma": "07:00–23:00", "di": "07:00–23:00", "wo": "07:00–23:00", "do": "07:00–23:00", "vr": "07:00–23:00", "za": "08:00–23:00", "zo": "09:00–23:00"}, "latitude": 51.4024605, "longitude": 6.0703528, "bronId": "317587"}}, {"type": "Feature", "geometry": {"type": "Point", "coordinates": [6.1437689, 51.4262508]}, "properties": {"type": "inleverpunt", "locatieNaam": "Vof Relouw-janssen", "straatNaam": "Mercuriusweg", "straatNr": "15", "postcode": "5971 LX", "plaats": "Grubbenvorst", "merk": "StatiegeldNederland", "puntType": "balie", "materialen": ["pet-groot", "pet-klein", "blik"], "uitbetaling": [], "vrijToegankelijk": true, "gemeenteBeperking": null, "openingstijden": {"ma": "08:00–18:30", "di": "08:00–18:30", "wo": "08:00–18:30", "do": "08:00–18:30", "vr": "08:00–18:30", "za": "08:00–14:30", "zo": "Gesloten"}, "latitude": 51.4262508, "longitude": 6.1437689, "bronId": "318152"}}, {"type": "Feature", "geometry": {"type": "Point", "coordinates": [6.088914, 51.492391]}, "properties": {"type": "inleverpunt", "locatieNaam": "Albert Heijn Tienray", "straatNaam": "Boerenovenweg", "straatNr": "3", "postcode": "5865 BV", "plaats": "Tienray", "merk": "StichtingOPEN", "puntType": "balie", "materialen": ["batterijen", "lampen"], "uitbetaling": [], "vrijToegankelijk": false, "gemeenteBeperking": null, "openingstijden": null, "latitude": 51.492391, "longitude": 6.088914, "bronId": "SP00025621"}}, {"type": "Feature", "geometry": {"type": "Point", "coordinates": [6.05462, 51.455712]}, "properties": {"type": "inleverpunt", "locatieNaam": "Aldi Horst", "straatNaam": "Loevestraat", "straatNr": "55-57", "postcode": "5961 TW", "plaats": "Horst", "merk": "StichtingOPEN", "puntType": "balie", "materialen": ["batterijen", "elektro-klein", "lampen"], "uitbetaling": [], "vrijToegankelijk": false, "gemeenteBeperking": null, "openingstijden": null, "latitude": 51.455712, "longitude": 6.05462, "bronId": "SP00027076"}}, {"type": "Feature", "geometry": {"type": "Point", "coordinates": [6.051956, 51.453716]}, "properties": {"type": "inleverpunt", "locatieNaam": "Xenos Horst", "straatNaam": "Veemarkt", "straatNr": "1", "postcode": "5961 ER", "plaats": "Horst", "merk": "StichtingOPEN", "puntType": "balie", "materialen": ["batterijen", "lampen"], "uitbetaling": [], "vrijToegankelijk": false, "gemeenteBeperking": null, "openingstijden": null, "latitude": 51.453716, "longitude": 6.051956, "bronId": "SP00025693"}}, {"type": "Feature", "geometry": {"type": "Point", "coordinates": [6.052726, 51.453116]}, "properties": {"type": "inleverpunt", "locatieNaam": "8759 Albert Heijn Horst", "straatNaam": "Steenstraat", "straatNr": "11", "postcode": "5961 ET", "plaats": "Horst", "merk": "StichtingOPEN", "puntType": "balie", "materialen": ["batterijen", "lampen"], "uitbetaling": [], "vrijToegankelijk": false, "gemeenteBeperking": null, "openingstijden": null, "latitude": 51.453116, "longitude": 6.052726, "bronId": "SP00022557"}}, {"type": "Feature", "geometry": {"type": "Point", "coordinates": [6.05317, 51.452577]}, "properties": {"type": "inleverpunt", "locatieNaam": "Kruidvat Horst", "straatNaam": "St. Lambertusplein", "straatNr": "3", "postcode": "5961 EW", "plaats": "Horst", "merk": "StichtingOPEN", "puntType": "balie", "materialen": ["batterijen", "lampen"], "uitbetaling": [], "vrijToegankelijk": false, "gemeenteBeperking": null, "openingstijden": null, "latitude": 51.452577, "longitude": 6.05317, "bronId": "SP00024481"}}, {"type": "Feature", "geometry": {"type": "Point", "coordinates": [6.055335, 51.45347]}, "properties": {"type": "inleverpunt", "locatieNaam": "Expert Horst BV (winkel)", "straatNaam": "Kerkstraat", "straatNr": "11", "postcode": "5961 GC", "plaats": "Horst", "merk": "StichtingOPEN", "puntType": "balie", "materialen": ["elektro-klein", "elektro-middel", "lampen", "tl-buizen"], "uitbetaling": [], "vrijToegankelijk": false, "gemeenteBeperking": null, "openingstijden": null, "latitude": 51.45347, "longitude": 6.055335, "bronId": "SP00008825"}}, {"type": "Feature", "geometry": {"type": "Point", "coordinates": [6.052839, 51.451825]}, "properties": {"type": "inleverpunt", "locatieNaam": "PLUS Horst", "straatNaam": "Patronaat", "straatNr": "13c", "postcode": "5961 TD", "plaats": "Horst", "merk": "StichtingOPEN", "puntType": "balie", "materialen": ["batterijen", "lampen"], "uitbetaling": [], "vrijToegankelijk": false, "gemeenteBeperking": null, "openingstijden": null, "latitude": 51.451825, "longitude": 6.052839, "bronId": "SP00024141"}}, {"type": "Feature", "geometry": {"type": "Point", "coordinates": [6.053691, 51.45178]}, "properties": {"type": "inleverpunt", "locatieNaam": "Albert Heijn Horst", "straatNaam": "Kerkstraat", "straatNr": "3d", "postcode": "5961 GC", "plaats": "Horst", "merk": "StichtingOPEN", "puntType": "balie", "materialen": ["batterijen", "lampen"], "uitbetaling": [], "vrijToegankelijk": false, "gemeenteBeperking": null, "openingstijden": null, "latitude": 51.45178, "longitude": 6.053691, "bronId": "SP00025606"}}, {"type": "Feature", "geometry": {"type": "Point", "coordinates": [6.055246, 51.451331]}, "properties": {"type": "inleverpunt", "locatieNaam": "Action Horst 1095", "straatNaam": "Hoofdstraat", "straatNr": "16", "postcode": "5961 EZ", "plaats": "Horst", "merk": "StichtingOPEN", "puntType": "balie", "materialen": ["batterijen", "lampen"], "uitbetaling": [], "vrijToegankelijk": false, "gemeenteBeperking": null, "openingstijden": null, "latitude": 51.451331, "longitude": 6.055246, "bronId": "SP00007692"}}, {"type": "Feature", "geometry": {"type": "Point", "coordinates": [6.08426, 51.46053]}, "properties": {"type": "inleverpunt", "locatieNaam": "Spar Melderslo", "straatNaam": "Vlasvenstraat", "straatNr": "4b", "postcode": "5962 AD", "plaats": "Melderslo", "merk": "StichtingOPEN", "puntType": "balie", "materialen": ["batterijen", "lampen"], "uitbetaling": [], "vrijToegankelijk": false, "gemeenteBeperking": null, "openingstijden": null, "latitude": 51.46053, "longitude": 6.08426, "bronId": "SP00030026"}}, {"type": "Feature", "geometry": {"type": "Point", "coordinates": [6.074986, 51.446109]}, "properties": {"type": "inleverpunt", "locatieNaam": "Inter Chalet", "straatNaam": "Witveldweg", "straatNr": "100", "postcode": "5961 ND", "plaats": "Horst", "merk": "StichtingOPEN", "puntType": "balie", "materialen": ["elektro-klein", "lampen", "tl-buizen"], "uitbetaling": [], "vrijToegankelijk": false, "gemeenteBeperking": null, "openingstijden": null, "latitude": 51.446109, "longitude": 6.074986, "bronId": "SP00026138"}}, {"type": "Feature", "geometry": {"type": "Point", "coordinates": [6.036621, 51.425287]}, "properties": {"type": "inleverpunt", "locatieNaam": "Sevenum Welkoop", "straatNaam": "Horsterweg", "straatNr": "68", "postcode": "5975 NB", "plaats": "Sevenum", "merk": "StichtingOPEN", "puntType": "balie", "materialen": ["elektro-middel", "lampen", "tl-buizen"], "uitbetaling": [], "vrijToegankelijk": false, "gemeenteBeperking": null, "openingstijden": null, "latitude": 51.425287, "longitude": 6.036621, "bronId": "SP00006768"}}, {"type": "Feature", "geometry": {"type": "Point", "coordinates": [6.036431, 51.424188]}, "properties": {"type": "inleverpunt", "locatieNaam": "Jumbo Sevenum", "straatNaam": "Horsterweg", "straatNr": "64", "postcode": "5975 NB", "plaats": "Sevenum", "merk": "StichtingOPEN", "puntType": "balie", "materialen": ["batterijen", "lampen"], "uitbetaling": [], "vrijToegankelijk": false, "gemeenteBeperking": null, "openingstijden": null, "latitude": 51.424188, "longitude": 6.036431, "bronId": "SP00024984"}}, {"type": "Feature", "geometry": {"type": "Point", "coordinates": [6.03586, 51.422487]}, "properties": {"type": "inleverpunt", "locatieNaam": "Hubo Sevenum", "straatNaam": "Horsterweg", "straatNr": "42", "postcode": "5975 NB", "plaats": "Sevenum", "merk": "StichtingOPEN", "puntType": "balie", "materialen": ["elektro-middel", "lampen", "tl-buizen"], "uitbetaling": [], "vrijToegankelijk": false, "gemeenteBeperking": null, "openingstijden": null, "latitude": 51.422487, "longitude": 6.03586, "bronId": "SP00005078"}}, {"type": "Feature", "geometry": {"type": "Point", "coordinates": [6.037179, 51.413176]}, "properties": {"type": "inleverpunt", "locatieNaam": "Action Sevenum 1152", "straatNaam": "Pastoor Vullinghsstraat", "straatNr": "61", "postcode": "5975 AP", "plaats": "Sevenum", "merk": "StichtingOPEN", "puntType": "balie", "materialen": ["batterijen", "lampen"], "uitbetaling": [], "vrijToegankelijk": false, "gemeenteBeperking": null, "openingstijden": null, "latitude": 51.413176, "longitude": 6.037179, "bronId": "SP00007738"}}, {"type": "Feature", "geometry": {"type": "Point", "coordinates": [6.037308, 51.41313]}, "properties": {"type": "inleverpunt", "locatieNaam": "Albert Heijn Sevenum", "straatNaam": "Pastoor Vullinghsstraat", "straatNr": "53", "postcode": "5975 AP", "plaats": "Sevenum", "merk": "StichtingOPEN", "puntType": "balie", "materialen": ["batterijen", "lampen"], "uitbetaling": [], "vrijToegankelijk": false, "gemeenteBeperking": null, "openingstijden": null, "latitude": 51.41313, "longitude": 6.037308, "bronId": "SP00025601"}}, {"type": "Feature", "geometry": {"type": "Point", "coordinates": [6.038777, 51.4132]}, "properties": {"type": "inleverpunt", "locatieNaam": "Kruidvat Sevenum", "straatNaam": "Pastoor Vullinghsplein", "straatNr": "44a", "postcode": "5975 DJ", "plaats": "Sevenum", "merk": "StichtingOPEN", "puntType": "balie", "materialen": ["batterijen", "lampen"], "uitbetaling": [], "vrijToegankelijk": false, "gemeenteBeperking": null, "openingstijden": null, "latitude": 51.4132, "longitude": 6.038777, "bronId": "SP00024902"}}, {"type": "Feature", "geometry": {"type": "Point", "coordinates": [5.975324, 51.382478]}, "properties": {"type": "inleverpunt", "locatieNaam": "Spar Sevenum", "straatNaam": "Midden Peelweg", "straatNr": "5", "postcode": "5975 MZ", "plaats": "Sevenum", "merk": "StichtingOPEN", "puntType": "balie", "materialen": ["batterijen", "lampen"], "uitbetaling": [], "vrijToegankelijk": false, "gemeenteBeperking": null, "openingstijden": null, "latitude": 51.382478, "longitude": 5.975324, "bronId": "SP00031502"}}, {"type": "Feature", "geometry": {"type": "Point", "coordinates": [6.138456, 51.422079]}, "properties": {"type": "inleverpunt", "locatieNaam": "Albert Heijn Grubbenvorst", "straatNaam": "Kloosterstraat", "straatNr": "70", "postcode": "5971 BD", "plaats": "Grubbenvorst", "merk": "StichtingOPEN", "puntType": "balie", "materialen": ["batterijen", "lampen"], "uitbetaling": [], "vrijToegankelijk": false, "gemeenteBeperking": null, "openingstijden": null, "latitude": 51.422079, "longitude": 6.138456, "bronId": "SP00025604"}}, {"type": "Feature", "geometry": {"type": "Point", "coordinates": [6.0876241, 51.5133471]}, "properties": {"type": "inleverpunt", "locatieNaam": "Electro Kusters", "straatNaam": "Hoofdstraat", "straatNr": "39", "postcode": "5864 BC", "plaats": "Meerlo", "merk": "Stibat", "puntType": "inzamelbak", "materialen": ["batterijen"], "uitbetaling": [], "vrijToegankelijk": false, "gemeenteBeperking": null, "openingstijden": null, "latitude": 51.5133471, "longitude": 6.0876241, "bronId": "L017081"}}, {"type": "Feature", "geometry": {"type": "Point", "coordinates": [6.0895596, 51.4922659]}, "properties": {"type": "inleverpunt", "locatieNaam": "4154 Albert Heijn", "straatNaam": "Boerenovenweg", "straatNr": "3", "postcode": "5865 BV", "plaats": "Tienray", "merk": "Stibat", "puntType": "inzamelbak", "materialen": ["batterijen"], "uitbetaling": [], "vrijToegankelijk": false, "gemeenteBeperking": null, "openingstijden": null, "latitude": 51.4922659, "longitude": 6.0895596, "bronId": "L047249"}}, {"type": "Feature", "geometry": {"type": "Point", "coordinates": [6.054024, 51.4658846]}, "properties": {"type": "inleverpunt", "locatieNaam": "Texaco", "straatNaam": "Venrayseweg", "straatNr": "97", "postcode": "5961 AE", "plaats": "Horst", "merk": "Stibat", "puntType": "inzamelbak", "materialen": ["batterijen"], "uitbetaling": [], "vrijToegankelijk": false, "gemeenteBeperking": null, "openingstijden": null, "latitude": 51.4658846, "longitude": 6.054024, "bronId": "L021967"}}, {"type": "Feature", "geometry": {"type": "Point", "coordinates": [6.1560551, 51.5065793]}, "properties": {"type": "inleverpunt", "locatieNaam": "Recreatiepark Kasteel Oijen B.V", "straatNaam": "Blitterswijckseweg", "straatNr": "2", "postcode": "5871 CE", "plaats": "Broekhuizenvorst", "merk": "Stibat", "puntType": "inzamelbak", "materialen": ["batterijen"], "uitbetaling": [], "vrijToegankelijk": false, "gemeenteBeperking": null, "openingstijden": null, "latitude": 51.5065793, "longitude": 6.1560551, "bronId": "L005347"}}, {"type": "Feature", "geometry": {"type": "Point", "coordinates": [6.0546205, 51.4557126]}, "properties": {"type": "inleverpunt", "locatieNaam": "Aldi", "straatNaam": "Loevestraat", "straatNr": "55-57", "postcode": "5961 TW", "plaats": "Horst", "merk": "Stibat", "puntType": "inzamelbak", "materialen": ["batterijen"], "uitbetaling": [], "vrijToegankelijk": false, "gemeenteBeperking": null, "openingstijden": null, "latitude": 51.4557126, "longitude": 6.0546205, "bronId": "L041377"}}, {"type": "Feature", "geometry": {"type": "Point", "coordinates": [6.0519565, 51.4537165]}, "properties": {"type": "inleverpunt", "locatieNaam": "Xenos", "straatNaam": "Veemarkt", "straatNr": "1", "postcode": "5961 ER", "plaats": "Horst", "merk": "Stibat", "puntType": "inzamelbak", "materialen": ["batterijen"], "uitbetaling": [], "vrijToegankelijk": false, "gemeenteBeperking": null, "openingstijden": null, "latitude": 51.4537165, "longitude": 6.0519565, "bronId": "L037010"}}, {"type": "Feature", "geometry": {"type": "Point", "coordinates": [6.0527292, 51.4531188]}, "properties": {"type": "inleverpunt", "locatieNaam": "8759 Albert Heijn", "straatNaam": "Steenstraat", "straatNr": "11", "postcode": "5961 ET", "plaats": "Horst", "merk": "Stibat", "puntType": "inzamelbak", "materialen": ["batterijen"], "uitbetaling": [], "vrijToegankelijk": false, "gemeenteBeperking": null, "openingstijden": null, "latitude": 51.4531188, "longitude": 6.0527292, "bronId": "L007038"}}, {"type": "Feature", "geometry": {"type": "Point", "coordinates": [6.053126, 51.452703]}, "properties": {"type": "inleverpunt", "locatieNaam": "HEMA Steenstraat", "straatNaam": "Steenstraat", "straatNr": "1", "postcode": "5961 ET", "plaats": "Horst", "merk": "Stibat", "puntType": "inzamelbak", "materialen": ["batterijen"], "uitbetaling": [], "vrijToegankelijk": false, "gemeenteBeperking": null, "openingstijden": null, "latitude": 51.452703, "longitude": 6.053126, "bronId": "L006214"}}, {"type": "Feature", "geometry": {"type": "Point", "coordinates": [6.0531963, 51.4525948]}, "properties": {"type": "inleverpunt", "locatieNaam": "Kruidvat", "straatNaam": "St. Lambertusplein", "straatNr": "3", "postcode": "5961 EW", "plaats": "Horst", "merk": "Stibat", "puntType": "inzamelbak", "materialen": ["batterijen"], "uitbetaling": [], "vrijToegankelijk": false, "gemeenteBeperking": null, "openingstijden": null, "latitude": 51.4525948, "longitude": 6.0531963, "bronId": "L015445"}}, {"type": "Feature", "geometry": {"type": "Point", "coordinates": [6.0515134, 51.4516335]}, "properties": {"type": "inleverpunt", "locatieNaam": "Lommen Tweewielerspecialist", "straatNaam": "Kloosterstraat", "straatNr": "12", "postcode": "5961 GE", "plaats": "Horst", "merk": "Stibat", "puntType": "inzamelbak", "materialen": ["batterijen"], "uitbetaling": [], "vrijToegankelijk": false, "gemeenteBeperking": null, "openingstijden": null, "latitude": 51.4516335, "longitude": 6.0515134, "bronId": "L033656"}}, {"type": "Feature", "geometry": {"type": "Point", "coordinates": [6.0531047, 51.4522357]}, "properties": {"type": "inleverpunt", "locatieNaam": "8346 Etos", "straatNaam": "Kerkstraat", "straatNr": "6 A", "postcode": "5961 GD", "plaats": "Horst", "merk": "Stibat", "puntType": "inzamelbak", "materialen": ["batterijen"], "uitbetaling": [], "vrijToegankelijk": false, "gemeenteBeperking": null, "openingstijden": null, "latitude": 51.4522357, "longitude": 6.0531047, "bronId": "L026287"}}, {"type": "Feature", "geometry": {"type": "Point", "coordinates": [6.0532791, 51.4522826]}, "properties": {"type": "inleverpunt", "locatieNaam": "Foto Geurts - Telefoonmaken.nl", "straatNaam": "Kerkstraat", "straatNr": "2a1", "postcode": "5961 GD", "plaats": "Horst", "merk": "Stibat", "puntType": "inzamelbak", "materialen": ["batterijen"], "uitbetaling": [], "vrijToegankelijk": false, "gemeenteBeperking": null, "openingstijden": null, "latitude": 51.4522826, "longitude": 6.0532791, "bronId": "L049846"}}, {"type": "Feature", "geometry": {"type": "Point", "coordinates": [6.0529416, 51.4519041]}, "properties": {"type": "inleverpunt", "locatieNaam": "PLUS", "straatNaam": "Patronaat", "straatNr": "13c", "postcode": "5961 TD", "plaats": "Horst", "merk": "Stibat", "puntType": "inzamelbak", "materialen": ["batterijen"], "uitbetaling": [], "vrijToegankelijk": false, "gemeenteBeperking": null, "openingstijden": null, "latitude": 51.4519041, "longitude": 6.0529416, "bronId": "L020171"}}, {"type": "Feature", "geometry": {"type": "Point", "coordinates": [6.0536917, 51.4517806]}, "properties": {"type": "inleverpunt", "locatieNaam": "Bruna", "straatNaam": "Kerkstraat", "straatNr": "3C", "postcode": "5961 GC", "plaats": "Horst", "merk": "Stibat", "puntType": "inzamelbak", "materialen": ["batterijen"], "uitbetaling": [], "vrijToegankelijk": false, "gemeenteBeperking": null, "openingstijden": null, "latitude": 51.4517806, "longitude": 6.0536917, "bronId": "L024181"}}, {"type": "Feature", "geometry": {"type": "Point", "coordinates": [6.0550814, 51.4523902]}, "properties": {"type": "inleverpunt", "locatieNaam": "1095 Action", "straatNaam": "St. Lambertusplein", "straatNr": "12", "postcode": "5961 EW", "plaats": "Horst", "merk": "Stibat", "puntType": "inzamelbak", "materialen": ["batterijen"], "uitbetaling": [], "vrijToegankelijk": false, "gemeenteBeperking": null, "openingstijden": null, "latitude": 51.4523902, "longitude": 6.0550814, "bronId": "L043666"}}, {"type": "Feature", "geometry": {"type": "Point", "coordinates": [6.053336, 51.4515041]}, "properties": {"type": "inleverpunt", "locatieNaam": "Intertoys", "straatNaam": "Kerkstraat", "straatNr": "12", "postcode": "5961 GD", "plaats": "Horst", "merk": "Stibat", "puntType": "inzamelbak", "materialen": ["batterijen"], "uitbetaling": [], "vrijToegankelijk": false, "gemeenteBeperking": null, "openingstijden": null, "latitude": 51.4515041, "longitude": 6.053336, "bronId": "L006728"}}, {"type": "Feature", "geometry": {"type": "Point", "coordinates": [6.0542848, 51.4515674]}, "properties": {"type": "inleverpunt", "locatieNaam": "Jumbo", "straatNaam": "Kerkstraat", "straatNr": "3d", "postcode": "5961 GC", "plaats": "Horst", "merk": "Stibat", "puntType": "inzamelbak", "materialen": ["batterijen"], "uitbetaling": [], "vrijToegankelijk": false, "gemeenteBeperking": null, "openingstijden": null, "latitude": 51.4515674, "longitude": 6.0542848, "bronId": "L047230"}}, {"type": "Feature", "geometry": {"type": "Point", "coordinates": [6.0533183, 51.4511019]}, "properties": {"type": "inleverpunt", "locatieNaam": "Zeeman", "straatNaam": "Kerkstraat", "straatNr": "22", "postcode": "5961 GD", "plaats": "Horst", "merk": "Stibat", "puntType": "inzamelbak", "materialen": ["batterijen"], "uitbetaling": [], "vrijToegankelijk": false, "gemeenteBeperking": null, "openingstijden": null, "latitude": 51.4511019, "longitude": 6.0533183, "bronId": "L019645"}}, {"type": "Feature", "geometry": {"type": "Point", "coordinates": [6.0535019, 51.4510447]}, "properties": {"type": "inleverpunt", "locatieNaam": "Expert", "straatNaam": "Kerkstraat", "straatNr": "11", "postcode": "5961 GC", "plaats": "Horst", "merk": "Stibat", "puntType": "inzamelbak", "materialen": ["batterijen"], "uitbetaling": [], "vrijToegankelijk": false, "gemeenteBeperking": null, "openingstijden": null, "latitude": 51.4510447, "longitude": 6.0535019, "bronId": "L032104"}}, {"type": "Feature", "geometry": {"type": "Point", "coordinates": [6.0531928, 51.4505701]}, "properties": {"type": "inleverpunt", "locatieNaam": "Kruytzer Horen BV", "straatNaam": "Kerkstraat", "straatNr": "17", "postcode": "5961 GC", "plaats": "Horst", "merk": "Stibat", "puntType": "inzamelbak", "materialen": ["batterijen"], "uitbetaling": [], "vrijToegankelijk": false, "gemeenteBeperking": null, "openingstijden": null, "latitude": 51.4505701, "longitude": 6.0531928, "bronId": "L040513"}}, {"type": "Feature", "geometry": {"type": "Point", "coordinates": [6.0553431, 51.4508476]}, "properties": {"type": "inleverpunt", "locatieNaam": "Witte Hal", "straatNaam": "Hoofdstraat", "straatNr": "30", "postcode": "5961 EZ", "plaats": "Horst", "merk": "Stibat", "puntType": "inzamelbak", "materialen": ["batterijen"], "uitbetaling": [], "vrijToegankelijk": false, "gemeenteBeperking": null, "openingstijden": null, "latitude": 51.4508476, "longitude": 6.0553431, "bronId": "L029276"}}, {"type": "Feature", "geometry": {"type": "Point", "coordinates": [6.0558855, 51.4510009]}, "properties": {"type": "inleverpunt", "locatieNaam": "EP:", "straatNaam": "Hoofdstraat", "straatNr": "25", "postcode": "5961 EX", "plaats": "Horst", "merk": "Stibat", "puntType": "inzamelbak", "materialen": ["batterijen"], "uitbetaling": [], "vrijToegankelijk": false, "gemeenteBeperking": null, "openingstijden": null, "latitude": 51.4510009, "longitude": 6.0558855, "bronId": "L039086"}}, {"type": "Feature", "geometry": {"type": "Point", "coordinates": [6.0842041, 51.4605284]}, "properties": {"type": "inleverpunt", "locatieNaam": "Buurtsuper Melderslo", "straatNaam": "Vlasvenstraat", "straatNr": "4b", "postcode": "5962 AD", "plaats": "Melderslo", "merk": "Stibat", "puntType": "inzamelbak", "materialen": ["batterijen"], "uitbetaling": [], "vrijToegankelijk": false, "gemeenteBeperking": null, "openingstijden": null, "latitude": 51.4605284, "longitude": 6.0842041, "bronId": "L040571"}}, {"type": "Feature", "geometry": {"type": "Point", "coordinates": [6.0388428, 51.4378319]}, "properties": {"type": "inleverpunt", "locatieNaam": "MKB ICT Service", "straatNaam": "Pastoor Debijestraat", "straatNr": "15", "postcode": "5963 AE", "plaats": "Hegelsom", "merk": "Stibat", "puntType": "inzamelbak", "materialen": ["batterijen"], "uitbetaling": [], "vrijToegankelijk": false, "gemeenteBeperking": null, "openingstijden": null, "latitude": 51.4378319, "longitude": 6.0388428, "bronId": "L038778"}}, {"type": "Feature", "geometry": {"type": "Point", "coordinates": [6.0768835, 51.4453107]}, "properties": {"type": "inleverpunt", "locatieNaam": "Boerenbond", "straatNaam": "Bremweg", "straatNr": "2A", "postcode": "5961 NE", "plaats": "Horst", "merk": "Stibat", "puntType": "inzamelbak", "materialen": ["batterijen"], "uitbetaling": [], "vrijToegankelijk": false, "gemeenteBeperking": null, "openingstijden": null, "latitude": 51.4453107, "longitude": 6.0768835, "bronId": "L039636"}}, {"type": "Feature", "geometry": {"type": "Point", "coordinates": [6.0364466, 51.4253067]}, "properties": {"type": "inleverpunt", "locatieNaam": "Welkoop", "straatNaam": "Horsterweg", "straatNr": "68", "postcode": "5975 NB", "plaats": "Sevenum", "merk": "Stibat", "puntType": "inzamelbak", "materialen": ["batterijen"], "uitbetaling": [], "vrijToegankelijk": false, "gemeenteBeperking": null, "openingstijden": null, "latitude": 51.4253067, "longitude": 6.0364466, "bronId": "L036151"}}, {"type": "Feature", "geometry": {"type": "Point", "coordinates": [6.0358597, 51.4242964]}, "properties": {"type": "inleverpunt", "locatieNaam": "Jumbo", "straatNaam": "Horsterweg", "straatNr": "64", "postcode": "5975 NB", "plaats": "Sevenum", "merk": "Stibat", "puntType": "inzamelbak", "materialen": ["batterijen"], "uitbetaling": [], "vrijToegankelijk": false, "gemeenteBeperking": null, "openingstijden": null, "latitude": 51.4242964, "longitude": 6.0358597, "bronId": "L007684"}}, {"type": "Feature", "geometry": {"type": "Point", "coordinates": [6.03586, 51.4224873]}, "properties": {"type": "inleverpunt", "locatieNaam": "Hubo", "straatNaam": "Horsterweg", "straatNr": "42", "postcode": "5975 NB", "plaats": "Sevenum", "merk": "Stibat", "puntType": "inzamelbak", "materialen": ["batterijen"], "uitbetaling": [], "vrijToegankelijk": false, "gemeenteBeperking": null, "openingstijden": null, "latitude": 51.4224873, "longitude": 6.03586, "bronId": "L039959"}}, {"type": "Feature", "geometry": {"type": "Point", "coordinates": [6.0290233, 51.411561]}, "properties": {"type": "inleverpunt", "locatieNaam": "Lommen Tweewielerspecialist", "straatNaam": "Peperstraat", "straatNr": "54", "postcode": "5975 BW", "plaats": "Sevenum", "merk": "Stibat", "puntType": "inzamelbak", "materialen": ["batterijen"], "uitbetaling": [], "vrijToegankelijk": false, "gemeenteBeperking": null, "openingstijden": null, "latitude": 51.411561, "longitude": 6.0290233, "bronId": "L033660"}}, {"type": "Feature", "geometry": {"type": "Point", "coordinates": [6.0366636, 51.4131097]}, "properties": {"type": "inleverpunt", "locatieNaam": "1152 Action", "straatNaam": "Pastoor Vullinghsstraat", "straatNr": "61", "postcode": "5975 AP", "plaats": "Sevenum", "merk": "Stibat", "puntType": "inzamelbak", "materialen": ["batterijen"], "uitbetaling": [], "vrijToegankelijk": false, "gemeenteBeperking": null, "openingstijden": null, "latitude": 51.4131097, "longitude": 6.0366636, "bronId": "L017213"}}, {"type": "Feature", "geometry": {"type": "Point", "coordinates": [6.0373671, 51.4131987]}, "properties": {"type": "inleverpunt", "locatieNaam": "4147 Albert Heijn", "straatNaam": "Pastoor Vullinghsstraat", "straatNr": "53", "postcode": "5975 AP", "plaats": "Sevenum", "merk": "Stibat", "puntType": "inzamelbak", "materialen": ["batterijen"], "uitbetaling": [], "vrijToegankelijk": false, "gemeenteBeperking": null, "openingstijden": null, "latitude": 51.4131987, "longitude": 6.0373671, "bronId": "L047120"}}, {"type": "Feature", "geometry": {"type": "Point", "coordinates": [6.037221, 51.4128819]}, "properties": {"type": "inleverpunt", "locatieNaam": "Primera", "straatNaam": "Pastoor Vullinghsstraat", "straatNr": "31", "postcode": "5975 AP", "plaats": "Sevenum", "merk": "Stibat", "puntType": "inzamelbak", "materialen": ["batterijen"], "uitbetaling": [], "vrijToegankelijk": false, "gemeenteBeperking": null, "openingstijden": null, "latitude": 51.4128819, "longitude": 6.037221, "bronId": "L025430"}}, {"type": "Feature", "geometry": {"type": "Point", "coordinates": [5.9762905, 51.3830659]}, "properties": {"type": "inleverpunt", "locatieNaam": "Recreatieoord \"De Schatberg\" (Spar enjoy)", "straatNaam": "Midden Peelweg", "straatNr": "5", "postcode": "5975 MZ", "plaats": "Sevenum", "merk": "Stibat", "puntType": "inzamelbak", "materialen": ["batterijen"], "uitbetaling": [], "vrijToegankelijk": false, "gemeenteBeperking": null, "openingstijden": null, "latitude": 51.3830659, "longitude": 5.9762905, "bronId": "L003302"}}, {"type": "Feature", "geometry": {"type": "Point", "coordinates": [6.1455204, 51.4204155]}, "properties": {"type": "inleverpunt", "locatieNaam": "4132 Albert Heijn", "straatNaam": "Kloosterstraat", "straatNr": "70", "postcode": "5971 BD", "plaats": "Grubbenvorst", "merk": "Stibat", "puntType": "inzamelbak", "materialen": ["batterijen"], "uitbetaling": [], "vrijToegankelijk": false, "gemeenteBeperking": null, "openingstijden": null, "latitude": 51.4204155, "longitude": 6.1455204, "bronId": "L047312"}}, {"type": "Feature", "geometry": {"type": "Point", "coordinates": [6.1475602, 51.4197742]}, "properties": {"type": "inleverpunt", "locatieNaam": "Verbong Tweewielers", "straatNaam": "Pastoor Vullinghsplein", "straatNr": "8", "postcode": "5971 CB", "plaats": "Grubbenvorst", "merk": "Stibat", "puntType": "inzamelbak", "materialen": ["batterijen"], "uitbetaling": [], "vrijToegankelijk": false, "gemeenteBeperking": null, "openingstijden": null, "latitude": 51.4197742, "longitude": 6.1475602, "bronId": "L033657"}}, {"type": "Feature", "geometry": {"type": "Polygon", "coordinates": [[[5.957897002262317, 51.37805000349558], [5.989833002294572, 51.37822100349489], [6.006808002311764, 51.379965003495606], [6.0187660023239085, 51.38225700349682], [6.073302002379356, 51.39576300350441], [6.072038002378166, 51.39846300350628], [6.07190500237813, 51.401626003508404], [6.074052002380415, 51.40550600351097], [6.073366002379739, 51.40610600351139], [6.076890002383397, 51.40949900351356], [6.077471002384275, 51.41907300351997], [6.077696002384539, 51.4201710035207], [6.078983002385842, 51.42033100352079], [6.081817002388707, 51.420582003520884], [6.101758002408784, 51.41955400351962], [6.107547002414641, 51.4202530035199], [6.10876400241584, 51.419325003519255], [6.108926002416025, 51.42004800351972], [6.109505002416618, 51.42039500351993], [6.116680002423881, 51.42131800352036], [6.116468002423656, 51.42099300352013], [6.119602002426745, 51.41856300351841], [6.1219460024290235, 51.41585900351654], [6.123294002430382, 51.41585000351647], [6.123355002430429, 51.41536100351613], [6.124505002431591, 51.41544100351618], [6.1245560024316195, 51.414801003515734], [6.127935002435031, 51.41478300351561], [6.128198002435267, 51.41389100351501], [6.131171002438288, 51.414704003515475], [6.132704002439806, 51.413717003514776], [6.134091002441276, 51.41613600351634], [6.135271002442464, 51.41610900351629], [6.135427002442578, 51.41468800351535], [6.136011002443172, 51.414825003515396], [6.136776002443875, 51.41252000351384], [6.140779002447383, 51.39486200350185], [6.153042002459778, 51.395925003502164], [6.151102002457949, 51.400253003505156], [6.14899500245605, 51.40777500351028], [6.1491160024562115, 51.40910300351116], [6.149648002456811, 51.41121700351256], [6.1513750024586535, 51.4146120035148], [6.15312400246047, 51.41639200351596], [6.156825002464277, 51.41912000351766], [6.158380002465954, 51.42272700352005], [6.157828002465513, 51.426667003522724], [6.1539690024619125, 51.43639100352935], [6.1544690024625455, 51.44080600353227], [6.155475002463627, 51.44305100353377], [6.1574600024657, 51.44556200353535], [6.164845002473347, 51.45257000353985], [6.173559002482314, 51.45899200354388], [6.176377002485232, 51.46183400354568], [6.178129002487075, 51.46444800354739], [6.178980002488038, 51.46817300354984], [6.177609002486823, 51.47383000355367], [6.175841002485107, 51.47607100355519], [6.170731002480107, 51.48096000355863], [6.168036002477492, 51.48434900356096], [6.166729002476244, 51.48675900356263], [6.1666490024762695, 51.49037300356503], [6.169401002479326, 51.50015900357144], [6.169158002479177, 51.5033690035736], [6.1683550024784335, 51.50561400357512], [6.165658002475815, 51.50893500357741], [6.160791002471016, 51.51238400357985], [6.157785002468028, 51.51362000358076], [6.146859002457118, 51.516652003583076], [6.141094002451397, 51.51952000358523], [6.1319980024420015, 51.51147300358013], [6.132129002442145, 51.51175900358035], [6.126863002436918, 51.51438800358218], [6.121991002431887, 51.510176003579545], [6.116841002426799, 51.513395003581884], [6.106612002416645, 51.5183020035854], [6.107573002417704, 51.521403003587466], [6.107124002417263, 51.521795003587705], [6.1047390024148775, 51.52238800358816], [6.100459002410579, 51.52268700358847], [6.095629002405682, 51.52159600358793], [6.093772002403845, 51.52272100358872], [6.08716900239722, 51.52356600358946], [6.084066002394082, 51.52307100358927], [6.079929002389909, 51.52295200358932], [6.0790910023891, 51.52407600359007], [6.078501002388501, 51.52390800358996], [6.076764002386779, 51.524777003590586], [6.066774002376683, 51.52369400359017], [6.064602002374265, 51.516066003585166], [6.066259002375687, 51.50794800357969], [6.069670002378984, 51.5032880035765], [6.073756002382853, 51.49517300357099], [6.069798002378705, 51.489992003567664], [6.068082002376927, 51.48837000356662], [6.068394002377228, 51.48790000356631], [6.066295002375125, 51.488344003566674], [6.065662002374476, 51.487966003566456], [6.063890002372693, 51.488054003566575], [6.06357300237236, 51.48762100356625], [6.0613240023700765, 51.487121003565974], [6.06061500236938, 51.48762300356634], [6.059439002368199, 51.48775600356647], [6.059190002367969, 51.48843300356696], [6.058205002366986, 51.48881500356721], [6.056809002365589, 51.48901200356738], [6.055869002364631, 51.48874400356724], [6.055589002364365, 51.489200003567525], [6.054613002363375, 51.4890830035675], [6.0534950023622605, 51.48943000356775], [6.052437002361183, 51.48906500356753], [6.051301002360041, 51.48924500356769], [6.05039500235916, 51.49021900356837], [6.049474002358236, 51.49040400356847], [6.0440990023527705, 51.48879300356759], [6.04353500235219, 51.48835400356732], [6.040793002349419, 51.48826400356732], [6.039943002348554, 51.48791600356709], [6.039432002348022, 51.487270003566735], [6.039794002348358, 51.4863900035661], [6.0358390023443125, 51.484513003564985], [6.036200002344671, 51.484331003564826], [6.034869002343297, 51.483251003564156], [6.035492002343917, 51.483047003563996], [6.035209002343611, 51.48234800356353], [6.0345840023429815, 51.482307003563555], [6.033497002341857, 51.48143500356299], [6.030211002338497, 51.47984900356201], [6.028663002336941, 51.480011003562154], [6.023057002331272, 51.47948800356196], [6.013270002321327, 51.47699200356059], [6.012995002321065, 51.47748700356091], [6.011408002319453, 51.477020003560646], [6.009670002317702, 51.4771960035608], [5.99412000230196, 51.47521300355992], [5.978890002286453, 51.47042100355711], [5.95300400226012, 51.46354100355318], [5.874966002180811, 51.446558003543785], [5.915799002220604, 51.40278100351339], [5.9312880022356635, 51.38475300350084], [5.94732700225181, 51.383134003499315], [5.957897002262317, 51.37805000349558]]]}, "properties": {"type": "boundary", "gemeente": "Horst aan de Maas"}}]}