{"type": "FeatureCollection", "metadata": {"gemeente": "Kampen", "slug": "kampen", "generated_at": "2026-07-28T09:25:50.134599Z", "total_points": 102, "merken": ["StatiegeldNederland", "Stibat", "StichtingOPEN"], "bounds": [5.872457, 52.5175493, 6.0226465, 52.575634]}, "features": [{"type": "Feature", "geometry": {"type": "Point", "coordinates": [5.9166715, 52.5331939]}, "properties": {"type": "inleverpunt", "locatieNaam": "Albert Heijn", "straatNaam": "De Arend", "straatNr": "2", "postcode": "8265 NK", "plaats": "Kampen", "merk": "StatiegeldNederland", "puntType": "automaat", "materialen": ["pet-groot", "pet-klein", "blik", "glas", "krat"], "uitbetaling": ["bonnetje"], "vrijToegankelijk": true, "gemeenteBeperking": null, "openingstijden": {"ma": "07:00–22:00", "di": "07:00–22:00", "wo": "07:00–22:00", "do": "07:00–22:00", "vr": "07:00–22:00", "za": "07:00–22:00", "zo": "12:00–18:00"}, "latitude": 52.5331939, "longitude": 5.9166715, "bronId": "252113"}}, {"type": "Feature", "geometry": {"type": "Point", "coordinates": [5.9107096, 52.5485631]}, "properties": {"type": "inleverpunt", "locatieNaam": "Albert Heijn", "straatNaam": "Lovinkstraat", "straatNr": "20-22", "postcode": "8265 BT", "plaats": "Kampen", "merk": "StatiegeldNederland", "puntType": "automaat", "materialen": ["pet-groot", "pet-klein", "blik", "glas", "krat"], "uitbetaling": ["bonnetje"], "vrijToegankelijk": true, "gemeenteBeperking": null, "openingstijden": {"ma": "08:00–22:00", "di": "08:00–22:00", "wo": "08:00–22:00", "do": "08:00–22:00", "vr": "08:00–22:00", "za": "08:00–22:00", "zo": "12:00–18:00"}, "latitude": 52.5485631, "longitude": 5.9107096, "bronId": "252487"}}, {"type": "Feature", "geometry": {"type": "Point", "coordinates": [5.9119829, 52.5589792]}, "properties": {"type": "inleverpunt", "locatieNaam": "Albert Heijn", "straatNaam": "Meeuwenweg", "straatNr": "19", "postcode": "8261 VZ", "plaats": "Kampen", "merk": "StatiegeldNederland", "puntType": "automaat", "materialen": ["pet-groot", "pet-klein", "blik", "glas", "krat"], "uitbetaling": ["bonnetje", "donatie"], "vrijToegankelijk": true, "gemeenteBeperking": null, "openingstijden": {"ma": "08:00–22:00", "di": "08:00–22:00", "wo": "08:00–22:00", "do": "08:00–22:00", "vr": "08:00–22:00", "za": "08:00–22:00", "zo": "12:00–18:00"}, "latitude": 52.5589792, "longitude": 5.9119829, "bronId": "252521"}}, {"type": "Feature", "geometry": {"type": "Point", "coordinates": [5.9165657, 52.533829]}, "properties": {"type": "inleverpunt", "locatieNaam": "Aldi", "straatNaam": "De Arend", "straatNr": "1", "postcode": "8265 NK", "plaats": "Kampen", "merk": "StatiegeldNederland", "puntType": "automaat", "materialen": ["pet-groot", "pet-klein", "blik", "glas", "krat"], "uitbetaling": ["bonnetje"], "vrijToegankelijk": true, "gemeenteBeperking": null, "openingstijden": {"ma": "08:00–20:00", "di": "08:00–20:00", "wo": "08:00–20:00", "do": "08:00–20:00", "vr": "08:00–21:00", "za": "08:00–20:00", "zo": "12:00–18:00"}, "latitude": 52.533829, "longitude": 5.9165657, "bronId": "253055"}}, {"type": "Feature", "geometry": {"type": "Point", "coordinates": [5.883055, 52.557284]}, "properties": {"type": "inleverpunt", "locatieNaam": "Aldi", "straatNaam": "Zambonistraat 4 F", "straatNr": "", "postcode": "8263 CE", "plaats": "Kampen", "merk": "StatiegeldNederland", "puntType": "automaat", "materialen": ["pet-groot", "pet-klein", "blik", "glas", "krat"], "uitbetaling": ["bonnetje"], "vrijToegankelijk": true, "gemeenteBeperking": null, "openingstijden": {"ma": "08:00–20:00", "di": "08:00–20:00", "wo": "08:00–20:00", "do": "08:00–20:00", "vr": "08:00–21:00", "za": "08:00–20:00", "zo": "Gesloten"}, "latitude": 52.557284, "longitude": 5.883055, "bronId": "253452"}}, {"type": "Feature", "geometry": {"type": "Point", "coordinates": [5.912882, 52.5517855]}, "properties": {"type": "inleverpunt", "locatieNaam": "Appel 2446 - Gemeente Kampen", "straatNaam": "Burgemeester Berghuisplein1", "straatNr": "", "postcode": "8261 DD", "plaats": "Kampen", "merk": "StatiegeldNederland", "puntType": "balie", "materialen": ["pet-groot", "pet-klein", "blik"], "uitbetaling": [], "vrijToegankelijk": true, "gemeenteBeperking": null, "openingstijden": {"ma": "08:30–17:00", "di": "08:30–17:00", "wo": "08:30–20:00", "do": "08:30–17:00", "vr": "08:30–16:00", "za": "Gesloten", "zo": "Gesloten"}, "latitude": 52.5517855, "longitude": 5.912882, "bronId": "253547"}}, {"type": "Feature", "geometry": {"type": "Point", "coordinates": [5.9197889, 52.5493178]}, "properties": {"type": "inleverpunt", "locatieNaam": "Buurtsuper", "straatNaam": "Hendrik Van Viandenstraat", "straatNr": "50", "postcode": "8266 DR", "plaats": "Kampen", "merk": "StatiegeldNederland", "puntType": "automaat", "materialen": ["pet-groot", "pet-klein", "blik", "glas"], "uitbetaling": ["bonnetje", "donatie"], "vrijToegankelijk": true, "gemeenteBeperking": null, "openingstijden": {"ma": "07:00–20:00", "di": "07:00–20:00", "wo": "07:00–20:00", "do": "07:00–20:00", "vr": "07:00–20:00", "za": "07:00–20:00", "zo": "Gesloten"}, "latitude": 52.5493178, "longitude": 5.9197889, "bronId": "253949"}}, {"type": "Feature", "geometry": {"type": "Point", "coordinates": [5.9055437, 52.5462396]}, "properties": {"type": "inleverpunt", "locatieNaam": "Exploitatiest. Tennishal Kampen", "straatNaam": "Cellebroeksweg", "straatNr": "2A", "postcode": "8265 PG", "plaats": "Kampen", "merk": "StatiegeldNederland", "puntType": "balie", "materialen": ["pet-groot", "pet-klein", "blik"], "uitbetaling": [], "vrijToegankelijk": false, "gemeenteBeperking": null, "openingstijden": {"ma": "18:00–23:00", "di": "18:00–23:00", "wo": "18:00–23:00", "do": "18:00–23:00", "vr": "18:00–23:00", "za": "09:00–18:00", "zo": "09:00–18:00"}, "latitude": 52.5462396, "longitude": 5.9055437, "bronId": "254757"}}, {"type": "Feature", "geometry": {"type": "Point", "coordinates": [5.900337, 52.559315]}, "properties": {"type": "inleverpunt", "locatieNaam": "Jumbo", "straatNaam": "Hanzeplein", "straatNr": "27", "postcode": "8262 WN", "plaats": "Kampen", "merk": "StatiegeldNederland", "puntType": "automaat", "materialen": ["pet-groot", "pet-klein", "blik", "glas", "krat"], "uitbetaling": ["bonnetje", "donatie"], "vrijToegankelijk": true, "gemeenteBeperking": null, "openingstijden": {"ma": "08:00–21:00", "di": "08:00–21:00", "wo": "08:00–21:00", "do": "08:00–21:00", "vr": "08:00–21:00", "za": "08:00–21:00", "zo": "12:00–18:00"}, "latitude": 52.559315, "longitude": 5.900337, "bronId": "255401"}}, {"type": "Feature", "geometry": {"type": "Point", "coordinates": [5.900489, 52.552999]}, "properties": {"type": "inleverpunt", "locatieNaam": "Jumbo", "straatNaam": "Penningkruid", "straatNr": "25", "postcode": "8265 EX", "plaats": "Kampen", "merk": "StatiegeldNederland", "puntType": "automaat", "materialen": ["pet-groot", "pet-klein", "blik", "glas", "krat"], "uitbetaling": ["bonnetje", "donatie"], "vrijToegankelijk": true, "gemeenteBeperking": null, "openingstijden": {"ma": "08:00–21:00", "di": "08:00–21:00", "wo": "08:00–21:00", "do": "08:00–21:00", "vr": "08:00–21:00", "za": "08:00–21:00", "zo": "12:00–18:00"}, "latitude": 52.552999, "longitude": 5.900489, "bronId": "255667"}}, {"type": "Feature", "geometry": {"type": "Point", "coordinates": [5.8913249, 52.5625241]}, "properties": {"type": "inleverpunt", "locatieNaam": "Kringloop Kampen", "straatNaam": "Ambachtstraat", "straatNr": "3", "postcode": "8263 AJ", "plaats": "Kampen", "merk": "StatiegeldNederland", "puntType": "automaat", "materialen": ["pet-groot", "pet-klein", "blik", "krat"], "uitbetaling": ["tikkie"], "vrijToegankelijk": true, "gemeenteBeperking": null, "openingstijden": {"ma": "09:00–18:00", "di": "09:00–18:00", "wo": "09:00–18:00", "do": "09:00–18:00", "vr": "09:00–21:00", "za": "09:00–17:00", "zo": "Gesloten"}, "latitude": 52.5625241, "longitude": 5.8913249, "bronId": "255959"}}, {"type": "Feature", "geometry": {"type": "Point", "coordinates": [5.9331863, 52.5752487]}, "properties": {"type": "inleverpunt", "locatieNaam": "Lidl", "straatNaam": "Grafhorsterweg", "straatNr": "51", "postcode": "8271 CB", "plaats": "IJsselmuiden", "merk": "StatiegeldNederland", "puntType": "automaat", "materialen": ["pet-groot", "pet-klein", "blik", "glas", "krat"], "uitbetaling": ["bonnetje", "donatie"], "vrijToegankelijk": true, "gemeenteBeperking": null, "openingstijden": {"ma": "08:00–20:00", "di": "08:00–20:00", "wo": "08:00–20:00", "do": "08:00–21:00", "vr": "08:00–21:00", "za": "08:00–20:00", "zo": "Gesloten"}, "latitude": 52.5752487, "longitude": 5.9331863, "bronId": "256167"}}, {"type": "Feature", "geometry": {"type": "Point", "coordinates": [5.90014, 52.55948]}, "properties": {"type": "inleverpunt", "locatieNaam": "Lidl", "straatNaam": "Hanzeplein", "straatNr": "29", "postcode": "8262 WN", "plaats": "Kampen", "merk": "StatiegeldNederland", "puntType": "automaat", "materialen": ["pet-groot", "pet-klein", "blik", "glas", "krat"], "uitbetaling": ["bonnetje", "donatie"], "vrijToegankelijk": true, "gemeenteBeperking": null, "openingstijden": {"ma": "08:00–21:00", "di": "08:00–21:00", "wo": "08:00–21:00", "do": "08:00–21:00", "vr": "08:00–21:00", "za": "08:00–21:00", "zo": "12:00–18:00"}, "latitude": 52.55948, "longitude": 5.90014, "bronId": "256181"}}, {"type": "Feature", "geometry": {"type": "Point", "coordinates": [5.9407019, 52.5644158]}, "properties": {"type": "inleverpunt", "locatieNaam": "Nettorama", "straatNaam": "Goudplevier", "straatNr": "105", "postcode": "8271 GB", "plaats": "IJsselmuiden", "merk": "StatiegeldNederland", "puntType": "automaat", "materialen": ["pet-groot", "pet-klein", "blik", "glas", "krat"], "uitbetaling": ["bonnetje"], "vrijToegankelijk": true, "gemeenteBeperking": null, "openingstijden": {"ma": "07:00–21:00", "di": "07:00–21:00", "wo": "07:00–21:00", "do": "07:00–21:00", "vr": "07:00–21:00", "za": "07:00–21:00", "zo": "Gesloten"}, "latitude": 52.5644158, "longitude": 5.9407019, "bronId": "256861"}}, {"type": "Feature", "geometry": {"type": "Point", "coordinates": [5.9114356, 52.5532457]}, "properties": {"type": "inleverpunt", "locatieNaam": "Optisport Zwembad De Steur", "straatNaam": "Burg. Berghuisplein", "straatNr": "2", "postcode": "8261 DD", "plaats": "Kampen", "merk": "StatiegeldNederland", "puntType": "balie", "materialen": ["pet-groot", "pet-klein", "blik"], "uitbetaling": [], "vrijToegankelijk": false, "gemeenteBeperking": null, "openingstijden": {"ma": "07:00–20:45", "di": "13:00–20:45", "wo": "07:00–19:00", "do": "07:00–21:00", "vr": "07:00–18:00", "za": "10:00–15:00", "zo": "09:00–15:30"}, "latitude": 52.5532457, "longitude": 5.9114356, "bronId": "257070"}}, {"type": "Feature", "geometry": {"type": "Point", "coordinates": [5.8883799, 52.5441175]}, "properties": {"type": "inleverpunt", "locatieNaam": "Paardensportvereniging Kampen", "straatNaam": "Zwartendijk", "straatNr": "17", "postcode": "8265 PD", "plaats": "Kampen", "merk": "StatiegeldNederland", "puntType": "balie", "materialen": ["pet-groot", "pet-klein", "blik"], "uitbetaling": [], "vrijToegankelijk": false, "gemeenteBeperking": null, "openingstijden": null, "latitude": 52.5441175, "longitude": 5.8883799, "bronId": "257110"}}, {"type": "Feature", "geometry": {"type": "Point", "coordinates": [5.9310093, 52.5649388]}, "properties": {"type": "inleverpunt", "locatieNaam": "Plus", "straatNaam": "Slenkstraat", "straatNr": "12h", "postcode": "8271 TB", "plaats": "IJsselmuiden", "merk": "StatiegeldNederland", "puntType": "automaat", "materialen": ["pet-groot", "pet-klein", "blik", "glas", "krat"], "uitbetaling": ["bonnetje", "donatie"], "vrijToegankelijk": true, "gemeenteBeperking": null, "openingstijden": {"ma": "07:00–21:00", "di": "07:00–21:00", "wo": "07:00–21:00", "do": "07:00–21:00", "vr": "07:00–21:00", "za": "07:00–21:00", "zo": "Gesloten"}, "latitude": 52.5649388, "longitude": 5.9310093, "bronId": "257526"}}, {"type": "Feature", "geometry": {"type": "Point", "coordinates": [6.0071407, 52.5175493]}, "properties": {"type": "inleverpunt", "locatieNaam": "Sportvereniging Zalk", "straatNaam": "Broeksteeg", "straatNr": "42", "postcode": "8276 AG", "plaats": "Zalk", "merk": "StatiegeldNederland", "puntType": "balie", "materialen": ["pet-groot", "pet-klein", "blik"], "uitbetaling": [], "vrijToegankelijk": false, "gemeenteBeperking": null, "openingstijden": {"ma": "24 uur geopend", "di": "24 uur geopend", "wo": "24 uur geopend", "do": "24 uur geopend", "vr": "24 uur geopend", "za": "24 uur geopend", "zo": "Gesloten"}, "latitude": 52.5175493, "longitude": 6.0071407, "bronId": "258657"}}, {"type": "Feature", "geometry": {"type": "Point", "coordinates": [5.9403674, 52.5667941]}, "properties": {"type": "inleverpunt", "locatieNaam": "ViaTim", "straatNaam": "Groenendael", "straatNr": "72", "postcode": "8271 ED", "plaats": "Ijsselmuiden", "merk": "StatiegeldNederland", "puntType": "balie", "materialen": ["pet-groot", "pet-klein", "blik"], "uitbetaling": ["tikkie"], "vrijToegankelijk": true, "gemeenteBeperking": null, "openingstijden": {"ma": "09:00–20:00", "di": "16:00–20:00", "wo": "08:00–12:00, 16:00–20:00", "do": "09:00–20:00", "vr": "16:00–20:00", "za": "Gesloten", "zo": "Gesloten"}, "latitude": 52.5667941, "longitude": 5.9403674, "bronId": "259300"}}, {"type": "Feature", "geometry": {"type": "Point", "coordinates": [5.9170367, 52.5407171]}, "properties": {"type": "inleverpunt", "locatieNaam": "Voetbal Vereniging Dos Kampen", "straatNaam": "de Maten", "straatNr": "8", "postcode": "8265 VA", "plaats": "Kampen", "merk": "StatiegeldNederland", "puntType": "balie", "materialen": ["pet-groot", "pet-klein", "blik"], "uitbetaling": [], "vrijToegankelijk": false, "gemeenteBeperking": null, "openingstijden": {"ma": "18:00–20:00", "di": "18:00–20:00", "wo": "18:00–20:00", "do": "18:00–20:00", "vr": "Gesloten", "za": "08:00–20:00", "zo": "Gesloten"}, "latitude": 52.5407171, "longitude": 5.9170367, "bronId": "259560"}}, {"type": "Feature", "geometry": {"type": "Point", "coordinates": [5.8916551, 52.5494817]}, "properties": {"type": "inleverpunt", "locatieNaam": "Vv Go-ahead Kampen", "straatNaam": "Buitenbroeksweg", "straatNr": "2", "postcode": "8265 PH", "plaats": "Kampen", "merk": "StatiegeldNederland", "puntType": "balie", "materialen": ["pet-groot", "pet-klein", "blik"], "uitbetaling": [], "vrijToegankelijk": false, "gemeenteBeperking": null, "openingstijden": null, "latitude": 52.5494817, "longitude": 5.8916551, "bronId": "259777"}}, {"type": "Feature", "geometry": {"type": "Point", "coordinates": [5.9155812, 52.5422742]}, "properties": {"type": "inleverpunt", "locatieNaam": "Vv Kampen", "straatNaam": "De Maten", "straatNr": "4", "postcode": "8265 VA", "plaats": "Kampen", "merk": "StatiegeldNederland", "puntType": "balie", "materialen": ["pet-groot", "pet-klein", "blik"], "uitbetaling": [], "vrijToegankelijk": false, "gemeenteBeperking": null, "openingstijden": null, "latitude": 52.5422742, "longitude": 5.9155812, "bronId": "259788"}}, {"type": "Feature", "geometry": {"type": "Point", "coordinates": [5.9153, 52.53422]}, "properties": {"type": "inleverpunt", "locatieNaam": "Kruidvat Kampen", "straatNaam": "De Arend", "straatNr": "2a", "postcode": "8265 NK", "plaats": "Kampen", "merk": "StichtingOPEN", "puntType": "balie", "materialen": ["batterijen", "lampen"], "uitbetaling": [], "vrijToegankelijk": false, "gemeenteBeperking": null, "openingstijden": null, "latitude": 52.53422, "longitude": 5.9153, "bronId": "SP00029761"}}, {"type": "Feature", "geometry": {"type": "Point", "coordinates": [5.882641, 52.556913]}, "properties": {"type": "inleverpunt", "locatieNaam": "Action Kampen 1301", "straatNaam": "Zambonistraat", "straatNr": "4d", "postcode": "8263 CE", "plaats": "Kampen", "merk": "StichtingOPEN", "puntType": "balie", "materialen": ["batterijen", "lampen"], "uitbetaling": [], "vrijToegankelijk": false, "gemeenteBeperking": null, "openingstijden": null, "latitude": 52.556913, "longitude": 5.882641, "bronId": "SP00007870"}}, {"type": "Feature", "geometry": {"type": "Point", "coordinates": [5.883055, 52.557283]}, "properties": {"type": "inleverpunt", "locatieNaam": "Aldi Kampen", "straatNaam": "Zambonistraat", "straatNr": "4f", "postcode": "8263 CE", "plaats": "Kampen", "merk": "StichtingOPEN", "puntType": "balie", "materialen": ["batterijen", "elektro-klein", "lampen"], "uitbetaling": [], "vrijToegankelijk": false, "gemeenteBeperking": null, "openingstijden": null, "latitude": 52.557283, "longitude": 5.883055, "bronId": "SP00027020"}}, {"type": "Feature", "geometry": {"type": "Point", "coordinates": [5.880703, 52.558697]}, "properties": {"type": "inleverpunt", "locatieNaam": "Praxis Kampen 2297", "straatNaam": "Eastmanstraat", "straatNr": "1", "postcode": "8263 CD", "plaats": "Kampen", "merk": "StichtingOPEN", "puntType": "balie", "materialen": ["batterijen", "elektro-klein", "elektro-middel", "lampen", "tl-buizen"], "uitbetaling": [], "vrijToegankelijk": false, "gemeenteBeperking": null, "openingstijden": null, "latitude": 52.558697, "longitude": 5.880703, "bronId": "SP00036957"}}, {"type": "Feature", "geometry": {"type": "Point", "coordinates": [5.900469, 52.553119]}, "properties": {"type": "inleverpunt", "locatieNaam": "Jumbo Kampen", "straatNaam": "Penningkruid", "straatNr": "25", "postcode": "8265 EX", "plaats": "Kampen", "merk": "StichtingOPEN", "puntType": "balie", "materialen": ["batterijen", "lampen"], "uitbetaling": [], "vrijToegankelijk": false, "gemeenteBeperking": null, "openingstijden": null, "latitude": 52.553119, "longitude": 5.900469, "bronId": "SP00025336"}}, {"type": "Feature", "geometry": {"type": "Point", "coordinates": [5.910723, 52.54815]}, "properties": {"type": "inleverpunt", "locatieNaam": "4007 Albert Heijn Kampen", "straatNaam": "Lovinkstraat", "straatNr": "2022", "postcode": "8265 BT", "plaats": "Kampen", "merk": "StichtingOPEN", "puntType": "balie", "materialen": ["batterijen", "elektro-klein", "lampen"], "uitbetaling": [], "vrijToegankelijk": false, "gemeenteBeperking": null, "openingstijden": null, "latitude": 52.54815, "longitude": 5.910723, "bronId": "SP00023299"}}, {"type": "Feature", "geometry": {"type": "Point", "coordinates": [5.901028, 52.553115]}, "properties": {"type": "inleverpunt", "locatieNaam": "Kruidvat Kampen", "straatNaam": "Penningkruid", "straatNr": "34", "postcode": "8265 EX", "plaats": "Kampen", "merk": "StichtingOPEN", "puntType": "balie", "materialen": ["batterijen", "lampen"], "uitbetaling": [], "vrijToegankelijk": false, "gemeenteBeperking": null, "openingstijden": null, "latitude": 52.553115, "longitude": 5.901028, "bronId": "SP00024904"}}, {"type": "Feature", "geometry": {"type": "Point", "coordinates": [5.900322, 52.559797]}, "properties": {"type": "inleverpunt", "locatieNaam": "JUMBO Kampen", "straatNaam": "Hanzeplein", "straatNr": "27", "postcode": "8262 WN", "plaats": "Kampen", "merk": "StichtingOPEN", "puntType": "balie", "materialen": ["batterijen", "lampen"], "uitbetaling": [], "vrijToegankelijk": false, "gemeenteBeperking": null, "openingstijden": null, "latitude": 52.559797, "longitude": 5.900322, "bronId": "SP00025449"}}, {"type": "Feature", "geometry": {"type": "Point", "coordinates": [5.901153, 52.560088]}, "properties": {"type": "inleverpunt", "locatieNaam": "Kruidvat Kampen", "straatNaam": "Dr. Damstraat", "straatNr": "115", "postcode": "8262 GH", "plaats": "Kampen", "merk": "StichtingOPEN", "puntType": "balie", "materialen": ["batterijen", "lampen"], "uitbetaling": [], "vrijToegankelijk": false, "gemeenteBeperking": null, "openingstijden": null, "latitude": 52.560088, "longitude": 5.901153, "bronId": "SP00024860"}}, {"type": "Feature", "geometry": {"type": "Point", "coordinates": [5.89982, 52.56079]}, "properties": {"type": "inleverpunt", "locatieNaam": "Jumbo Kampen", "straatNaam": "Dr. Damstraat", "straatNr": "15", "postcode": "8262 GA", "plaats": "Kampen", "merk": "StichtingOPEN", "puntType": "balie", "materialen": ["batterijen", "lampen"], "uitbetaling": [], "vrijToegankelijk": false, "gemeenteBeperking": null, "openingstijden": null, "latitude": 52.56079, "longitude": 5.89982, "bronId": "SP00027340"}}, {"type": "Feature", "geometry": {"type": "Point", "coordinates": [5.872457, 52.575634]}, "properties": {"type": "inleverpunt", "locatieNaam": "Kringloop Kampen", "straatNaam": "Oslokade", "straatNr": "1", "postcode": "5263 CH", "plaats": "Kampen", "merk": "StichtingOPEN", "puntType": "balie", "materialen": ["elektro-groot", "elektro-klein", "elektro-middel", "lampen", "tl-buizen"], "uitbetaling": [], "vrijToegankelijk": false, "gemeenteBeperking": null, "openingstijden": null, "latitude": 52.575634, "longitude": 5.872457, "bronId": "SP00028613"}}, {"type": "Feature", "geometry": {"type": "Point", "coordinates": [5.911932, 52.558959]}, "properties": {"type": "inleverpunt", "locatieNaam": "1529 Albert Heijn Kampen", "straatNaam": "Meeuwenweg", "straatNr": "19", "postcode": "8261 VZ", "plaats": "Kampen", "merk": "StichtingOPEN", "puntType": "balie", "materialen": ["batterijen", "elektro-klein", "lampen"], "uitbetaling": [], "vrijToegankelijk": false, "gemeenteBeperking": null, "openingstijden": null, "latitude": 52.558959, "longitude": 5.911932, "bronId": "SP00023126"}}, {"type": "Feature", "geometry": {"type": "Point", "coordinates": [5.91756, 52.5574]}, "properties": {"type": "inleverpunt", "locatieNaam": "Kruidvat Kampen", "straatNaam": "Oudestraat", "straatNr": "86-88", "postcode": "8261 CV", "plaats": "Kampen", "merk": "StichtingOPEN", "puntType": "balie", "materialen": ["batterijen", "lampen"], "uitbetaling": [], "vrijToegankelijk": false, "gemeenteBeperking": null, "openingstijden": null, "latitude": 52.5574, "longitude": 5.91756, "bronId": "SP00029793"}}, {"type": "Feature", "geometry": {"type": "Point", "coordinates": [5.936858, 52.552234]}, "properties": {"type": "inleverpunt", "locatieNaam": "Praxis IJsselmuiden - 2284", "straatNaam": "Veldoven", "straatNr": "9c", "postcode": "8271 RT", "plaats": "IJsselmuiden", "merk": "StichtingOPEN", "puntType": "balie", "materialen": ["elektro-middel", "lampen", "tl-buizen"], "uitbetaling": [], "vrijToegankelijk": false, "gemeenteBeperking": null, "openingstijden": null, "latitude": 52.552234, "longitude": 5.936858, "bronId": "SP00021755"}}, {"type": "Feature", "geometry": {"type": "Point", "coordinates": [5.924715, 52.560885]}, "properties": {"type": "inleverpunt", "locatieNaam": "Aldi IJsselmuiden", "straatNaam": "Burg. van Engelenweg", "straatNr": "12", "postcode": "8271 AS", "plaats": "IJsselmuiden", "merk": "StichtingOPEN", "puntType": "balie", "materialen": ["batterijen", "elektro-klein", "lampen"], "uitbetaling": [], "vrijToegankelijk": false, "gemeenteBeperking": null, "openingstijden": null, "latitude": 52.560885, "longitude": 5.924715, "bronId": "SP00027043"}}, {"type": "Feature", "geometry": {"type": "Point", "coordinates": [5.92913, 52.56524]}, "properties": {"type": "inleverpunt", "locatieNaam": "Kruidvat IJsselmuiden", "straatNaam": "Markeresplein", "straatNr": "20-21", "postcode": "8271 BV", "plaats": "IJsselmuiden", "merk": "StichtingOPEN", "puntType": "balie", "materialen": ["batterijen", "lampen"], "uitbetaling": [], "vrijToegankelijk": false, "gemeenteBeperking": null, "openingstijden": null, "latitude": 52.56524, "longitude": 5.92913, "bronId": "SP00029712"}}, {"type": "Feature", "geometry": {"type": "Point", "coordinates": [5.928771, 52.566322]}, "properties": {"type": "inleverpunt", "locatieNaam": "Plus IJsselmuiden", "straatNaam": "Markeresplein", "straatNr": "2", "postcode": "8271 BV", "plaats": "IJsselmuiden", "merk": "StichtingOPEN", "puntType": "balie", "materialen": ["batterijen", "lampen"], "uitbetaling": [], "vrijToegankelijk": false, "gemeenteBeperking": null, "openingstijden": null, "latitude": 52.566322, "longitude": 5.928771, "bronId": "SP00024106"}}, {"type": "Feature", "geometry": {"type": "Point", "coordinates": [5.940701, 52.564415]}, "properties": {"type": "inleverpunt", "locatieNaam": "Boni IJsselmuiden", "straatNaam": "Goudplevier", "straatNr": "105", "postcode": "8271 GB", "plaats": "IJsselmuiden", "merk": "StichtingOPEN", "puntType": "balie", "materialen": ["batterijen", "lampen"], "uitbetaling": [], "vrijToegankelijk": false, "gemeenteBeperking": null, "openingstijden": null, "latitude": 52.564415, "longitude": 5.940701, "bronId": "SP00023734"}}, {"type": "Feature", "geometry": {"type": "Point", "coordinates": [5.942451, 52.565343]}, "properties": {"type": "inleverpunt", "locatieNaam": "Action IJsselmuiden 1029", "straatNaam": "Groenendael", "straatNr": "232", "postcode": "8271 EM", "plaats": "Ijsselmuiden", "merk": "StichtingOPEN", "puntType": "balie", "materialen": ["batterijen", "lampen"], "uitbetaling": [], "vrijToegankelijk": false, "gemeenteBeperking": null, "openingstijden": null, "latitude": 52.565343, "longitude": 5.942451, "bronId": "SP00007630"}}, {"type": "Feature", "geometry": {"type": "Point", "coordinates": [5.88039, 52.562551]}, "properties": {"type": "inleverpunt", "locatieNaam": "Recycling Kampen", "straatNaam": "Dieselstraat", "straatNr": "31", "postcode": "8263 AE", "plaats": "Kampen", "merk": "StichtingOPEN", "puntType": "milieustraat", "materialen": ["batterijen", "elektro-groot", "elektro-klein", "elektro-middel", "lampen", "tl-buizen"], "uitbetaling": [], "vrijToegankelijk": false, "gemeenteBeperking": ["Kampen"], "openingstijden": null, "latitude": 52.562551, "longitude": 5.88039, "bronId": "SP00006153"}}, {"type": "Feature", "geometry": {"type": "Point", "coordinates": [5.8895659, 52.5404583]}, "properties": {"type": "inleverpunt", "locatieNaam": "Kruidvat", "straatNaam": "De Arend", "straatNr": "2A", "postcode": "8265 NK", "plaats": "KAMPEN", "merk": "Stibat", "puntType": "inzamelbak", "materialen": ["batterijen"], "uitbetaling": [], "vrijToegankelijk": false, "gemeenteBeperking": null, "openingstijden": null, "latitude": 52.5404583, "longitude": 5.8895659, "bronId": "L040117"}}, {"type": "Feature", "geometry": {"type": "Point", "coordinates": [5.9162852, 52.5329867]}, "properties": {"type": "inleverpunt", "locatieNaam": "4108 Albert Heijn", "straatNaam": "De Arend", "straatNr": "2", "postcode": "8265 NK", "plaats": "KAMPEN", "merk": "Stibat", "puntType": "inzamelbak", "materialen": ["batterijen"], "uitbetaling": [], "vrijToegankelijk": false, "gemeenteBeperking": null, "openingstijden": null, "latitude": 52.5329867, "longitude": 5.9162852, "bronId": "L040114"}}, {"type": "Feature", "geometry": {"type": "Point", "coordinates": [5.915264, 52.5342099]}, "properties": {"type": "inleverpunt", "locatieNaam": "Aldi", "straatNaam": "De Arend", "straatNr": "1", "postcode": "8265 NK", "plaats": "Kampen", "merk": "Stibat", "puntType": "inzamelbak", "materialen": ["batterijen"], "uitbetaling": [], "vrijToegankelijk": false, "gemeenteBeperking": null, "openingstijden": null, "latitude": 52.5342099, "longitude": 5.915264, "bronId": "L045251"}}, {"type": "Feature", "geometry": {"type": "Point", "coordinates": [5.916929, 52.533766]}, "properties": {"type": "inleverpunt", "locatieNaam": "Primera", "straatNaam": "De Arend", "straatNr": "7", "postcode": "8265 NK", "plaats": "KAMPEN-ZUID", "merk": "Stibat", "puntType": "inzamelbak", "materialen": ["batterijen"], "uitbetaling": [], "vrijToegankelijk": false, "gemeenteBeperking": null, "openingstijden": null, "latitude": 52.533766, "longitude": 5.916929, "bronId": "L045769"}}, {"type": "Feature", "geometry": {"type": "Point", "coordinates": [5.916997, 52.533804]}, "properties": {"type": "inleverpunt", "locatieNaam": "HEMA Kampen-Zuid", "straatNaam": "Arend", "straatNr": "9", "postcode": "8265 NK", "plaats": "Kampen", "merk": "Stibat", "puntType": "inzamelbak", "materialen": ["batterijen"], "uitbetaling": [], "vrijToegankelijk": false, "gemeenteBeperking": null, "openingstijden": null, "latitude": 52.533804, "longitude": 5.916997, "bronId": "L047066"}}, {"type": "Feature", "geometry": {"type": "Point", "coordinates": [5.8794769, 52.5587203]}, "properties": {"type": "inleverpunt", "locatieNaam": "Praxis 2297", "straatNaam": "Eastmanstraat", "straatNr": "1", "postcode": "8263 CD", "plaats": "KAMPEN", "merk": "Stibat", "puntType": "inzamelbak", "materialen": ["batterijen"], "uitbetaling": [], "vrijToegankelijk": false, "gemeenteBeperking": null, "openingstijden": null, "latitude": 52.5587203, "longitude": 5.8794769, "bronId": "L029384"}}, {"type": "Feature", "geometry": {"type": "Point", "coordinates": [5.8830553, 52.5572837]}, "properties": {"type": "inleverpunt", "locatieNaam": "Aldi", "straatNaam": "Zambonistraat", "straatNr": "4F", "postcode": "8263 CE", "plaats": "Kampen", "merk": "Stibat", "puntType": "inzamelbak", "materialen": ["batterijen"], "uitbetaling": [], "vrijToegankelijk": false, "gemeenteBeperking": null, "openingstijden": null, "latitude": 52.5572837, "longitude": 5.8830553, "bronId": "L041545"}}, {"type": "Feature", "geometry": {"type": "Point", "coordinates": [5.8850893, 52.556739]}, "properties": {"type": "inleverpunt", "locatieNaam": "1301 Action", "straatNaam": "Zambonistraat", "straatNr": "4D", "postcode": "8263 CE", "plaats": "KAMPEN", "merk": "Stibat", "puntType": "inzamelbak", "materialen": ["batterijen"], "uitbetaling": [], "vrijToegankelijk": false, "gemeenteBeperking": null, "openingstijden": null, "latitude": 52.556739, "longitude": 5.8850893, "bronId": "L032393"}}, {"type": "Feature", "geometry": {"type": "Point", "coordinates": [5.8771408, 52.5614736]}, "properties": {"type": "inleverpunt", "locatieNaam": "Hulpmiddelencentrum (Beenhakker)", "straatNaam": "Eckertstraat", "straatNr": "7A", "postcode": "8263 CB", "plaats": "KAMPEN", "merk": "Stibat", "puntType": "inzamelbak", "materialen": ["batterijen"], "uitbetaling": [], "vrijToegankelijk": false, "gemeenteBeperking": null, "openingstijden": null, "latitude": 52.5614736, "longitude": 5.8771408, "bronId": "L027522"}}, {"type": "Feature", "geometry": {"type": "Point", "coordinates": [5.8995773, 52.5531032]}, "properties": {"type": "inleverpunt", "locatieNaam": "Van Boxtel hoorwinkel", "straatNaam": "Penningkruid", "straatNr": "26", "postcode": "8265 EX", "plaats": "KAMPEN", "merk": "Stibat", "puntType": "inzamelbak", "materialen": ["batterijen"], "uitbetaling": [], "vrijToegankelijk": false, "gemeenteBeperking": null, "openingstijden": null, "latitude": 52.5531032, "longitude": 5.8995773, "bronId": "L034736"}}, {"type": "Feature", "geometry": {"type": "Point", "coordinates": [5.8803837, 52.5625611]}, "properties": {"type": "inleverpunt", "locatieNaam": "Milieupark Kampen", "straatNaam": "Dieselstraat", "straatNr": "31", "postcode": "8263 AE", "plaats": "KAMPEN", "merk": "Stibat", "puntType": "inzamelbak", "materialen": ["batterijen"], "uitbetaling": [], "vrijToegankelijk": false, "gemeenteBeperking": null, "openingstijden": null, "latitude": 52.5625611, "longitude": 5.8803837, "bronId": "L035880"}}, {"type": "Feature", "geometry": {"type": "Point", "coordinates": [5.9004922, 52.5530018]}, "properties": {"type": "inleverpunt", "locatieNaam": "Jumbo", "straatNaam": "Penningkruid", "straatNr": "25", "postcode": "8265 EX", "plaats": "KAMPEN", "merk": "Stibat", "puntType": "inzamelbak", "materialen": ["batterijen"], "uitbetaling": [], "vrijToegankelijk": false, "gemeenteBeperking": null, "openingstijden": null, "latitude": 52.5530018, "longitude": 5.9004922, "bronId": "L028725"}}, {"type": "Feature", "geometry": {"type": "Point", "coordinates": [5.9105792, 52.5483485]}, "properties": {"type": "inleverpunt", "locatieNaam": "4007 Albert Heijn", "straatNaam": "Lovinkstraat", "straatNr": "20-22", "postcode": "8265 BT", "plaats": "KAMPEN", "merk": "Stibat", "puntType": "inzamelbak", "materialen": ["batterijen"], "uitbetaling": [], "vrijToegankelijk": false, "gemeenteBeperking": null, "openingstijden": null, "latitude": 52.5483485, "longitude": 5.9105792, "bronId": "L031912"}}, {"type": "Feature", "geometry": {"type": "Point", "coordinates": [5.9008659, 52.5532695]}, "properties": {"type": "inleverpunt", "locatieNaam": "Kruidvat", "straatNaam": "Penningkruid", "straatNr": "34", "postcode": "8265 EX", "plaats": "KAMPEN", "merk": "Stibat", "puntType": "inzamelbak", "materialen": ["batterijen"], "uitbetaling": [], "vrijToegankelijk": false, "gemeenteBeperking": null, "openingstijden": null, "latitude": 52.5532695, "longitude": 5.9008659, "bronId": "L014048"}}, {"type": "Feature", "geometry": {"type": "Point", "coordinates": [5.8798273, 52.5655438]}, "properties": {"type": "inleverpunt", "locatieNaam": "Raab Karcher", "straatNaam": "Ertsstraat", "straatNr": "11", "postcode": "8263 BN", "plaats": "KAMPEN", "merk": "Stibat", "puntType": "inzamelbak", "materialen": ["batterijen"], "uitbetaling": [], "vrijToegankelijk": false, "gemeenteBeperking": null, "openingstijden": null, "latitude": 52.5655438, "longitude": 5.8798273, "bronId": "L043777"}}, {"type": "Feature", "geometry": {"type": "Point", "coordinates": [5.8916021, 52.5626782]}, "properties": {"type": "inleverpunt", "locatieNaam": "MacHelp", "straatNaam": "Ambachtsstraat", "straatNr": "3c", "postcode": "8263 AJ", "plaats": "KAMPEN", "merk": "Stibat", "puntType": "inzamelbak", "materialen": ["batterijen"], "uitbetaling": [], "vrijToegankelijk": false, "gemeenteBeperking": null, "openingstijden": null, "latitude": 52.5626782, "longitude": 5.8916021, "bronId": "L030158"}}, {"type": "Feature", "geometry": {"type": "Point", "coordinates": [5.9199261, 52.5489268]}, "properties": {"type": "inleverpunt", "locatieNaam": "Primera", "straatNaam": "Jan van Arkelstraat", "straatNr": "75", "postcode": "8266 CL", "plaats": "KAMPEN", "merk": "Stibat", "puntType": "inzamelbak", "materialen": ["batterijen"], "uitbetaling": [], "vrijToegankelijk": false, "gemeenteBeperking": null, "openingstijden": null, "latitude": 52.5489268, "longitude": 5.9199261, "bronId": "L043942"}}, {"type": "Feature", "geometry": {"type": "Point", "coordinates": [5.8926354, 52.5629766]}, "properties": {"type": "inleverpunt", "locatieNaam": "Karwei", "straatNaam": "Ambachtsstraat", "straatNr": "1", "postcode": "8263 AJ", "plaats": "KAMPEN", "merk": "Stibat", "puntType": "inzamelbak", "materialen": ["batterijen"], "uitbetaling": [], "vrijToegankelijk": false, "gemeenteBeperking": null, "openingstijden": null, "latitude": 52.5629766, "longitude": 5.8926354, "bronId": "L006216"}}, {"type": "Feature", "geometry": {"type": "Point", "coordinates": [5.9003581, 52.5597661]}, "properties": {"type": "inleverpunt", "locatieNaam": "Lidl", "straatNaam": "Hanzeplein", "straatNr": "29", "postcode": "8262 WN", "plaats": "KAMPEN", "merk": "Stibat", "puntType": "inzamelbak", "materialen": ["batterijen"], "uitbetaling": [], "vrijToegankelijk": false, "gemeenteBeperking": null, "openingstijden": null, "latitude": 52.5597661, "longitude": 5.9003581, "bronId": "L037402"}}, {"type": "Feature", "geometry": {"type": "Point", "coordinates": [5.9017107, 52.5599495]}, "properties": {"type": "inleverpunt", "locatieNaam": "Kruidvat", "straatNaam": "dr. Damstraat", "straatNr": "115", "postcode": "8262 GH", "plaats": "KAMPEN", "merk": "Stibat", "puntType": "inzamelbak", "materialen": ["batterijen"], "uitbetaling": [], "vrijToegankelijk": false, "gemeenteBeperking": null, "openingstijden": null, "latitude": 52.5599495, "longitude": 5.9017107, "bronId": "L037399"}}, {"type": "Feature", "geometry": {"type": "Point", "coordinates": [5.9017107, 52.5599495]}, "properties": {"type": "inleverpunt", "locatieNaam": "Primera", "straatNaam": "Dr. Damstraat", "straatNr": "111", "postcode": "8262 GH", "plaats": "KAMPEN", "merk": "Stibat", "puntType": "inzamelbak", "materialen": ["batterijen"], "uitbetaling": [], "vrijToegankelijk": false, "gemeenteBeperking": null, "openingstijden": null, "latitude": 52.5599495, "longitude": 5.9017107, "bronId": "L022214"}}, {"type": "Feature", "geometry": {"type": "Point", "coordinates": [5.9251325, 52.5492358]}, "properties": {"type": "inleverpunt", "locatieNaam": "Van Dijk Bikes", "straatNaam": "IJsseldijk", "straatNr": "37", "postcode": "8266 AD", "plaats": "KAMPEN", "merk": "Stibat", "puntType": "inzamelbak", "materialen": ["batterijen"], "uitbetaling": [], "vrijToegankelijk": false, "gemeenteBeperking": null, "openingstijden": null, "latitude": 52.5492358, "longitude": 5.9251325, "bronId": "L027947"}}, {"type": "Feature", "geometry": {"type": "Point", "coordinates": [5.905775, 52.5591542]}, "properties": {"type": "inleverpunt", "locatieNaam": "Jumbo", "straatNaam": "Hanzeplein", "straatNr": "27", "postcode": "8262 WN", "plaats": "KAMPEN", "merk": "Stibat", "puntType": "inzamelbak", "materialen": ["batterijen"], "uitbetaling": [], "vrijToegankelijk": false, "gemeenteBeperking": null, "openingstijden": null, "latitude": 52.5591542, "longitude": 5.905775, "bronId": "L037433"}}, {"type": "Feature", "geometry": {"type": "Point", "coordinates": [5.9212224, 52.5533678]}, "properties": {"type": "inleverpunt", "locatieNaam": "Tweewielerhoek Reinier", "straatNaam": "Graafschap", "straatNr": "30", "postcode": "8261 LC", "plaats": "Kampen", "merk": "Stibat", "puntType": "inzamelbak", "materialen": ["batterijen"], "uitbetaling": [], "vrijToegankelijk": false, "gemeenteBeperking": null, "openingstijden": null, "latitude": 52.5533678, "longitude": 5.9212224, "bronId": "L034107"}}, {"type": "Feature", "geometry": {"type": "Point", "coordinates": [5.9119352, 52.558962]}, "properties": {"type": "inleverpunt", "locatieNaam": "1529 Albert Heijn", "straatNaam": "Meeuwenweg", "straatNr": "19", "postcode": "8261 VZ", "plaats": "KAMPEN", "merk": "Stibat", "puntType": "inzamelbak", "materialen": ["batterijen"], "uitbetaling": [], "vrijToegankelijk": false, "gemeenteBeperking": null, "openingstijden": null, "latitude": 52.558962, "longitude": 5.9119352, "bronId": "L006396"}}, {"type": "Feature", "geometry": {"type": "Point", "coordinates": [5.9193911, 52.5556944]}, "properties": {"type": "inleverpunt", "locatieNaam": "Beter Horen", "straatNaam": "Oudestraat", "straatNr": "12", "postcode": "8261 CP", "plaats": "Kampen", "merk": "Stibat", "puntType": "inzamelbak", "materialen": ["batterijen"], "uitbetaling": [], "vrijToegankelijk": false, "gemeenteBeperking": null, "openingstijden": null, "latitude": 52.5556944, "longitude": 5.9193911, "bronId": "L016939"}}, {"type": "Feature", "geometry": {"type": "Point", "coordinates": [5.918791, 52.5560999]}, "properties": {"type": "inleverpunt", "locatieNaam": "Fotorama", "straatNaam": "Oudestraat", "straatNr": "34", "postcode": "8261 CR", "plaats": "KAMPEN", "merk": "Stibat", "puntType": "inzamelbak", "materialen": ["batterijen"], "uitbetaling": [], "vrijToegankelijk": false, "gemeenteBeperking": null, "openingstijden": null, "latitude": 52.5560999, "longitude": 5.918791, "bronId": "L031499"}}, {"type": "Feature", "geometry": {"type": "Point", "coordinates": [5.8956721, 52.5675104]}, "properties": {"type": "inleverpunt", "locatieNaam": "J.C. Neleman Tweewielers", "straatNaam": "Industrieweg", "straatNr": "11a", "postcode": "8263 AA", "plaats": "KAMPEN", "merk": "Stibat", "puntType": "inzamelbak", "materialen": ["batterijen"], "uitbetaling": [], "vrijToegankelijk": false, "gemeenteBeperking": null, "openingstijden": null, "latitude": 52.5675104, "longitude": 5.8956721, "bronId": "L029022"}}, {"type": "Feature", "geometry": {"type": "Point", "coordinates": [5.919706, 52.555784]}, "properties": {"type": "inleverpunt", "locatieNaam": "Hans Anders", "straatNaam": "Oudestraat", "straatNr": "19", "postcode": "8261 CC", "plaats": "KAMPEN", "merk": "Stibat", "puntType": "inzamelbak", "materialen": ["batterijen"], "uitbetaling": [], "vrijToegankelijk": false, "gemeenteBeperking": null, "openingstijden": null, "latitude": 52.555784, "longitude": 5.919706, "bronId": "L037852"}}, {"type": "Feature", "geometry": {"type": "Point", "coordinates": [5.9193624, 52.5559754]}, "properties": {"type": "inleverpunt", "locatieNaam": "Xenos", "straatNaam": "Oudestraat", "straatNr": "29", "postcode": "8261 CC", "plaats": "KAMPEN", "merk": "Stibat", "puntType": "inzamelbak", "materialen": ["batterijen"], "uitbetaling": [], "vrijToegankelijk": false, "gemeenteBeperking": null, "openingstijden": null, "latitude": 52.5559754, "longitude": 5.9193624, "bronId": "L036981"}}, {"type": "Feature", "geometry": {"type": "Point", "coordinates": [5.9192102, 52.556085]}, "properties": {"type": "inleverpunt", "locatieNaam": "HEMA Oudestraat", "straatNaam": "Oudestraat", "straatNr": "33-37", "postcode": "8261 CD", "plaats": "KAMPEN", "merk": "Stibat", "puntType": "inzamelbak", "materialen": ["batterijen"], "uitbetaling": [], "vrijToegankelijk": false, "gemeenteBeperking": null, "openingstijden": null, "latitude": 52.556085, "longitude": 5.9192102, "bronId": "L007571"}}, {"type": "Feature", "geometry": {"type": "Point", "coordinates": [5.9189664, 52.5562604]}, "properties": {"type": "inleverpunt", "locatieNaam": "6019 Etos", "straatNaam": "Oudestraat", "straatNr": "39", "postcode": "8261 CD", "plaats": "KAMPEN", "merk": "Stibat", "puntType": "inzamelbak", "materialen": ["batterijen"], "uitbetaling": [], "vrijToegankelijk": false, "gemeenteBeperking": null, "openingstijden": null, "latitude": 52.5562604, "longitude": 5.9189664, "bronId": "L022853"}}, {"type": "Feature", "geometry": {"type": "Point", "coordinates": [5.9181235, 52.5566983]}, "properties": {"type": "inleverpunt", "locatieNaam": "Specsavers", "straatNaam": "Oudestraat", "straatNr": "58", "postcode": "8261 CS", "plaats": "KAMPEN", "merk": "Stibat", "puntType": "inzamelbak", "materialen": ["batterijen"], "uitbetaling": [], "vrijToegankelijk": false, "gemeenteBeperking": null, "openingstijden": null, "latitude": 52.5566983, "longitude": 5.9181235, "bronId": "L039973"}}, {"type": "Feature", "geometry": {"type": "Point", "coordinates": [5.9189019, 52.5563644]}, "properties": {"type": "inleverpunt", "locatieNaam": "The Read Shop XL", "straatNaam": "Oudestraat", "straatNr": "41-43", "postcode": "8261 CD", "plaats": "KAMPEN", "merk": "Stibat", "puntType": "inzamelbak", "materialen": ["batterijen"], "uitbetaling": [], "vrijToegankelijk": false, "gemeenteBeperking": null, "openingstijden": null, "latitude": 52.5563644, "longitude": 5.9189019, "bronId": "L032203"}}, {"type": "Feature", "geometry": {"type": "Point", "coordinates": [5.9186442, 52.5565729]}, "properties": {"type": "inleverpunt", "locatieNaam": "Zeeman", "straatNaam": "Oudestraat", "straatNr": "47-49", "postcode": "8261 CE", "plaats": "Kampen", "merk": "Stibat", "puntType": "inzamelbak", "materialen": ["batterijen"], "uitbetaling": [], "vrijToegankelijk": false, "gemeenteBeperking": null, "openingstijden": null, "latitude": 52.5565729, "longitude": 5.9186442, "bronId": "L021677"}}, {"type": "Feature", "geometry": {"type": "Point", "coordinates": [5.9183433, 52.5568946]}, "properties": {"type": "inleverpunt", "locatieNaam": "Intertoys", "straatNaam": "Oudestraat", "straatNr": "61", "postcode": "8261 CG", "plaats": "KAMPEN", "merk": "Stibat", "puntType": "inzamelbak", "materialen": ["batterijen"], "uitbetaling": [], "vrijToegankelijk": false, "gemeenteBeperking": null, "openingstijden": null, "latitude": 52.5568946, "longitude": 5.9183433, "bronId": "L006532"}}, {"type": "Feature", "geometry": {"type": "Point", "coordinates": [5.9177333, 52.557251]}, "properties": {"type": "inleverpunt", "locatieNaam": "DA", "straatNaam": "Oudestraat", "straatNr": "80", "postcode": "8261 CT", "plaats": "Kampen", "merk": "Stibat", "puntType": "inzamelbak", "materialen": ["batterijen"], "uitbetaling": [], "vrijToegankelijk": false, "gemeenteBeperking": null, "openingstijden": null, "latitude": 52.557251, "longitude": 5.9177333, "bronId": "L027458"}}, {"type": "Feature", "geometry": {"type": "Point", "coordinates": [5.9175994, 52.5573581]}, "properties": {"type": "inleverpunt", "locatieNaam": "Wibra", "straatNaam": "Geerstraat", "straatNr": "9", "postcode": "8261 CV", "plaats": "KAMPEN", "merk": "Stibat", "puntType": "inzamelbak", "materialen": ["batterijen"], "uitbetaling": [], "vrijToegankelijk": false, "gemeenteBeperking": null, "openingstijden": null, "latitude": 52.5573581, "longitude": 5.9175994, "bronId": "L023912"}}, {"type": "Feature", "geometry": {"type": "Point", "coordinates": [5.9175636, 52.5574034]}, "properties": {"type": "inleverpunt", "locatieNaam": "Kruidvat", "straatNaam": "Oude Straat", "straatNr": "86-88", "postcode": "8261 CV", "plaats": "KAMPEN", "merk": "Stibat", "puntType": "inzamelbak", "materialen": ["batterijen"], "uitbetaling": [], "vrijToegankelijk": false, "gemeenteBeperking": null, "openingstijden": null, "latitude": 52.5574034, "longitude": 5.9175636, "bronId": "L013979"}}, {"type": "Feature", "geometry": {"type": "Point", "coordinates": [5.8996037, 52.5662819]}, "properties": {"type": "inleverpunt", "locatieNaam": "Europart", "straatNaam": "Industrieweg", "straatNr": "3G", "postcode": "8263 AA", "plaats": "KAMPEN", "merk": "Stibat", "puntType": "inzamelbak", "materialen": ["batterijen"], "uitbetaling": [], "vrijToegankelijk": false, "gemeenteBeperking": null, "openingstijden": null, "latitude": 52.5662819, "longitude": 5.8996037, "bronId": "L021084"}}, {"type": "Feature", "geometry": {"type": "Point", "coordinates": [5.9178655, 52.5574271]}, "properties": {"type": "inleverpunt", "locatieNaam": "BelCompany", "straatNaam": "Oudestraat", "straatNr": "83", "postcode": "8261 CH", "plaats": "Kampen", "merk": "Stibat", "puntType": "inzamelbak", "materialen": ["batterijen"], "uitbetaling": [], "vrijToegankelijk": false, "gemeenteBeperking": null, "openingstijden": null, "latitude": 52.5574271, "longitude": 5.9178655, "bronId": "L015407"}}, {"type": "Feature", "geometry": {"type": "Point", "coordinates": [5.9182282, 52.5572474]}, "properties": {"type": "inleverpunt", "locatieNaam": "Optie 1 Kampen", "straatNaam": "Oudestraat", "straatNr": "73", "postcode": "8261 CG", "plaats": "KAMPEN", "merk": "Stibat", "puntType": "inzamelbak", "materialen": ["batterijen"], "uitbetaling": [], "vrijToegankelijk": false, "gemeenteBeperking": null, "openingstijden": null, "latitude": 52.5572474, "longitude": 5.9182282, "bronId": "L044247"}}, {"type": "Feature", "geometry": {"type": "Point", "coordinates": [5.9177009, 52.5576141]}, "properties": {"type": "inleverpunt", "locatieNaam": "Handyman", "straatNaam": "Oudestraat", "straatNr": "91", "postcode": "8261 CH", "plaats": "KAMPEN", "merk": "Stibat", "puntType": "inzamelbak", "materialen": ["batterijen"], "uitbetaling": [], "vrijToegankelijk": false, "gemeenteBeperking": null, "openingstijden": null, "latitude": 52.5576141, "longitude": 5.9177009, "bronId": "L014768"}}, {"type": "Feature", "geometry": {"type": "Point", "coordinates": [5.9173672, 52.5579473]}, "properties": {"type": "inleverpunt", "locatieNaam": "Phone House", "straatNaam": "Oudestraat", "straatNr": "105", "postcode": "8261 CJ", "plaats": "Kampen", "merk": "Stibat", "puntType": "inzamelbak", "materialen": ["batterijen"], "uitbetaling": [], "vrijToegankelijk": false, "gemeenteBeperking": null, "openingstijden": null, "latitude": 52.5579473, "longitude": 5.9173672, "bronId": "L022891"}}, {"type": "Feature", "geometry": {"type": "Point", "coordinates": [5.9171363, 52.5583467]}, "properties": {"type": "inleverpunt", "locatieNaam": "HOE (Home of Entertainment B.V.)", "straatNaam": "Oudestraat", "straatNr": "117", "postcode": "8261 CK", "plaats": "KAMPEN", "merk": "Stibat", "puntType": "inzamelbak", "materialen": ["batterijen"], "uitbetaling": [], "vrijToegankelijk": false, "gemeenteBeperking": null, "openingstijden": null, "latitude": 52.5583467, "longitude": 5.9171363, "bronId": "L034372"}}, {"type": "Feature", "geometry": {"type": "Point", "coordinates": [5.9163025, 52.5588782]}, "properties": {"type": "inleverpunt", "locatieNaam": "Foto Voerman Zwolle BV", "straatNaam": "Oudestraat", "straatNr": "138", "postcode": "8261 CX", "plaats": "KAMPEN", "merk": "Stibat", "puntType": "inzamelbak", "materialen": ["batterijen"], "uitbetaling": [], "vrijToegankelijk": false, "gemeenteBeperking": null, "openingstijden": null, "latitude": 52.5588782, "longitude": 5.9163025, "bronId": "L002742"}}, {"type": "Feature", "geometry": {"type": "Point", "coordinates": [5.9079986, 52.5634533]}, "properties": {"type": "inleverpunt", "locatieNaam": "delta Electronics", "straatNaam": "Noordweg", "straatNr": "32", "postcode": "8262 BS", "plaats": "KAMPEN", "merk": "Stibat", "puntType": "inzamelbak", "materialen": ["batterijen"], "uitbetaling": [], "vrijToegankelijk": false, "gemeenteBeperking": null, "openingstijden": null, "latitude": 52.5634533, "longitude": 5.9079986, "bronId": "L027295"}}, {"type": "Feature", "geometry": {"type": "Point", "coordinates": [5.9091859, 52.5630285]}, "properties": {"type": "inleverpunt", "locatieNaam": "Kok", "straatNaam": "De Hagen", "straatNr": "14", "postcode": "8262 EJ", "plaats": "KAMPEN", "merk": "Stibat", "puntType": "inzamelbak", "materialen": ["batterijen"], "uitbetaling": [], "vrijToegankelijk": false, "gemeenteBeperking": null, "openingstijden": null, "latitude": 52.5630285, "longitude": 5.9091859, "bronId": "L034109"}}, {"type": "Feature", "geometry": {"type": "Point", "coordinates": [5.9117562, 52.5623229]}, "properties": {"type": "inleverpunt", "locatieNaam": "Raf Electronics BV.", "straatNaam": "Oudestraat", "straatNr": "239", "postcode": "8261 CN", "plaats": "KAMPEN", "merk": "Stibat", "puntType": "inzamelbak", "materialen": ["batterijen"], "uitbetaling": [], "vrijToegankelijk": false, "gemeenteBeperking": null, "openingstijden": null, "latitude": 52.5623229, "longitude": 5.9117562, "bronId": "L015751"}}, {"type": "Feature", "geometry": {"type": "Point", "coordinates": [5.9138031, 52.5616293]}, "properties": {"type": "inleverpunt", "locatieNaam": "Aqua Shop", "straatNaam": "Oudestraat", "straatNr": "224", "postcode": "8261 CA", "plaats": "KAMPEN", "merk": "Stibat", "puntType": "inzamelbak", "materialen": ["batterijen"], "uitbetaling": [], "vrijToegankelijk": false, "gemeenteBeperking": null, "openingstijden": null, "latitude": 52.5616293, "longitude": 5.9138031, "bronId": "L024914"}}, {"type": "Feature", "geometry": {"type": "Point", "coordinates": [5.9368585, 52.5522342]}, "properties": {"type": "inleverpunt", "locatieNaam": "Praxis 2284", "straatNaam": "Veldoven", "straatNr": "9C", "postcode": "8271 RT", "plaats": "IJSSELMUIDEN", "merk": "Stibat", "puntType": "inzamelbak", "materialen": ["batterijen"], "uitbetaling": [], "vrijToegankelijk": false, "gemeenteBeperking": null, "openingstijden": null, "latitude": 52.5522342, "longitude": 5.9368585, "bronId": "L040369"}}, {"type": "Feature", "geometry": {"type": "Point", "coordinates": [5.9134774, 52.5692073]}, "properties": {"type": "inleverpunt", "locatieNaam": "Seveningen b.v.", "straatNaam": "Frieseweg", "straatNr": "7", "postcode": "8267 AD", "plaats": "KAMPEN", "merk": "Stibat", "puntType": "inzamelbak", "materialen": ["batterijen"], "uitbetaling": [], "vrijToegankelijk": false, "gemeenteBeperking": null, "openingstijden": null, "latitude": 52.5692073, "longitude": 5.9134774, "bronId": "L005247"}}, {"type": "Feature", "geometry": {"type": "Point", "coordinates": [5.927368, 52.5660199]}, "properties": {"type": "inleverpunt", "locatieNaam": "Mulder Tweewielers", "straatNaam": "Veenstraat", "straatNr": "1b", "postcode": "8271 VP", "plaats": "IJSSELMUIDEN", "merk": "Stibat", "puntType": "inzamelbak", "materialen": ["batterijen"], "uitbetaling": [], "vrijToegankelijk": false, "gemeenteBeperking": null, "openingstijden": null, "latitude": 52.5660199, "longitude": 5.927368, "bronId": "L034111"}}, {"type": "Feature", "geometry": {"type": "Point", "coordinates": [5.9291374, 52.5652435]}, "properties": {"type": "inleverpunt", "locatieNaam": "Kruidvat", "straatNaam": "Markeresplein", "straatNr": "20-21", "postcode": "8271 BV", "plaats": "IJSSELMUIDEN", "merk": "Stibat", "puntType": "inzamelbak", "materialen": ["batterijen"], "uitbetaling": [], "vrijToegankelijk": false, "gemeenteBeperking": null, "openingstijden": null, "latitude": 52.5652435, "longitude": 5.9291374, "bronId": "L014378"}}, {"type": "Feature", "geometry": {"type": "Point", "coordinates": [5.9314733, 52.56466]}, "properties": {"type": "inleverpunt", "locatieNaam": "Plus", "straatNaam": "Slenkstraat", "straatNr": "12 H", "postcode": "8271 TB", "plaats": "YSSELMUIDEN", "merk": "Stibat", "puntType": "inzamelbak", "materialen": ["batterijen"], "uitbetaling": [], "vrijToegankelijk": false, "gemeenteBeperking": null, "openingstijden": null, "latitude": 52.56466, "longitude": 5.9314733, "bronId": "L036843"}}, {"type": "Feature", "geometry": {"type": "Point", "coordinates": [5.9298761, 52.5660165]}, "properties": {"type": "inleverpunt", "locatieNaam": "Brink Computers", "straatNaam": "Markeresgang", "straatNr": "7", "postcode": "8271 BZ", "plaats": "IJSSELMUIDEN", "merk": "Stibat", "puntType": "inzamelbak", "materialen": ["batterijen"], "uitbetaling": [], "vrijToegankelijk": false, "gemeenteBeperking": null, "openingstijden": null, "latitude": 52.5660165, "longitude": 5.9298761, "bronId": "L046150"}}, {"type": "Feature", "geometry": {"type": "Point", "coordinates": [5.9355693, 52.5644037]}, "properties": {"type": "inleverpunt", "locatieNaam": "Brink Bikes", "straatNaam": "Burg van Engelenweg", "straatNr": "159", "postcode": "8271 AP", "plaats": "IJSSELMUIDEN", "merk": "Stibat", "puntType": "inzamelbak", "materialen": ["batterijen"], "uitbetaling": [], "vrijToegankelijk": false, "gemeenteBeperking": null, "openingstijden": null, "latitude": 52.5644037, "longitude": 5.9355693, "bronId": "L036371"}}, {"type": "Feature", "geometry": {"type": "Point", "coordinates": [5.9425029, 52.5652317]}, "properties": {"type": "inleverpunt", "locatieNaam": "1029 Action", "straatNaam": "Groenendael", "straatNr": "232", "postcode": "8271 EM", "plaats": "IJSSELMUIDEN", "merk": "Stibat", "puntType": "inzamelbak", "materialen": ["batterijen"], "uitbetaling": [], "vrijToegankelijk": false, "gemeenteBeperking": null, "openingstijden": null, "latitude": 52.5652317, "longitude": 5.9425029, "bronId": "L018147"}}, {"type": "Feature", "geometry": {"type": "Point", "coordinates": [5.9329569, 52.5751169]}, "properties": {"type": "inleverpunt", "locatieNaam": "Lidl", "straatNaam": "Grafhorsterweg", "straatNr": "51", "postcode": "8271 CB", "plaats": "IJSSELMUIDEN", "merk": "Stibat", "puntType": "inzamelbak", "materialen": ["batterijen"], "uitbetaling": [], "vrijToegankelijk": false, "gemeenteBeperking": null, "openingstijden": null, "latitude": 52.5751169, "longitude": 5.9329569, "bronId": "L021523"}}, {"type": "Feature", "geometry": {"type": "Point", "coordinates": [6.0226465, 52.5339064]}, "properties": {"type": "inleverpunt", "locatieNaam": "Tuinmachines Willem de Groot", "straatNaam": "Zwolseweg", "straatNr": "117", "postcode": "8275 AD", "plaats": "'S-HEERENBROEK", "merk": "Stibat", "puntType": "inzamelbak", "materialen": ["batterijen"], "uitbetaling": [], "vrijToegankelijk": false, "gemeenteBeperking": null, "openingstijden": null, "latitude": 52.5339064, "longitude": 6.0226465, "bronId": "L046720"}}, {"type": "Feature", "geometry": {"type": "Polygon", "coordinates": [[[5.9255590022637055, 52.47405800418569], [5.935410002273595, 52.47739200418735], [5.936298002274454, 52.47656400418686], [5.936880002275029, 52.47649900418677], [5.943971002282192, 52.480451004188886], [5.946795002285054, 52.48243400418996], [5.949890002288169, 52.483809004190654], [5.9529850022912605, 52.48444800419095], [5.953782002292049, 52.484142004190744], [5.958155002296388, 52.484080004190574], [5.958697002296923, 52.483838004190446], [5.959792002297956, 52.48210500418941], [5.965361002303324, 52.47645600418596], [5.97069100230873, 52.48024000418801], [5.970477002308523, 52.480397004188106], [5.982216002320413, 52.48838800419239], [5.991556002329839, 52.49379100419526], [6.000595002338989, 52.50007900419864], [6.007121002345579, 52.50402700420071], [6.012367002350841, 52.50594000420169], [6.014543002352994, 52.5057740042015], [6.015073002353528, 52.50596600420158], [6.019338002357728, 52.504827004200806], [6.022851002361227, 52.505332004201], [6.025346002363742, 52.50657300420163], [6.027857002366315, 52.50960600420333], [6.022111002360676, 52.511963004204816], [6.017085002355783, 52.515251004206895], [6.0150660023538505, 52.51790900420848], [6.014740002353593, 52.52026100420979], [6.015879002354809, 52.52335000421158], [6.018670002357649, 52.52591900421298], [6.023643002362627, 52.527366004213654], [6.024832002363778, 52.526308004213014], [6.028187002367107, 52.52634300421292], [6.030171002369084, 52.52675400421311], [6.029898002368918, 52.5305530042153], [6.030455002369676, 52.5380610042196], [6.019510002358927, 52.541939004222144], [6.007288002346894, 52.5451180042243], [6.003619002343401, 52.55039100422743], [6.018451002358228, 52.55454900422938], [6.018010002357808, 52.55516100422973], [6.033038002372823, 52.559403004231704], [6.012888002353582, 52.586114004247534], [6.012688002353368, 52.585636004247235], [5.982941002323658, 52.5775140042435], [5.972658002313856, 52.591358004251674], [5.972413002313645, 52.592555004252375], [5.971380002312662, 52.59392500425317], [5.9766730023180665, 52.59965100425629], [5.980243002321759, 52.60508800425924], [5.987565002329186, 52.61122700426248], [5.990909002332566, 52.613509004263726], [5.992283002334049, 52.617968004266224], [5.991745002333623, 52.62174800426835], [5.981015002323179, 52.62830200427232], [5.9552850022975905, 52.62484200427116], [5.955620002297866, 52.622917004270036], [5.9403490022825975, 52.61811300426778], [5.932690002274913, 52.61492300426617], [5.915664002257999, 52.61353400426584], [5.910602002253101, 52.617661004268314], [5.905470002248063, 52.61921500426932], [5.8405250021834, 52.61041300426605], [5.83721400218002, 52.60733100426439], [5.7779680021212485, 52.607534004265986], [5.777930002120357, 52.5808520042508], [5.804283002146515, 52.58073800425011], [5.808196002150382, 52.580267004249755], [5.8120060021541295, 52.579169004249025], [5.815361002157409, 52.57744500424793], [5.855076002196009, 52.55082400423177], [5.856359002197126, 52.54584400422885], [5.857601002198356, 52.54565000422872], [5.857869002198589, 52.54460500422813], [5.856845002197553, 52.54396100422778], [5.85925200219969, 52.53568900422299], [5.861140002201425, 52.53107300422025], [5.86060800220081, 52.52828100421869], [5.862625002202662, 52.523345004215805], [5.862055002202043, 52.5215830042148], [5.8641910022041115, 52.5197810042137], [5.864310002204179, 52.51817300421279], [5.87620500221611, 52.52202500421472], [5.87776300221763, 52.52114800421415], [5.879023002218898, 52.521662004214434], [5.880329002220173, 52.520999004214026], [5.882604002222376, 52.51896100421274], [5.883364002223138, 52.5192320042129], [5.887277002226952, 52.51690600421146], [5.9002890022395755, 52.50683600420529], [5.910217002249155, 52.497305004199546], [5.917085002255711, 52.488351004194186], [5.9207680022592015, 52.48270000419081], [5.925284002263447, 52.47442400418592], [5.9255590022637055, 52.47405800418569]]]}, "properties": {"type": "boundary", "gemeente": "Kampen"}}]}