{"type": "FeatureCollection", "metadata": {"gemeente": "Landgraaf", "slug": "landgraaf", "generated_at": "2026-07-28T09:25:50.134599Z", "total_points": 65, "merken": ["StatiegeldNederland", "Stibat", "StichtingOPEN"], "bounds": [6.0141531, 50.8724876, 6.0736103, 50.9283294]}, "features": [{"type": "Feature", "geometry": {"type": "Point", "coordinates": [6.0158131, 50.8913382]}, "properties": {"type": "inleverpunt", "locatieNaam": "Albert Heijn", "straatNaam": "Prinssenstraat", "straatNr": "52", "postcode": "6372 EX", "plaats": "Landgraaf", "merk": "StatiegeldNederland", "puntType": "automaat", "materialen": ["pet-groot", "pet-klein", "blik", "glas", "krat"], "uitbetaling": ["bonnetje", "donatie"], "vrijToegankelijk": true, "gemeenteBeperking": null, "openingstijden": {"ma": "08:00–21:00", "di": "08:00–21:00", "wo": "08:00–21:00", "do": "08:00–21:00", "vr": "08:00–21:00", "za": "08:00–21:00", "zo": "09:00–19:00"}, "latitude": 50.8913382, "longitude": 6.0158131, "bronId": "252652"}}, {"type": "Feature", "geometry": {"type": "Point", "coordinates": [6.014785, 50.892074]}, "properties": {"type": "inleverpunt", "locatieNaam": "Aldi", "straatNaam": "Hoofdstraat", "straatNr": "144", "postcode": "6372 EN", "plaats": "Landgraaf (Schaesberg)", "merk": "StatiegeldNederland", "puntType": "automaat", "materialen": ["pet-groot", "pet-klein", "blik", "glas", "krat"], "uitbetaling": ["bonnetje"], "vrijToegankelijk": true, "gemeenteBeperking": null, "openingstijden": {"ma": "08:00–20:00", "di": "08:00–20:00", "wo": "08:00–20:00", "do": "08:00–20:00", "vr": "08:00–20:00", "za": "08:00–20:00", "zo": "09:00–17:00"}, "latitude": 50.892074, "longitude": 6.014785, "bronId": "253166"}}, {"type": "Feature", "geometry": {"type": "Point", "coordinates": [6.0151358, 50.8919446]}, "properties": {"type": "inleverpunt", "locatieNaam": "Jumbo", "straatNaam": "Hoofdstraat", "straatNr": "146", "postcode": "6372 EN", "plaats": "Landgraaf", "merk": "StatiegeldNederland", "puntType": "automaat", "materialen": ["pet-groot", "pet-klein", "blik", "glas", "krat"], "uitbetaling": ["bonnetje"], "vrijToegankelijk": true, "gemeenteBeperking": null, "openingstijden": {"ma": "07:30–21:00", "di": "07:30–21:00", "wo": "07:30–21:00", "do": "07:30–21:00", "vr": "07:30–21:00", "za": "07:30–21:00", "zo": "07:30–21:00"}, "latitude": 50.8919446, "longitude": 6.0151358, "bronId": "255431"}}, {"type": "Feature", "geometry": {"type": "Point", "coordinates": [6.024173, 50.906079]}, "properties": {"type": "inleverpunt", "locatieNaam": "Jumbo", "straatNaam": "Vivaldipassage", "straatNr": "5", "postcode": "6371 LL", "plaats": "Landgraaf", "merk": "StatiegeldNederland", "puntType": "automaat", "materialen": ["pet-groot", "pet-klein", "blik", "glas", "krat"], "uitbetaling": ["bonnetje"], "vrijToegankelijk": true, "gemeenteBeperking": null, "openingstijden": {"ma": "08:00–22:00", "di": "08:00–22:00", "wo": "08:00–22:00", "do": "08:00–22:00", "vr": "08:00–22:00", "za": "08:00–22:00", "zo": "08:00–22:00"}, "latitude": 50.906079, "longitude": 6.024173, "bronId": "255825"}}, {"type": "Feature", "geometry": {"type": "Point", "coordinates": [6.02462, 50.9063]}, "properties": {"type": "inleverpunt", "locatieNaam": "Lidl", "straatNaam": "Vivaldipassage", "straatNr": "7", "postcode": "6371 LL", "plaats": "Landgraaf", "merk": "StatiegeldNederland", "puntType": "automaat", "materialen": ["pet-groot", "pet-klein", "blik", "glas", "krat"], "uitbetaling": ["bonnetje", "donatie"], "vrijToegankelijk": true, "gemeenteBeperking": null, "openingstijden": {"ma": "08:00–21:00", "di": "08:00–21:00", "wo": "08:00–21:00", "do": "08:00–21:00", "vr": "08:00–21:00", "za": "08:00–21:00", "zo": "08:00–21:00"}, "latitude": 50.9063, "longitude": 6.02462, "bronId": "256438"}}, {"type": "Feature", "geometry": {"type": "Point", "coordinates": [6.0244219, 50.8724876]}, "properties": {"type": "inleverpunt", "locatieNaam": "Manege Galop", "straatNaam": "Tunnelweg", "straatNr": "1", "postcode": "6372 XH", "plaats": "Landgraaf", "merk": "StatiegeldNederland", "puntType": "balie", "materialen": ["pet-groot", "pet-klein", "blik"], "uitbetaling": [], "vrijToegankelijk": false, "gemeenteBeperking": null, "openingstijden": {"ma": "08:00–20:00", "di": "08:00–22:30", "wo": "08:00–22:30", "do": "08:00–22:30", "vr": "08:00–22:30", "za": "08:00–19:00", "zo": "08:00–18:00"}, "latitude": 50.8724876, "longitude": 6.0244219, "bronId": "256543"}}, {"type": "Feature", "geometry": {"type": "Point", "coordinates": [6.0238681, 50.901731]}, "properties": {"type": "inleverpunt", "locatieNaam": "Markies 6976 Brandenberg Col", "straatNaam": "Graafstraat", "straatNr": "10", "postcode": "6371 XS", "plaats": "Landgraaf", "merk": "StatiegeldNederland", "puntType": "balie", "materialen": ["pet-groot", "pet-klein", "blik"], "uitbetaling": [], "vrijToegankelijk": true, "gemeenteBeperking": null, "openingstijden": {"ma": "07:30–16:00", "di": "07:30–16:00", "wo": "07:30–16:00", "do": "07:30–16:00", "vr": "07:30–16:00", "za": "Gesloten", "zo": "Gesloten"}, "latitude": 50.901731, "longitude": 6.0238681, "bronId": "256619"}}, {"type": "Feature", "geometry": {"type": "Point", "coordinates": [6.0502667, 50.9165835]}, "properties": {"type": "inleverpunt", "locatieNaam": "Medikamente die Grenze", "straatNaam": "Korte Hovenstraat", "straatNr": "10", "postcode": "6374 GG", "plaats": "Landgraaf", "merk": "StatiegeldNederland", "puntType": "automaat", "materialen": ["pet-groot", "pet-klein", "blik"], "uitbetaling": ["bonnetje"], "vrijToegankelijk": true, "gemeenteBeperking": null, "openingstijden": null, "latitude": 50.9165835, "longitude": 6.0502667, "bronId": "256721"}}, {"type": "Feature", "geometry": {"type": "Point", "coordinates": [6.0248149, 50.8870484]}, "properties": {"type": "inleverpunt", "locatieNaam": "Minli Strijthagen Landgraaf", "straatNaam": "Einsteinstraat", "straatNr": "5", "postcode": "6372 BW", "plaats": "Landgraaf", "merk": "StatiegeldNederland", "puntType": "automaat", "materialen": ["pet-groot", "pet-klein", "blik", "krat"], "uitbetaling": ["donatie", "tikkie"], "vrijToegankelijk": true, "gemeenteBeperking": null, "openingstijden": {"ma": "07:00–18:00", "di": "07:00–18:00", "wo": "07:00–18:00", "do": "07:00–18:00", "vr": "07:00–18:00", "za": "08:00–18:00", "zo": "Gesloten"}, "latitude": 50.8870484, "longitude": 6.0248149, "bronId": "256794"}}, {"type": "Feature", "geometry": {"type": "Point", "coordinates": [6.0435415, 50.9283294]}, "properties": {"type": "inleverpunt", "locatieNaam": "Paardencentrum Heihof B.v.", "straatNaam": "Scherpenseelerveeweg", "straatNr": "2", "postcode": "6374 CB", "plaats": "Landgraaf", "merk": "StatiegeldNederland", "puntType": "balie", "materialen": ["pet-groot", "pet-klein", "blik"], "uitbetaling": [], "vrijToegankelijk": false, "gemeenteBeperking": null, "openingstijden": {"ma": "07:00–22:00", "di": "07:00–22:00", "wo": "07:00–22:00", "do": "07:00–22:00", "vr": "07:00–22:00", "za": "08:00–21:00", "zo": "08:00–20:00"}, "latitude": 50.9283294, "longitude": 6.0435415, "bronId": "257108"}}, {"type": "Feature", "geometry": {"type": "Point", "coordinates": [6.04996, 50.91566]}, "properties": {"type": "inleverpunt", "locatieNaam": "Plus", "straatNaam": "Hovenstraat", "straatNr": "128", "postcode": "6374 HG", "plaats": "Landgraaf", "merk": "StatiegeldNederland", "puntType": "automaat", "materialen": ["pet-groot", "pet-klein", "blik", "glas", "krat"], "uitbetaling": ["bonnetje"], "vrijToegankelijk": true, "gemeenteBeperking": null, "openingstijden": {"ma": "07:30–22:00", "di": "07:30–22:00", "wo": "07:30–22:00", "do": "07:30–22:00", "vr": "07:30–22:00", "za": "07:30–22:00", "zo": "07:30–22:00"}, "latitude": 50.91566, "longitude": 6.04996, "bronId": "257362"}}, {"type": "Feature", "geometry": {"type": "Point", "coordinates": [6.02468, 50.90517]}, "properties": {"type": "inleverpunt", "locatieNaam": "Plus", "straatNaam": "Raadhuisplein", "straatNr": "14", "postcode": "6371 LN", "plaats": "Landgraaf", "merk": "StatiegeldNederland", "puntType": "automaat", "materialen": ["pet-groot", "pet-klein", "blik", "glas", "krat"], "uitbetaling": ["bonnetje", "donatie"], "vrijToegankelijk": true, "gemeenteBeperking": null, "openingstijden": {"ma": "07:30–22:00", "di": "07:30–22:00", "wo": "07:30–22:00", "do": "07:30–22:00", "vr": "07:30–22:00", "za": "07:30–22:00", "zo": "07:30–21:00"}, "latitude": 50.90517, "longitude": 6.02468, "bronId": "257496"}}, {"type": "Feature", "geometry": {"type": "Point", "coordinates": [6.036856, 50.912132]}, "properties": {"type": "inleverpunt", "locatieNaam": "Shell", "straatNaam": "Nieuwenhagerheidestraat", "straatNr": "30", "postcode": "6374 EC", "plaats": "Landgraaf", "merk": "StatiegeldNederland", "puntType": "balie", "materialen": ["pet-groot", "pet-klein", "blik"], "uitbetaling": [], "vrijToegankelijk": true, "gemeenteBeperking": null, "openingstijden": {"ma": "24 uur geopend", "di": "24 uur geopend", "wo": "24 uur geopend", "do": "24 uur geopend", "vr": "24 uur geopend", "za": "24 uur geopend", "zo": "24 uur geopend"}, "latitude": 50.912132, "longitude": 6.036856, "bronId": "258130"}}, {"type": "Feature", "geometry": {"type": "Point", "coordinates": [6.0147012, 50.9180496]}, "properties": {"type": "inleverpunt", "locatieNaam": "Tpc Landgraaf", "straatNaam": "Schachtstraat", "straatNr": "35", "postcode": "6373 CH", "plaats": "Landgraaf", "merk": "StatiegeldNederland", "puntType": "balie", "materialen": ["pet-groot", "pet-klein", "blik"], "uitbetaling": [], "vrijToegankelijk": false, "gemeenteBeperking": null, "openingstijden": {"ma": "08:00–23:00", "di": "08:00–23:00", "wo": "08:00–23:00", "do": "08:00–23:00", "vr": "08:00–23:00", "za": "08:00–23:00", "zo": "08:00–23:00"}, "latitude": 50.9180496, "longitude": 6.0147012, "bronId": "259034"}}, {"type": "Feature", "geometry": {"type": "Point", "coordinates": [6.027171, 50.917084]}, "properties": {"type": "inleverpunt", "locatieNaam": "KARWEI Landgraaf", "straatNaam": "Havikweg", "straatNr": "6", "postcode": "6374 AZ", "plaats": "Landgraaf", "merk": "StichtingOPEN", "puntType": "balie", "materialen": ["elektro-middel", "lampen", "tl-buizen"], "uitbetaling": [], "vrijToegankelijk": false, "gemeenteBeperking": null, "openingstijden": null, "latitude": 50.917084, "longitude": 6.027171, "bronId": "SP00003634"}}, {"type": "Feature", "geometry": {"type": "Point", "coordinates": [6.050266, 50.916583]}, "properties": {"type": "inleverpunt", "locatieNaam": "Aldi Landgraaf", "straatNaam": "Korte Hovenstraat", "straatNr": "10", "postcode": "6374 GG", "plaats": "Landgraaf", "merk": "StichtingOPEN", "puntType": "balie", "materialen": ["batterijen", "elektro-klein", "lampen"], "uitbetaling": [], "vrijToegankelijk": false, "gemeenteBeperking": null, "openingstijden": null, "latitude": 50.916583, "longitude": 6.050266, "bronId": "SP00027079"}}, {"type": "Feature", "geometry": {"type": "Point", "coordinates": [6.050475, 50.915482]}, "properties": {"type": "inleverpunt", "locatieNaam": "Kruidvat Landgraaf", "straatNaam": "Hovenstraat", "straatNr": "126c", "postcode": "6374 HG", "plaats": "Landgraaf", "merk": "StichtingOPEN", "puntType": "balie", "materialen": ["batterijen", "lampen"], "uitbetaling": [], "vrijToegankelijk": false, "gemeenteBeperking": null, "openingstijden": null, "latitude": 50.915482, "longitude": 6.050475, "bronId": "SP00024881"}}, {"type": "Feature", "geometry": {"type": "Point", "coordinates": [6.050668, 50.915521]}, "properties": {"type": "inleverpunt", "locatieNaam": "PLUS Landgraaf", "straatNaam": "Hovenstraat", "straatNr": "128", "postcode": "6374 HG", "plaats": "Landgraaf", "merk": "StichtingOPEN", "puntType": "balie", "materialen": ["batterijen", "lampen"], "uitbetaling": [], "vrijToegankelijk": false, "gemeenteBeperking": null, "openingstijden": null, "latitude": 50.915521, "longitude": 6.050668, "bronId": "SP00024079"}}, {"type": "Feature", "geometry": {"type": "Point", "coordinates": [6.023788, 50.90621]}, "properties": {"type": "inleverpunt", "locatieNaam": "Jumbo Landgraaf", "straatNaam": "Dorpstraat", "straatNr": "5", "postcode": "6371 LL", "plaats": "Landgraaf", "merk": "StichtingOPEN", "puntType": "balie", "materialen": ["batterijen", "lampen"], "uitbetaling": [], "vrijToegankelijk": false, "gemeenteBeperking": null, "openingstijden": null, "latitude": 50.90621, "longitude": 6.023788, "bronId": "SP00024947"}}, {"type": "Feature", "geometry": {"type": "Point", "coordinates": [6.024845, 50.90507]}, "properties": {"type": "inleverpunt", "locatieNaam": "PLUS Landgraaf", "straatNaam": "Raadhuisplein", "straatNr": "14", "postcode": "6371 LA", "plaats": "Landgraaf", "merk": "StichtingOPEN", "puntType": "balie", "materialen": ["batterijen", "lampen"], "uitbetaling": [], "vrijToegankelijk": false, "gemeenteBeperking": null, "openingstijden": null, "latitude": 50.90507, "longitude": 6.024845, "bronId": "SP00024157"}}, {"type": "Feature", "geometry": {"type": "Point", "coordinates": [6.02885, 50.90371]}, "properties": {"type": "inleverpunt", "locatieNaam": "Kruidvat Landgraaf", "straatNaam": "Dorpstraat", "straatNr": "14", "postcode": "6371 LL", "plaats": "Landgraaf", "merk": "StichtingOPEN", "puntType": "balie", "materialen": ["batterijen", "lampen"], "uitbetaling": [], "vrijToegankelijk": false, "gemeenteBeperking": null, "openingstijden": null, "latitude": 50.90371, "longitude": 6.02885, "bronId": "SP00029654"}}, {"type": "Feature", "geometry": {"type": "Point", "coordinates": [6.028874, 50.90191]}, "properties": {"type": "inleverpunt", "locatieNaam": "Boerderij 't Hoefveld (Op de Bies)", "straatNaam": "Hereweg", "straatNr": "145", "postcode": "6373 VH", "plaats": "Landgraaf", "merk": "StichtingOPEN", "puntType": "balie", "materialen": ["elektro-klein", "elektro-middel"], "uitbetaling": [], "vrijToegankelijk": false, "gemeenteBeperking": null, "openingstijden": null, "latitude": 50.90191, "longitude": 6.028874, "bronId": "SP00020260"}}, {"type": "Feature", "geometry": {"type": "Point", "coordinates": [6.015716, 50.8942]}, "properties": {"type": "inleverpunt", "locatieNaam": "1848 Albert Heijn Landgraaf", "straatNaam": "Prinssenstraat", "straatNr": "52", "postcode": "6372 EX", "plaats": "Landgraaf", "merk": "StichtingOPEN", "puntType": "balie", "materialen": ["batterijen", "elektro-klein", "lampen"], "uitbetaling": [], "vrijToegankelijk": false, "gemeenteBeperking": null, "openingstijden": null, "latitude": 50.8942, "longitude": 6.015716, "bronId": "SP00022507"}}, {"type": "Feature", "geometry": {"type": "Point", "coordinates": [6.015248, 50.892899]}, "properties": {"type": "inleverpunt", "locatieNaam": "Action Landgraaf 1274", "straatNaam": "Hoofdstraat", "straatNr": "110", "postcode": "6372 EK", "plaats": "Landgraaf", "merk": "StichtingOPEN", "puntType": "balie", "materialen": ["batterijen", "lampen"], "uitbetaling": [], "vrijToegankelijk": false, "gemeenteBeperking": null, "openingstijden": null, "latitude": 50.892899, "longitude": 6.015248, "bronId": "SP00007846"}}, {"type": "Feature", "geometry": {"type": "Point", "coordinates": [6.015381, 50.892374]}, "properties": {"type": "inleverpunt", "locatieNaam": "Kruidvat Landgraaf", "straatNaam": "Hoofdstraat", "straatNr": "136142", "postcode": "6372 EN", "plaats": "Landgraaf", "merk": "StichtingOPEN", "puntType": "balie", "materialen": ["batterijen", "lampen"], "uitbetaling": [], "vrijToegankelijk": false, "gemeenteBeperking": null, "openingstijden": null, "latitude": 50.892374, "longitude": 6.015381, "bronId": "SP00024455"}}, {"type": "Feature", "geometry": {"type": "Point", "coordinates": [6.014785, 50.892074]}, "properties": {"type": "inleverpunt", "locatieNaam": "Aldi Schaesberg", "straatNaam": "Hoofdstraat", "straatNr": "144", "postcode": "6372 EN", "plaats": "Schaesberg", "merk": "StichtingOPEN", "puntType": "balie", "materialen": ["batterijen", "elektro-klein", "lampen"], "uitbetaling": [], "vrijToegankelijk": false, "gemeenteBeperking": null, "openingstijden": null, "latitude": 50.892074, "longitude": 6.014785, "bronId": "SP00027090"}}, {"type": "Feature", "geometry": {"type": "Point", "coordinates": [6.015229, 50.891972]}, "properties": {"type": "inleverpunt", "locatieNaam": "Jumbo Landgraaf", "straatNaam": "Hoofdstraat", "straatNr": "146", "postcode": "6372 EN", "plaats": "Landgraaf", "merk": "StichtingOPEN", "puntType": "balie", "materialen": ["batterijen", "lampen"], "uitbetaling": [], "vrijToegankelijk": false, "gemeenteBeperking": null, "openingstijden": null, "latitude": 50.891972, "longitude": 6.015229, "bronId": "SP00024945"}}, {"type": "Feature", "geometry": {"type": "Point", "coordinates": [6.025933, 50.887223]}, "properties": {"type": "inleverpunt", "locatieNaam": "Electro Service Rosenboom BV", "straatNaam": "Marconistraat", "straatNr": "26", "postcode": "6372 PN", "plaats": "Landgraaf", "merk": "StichtingOPEN", "puntType": "balie", "materialen": ["elektro-groot", "elektro-middel", "lampen", "tl-buizen"], "uitbetaling": [], "vrijToegankelijk": false, "gemeenteBeperking": null, "openingstijden": null, "latitude": 50.887223, "longitude": 6.025933, "bronId": "SP00008742"}}, {"type": "Feature", "geometry": {"type": "Point", "coordinates": [6.02618, 50.887313]}, "properties": {"type": "inleverpunt", "locatieNaam": "Rd4 Milieupark Landgraaf", "straatNaam": "Marconistraat", "straatNr": "28", "postcode": "6372 PN", "plaats": "Landgraaf", "merk": "StichtingOPEN", "puntType": "milieustraat", "materialen": ["batterijen", "elektro-groot", "elektro-klein", "elektro-middel", "lampen", "tl-buizen"], "uitbetaling": [], "vrijToegankelijk": false, "gemeenteBeperking": ["Landgraaf", "Brunssum", "Heerlen", "Kerkrade", "Simpelveld", "Vaals", "Voerendaal", "Gulpen-Wittem", "Eijsden-Margraten", "Beekdaelen"], "openingstijden": null, "latitude": 50.887313, "longitude": 6.02618, "bronId": "SP00001494"}}, {"type": "Feature", "geometry": {"type": "Point", "coordinates": [6.0275029, 50.9172566]}, "properties": {"type": "inleverpunt", "locatieNaam": "Karwei", "straatNaam": "Havikweg", "straatNr": "6", "postcode": "6374 AZ", "plaats": "LANDGRAAF", "merk": "Stibat", "puntType": "inzamelbak", "materialen": ["batterijen"], "uitbetaling": [], "vrijToegankelijk": false, "gemeenteBeperking": null, "openingstijden": null, "latitude": 50.9172566, "longitude": 6.0275029, "bronId": "L006489"}}, {"type": "Feature", "geometry": {"type": "Point", "coordinates": [6.0435964, 50.9151504]}, "properties": {"type": "inleverpunt", "locatieNaam": "Caris", "straatNaam": "Sloterstraat", "straatNr": "13", "postcode": "6374 GN", "plaats": "LANDGRAAF", "merk": "Stibat", "puntType": "inzamelbak", "materialen": ["batterijen"], "uitbetaling": [], "vrijToegankelijk": false, "gemeenteBeperking": null, "openingstijden": null, "latitude": 50.9151504, "longitude": 6.0435964, "bronId": "L033736"}}, {"type": "Feature", "geometry": {"type": "Point", "coordinates": [6.0519306, 50.9159555]}, "properties": {"type": "inleverpunt", "locatieNaam": "Uw Eigen Drogist", "straatNaam": "Hovenstraat", "straatNr": "141", "postcode": "6374 HC", "plaats": "LANDGRAAF", "merk": "Stibat", "puntType": "inzamelbak", "materialen": ["batterijen"], "uitbetaling": [], "vrijToegankelijk": false, "gemeenteBeperking": null, "openingstijden": null, "latitude": 50.9159555, "longitude": 6.0519306, "bronId": "L014989"}}, {"type": "Feature", "geometry": {"type": "Point", "coordinates": [6.0498083, 50.9154194]}, "properties": {"type": "inleverpunt", "locatieNaam": "2 Wielersparkstad", "straatNaam": "Burgemeester Beckersstraat", "straatNr": "2a", "postcode": "6374 SN", "plaats": "LANDGRAAF", "merk": "Stibat", "puntType": "inzamelbak", "materialen": ["batterijen"], "uitbetaling": [], "vrijToegankelijk": false, "gemeenteBeperking": null, "openingstijden": null, "latitude": 50.9154194, "longitude": 6.0498083, "bronId": "L041925"}}, {"type": "Feature", "geometry": {"type": "Point", "coordinates": [6.0505346, 50.9154962]}, "properties": {"type": "inleverpunt", "locatieNaam": "Kruidvat", "straatNaam": "Hovenstraat", "straatNr": "126c", "postcode": "6374 HG", "plaats": "LANDGRAAF", "merk": "Stibat", "puntType": "inzamelbak", "materialen": ["batterijen"], "uitbetaling": [], "vrijToegankelijk": false, "gemeenteBeperking": null, "openingstijden": null, "latitude": 50.9154962, "longitude": 6.0505346, "bronId": "L038639"}}, {"type": "Feature", "geometry": {"type": "Point", "coordinates": [6.0505916, 50.9155048]}, "properties": {"type": "inleverpunt", "locatieNaam": "Read Shop Landgraaf", "straatNaam": "Hovenstraat", "straatNr": "126a", "postcode": "6374 HG", "plaats": "LANDGRAAF", "merk": "Stibat", "puntType": "inzamelbak", "materialen": ["batterijen"], "uitbetaling": [], "vrijToegankelijk": false, "gemeenteBeperking": null, "openingstijden": null, "latitude": 50.9155048, "longitude": 6.0505916, "bronId": "L045276"}}, {"type": "Feature", "geometry": {"type": "Point", "coordinates": [6.0507339, 50.915513]}, "properties": {"type": "inleverpunt", "locatieNaam": "PLUS", "straatNaam": "Hovenstraat", "straatNr": "128", "postcode": "6374 HG", "plaats": "LANDGRAAF", "merk": "Stibat", "puntType": "inzamelbak", "materialen": ["batterijen"], "uitbetaling": [], "vrijToegankelijk": false, "gemeenteBeperking": null, "openingstijden": null, "latitude": 50.915513, "longitude": 6.0507339, "bronId": "L019884"}}, {"type": "Feature", "geometry": {"type": "Point", "coordinates": [6.0239843, 50.9062368]}, "properties": {"type": "inleverpunt", "locatieNaam": "Lidl", "straatNaam": "Vivaldipassage", "straatNr": "7", "postcode": "6371 LL", "plaats": "LANDGRAAF", "merk": "Stibat", "puntType": "inzamelbak", "materialen": ["batterijen"], "uitbetaling": [], "vrijToegankelijk": false, "gemeenteBeperking": null, "openingstijden": null, "latitude": 50.9062368, "longitude": 6.0239843, "bronId": "L047391"}}, {"type": "Feature", "geometry": {"type": "Point", "coordinates": [6.0241411, 50.9060711]}, "properties": {"type": "inleverpunt", "locatieNaam": "Jumbo", "straatNaam": "Vivaldipassage", "straatNr": "5", "postcode": "6371 LL", "plaats": "LANDGRAAF", "merk": "Stibat", "puntType": "inzamelbak", "materialen": ["batterijen"], "uitbetaling": [], "vrijToegankelijk": false, "gemeenteBeperking": null, "openingstijden": null, "latitude": 50.9060711, "longitude": 6.0241411, "bronId": "L032176"}}, {"type": "Feature", "geometry": {"type": "Point", "coordinates": [6.0248619, 50.9061807]}, "properties": {"type": "inleverpunt", "locatieNaam": "Prifo Landgraaf", "straatNaam": "Vivaldipassage", "straatNr": "20", "postcode": "6371 LL", "plaats": "LANDGRAAF", "merk": "Stibat", "puntType": "inzamelbak", "materialen": ["batterijen"], "uitbetaling": [], "vrijToegankelijk": false, "gemeenteBeperking": null, "openingstijden": null, "latitude": 50.9061807, "longitude": 6.0248619, "bronId": "L014962"}}, {"type": "Feature", "geometry": {"type": "Point", "coordinates": [6.024969, 50.9062024]}, "properties": {"type": "inleverpunt", "locatieNaam": "Kruidvat", "straatNaam": "Vivaldipassag", "straatNr": "14", "postcode": "6371 LL", "plaats": "LANDGRAAF", "merk": "Stibat", "puntType": "inzamelbak", "materialen": ["batterijen"], "uitbetaling": [], "vrijToegankelijk": false, "gemeenteBeperking": null, "openingstijden": null, "latitude": 50.9062024, "longitude": 6.024969, "bronId": "L014816"}}, {"type": "Feature", "geometry": {"type": "Point", "coordinates": [6.024423, 50.9060375]}, "properties": {"type": "inleverpunt", "locatieNaam": "Dampshop", "straatNaam": "Vivaldipassage", "straatNr": "12", "postcode": "6371 LL", "plaats": "LANDGRAAF", "merk": "Stibat", "puntType": "inzamelbak", "materialen": ["batterijen"], "uitbetaling": [], "vrijToegankelijk": false, "gemeenteBeperking": null, "openingstijden": null, "latitude": 50.9060375, "longitude": 6.024423, "bronId": "L030424"}}, {"type": "Feature", "geometry": {"type": "Point", "coordinates": [6.0233564, 50.9057781]}, "properties": {"type": "inleverpunt", "locatieNaam": "HEMA Landgraaf", "straatNaam": "Bartokring", "straatNr": "20", "postcode": "6371 LB", "plaats": "Landgraaf", "merk": "Stibat", "puntType": "inzamelbak", "materialen": ["batterijen"], "uitbetaling": [], "vrijToegankelijk": false, "gemeenteBeperking": null, "openingstijden": null, "latitude": 50.9057781, "longitude": 6.0233564, "bronId": "L046958"}}, {"type": "Feature", "geometry": {"type": "Point", "coordinates": [6.0239372, 50.9059088]}, "properties": {"type": "inleverpunt", "locatieNaam": "Optie1", "straatNaam": "Vivaldipassage", "straatNr": "6", "postcode": "6371 LL", "plaats": "LANDGRAAF", "merk": "Stibat", "puntType": "inzamelbak", "materialen": ["batterijen"], "uitbetaling": [], "vrijToegankelijk": false, "gemeenteBeperking": null, "openingstijden": null, "latitude": 50.9059088, "longitude": 6.0239372, "bronId": "L039016"}}, {"type": "Feature", "geometry": {"type": "Point", "coordinates": [6.0253023, 50.9060494]}, "properties": {"type": "inleverpunt", "locatieNaam": "DA", "straatNaam": "Dorpstraat", "straatNr": "115", "postcode": "6373 JC", "plaats": "LANDGRAAF", "merk": "Stibat", "puntType": "inzamelbak", "materialen": ["batterijen"], "uitbetaling": [], "vrijToegankelijk": false, "gemeenteBeperking": null, "openingstijden": null, "latitude": 50.9060494, "longitude": 6.0253023, "bronId": "L027321"}}, {"type": "Feature", "geometry": {"type": "Point", "coordinates": [6.0254821, 50.9058863]}, "properties": {"type": "inleverpunt", "locatieNaam": "Intertoys", "straatNaam": "Paganinipassage", "straatNr": "15", "postcode": "6371 LJ", "plaats": "Landgraaf", "merk": "Stibat", "puntType": "inzamelbak", "materialen": ["batterijen"], "uitbetaling": [], "vrijToegankelijk": false, "gemeenteBeperking": null, "openingstijden": null, "latitude": 50.9058863, "longitude": 6.0254821, "bronId": "L043532"}}, {"type": "Feature", "geometry": {"type": "Point", "coordinates": [6.0246738, 50.9056181]}, "properties": {"type": "inleverpunt", "locatieNaam": "Schoonenberg Hoorcomfort", "straatNaam": "Raadhuisplein", "straatNr": "9", "postcode": "6371 LA", "plaats": "LANDGRAAF", "merk": "Stibat", "puntType": "inzamelbak", "materialen": ["batterijen"], "uitbetaling": [], "vrijToegankelijk": false, "gemeenteBeperking": null, "openingstijden": null, "latitude": 50.9056181, "longitude": 6.0246738, "bronId": "L038036"}}, {"type": "Feature", "geometry": {"type": "Point", "coordinates": [6.0254119, 50.9056296]}, "properties": {"type": "inleverpunt", "locatieNaam": "Bruna", "straatNaam": "Paganinipassage", "straatNr": "92", "postcode": "6371 LJ", "plaats": "LANDGRAAF", "merk": "Stibat", "puntType": "inzamelbak", "materialen": ["batterijen"], "uitbetaling": [], "vrijToegankelijk": false, "gemeenteBeperking": null, "openingstijden": null, "latitude": 50.9056296, "longitude": 6.0254119, "bronId": "L022779"}}, {"type": "Feature", "geometry": {"type": "Point", "coordinates": [6.0250053, 50.905513]}, "properties": {"type": "inleverpunt", "locatieNaam": "Zeeman", "straatNaam": "Paganini Passage", "straatNr": "84", "postcode": "6371 LJ", "plaats": "Landgraaf", "merk": "Stibat", "puntType": "inzamelbak", "materialen": ["batterijen"], "uitbetaling": [], "vrijToegankelijk": false, "gemeenteBeperking": null, "openingstijden": null, "latitude": 50.905513, "longitude": 6.0250053, "bronId": "L020721"}}, {"type": "Feature", "geometry": {"type": "Point", "coordinates": [6.0247298, 50.9051006]}, "properties": {"type": "inleverpunt", "locatieNaam": "PLUS", "straatNaam": "Raadhuisplein", "straatNr": "14", "postcode": "6371 LA", "plaats": "LANDGRAAF", "merk": "Stibat", "puntType": "inzamelbak", "materialen": ["batterijen"], "uitbetaling": [], "vrijToegankelijk": false, "gemeenteBeperking": null, "openingstijden": null, "latitude": 50.9051006, "longitude": 6.0247298, "bronId": "L021435"}}, {"type": "Feature", "geometry": {"type": "Point", "coordinates": [6.0409722, 50.9056782]}, "properties": {"type": "inleverpunt", "locatieNaam": "Bike Nation", "straatNaam": "Heigank", "straatNr": "30", "postcode": "6373 KR", "plaats": "LANDGRAAF", "merk": "Stibat", "puntType": "inzamelbak", "materialen": ["batterijen"], "uitbetaling": [], "vrijToegankelijk": false, "gemeenteBeperking": null, "openingstijden": null, "latitude": 50.9056782, "longitude": 6.0409722, "bronId": "L039300"}}, {"type": "Feature", "geometry": {"type": "Point", "coordinates": [6.0736103, 50.9106674]}, "properties": {"type": "inleverpunt", "locatieNaam": "Camping de Watertoren", "straatNaam": "Kerkveldweg", "straatNr": "1", "postcode": "6374 LE", "plaats": "LANDGRAAF", "merk": "Stibat", "puntType": "inzamelbak", "materialen": ["batterijen"], "uitbetaling": [], "vrijToegankelijk": false, "gemeenteBeperking": null, "openingstijden": null, "latitude": 50.9106674, "longitude": 6.0736103, "bronId": "L005211"}}, {"type": "Feature", "geometry": {"type": "Point", "coordinates": [6.0153836, 50.8935646]}, "properties": {"type": "inleverpunt", "locatieNaam": "Electro World Kreutz", "straatNaam": "Kerkplein", "straatNr": "39", "postcode": "6372 EZ", "plaats": "LANDGRAAF", "merk": "Stibat", "puntType": "inzamelbak", "materialen": ["batterijen"], "uitbetaling": [], "vrijToegankelijk": false, "gemeenteBeperking": null, "openingstijden": null, "latitude": 50.8935646, "longitude": 6.0153836, "bronId": "L045789"}}, {"type": "Feature", "geometry": {"type": "Point", "coordinates": [6.0151007, 50.8930848]}, "properties": {"type": "inleverpunt", "locatieNaam": "1274 Action", "straatNaam": "Hoofdstraat", "straatNr": "110", "postcode": "6372 EK", "plaats": "LANDGRAAF", "merk": "Stibat", "puntType": "inzamelbak", "materialen": ["batterijen"], "uitbetaling": [], "vrijToegankelijk": false, "gemeenteBeperking": null, "openingstijden": null, "latitude": 50.8930848, "longitude": 6.0151007, "bronId": "L031605"}}, {"type": "Feature", "geometry": {"type": "Point", "coordinates": [6.0157496, 50.8931471]}, "properties": {"type": "inleverpunt", "locatieNaam": "Beter Horen", "straatNaam": "Hoofdstraat", "straatNr": "71A", "postcode": "6372 CP", "plaats": "LANDGRAAF", "merk": "Stibat", "puntType": "inzamelbak", "materialen": ["batterijen"], "uitbetaling": [], "vrijToegankelijk": false, "gemeenteBeperking": null, "openingstijden": null, "latitude": 50.8931471, "longitude": 6.0157496, "bronId": "L019885"}}, {"type": "Feature", "geometry": {"type": "Point", "coordinates": [6.0148348, 50.8928722]}, "properties": {"type": "inleverpunt", "locatieNaam": "Wibra", "straatNaam": "Hoofdstraat", "straatNr": "122", "postcode": "6372 EN", "plaats": "LANDGRAAF", "merk": "Stibat", "puntType": "inzamelbak", "materialen": ["batterijen"], "uitbetaling": [], "vrijToegankelijk": false, "gemeenteBeperking": null, "openingstijden": null, "latitude": 50.8928722, "longitude": 6.0148348, "bronId": "L036809"}}, {"type": "Feature", "geometry": {"type": "Point", "coordinates": [6.0148628, 50.8928361]}, "properties": {"type": "inleverpunt", "locatieNaam": "Kruidvat", "straatNaam": "Hoofdstraat", "straatNr": "136-142", "postcode": "6372 EN", "plaats": "LANDGRAAF", "merk": "Stibat", "puntType": "inzamelbak", "materialen": ["batterijen"], "uitbetaling": [], "vrijToegankelijk": false, "gemeenteBeperking": null, "openingstijden": null, "latitude": 50.8928361, "longitude": 6.0148628, "bronId": "L014209"}}, {"type": "Feature", "geometry": {"type": "Point", "coordinates": [6.015169, 50.8927009]}, "properties": {"type": "inleverpunt", "locatieNaam": "Bessems Hoortechniek", "straatNaam": "Hoofdstraat", "straatNr": "142 A", "postcode": "6372 EN", "plaats": "LANDGRAAF", "merk": "Stibat", "puntType": "inzamelbak", "materialen": ["batterijen"], "uitbetaling": [], "vrijToegankelijk": false, "gemeenteBeperking": null, "openingstijden": null, "latitude": 50.8927009, "longitude": 6.015169, "bronId": "L028519"}}, {"type": "Feature", "geometry": {"type": "Point", "coordinates": [6.0147851, 50.8920741]}, "properties": {"type": "inleverpunt", "locatieNaam": "Aldi", "straatNaam": "Hoofdstraat", "straatNr": "144", "postcode": "6372 EN", "plaats": "Schaesberg", "merk": "Stibat", "puntType": "inzamelbak", "materialen": ["batterijen"], "uitbetaling": [], "vrijToegankelijk": false, "gemeenteBeperking": null, "openingstijden": null, "latitude": 50.8920741, "longitude": 6.0147851, "bronId": "L041407"}}, {"type": "Feature", "geometry": {"type": "Point", "coordinates": [6.0148206, 50.8918206]}, "properties": {"type": "inleverpunt", "locatieNaam": "Jumbo", "straatNaam": "Hoofdstraat", "straatNr": "146", "postcode": "6372 EN", "plaats": "Landgraaf", "merk": "Stibat", "puntType": "inzamelbak", "materialen": ["batterijen"], "uitbetaling": [], "vrijToegankelijk": false, "gemeenteBeperking": null, "openingstijden": null, "latitude": 50.8918206, "longitude": 6.0148206, "bronId": "L030838"}}, {"type": "Feature", "geometry": {"type": "Point", "coordinates": [6.0150268, 50.8916468]}, "properties": {"type": "inleverpunt", "locatieNaam": "Zeeman", "straatNaam": "Hoofdstraat", "straatNr": "148", "postcode": "6372 EN", "plaats": "LANDGRAAF", "merk": "Stibat", "puntType": "inzamelbak", "materialen": ["batterijen"], "uitbetaling": [], "vrijToegankelijk": false, "gemeenteBeperking": null, "openingstijden": null, "latitude": 50.8916468, "longitude": 6.0150268, "bronId": "L027654"}}, {"type": "Feature", "geometry": {"type": "Point", "coordinates": [6.0155205, 50.8913259]}, "properties": {"type": "inleverpunt", "locatieNaam": "Drogisterij Wiel Keulaerds", "straatNaam": "Markt", "straatNr": "2", "postcode": "6372 AT", "plaats": "LANDGRAAF", "merk": "Stibat", "puntType": "inzamelbak", "materialen": ["batterijen"], "uitbetaling": [], "vrijToegankelijk": false, "gemeenteBeperking": null, "openingstijden": null, "latitude": 50.8913259, "longitude": 6.0155205, "bronId": "L026751"}}, {"type": "Feature", "geometry": {"type": "Point", "coordinates": [6.0158131, 50.8913382]}, "properties": {"type": "inleverpunt", "locatieNaam": "1848 Albert Heijn", "straatNaam": "Markt", "straatNr": "6", "postcode": "6372 AT", "plaats": "LANDGRAAF", "merk": "Stibat", "puntType": "inzamelbak", "materialen": ["batterijen"], "uitbetaling": [], "vrijToegankelijk": false, "gemeenteBeperking": null, "openingstijden": null, "latitude": 50.8913382, "longitude": 6.0158131, "bronId": "L027292"}}, {"type": "Feature", "geometry": {"type": "Point", "coordinates": [6.0279722, 50.8908004]}, "properties": {"type": "inleverpunt", "locatieNaam": "Van Cranenbroek DHZ", "straatNaam": "Minckelersstraat", "straatNr": "1", "postcode": "6372 PP", "plaats": "LANDGRAAF", "merk": "Stibat", "puntType": "inzamelbak", "materialen": ["batterijen"], "uitbetaling": [], "vrijToegankelijk": false, "gemeenteBeperking": null, "openingstijden": null, "latitude": 50.8908004, "longitude": 6.0279722, "bronId": "L025943"}}, {"type": "Feature", "geometry": {"type": "Point", "coordinates": [6.0261716, 50.8873392]}, "properties": {"type": "inleverpunt", "locatieNaam": "Rd4 Milieupark Landgraaf", "straatNaam": "Marconistraat", "straatNr": "28", "postcode": "6372 PN", "plaats": "LANDGRAAF", "merk": "Stibat", "puntType": "inzamelbak", "materialen": ["batterijen"], "uitbetaling": [], "vrijToegankelijk": false, "gemeenteBeperking": null, "openingstijden": null, "latitude": 50.8873392, "longitude": 6.0261716, "bronId": "L035805"}}, {"type": "Feature", "geometry": {"type": "Point", "coordinates": [6.0141531, 50.8843075]}, "properties": {"type": "inleverpunt", "locatieNaam": "Kenzel Bikes", "straatNaam": "Oranje Nassaustraat", "straatNr": "2", "postcode": "6372 CJ", "plaats": "LANDGRAAF", "merk": "Stibat", "puntType": "inzamelbak", "materialen": ["batterijen"], "uitbetaling": [], "vrijToegankelijk": false, "gemeenteBeperking": null, "openingstijden": null, "latitude": 50.8843075, "longitude": 6.0141531, "bronId": "L032019"}}, {"type": "Feature", "geometry": {"type": "Polygon", "coordinates": [[[6.015919002304541, 50.87023100314091], [6.020245002308973, 50.87155000314174], [6.020698002309421, 50.871216003141505], [6.022574002311344, 50.87181000314187], [6.031140002320028, 50.871587003141485], [6.031144002320061, 50.87244200314207], [6.03295100232203, 50.876615003145034], [6.034798002323989, 50.8791670031468], [6.034027002323252, 50.880581003147846], [6.037055002326512, 50.88632000315185], [6.040415002329984, 50.888241003153105], [6.043037002332609, 50.887120003152276], [6.0445390023342025, 50.88927200315376], [6.045534002335231, 50.88989500315417], [6.040421002330116, 50.89206600315586], [6.040979002330708, 50.892849003156414], [6.0425370023322875, 50.892836003156354], [6.041946002331787, 50.895907003158584], [6.043536002333461, 50.89772300315979], [6.0425070023324565, 50.899001003160734], [6.042897002332899, 50.90040900316172], [6.048687002338739, 50.89941500316092], [6.055878002346051, 50.899932003161084], [6.056635002346825, 50.90011400316116], [6.056329002346571, 50.90184500316238], [6.056789002347042, 50.9019870031625], [6.058730002349024, 50.90244800316275], [6.059351002349617, 50.901212003161895], [6.064022002354386, 50.90232400316255], [6.063824002354232, 50.9036580031635], [6.066461002356925, 50.90426400316383], [6.079813002370513, 50.90577000316456], [6.081601002372444, 50.90948100316711], [6.086350002377352, 50.91225800316901], [6.086984002378056, 50.91424800317038], [6.089339002380507, 50.916234003171745], [6.091549002382776, 50.91708900317227], [6.09233100238359, 50.91770000317267], [6.094159002385527, 50.92030700317452], [6.093726002385116, 50.921231003175166], [6.090161002381447, 50.91957200317409], [6.089436002380681, 50.91852500317334], [6.086831002378069, 50.919372003174004], [6.082127002373368, 50.921541003175726], [6.077465002368674, 50.92257800317662], [6.07177500236292, 50.92313300317714], [6.068184002359203, 50.920653003175495], [6.066825002357827, 50.920755003175586], [6.062967002353957, 50.9220350031766], [6.061818002352763, 50.921236003176034], [6.054023002344896, 50.922247003177], [6.056160002347224, 50.927153003180436], [6.050871002341948, 50.92990500318251], [6.04719400233817, 50.92842500318155], [6.045582002336523, 50.92808000318136], [6.0444150023353815, 50.929341003182266], [6.039793002330747, 50.93085200318349], [6.038589002329526, 50.930862003183535], [6.018202002308975, 50.93470100318677], [6.016137002306752, 50.93081100318412], [6.011588002301989, 50.92633200318101], [6.012383002302794, 50.926273003180974], [6.006105002296177, 50.91867900317573], [6.003231002293214, 50.91722500317476], [5.993269002282872, 50.91008300316996], [5.990627002280059, 50.90619300316725], [5.9923790022818375, 50.90613100316716], [5.991605002281015, 50.90505700316638], [5.993040002282467, 50.90484300316621], [5.993702002283124, 50.90440800316588], [5.993368002282758, 50.903644003165375], [5.9945050022839075, 50.90351400316524], [5.994809002283954, 50.89557500315958], [5.996608002285677, 50.89252300315734], [5.998624002287737, 50.892918003157575], [5.998505002287579, 50.89180300315682], [5.999130002288216, 50.89191300315682], [5.9997760022888444, 50.89115300315629], [6.000039002289118, 50.891269003156374], [6.001686002290764, 50.89045700315573], [6.008265002297277, 50.88556200315208], [6.009084002298059, 50.88404700315098], [6.00953400229833, 50.878476003146986], [6.010018002298787, 50.87744900314623], [6.0133810023021015, 50.87453300314409], [6.015087002303801, 50.873515003143275], [6.015694002304383, 50.87251400314255], [6.015919002304541, 50.87023100314091]]]}, "properties": {"type": "boundary", "gemeente": "Landgraaf"}}]}