{"type": "FeatureCollection", "metadata": {"gemeente": "Lansingerland", "slug": "lansingerland", "generated_at": "2026-07-28T10:02:02.095237Z", "total_points": 102, "merken": ["StatiegeldNederland", "Stibat", "StichtingOPEN"], "bounds": [4.4391479, 51.9761832, 4.552162, 52.045704]}, "features": [{"type": "Feature", "geometry": {"type": "Point", "coordinates": [4.5299692, 52.0117411]}, "properties": {"type": "inleverpunt", "locatieNaam": "Albert Heijn", "straatNaam": "Dorpsstraat", "straatNr": "84-88", "postcode": "2665 BK", "plaats": "Bleiswijk", "merk": "StatiegeldNederland", "puntType": "automaat", "materialen": ["pet-groot", "pet-klein", "blik", "glas", "krat"], "uitbetaling": ["bonnetje", "donatie"], "vrijToegankelijk": true, "gemeenteBeperking": null, "openingstijden": {"ma": "08:00–21:00", "di": "08:00–21:00", "wo": "08:00–21:00", "do": "08:00–21:00", "vr": "08:00–21:00", "za": "08:00–21:00", "zo": "12:00–19:00"}, "latitude": 52.0117411, "longitude": 4.5299692, "bronId": "252178"}}, {"type": "Feature", "geometry": {"type": "Point", "coordinates": [4.4608856, 51.9814342]}, "properties": {"type": "inleverpunt", "locatieNaam": "Albert Heijn", "straatNaam": "Rozenoord", "straatNr": "2", "postcode": "2651 XN", "plaats": "Berkel en Rodenrijs", "merk": "StatiegeldNederland", "puntType": "automaat", "materialen": ["pet-groot", "pet-klein", "blik", "glas", "krat"], "uitbetaling": ["bonnetje", "donatie"], "vrijToegankelijk": true, "gemeenteBeperking": null, "openingstijden": {"ma": "08:00–20:00", "di": "08:00–20:00", "wo": "08:00–20:00", "do": "08:00–20:00", "vr": "08:00–20:00", "za": "08:00–20:00", "zo": "12:00–19:00"}, "latitude": 51.9814342, "longitude": 4.4608856, "bronId": "252692"}}, {"type": "Feature", "geometry": {"type": "Point", "coordinates": [4.4749258, 51.9939633]}, "properties": {"type": "inleverpunt", "locatieNaam": "Albert Heijn", "straatNaam": "Westerwater", "straatNr": "2", "postcode": "2651 JN", "plaats": "Berkel en Rodenrijs", "merk": "StatiegeldNederland", "puntType": "automaat", "materialen": ["pet-groot", "pet-klein", "blik", "glas", "krat"], "uitbetaling": ["bonnetje", "donatie"], "vrijToegankelijk": true, "gemeenteBeperking": null, "openingstijden": {"ma": "08:00–22:00", "di": "08:00–22:00", "wo": "08:00–22:00", "do": "08:00–22:00", "vr": "08:00–22:00", "za": "08:00–22:00", "zo": "12:00–19:00"}, "latitude": 51.9939633, "longitude": 4.4749258, "bronId": "252912"}}, {"type": "Feature", "geometry": {"type": "Point", "coordinates": [4.480218, 51.991964]}, "properties": {"type": "inleverpunt", "locatieNaam": "Aldi", "straatNaam": "Molenwerfstraat", "straatNr": "27", "postcode": "2651 CK", "plaats": "Berkel en Rodenrijs", "merk": "StatiegeldNederland", "puntType": "automaat", "materialen": ["pet-groot", "pet-klein", "blik", "glas", "krat"], "uitbetaling": ["bonnetje"], "vrijToegankelijk": true, "gemeenteBeperking": null, "openingstijden": {"ma": "08:00–20:00", "di": "08:00–20:00", "wo": "08:00–20:00", "do": "08:00–20:00", "vr": "08:00–20:00", "za": "08:00–20:00", "zo": "12:00–18:00"}, "latitude": 51.991964, "longitude": 4.480218, "bronId": "253272"}}, {"type": "Feature", "geometry": {"type": "Point", "coordinates": [4.4933921, 51.9816167]}, "properties": {"type": "inleverpunt", "locatieNaam": "Appel 2555 - Gem. Lansingerland", "straatNaam": "Tobias Asserlaan", "straatNr": "1", "postcode": "2662 SB", "plaats": "Bergschenhoek", "merk": "StatiegeldNederland", "puntType": "balie", "materialen": ["pet-groot", "pet-klein", "blik"], "uitbetaling": [], "vrijToegankelijk": true, "gemeenteBeperking": null, "openingstijden": {"ma": "09:00–17:00", "di": "09:00–17:00", "wo": "09:00–17:00", "do": "09:00–19:00", "vr": "09:00–17:00", "za": "Gesloten", "zo": "Gesloten"}, "latitude": 51.9816167, "longitude": 4.4933921, "bronId": "253577"}}, {"type": "Feature", "geometry": {"type": "Point", "coordinates": [4.552162, 52.0270006]}, "properties": {"type": "inleverpunt", "locatieNaam": "BS Bulk Statiegeld Bleiswijk", "straatNaam": "Klappolder", "straatNr": "191", "postcode": "2665 MP", "plaats": "Bleiswijk", "merk": "StatiegeldNederland", "puntType": "automaat", "materialen": ["pet-groot", "pet-klein", "blik", "krat"], "uitbetaling": ["donatie", "tikkie"], "vrijToegankelijk": true, "gemeenteBeperking": null, "openingstijden": {"ma": "08:00–20:00", "di": "08:00–20:00", "wo": "08:00–20:00", "do": "08:00–20:00", "vr": "08:00–21:00", "za": "08:00–18:00", "zo": "08:00–20:00"}, "latitude": 52.0270006, "longitude": 4.552162, "bronId": "253916"}}, {"type": "Feature", "geometry": {"type": "Point", "coordinates": [4.5479427, 52.0281268]}, "properties": {"type": "inleverpunt", "locatieNaam": "Ceva/Vending@Work", "straatNaam": "Klappolder", "straatNr": "150", "postcode": "2665 LP", "plaats": "Bleiswijk", "merk": "StatiegeldNederland", "puntType": "automaat", "materialen": ["pet-groot", "pet-klein", "blik"], "uitbetaling": ["donatie", "tikkie"], "vrijToegankelijk": true, "gemeenteBeperking": null, "openingstijden": null, "latitude": 52.0281268, "longitude": 4.5479427, "bronId": "254109"}}, {"type": "Feature", "geometry": {"type": "Point", "coordinates": [4.5347739, 52.0179425]}, "properties": {"type": "inleverpunt", "locatieNaam": "Focus Padel Plaza", "straatNaam": "Hoefweg", "straatNr": "145", "postcode": "2665 CD", "plaats": "Bleiswijk", "merk": "StatiegeldNederland", "puntType": "balie", "materialen": ["pet-groot", "pet-klein", "blik"], "uitbetaling": [], "vrijToegankelijk": false, "gemeenteBeperking": null, "openingstijden": {"ma": "07:00–23:00", "di": "07:00–23:00", "wo": "07:00–23:00", "do": "07:00–23:00", "vr": "07:00–23:00", "za": "07:00–23:00", "zo": "07:00–23:00"}, "latitude": 52.0179425, "longitude": 4.5347739, "bronId": "254797"}}, {"type": "Feature", "geometry": {"type": "Point", "coordinates": [4.4770522, 52.0002057]}, "properties": {"type": "inleverpunt", "locatieNaam": "Hockeyver. Berkel En Rodenrijs", "straatNaam": "Het Hoge Land", "straatNr": "31", "postcode": "2652 EA", "plaats": "Berkel En Rodenrijs", "merk": "StatiegeldNederland", "puntType": "balie", "materialen": ["pet-groot", "pet-klein", "blik"], "uitbetaling": [], "vrijToegankelijk": false, "gemeenteBeperking": null, "openingstijden": {"ma": "24 uur geopend", "di": "24 uur geopend", "wo": "24 uur geopend", "do": "24 uur geopend", "vr": "24 uur geopend", "za": "24 uur geopend", "zo": "24 uur geopend"}, "latitude": 52.0002057, "longitude": 4.4770522, "bronId": "255019"}}, {"type": "Feature", "geometry": {"type": "Point", "coordinates": [4.4794231, 51.9925638]}, "properties": {"type": "inleverpunt", "locatieNaam": "Hoogvliet", "straatNaam": "Molenwerfstraat", "straatNr": "25", "postcode": "2651 CK", "plaats": "Berkel en Rodenrijs", "merk": "StatiegeldNederland", "puntType": "automaat", "materialen": ["pet-groot", "pet-klein", "blik", "glas", "krat"], "uitbetaling": ["bonnetje", "donatie"], "vrijToegankelijk": true, "gemeenteBeperking": null, "openingstijden": {"ma": "08:00–21:00", "di": "08:00–21:00", "wo": "08:00–21:00", "do": "08:00–21:00", "vr": "08:00–21:00", "za": "08:00–20:00", "zo": "12:00–19:00"}, "latitude": 51.9925638, "longitude": 4.4794231, "bronId": "255075"}}, {"type": "Feature", "geometry": {"type": "Point", "coordinates": [4.50043, 51.989246]}, "properties": {"type": "inleverpunt", "locatieNaam": "Jumbo", "straatNaam": "Dorpsstraat", "straatNr": "39", "postcode": "2661 CE", "plaats": "Bergschenhoek", "merk": "StatiegeldNederland", "puntType": "automaat", "materialen": ["pet-groot", "pet-klein", "blik", "glas", "krat"], "uitbetaling": ["bonnetje", "donatie"], "vrijToegankelijk": true, "gemeenteBeperking": null, "openingstijden": {"ma": "07:00–21:00", "di": "07:00–21:00", "wo": "07:00–21:00", "do": "07:00–21:00", "vr": "07:00–21:00", "za": "07:00–21:00", "zo": "12:00–19:00"}, "latitude": 51.989246, "longitude": 4.50043, "bronId": "255327"}}, {"type": "Feature", "geometry": {"type": "Point", "coordinates": [4.530442, 52.010304]}, "properties": {"type": "inleverpunt", "locatieNaam": "Jumbo", "straatNaam": "Dorpsstraat", "straatNr": "39", "postcode": "2665 BG", "plaats": "Bleiswijk", "merk": "StatiegeldNederland", "puntType": "automaat", "materialen": ["pet-groot", "pet-klein", "blik", "glas", "krat"], "uitbetaling": ["bonnetje", "donatie"], "vrijToegankelijk": true, "gemeenteBeperking": null, "openingstijden": {"ma": "08:00–21:00", "di": "08:00–21:00", "wo": "08:00–21:00", "do": "08:00–21:00", "vr": "08:00–21:00", "za": "08:00–21:00", "zo": "12:00–19:00"}, "latitude": 52.010304, "longitude": 4.530442, "bronId": "255328"}}, {"type": "Feature", "geometry": {"type": "Point", "coordinates": [4.489602, 52.002845]}, "properties": {"type": "inleverpunt", "locatieNaam": "Jumbo", "straatNaam": "Esdoornlaan", "straatNr": "1", "postcode": "2651 RC", "plaats": "Berkel en Rodenrijs", "merk": "StatiegeldNederland", "puntType": "automaat", "materialen": ["pet-groot", "pet-klein", "blik", "glas", "krat"], "uitbetaling": ["bonnetje"], "vrijToegankelijk": true, "gemeenteBeperking": null, "openingstijden": {"ma": "07:00–21:00", "di": "07:00–21:00", "wo": "07:00–21:00", "do": "07:00–21:00", "vr": "07:00–21:00", "za": "07:00–21:00", "zo": "12:00–19:00"}, "latitude": 52.002845, "longitude": 4.489602, "bronId": "255355"}}, {"type": "Feature", "geometry": {"type": "Point", "coordinates": [4.454902, 51.990683]}, "properties": {"type": "inleverpunt", "locatieNaam": "Jumbo", "straatNaam": "Westpolderstraat", "straatNr": "86", "postcode": "2652 KW", "plaats": "Berkel en Rodenrijs", "merk": "StatiegeldNederland", "puntType": "automaat", "materialen": ["pet-groot", "pet-klein", "blik", "glas", "krat"], "uitbetaling": ["bonnetje", "donatie"], "vrijToegankelijk": true, "gemeenteBeperking": null, "openingstijden": {"ma": "07:00–21:00", "di": "07:00–21:00", "wo": "07:00–21:00", "do": "07:00–21:00", "vr": "07:00–21:00", "za": "07:00–21:00", "zo": "12:00–19:00"}, "latitude": 51.990683, "longitude": 4.454902, "bronId": "255860"}}, {"type": "Feature", "geometry": {"type": "Point", "coordinates": [4.4747994, 51.9895237]}, "properties": {"type": "inleverpunt", "locatieNaam": "Karwei", "straatNaam": "Berkelse Poort", "straatNr": "149", "postcode": "2651 JX", "plaats": "Berkel en Rodenrijs", "merk": "StatiegeldNederland", "puntType": "automaat", "materialen": ["pet-groot", "pet-klein", "blik", "krat"], "uitbetaling": ["donatie", "tikkie"], "vrijToegankelijk": true, "gemeenteBeperking": null, "openingstijden": {"ma": "09:00–21:00", "di": "09:00–21:00", "wo": "09:00–21:00", "do": "09:00–21:00", "vr": "09:00–21:00", "za": "09:00–18:00", "zo": "12:00–17:00"}, "latitude": 51.9895237, "longitude": 4.4747994, "bronId": "255901"}}, {"type": "Feature", "geometry": {"type": "Point", "coordinates": [4.5340183, 52.016866]}, "properties": {"type": "inleverpunt", "locatieNaam": "Lidl", "straatNaam": "Hoefweg", "straatNr": "133", "postcode": "2665 CD", "plaats": "Bleiswijk", "merk": "StatiegeldNederland", "puntType": "automaat", "materialen": ["pet-groot", "pet-klein", "blik", "glas", "krat"], "uitbetaling": ["bonnetje", "donatie"], "vrijToegankelijk": true, "gemeenteBeperking": null, "openingstijden": {"ma": "07:00–21:00", "di": "07:00–21:00", "wo": "07:00–21:00", "do": "07:00–21:00", "vr": "07:00–21:00", "za": "07:00–20:00", "zo": "12:00–18:00"}, "latitude": 52.016866, "longitude": 4.5340183, "bronId": "256194"}}, {"type": "Feature", "geometry": {"type": "Point", "coordinates": [4.47472, 51.99526]}, "properties": {"type": "inleverpunt", "locatieNaam": "Lidl", "straatNaam": "Westersingel", "straatNr": "49A", "postcode": "2651 CM", "plaats": "Berkel en Rodenrijs", "merk": "StatiegeldNederland", "puntType": "automaat", "materialen": ["pet-groot", "pet-klein", "blik", "glas", "krat"], "uitbetaling": ["bonnetje", "donatie"], "vrijToegankelijk": true, "gemeenteBeperking": null, "openingstijden": {"ma": "08:00–21:00", "di": "08:00–21:00", "wo": "08:00–21:00", "do": "08:00–21:00", "vr": "08:00–21:00", "za": "08:00–21:00", "zo": "12:00–19:00"}, "latitude": 51.99526, "longitude": 4.47472, "bronId": "256459"}}, {"type": "Feature", "geometry": {"type": "Point", "coordinates": [4.4977029, 51.9776741]}, "properties": {"type": "inleverpunt", "locatieNaam": "Manege Lansbergen", "straatNaam": "Bergweg Zuid", "straatNr": "135", "postcode": "2661 CS", "plaats": "Bergschenhoek", "merk": "StatiegeldNederland", "puntType": "balie", "materialen": ["pet-groot", "pet-klein", "blik"], "uitbetaling": [], "vrijToegankelijk": false, "gemeenteBeperking": null, "openingstijden": null, "latitude": 51.9776741, "longitude": 4.4977029, "bronId": "256546"}}, {"type": "Feature", "geometry": {"type": "Point", "coordinates": [4.4808063, 51.9867281]}, "properties": {"type": "inleverpunt", "locatieNaam": "Melanchthon Bergschenhoek", "straatNaam": "De Zijde", "straatNr": "3", "postcode": "2662 EB", "plaats": "Bergschenhoek", "merk": "StatiegeldNederland", "puntType": "automaat", "materialen": ["pet-klein", "blik"], "uitbetaling": ["donatie", "tikkie"], "vrijToegankelijk": true, "gemeenteBeperking": null, "openingstijden": {"ma": "09:00–18:00", "di": "09:00–18:00", "wo": "09:00–18:00", "do": "09:00–18:00", "vr": "09:00–20:00", "za": "09:00–17:00", "zo": "12:00–17:00"}, "latitude": 51.9867281, "longitude": 4.4808063, "bronId": "256773"}}, {"type": "Feature", "geometry": {"type": "Point", "coordinates": [4.5013, 51.9884]}, "properties": {"type": "inleverpunt", "locatieNaam": "Plus", "straatNaam": "Vlashoeck", "straatNr": "24-30", "postcode": "2661 LM", "plaats": "Bergschenhoek", "merk": "StatiegeldNederland", "puntType": "automaat", "materialen": ["pet-groot", "pet-klein", "blik", "glas", "krat"], "uitbetaling": ["bonnetje", "donatie"], "vrijToegankelijk": true, "gemeenteBeperking": null, "openingstijden": {"ma": "07:00–21:00", "di": "07:00–21:00", "wo": "07:00–21:00", "do": "07:00–21:00", "vr": "07:00–21:00", "za": "07:00–21:00", "zo": "12:00–19:00"}, "latitude": 51.9884, "longitude": 4.5013, "bronId": "257571"}}, {"type": "Feature", "geometry": {"type": "Point", "coordinates": [4.5124253, 51.9822078]}, "properties": {"type": "inleverpunt", "locatieNaam": "S.v. B.v.c.b.", "straatNaam": "Sporthoekpad", "straatNr": "1", "postcode": "2661 GV", "plaats": "Bergschenhoek", "merk": "StatiegeldNederland", "puntType": "balie", "materialen": ["pet-groot", "pet-klein", "blik"], "uitbetaling": [], "vrijToegankelijk": false, "gemeenteBeperking": null, "openingstijden": null, "latitude": 51.9822078, "longitude": 4.5124253, "bronId": "257915"}}, {"type": "Feature", "geometry": {"type": "Point", "coordinates": [4.512119, 51.979891]}, "properties": {"type": "inleverpunt", "locatieNaam": "The Orioles", "straatNaam": "Sporthoekpad", "straatNr": "4", "postcode": "2661 GV", "plaats": "Bergschenhoek", "merk": "StatiegeldNederland", "puntType": "balie", "materialen": ["pet-groot", "pet-klein", "blik"], "uitbetaling": [], "vrijToegankelijk": false, "gemeenteBeperking": null, "openingstijden": {"ma": "18:00–22:00", "di": "18:00–22:00", "wo": "18:00–22:00", "do": "18:00–22:00", "vr": "18:00–22:00", "za": "09:00–19:00", "zo": "09:00–19:00"}, "latitude": 51.979891, "longitude": 4.512119, "bronId": "258983"}}, {"type": "Feature", "geometry": {"type": "Point", "coordinates": [4.537675, 52.042931]}, "properties": {"type": "inleverpunt", "locatieNaam": "Rexel Nederland", "straatNaam": "Maansteenweg", "straatNr": "3", "postcode": "2665 NP", "plaats": "Bleiswijk", "merk": "StichtingOPEN", "puntType": "balie", "materialen": ["elektro-klein", "elektro-middel", "lampen", "tl-buizen"], "uitbetaling": [], "vrijToegankelijk": false, "gemeenteBeperking": null, "openingstijden": null, "latitude": 52.042931, "longitude": 4.537675, "bronId": "SP00026287"}}, {"type": "Feature", "geometry": {"type": "Point", "coordinates": [4.531275, 52.011775]}, "properties": {"type": "inleverpunt", "locatieNaam": "Kruidvat Bleiswijk", "straatNaam": "Dorpsstraat", "straatNr": "89", "postcode": "2665 BH", "plaats": "Bleiswijk", "merk": "StichtingOPEN", "puntType": "balie", "materialen": ["batterijen", "lampen"], "uitbetaling": [], "vrijToegankelijk": false, "gemeenteBeperking": null, "openingstijden": null, "latitude": 52.011775, "longitude": 4.531275, "bronId": "SP00024858"}}, {"type": "Feature", "geometry": {"type": "Point", "coordinates": [4.530675, 52.010373]}, "properties": {"type": "inleverpunt", "locatieNaam": "Jumbo Bleiswijk", "straatNaam": "Dorpsstraat", "straatNr": "39", "postcode": "2665 BG", "plaats": "Bleiswijk", "merk": "StichtingOPEN", "puntType": "balie", "materialen": ["batterijen", "lampen"], "uitbetaling": [], "vrijToegankelijk": false, "gemeenteBeperking": null, "openingstijden": null, "latitude": 52.010373, "longitude": 4.530675, "bronId": "SP00025184"}}, {"type": "Feature", "geometry": {"type": "Point", "coordinates": [4.529956, 52.011753]}, "properties": {"type": "inleverpunt", "locatieNaam": "4001 Albert Heijn Bleiswijk", "straatNaam": "Dorpsstraat", "straatNr": "84", "postcode": "2665 BK", "plaats": "Bleiswijk", "merk": "StichtingOPEN", "puntType": "balie", "materialen": ["batterijen", "elektro-klein", "lampen"], "uitbetaling": [], "vrijToegankelijk": false, "gemeenteBeperking": null, "openingstijden": null, "latitude": 52.011753, "longitude": 4.529956, "bronId": "SP00022798"}}, {"type": "Feature", "geometry": {"type": "Point", "coordinates": [4.502062, 51.988834]}, "properties": {"type": "inleverpunt", "locatieNaam": "Van Dijk Bergschenhoek B.V.", "straatNaam": "Julianalaan", "straatNr": "6", "postcode": "2661 EL", "plaats": "Bergschenhoek", "merk": "StichtingOPEN", "puntType": "balie", "materialen": ["elektro-middel", "lampen", "tl-buizen"], "uitbetaling": [], "vrijToegankelijk": false, "gemeenteBeperking": null, "openingstijden": null, "latitude": 51.988834, "longitude": 4.502062, "bronId": "SP00020138"}}, {"type": "Feature", "geometry": {"type": "Point", "coordinates": [4.50177, 51.98868]}, "properties": {"type": "inleverpunt", "locatieNaam": "Kruidvat Bergschenhoek", "straatNaam": "de Vlashoeck", "straatNr": "40", "postcode": "2661 LM", "plaats": "Bergschenhoek", "merk": "StichtingOPEN", "puntType": "balie", "materialen": ["batterijen", "lampen"], "uitbetaling": [], "vrijToegankelijk": false, "gemeenteBeperking": null, "openingstijden": null, "latitude": 51.98868, "longitude": 4.50177, "bronId": "SP00029796"}}, {"type": "Feature", "geometry": {"type": "Point", "coordinates": [4.501667, 51.988477]}, "properties": {"type": "inleverpunt", "locatieNaam": "PLUS Bergschenhoek", "straatNaam": "de Vlashoeck", "straatNr": "2430", "postcode": "2661 LM", "plaats": "Bergschenhoek", "merk": "StichtingOPEN", "puntType": "balie", "materialen": ["batterijen", "lampen"], "uitbetaling": [], "vrijToegankelijk": false, "gemeenteBeperking": null, "openingstijden": null, "latitude": 51.988477, "longitude": 4.501667, "bronId": "SP00024025"}}, {"type": "Feature", "geometry": {"type": "Point", "coordinates": [4.500445, 51.989238]}, "properties": {"type": "inleverpunt", "locatieNaam": "Jumbo Bergschenhoek", "straatNaam": "Dorpsstraat", "straatNr": "39", "postcode": "2661 CE", "plaats": "Bergschenhoek", "merk": "StichtingOPEN", "puntType": "balie", "materialen": ["batterijen", "lampen"], "uitbetaling": [], "vrijToegankelijk": false, "gemeenteBeperking": null, "openingstijden": null, "latitude": 51.989238, "longitude": 4.500445, "bronId": "SP00025444"}}, {"type": "Feature", "geometry": {"type": "Point", "coordinates": [4.499638, 51.979991]}, "properties": {"type": "inleverpunt", "locatieNaam": "Praxis Bergschenhoek - 2253", "straatNaam": "Leeuwenhoekweg", "straatNr": "2a", "postcode": "2661 CZ", "plaats": "Bergschenhoek", "merk": "StichtingOPEN", "puntType": "balie", "materialen": ["elektro-middel", "lampen", "tl-buizen"], "uitbetaling": [], "vrijToegankelijk": false, "gemeenteBeperking": null, "openingstijden": null, "latitude": 51.979991, "longitude": 4.499638, "bronId": "SP00004556"}}, {"type": "Feature", "geometry": {"type": "Point", "coordinates": [4.489762, 52.002816]}, "properties": {"type": "inleverpunt", "locatieNaam": "Jumbo Berkel en Rodenrijs", "straatNaam": "Esdoornlaan", "straatNr": "1", "postcode": "2651 RC", "plaats": "Berkel en Rodenrijs", "merk": "StichtingOPEN", "puntType": "balie", "materialen": ["batterijen", "lampen"], "uitbetaling": [], "vrijToegankelijk": false, "gemeenteBeperking": null, "openingstijden": null, "latitude": 52.002816, "longitude": 4.489762, "bronId": "SP00025180"}}, {"type": "Feature", "geometry": {"type": "Point", "coordinates": [4.480217, 51.991964]}, "properties": {"type": "inleverpunt", "locatieNaam": "770 Hoogvliet Berkel en Rodenrijs", "straatNaam": "Molenwerfstraat", "straatNr": "25", "postcode": "2651 CK", "plaats": "Berkel en Rodenrijs", "merk": "StichtingOPEN", "puntType": "balie", "materialen": ["batterijen", "lampen"], "uitbetaling": [], "vrijToegankelijk": false, "gemeenteBeperking": null, "openingstijden": null, "latitude": 51.991964, "longitude": 4.480217, "bronId": "SP00023964"}}, {"type": "Feature", "geometry": {"type": "Point", "coordinates": [4.479237, 51.992672]}, "properties": {"type": "inleverpunt", "locatieNaam": "Aldi Berkel en Rodenrijs", "straatNaam": "Molenwerfstraat", "straatNr": "27", "postcode": "2651 CK", "plaats": "Berkel en Rodenrijs", "merk": "StichtingOPEN", "puntType": "balie", "materialen": ["batterijen", "elektro-klein", "lampen"], "uitbetaling": [], "vrijToegankelijk": false, "gemeenteBeperking": null, "openingstijden": null, "latitude": 51.992672, "longitude": 4.479237, "bronId": "SP00027206"}}, {"type": "Feature", "geometry": {"type": "Point", "coordinates": [4.476981, 51.993519]}, "properties": {"type": "inleverpunt", "locatieNaam": "Action Berkel en Rodenrijs 1253", "straatNaam": "Kerkstraat", "straatNr": "14", "postcode": "2651 CE", "plaats": "Berkel En Rodenrijs", "merk": "StichtingOPEN", "puntType": "balie", "materialen": ["batterijen", "lampen"], "uitbetaling": [], "vrijToegankelijk": false, "gemeenteBeperking": null, "openingstijden": null, "latitude": 51.993519, "longitude": 4.476981, "bronId": "SP00007827"}}, {"type": "Feature", "geometry": {"type": "Point", "coordinates": [4.47633, 51.99525]}, "properties": {"type": "inleverpunt", "locatieNaam": "Xenos Berkel en Rodenrijs", "straatNaam": "Westerwater", "straatNr": "38", "postcode": "2651 JN", "plaats": "Berkel en Rodenrijs", "merk": "StichtingOPEN", "puntType": "balie", "materialen": ["batterijen", "lampen"], "uitbetaling": [], "vrijToegankelijk": false, "gemeenteBeperking": null, "openingstijden": null, "latitude": 51.99525, "longitude": 4.47633, "bronId": "SP00029939"}}, {"type": "Feature", "geometry": {"type": "Point", "coordinates": [4.474941, 51.994058]}, "properties": {"type": "inleverpunt", "locatieNaam": "1003 Albert Heijn Berkel en Rodenrijs", "straatNaam": "Westerwater", "straatNr": "2", "postcode": "2651 JN", "plaats": "Berkel en Rodenrijs", "merk": "StichtingOPEN", "puntType": "balie", "materialen": ["batterijen", "elektro-klein", "lampen"], "uitbetaling": [], "vrijToegankelijk": false, "gemeenteBeperking": null, "openingstijden": null, "latitude": 51.994058, "longitude": 4.474941, "bronId": "SP00022788"}}, {"type": "Feature", "geometry": {"type": "Point", "coordinates": [4.474676, 51.990105]}, "properties": {"type": "inleverpunt", "locatieNaam": "Karwei Berkel en Rodenrijs", "straatNaam": "Berkelse Poort", "straatNr": "1", "postcode": "2651 JX", "plaats": "Berkel En Rodenrijs", "merk": "StichtingOPEN", "puntType": "balie", "materialen": ["elektro-middel", "lampen", "tl-buizen"], "uitbetaling": [], "vrijToegankelijk": false, "gemeenteBeperking": null, "openingstijden": null, "latitude": 51.990105, "longitude": 4.474676, "bronId": "SP00000744"}}, {"type": "Feature", "geometry": {"type": "Point", "coordinates": [4.460317, 51.982698]}, "properties": {"type": "inleverpunt", "locatieNaam": "1854 Albert Heijn Berkel en Rodenrijs", "straatNaam": "Rozenoord", "straatNr": "2", "postcode": "2651 XN", "plaats": "Berkel en Rodenrijs", "merk": "StichtingOPEN", "puntType": "balie", "materialen": ["batterijen", "elektro-klein", "lampen"], "uitbetaling": [], "vrijToegankelijk": false, "gemeenteBeperking": null, "openingstijden": null, "latitude": 51.982698, "longitude": 4.460317, "bronId": "SP00022780"}}, {"type": "Feature", "geometry": {"type": "Point", "coordinates": [4.455061, 51.990571]}, "properties": {"type": "inleverpunt", "locatieNaam": "Jumbo Berkel en Rodenrijs", "straatNaam": "Westpolderstraat", "straatNr": "86", "postcode": "2652 KW", "plaats": "Berkel en Rodenrijs", "merk": "StichtingOPEN", "puntType": "balie", "materialen": ["batterijen", "lampen"], "uitbetaling": [], "vrijToegankelijk": false, "gemeenteBeperking": null, "openingstijden": null, "latitude": 51.990571, "longitude": 4.455061, "bronId": "SP00025487"}}, {"type": "Feature", "geometry": {"type": "Point", "coordinates": [4.455827, 51.981192]}, "properties": {"type": "inleverpunt", "locatieNaam": "Rataplan Berkel en Rodenrijs", "straatNaam": "Industrieweg", "straatNr": "50", "postcode": "2651 BD", "plaats": "Berkel en Rodenrijs", "merk": "StichtingOPEN", "puntType": "balie", "materialen": ["batterijen", "elektro-klein", "elektro-middel", "lampen", "tl-buizen"], "uitbetaling": [], "vrijToegankelijk": false, "gemeenteBeperking": null, "openingstijden": null, "latitude": 51.981192, "longitude": 4.455827, "bronId": "SP00041092"}}, {"type": "Feature", "geometry": {"type": "Point", "coordinates": [4.519703, 51.986433]}, "properties": {"type": "inleverpunt", "locatieNaam": "Milieustraat Lansingerland", "straatNaam": "Bosland", "straatNr": "51", "postcode": "2661 DV", "plaats": "Bergschenhoek", "merk": "StichtingOPEN", "puntType": "milieustraat", "materialen": ["batterijen", "elektro-groot", "elektro-klein", "elektro-middel", "lampen", "tl-buizen"], "uitbetaling": [], "vrijToegankelijk": false, "gemeenteBeperking": ["Lansingerland"], "openingstijden": null, "latitude": 51.986433, "longitude": 4.519703, "bronId": "SP00009128"}}, {"type": "Feature", "geometry": {"type": "Point", "coordinates": [4.5394441, 52.0398554]}, "properties": {"type": "inleverpunt", "locatieNaam": "DC Hoogvliet", "straatNaam": "Facetlaan", "straatNr": "6", "postcode": "2665 NR", "plaats": "Bleiswijk", "merk": "Stibat", "puntType": "inzamelbak", "materialen": ["batterijen"], "uitbetaling": [], "vrijToegankelijk": false, "gemeenteBeperking": null, "openingstijden": null, "latitude": 52.0398554, "longitude": 4.5394441, "bronId": "L037300"}}, {"type": "Feature", "geometry": {"type": "Point", "coordinates": [4.5363197, 52.026424]}, "properties": {"type": "inleverpunt", "locatieNaam": "Mastermate", "straatNaam": "Hoefweg", "straatNr": "186", "postcode": "2665 LE", "plaats": "Bleiswijk", "merk": "Stibat", "puntType": "inzamelbak", "materialen": ["batterijen"], "uitbetaling": [], "vrijToegankelijk": false, "gemeenteBeperking": null, "openingstijden": null, "latitude": 52.026424, "longitude": 4.5363197, "bronId": "L034692"}}, {"type": "Feature", "geometry": {"type": "Point", "coordinates": [4.529243, 52.045704]}, "properties": {"type": "inleverpunt", "locatieNaam": "Bernard Sanders Aandrijftechniek B.V.", "straatNaam": "Amethistweg", "straatNr": "15", "postcode": "2665 NT", "plaats": "Bleiswijk", "merk": "Stibat", "puntType": "inzamelbak", "materialen": ["batterijen"], "uitbetaling": [], "vrijToegankelijk": false, "gemeenteBeperking": null, "openingstijden": null, "latitude": 52.045704, "longitude": 4.529243, "bronId": "L029159"}}, {"type": "Feature", "geometry": {"type": "Point", "coordinates": [4.5340199, 52.0168675]}, "properties": {"type": "inleverpunt", "locatieNaam": "Lidl", "straatNaam": "Hoefweg", "straatNr": "133", "postcode": "2665 CD", "plaats": "Bleiswijk", "merk": "Stibat", "puntType": "inzamelbak", "materialen": ["batterijen"], "uitbetaling": [], "vrijToegankelijk": false, "gemeenteBeperking": null, "openingstijden": null, "latitude": 52.0168675, "longitude": 4.5340199, "bronId": "L027413"}}, {"type": "Feature", "geometry": {"type": "Point", "coordinates": [4.5329094, 52.010552]}, "properties": {"type": "inleverpunt", "locatieNaam": "Profile Hans Janssen", "straatNaam": "Hazenweg", "straatNr": "2", "postcode": "2665 CZ", "plaats": "Bleiswijk", "merk": "Stibat", "puntType": "inzamelbak", "materialen": ["batterijen"], "uitbetaling": [], "vrijToegankelijk": false, "gemeenteBeperking": null, "openingstijden": null, "latitude": 52.010552, "longitude": 4.5329094, "bronId": "L044008"}}, {"type": "Feature", "geometry": {"type": "Point", "coordinates": [4.5310356, 52.0120348]}, "properties": {"type": "inleverpunt", "locatieNaam": "Kruidvat", "straatNaam": "Dorpsstraat", "straatNr": "89", "postcode": "2665 BH", "plaats": "Bleiswijk", "merk": "Stibat", "puntType": "inzamelbak", "materialen": ["batterijen"], "uitbetaling": [], "vrijToegankelijk": false, "gemeenteBeperking": null, "openingstijden": null, "latitude": 52.0120348, "longitude": 4.5310356, "bronId": "L038881"}}, {"type": "Feature", "geometry": {"type": "Point", "coordinates": [4.5306758, 52.0103732]}, "properties": {"type": "inleverpunt", "locatieNaam": "Jumbo", "straatNaam": "Dorpsstraat", "straatNr": "39", "postcode": "2665 BG", "plaats": "Bleiswijk", "merk": "Stibat", "puntType": "inzamelbak", "materialen": ["batterijen"], "uitbetaling": [], "vrijToegankelijk": false, "gemeenteBeperking": null, "openingstijden": null, "latitude": 52.0103732, "longitude": 4.5306758, "bronId": "L030629"}}, {"type": "Feature", "geometry": {"type": "Point", "coordinates": [4.5299662, 52.0117326]}, "properties": {"type": "inleverpunt", "locatieNaam": "2238 Albert Heijn", "straatNaam": "Dorpsstraat", "straatNr": "84", "postcode": "2665 BK", "plaats": "Bleiswijk", "merk": "Stibat", "puntType": "inzamelbak", "materialen": ["batterijen"], "uitbetaling": [], "vrijToegankelijk": false, "gemeenteBeperking": null, "openingstijden": null, "latitude": 52.0117326, "longitude": 4.5299662, "bronId": "L030468"}}, {"type": "Feature", "geometry": {"type": "Point", "coordinates": [4.5303605, 52.0101534]}, "properties": {"type": "inleverpunt", "locatieNaam": "Primera", "straatNaam": "Dorpsstraat", "straatNr": "35", "postcode": "2665 BG", "plaats": "Bleiswijk", "merk": "Stibat", "puntType": "inzamelbak", "materialen": ["batterijen"], "uitbetaling": [], "vrijToegankelijk": false, "gemeenteBeperking": null, "openingstijden": null, "latitude": 52.0101534, "longitude": 4.5303605, "bronId": "L024199"}}, {"type": "Feature", "geometry": {"type": "Point", "coordinates": [4.5303353, 52.0099465]}, "properties": {"type": "inleverpunt", "locatieNaam": "Zeeman", "straatNaam": "Plaats", "straatNr": "17", "postcode": "2665 CM", "plaats": "Bleiswijk", "merk": "Stibat", "puntType": "inzamelbak", "materialen": ["batterijen"], "uitbetaling": [], "vrijToegankelijk": false, "gemeenteBeperking": null, "openingstijden": null, "latitude": 52.0099465, "longitude": 4.5303353, "bronId": "L019461"}}, {"type": "Feature", "geometry": {"type": "Point", "coordinates": [4.5298454, 52.0104283]}, "properties": {"type": "inleverpunt", "locatieNaam": "D.I.O.", "straatNaam": "Dorpsstraat", "straatNr": "76 C", "postcode": "2665 BK", "plaats": "Bleiswijk", "merk": "Stibat", "puntType": "inzamelbak", "materialen": ["batterijen"], "uitbetaling": [], "vrijToegankelijk": false, "gemeenteBeperking": null, "openingstijden": null, "latitude": 52.0104283, "longitude": 4.5298454, "bronId": "L024517"}}, {"type": "Feature", "geometry": {"type": "Point", "coordinates": [4.5305517, 52.0077729]}, "properties": {"type": "inleverpunt", "locatieNaam": "Hans van Straalen Tweewielers", "straatNaam": "Van Waningstraat", "straatNr": "13", "postcode": "2665 KJ", "plaats": "Bleiswijk", "merk": "Stibat", "puntType": "inzamelbak", "materialen": ["batterijen"], "uitbetaling": [], "vrijToegankelijk": false, "gemeenteBeperking": null, "openingstijden": null, "latitude": 52.0077729, "longitude": 4.5305517, "bronId": "L033009"}}, {"type": "Feature", "geometry": {"type": "Point", "coordinates": [4.5020416, 51.9896296]}, "properties": {"type": "inleverpunt", "locatieNaam": "Bike Totaal Martin van der Wel", "straatNaam": "Dorpsstraat", "straatNr": "73-75", "postcode": "2661 CE", "plaats": "Bergschenhoek", "merk": "Stibat", "puntType": "inzamelbak", "materialen": ["batterijen"], "uitbetaling": [], "vrijToegankelijk": false, "gemeenteBeperking": null, "openingstijden": null, "latitude": 51.9896296, "longitude": 4.5020416, "bronId": "L018844"}}, {"type": "Feature", "geometry": {"type": "Point", "coordinates": [4.5022325, 51.9888131]}, "properties": {"type": "inleverpunt", "locatieNaam": "Michel van Dijk Tweewielers", "straatNaam": "Julianalaan", "straatNr": "10", "postcode": "2661 EL", "plaats": "Bergschenhoek", "merk": "Stibat", "puntType": "inzamelbak", "materialen": ["batterijen"], "uitbetaling": [], "vrijToegankelijk": false, "gemeenteBeperking": null, "openingstijden": null, "latitude": 51.9888131, "longitude": 4.5022325, "bronId": "L026054"}}, {"type": "Feature", "geometry": {"type": "Point", "coordinates": [4.5022385, 51.9885075]}, "properties": {"type": "inleverpunt", "locatieNaam": "Ster Videotheek", "straatNaam": "Beethovenlaan", "straatNr": "3", "postcode": "2661 HA", "plaats": "Bergschenhoek", "merk": "Stibat", "puntType": "inzamelbak", "materialen": ["batterijen"], "uitbetaling": [], "vrijToegankelijk": false, "gemeenteBeperking": null, "openingstijden": null, "latitude": 51.9885075, "longitude": 4.5022385, "bronId": "L021364"}}, {"type": "Feature", "geometry": {"type": "Point", "coordinates": [4.5021005, 51.9888571]}, "properties": {"type": "inleverpunt", "locatieNaam": "Electro World", "straatNaam": "Julianalaan", "straatNr": "6", "postcode": "2661 EL", "plaats": "Bergschenhoek", "merk": "Stibat", "puntType": "inzamelbak", "materialen": ["batterijen"], "uitbetaling": [], "vrijToegankelijk": false, "gemeenteBeperking": null, "openingstijden": null, "latitude": 51.9888571, "longitude": 4.5021005, "bronId": "L015784"}}, {"type": "Feature", "geometry": {"type": "Point", "coordinates": [4.5017757, 51.9886835]}, "properties": {"type": "inleverpunt", "locatieNaam": "Kruidvat", "straatNaam": "De Vlashoech", "straatNr": "40", "postcode": "2661 LM", "plaats": "Bergschenhoek", "merk": "Stibat", "puntType": "inzamelbak", "materialen": ["batterijen"], "uitbetaling": [], "vrijToegankelijk": false, "gemeenteBeperking": null, "openingstijden": null, "latitude": 51.9886835, "longitude": 4.5017757, "bronId": "L014842"}}, {"type": "Feature", "geometry": {"type": "Point", "coordinates": [4.5012574, 51.989553]}, "properties": {"type": "inleverpunt", "locatieNaam": "HEMA Bergschenhoek", "straatNaam": "Rondom", "straatNr": "1b", "postcode": "2661 CA", "plaats": "Bergschenhoek", "merk": "Stibat", "puntType": "inzamelbak", "materialen": ["batterijen"], "uitbetaling": [], "vrijToegankelijk": false, "gemeenteBeperking": null, "openingstijden": null, "latitude": 51.989553, "longitude": 4.5012574, "bronId": "L047028"}}, {"type": "Feature", "geometry": {"type": "Point", "coordinates": [4.5011828, 51.9892476]}, "properties": {"type": "inleverpunt", "locatieNaam": "Optie 1 Bergschenhoek", "straatNaam": "de Kruin", "straatNr": "1", "postcode": "2661 DJ", "plaats": "Bergschenhoek", "merk": "Stibat", "puntType": "inzamelbak", "materialen": ["batterijen"], "uitbetaling": [], "vrijToegankelijk": false, "gemeenteBeperking": null, "openingstijden": null, "latitude": 51.9892476, "longitude": 4.5011828, "bronId": "L038330"}}, {"type": "Feature", "geometry": {"type": "Point", "coordinates": [4.501355, 51.9885668]}, "properties": {"type": "inleverpunt", "locatieNaam": "PLUS", "straatNaam": "de Vlashoeck", "straatNr": "24-30", "postcode": "2661 LM", "plaats": "Bergschenhoek", "merk": "Stibat", "puntType": "inzamelbak", "materialen": ["batterijen"], "uitbetaling": [], "vrijToegankelijk": false, "gemeenteBeperking": null, "openingstijden": null, "latitude": 51.9885668, "longitude": 4.501355, "bronId": "L019358"}}, {"type": "Feature", "geometry": {"type": "Point", "coordinates": [4.5010786, 51.9889323]}, "properties": {"type": "inleverpunt", "locatieNaam": "Zeeman", "straatNaam": "De Kruin", "straatNr": "6", "postcode": "2661 DJ", "plaats": "Bergschenhoek", "merk": "Stibat", "puntType": "inzamelbak", "materialen": ["batterijen"], "uitbetaling": [], "vrijToegankelijk": false, "gemeenteBeperking": null, "openingstijden": null, "latitude": 51.9889323, "longitude": 4.5010786, "bronId": "L019640"}}, {"type": "Feature", "geometry": {"type": "Point", "coordinates": [4.5009732, 51.9888168]}, "properties": {"type": "inleverpunt", "locatieNaam": "Primera", "straatNaam": "de Kruin", "straatNr": "6", "postcode": "2661 DJ", "plaats": "Bergschenhoek", "merk": "Stibat", "puntType": "inzamelbak", "materialen": ["batterijen"], "uitbetaling": [], "vrijToegankelijk": false, "gemeenteBeperking": null, "openingstijden": null, "latitude": 51.9888168, "longitude": 4.5009732, "bronId": "L036786"}}, {"type": "Feature", "geometry": {"type": "Point", "coordinates": [4.5004452, 51.989238]}, "properties": {"type": "inleverpunt", "locatieNaam": "Jumbo", "straatNaam": "Dorpsstraat", "straatNr": "39", "postcode": "2661 CE", "plaats": "Bergschenhoek", "merk": "Stibat", "puntType": "inzamelbak", "materialen": ["batterijen"], "uitbetaling": [], "vrijToegankelijk": false, "gemeenteBeperking": null, "openingstijden": null, "latitude": 51.989238, "longitude": 4.5004452, "bronId": "L036225"}}, {"type": "Feature", "geometry": {"type": "Point", "coordinates": [4.5005487, 51.9884336]}, "properties": {"type": "inleverpunt", "locatieNaam": "DA", "straatNaam": "W.c. De Vlashoeck", "straatNr": "8", "postcode": "2661 LM", "plaats": "Bergschenhoek", "merk": "Stibat", "puntType": "inzamelbak", "materialen": ["batterijen"], "uitbetaling": [], "vrijToegankelijk": false, "gemeenteBeperking": null, "openingstijden": null, "latitude": 51.9884336, "longitude": 4.5005487, "bronId": "L026400"}}, {"type": "Feature", "geometry": {"type": "Point", "coordinates": [4.4998695, 51.9888407]}, "properties": {"type": "inleverpunt", "locatieNaam": "Colorwood Photo B.V", "straatNaam": "Dorpsstraat", "straatNr": "33", "postcode": "2661 CD", "plaats": "Bergschenhoek", "merk": "Stibat", "puntType": "inzamelbak", "materialen": ["batterijen"], "uitbetaling": [], "vrijToegankelijk": false, "gemeenteBeperking": null, "openingstijden": null, "latitude": 51.9888407, "longitude": 4.4998695, "bronId": "L043759"}}, {"type": "Feature", "geometry": {"type": "Point", "coordinates": [4.5012082, 51.9790592]}, "properties": {"type": "inleverpunt", "locatieNaam": "Praxis 2253", "straatNaam": "Leeuwenhoekweg", "straatNr": "2a", "postcode": "2661 CZ", "plaats": "Bergschenhoek", "merk": "Stibat", "puntType": "inzamelbak", "materialen": ["batterijen"], "uitbetaling": [], "vrijToegankelijk": false, "gemeenteBeperking": null, "openingstijden": null, "latitude": 51.9790592, "longitude": 4.5012082, "bronId": "L030062"}}, {"type": "Feature", "geometry": {"type": "Point", "coordinates": [4.4999685, 51.9801528]}, "properties": {"type": "inleverpunt", "locatieNaam": "Kruyt", "straatNaam": "Leeuwenhoekweg", "straatNr": "6", "postcode": "2661 CZ", "plaats": "Bergschenhoek", "merk": "Stibat", "puntType": "inzamelbak", "materialen": ["batterijen"], "uitbetaling": [], "vrijToegankelijk": false, "gemeenteBeperking": null, "openingstijden": null, "latitude": 51.9801528, "longitude": 4.4999685, "bronId": "L045249"}}, {"type": "Feature", "geometry": {"type": "Point", "coordinates": [4.4882344, 52.002817]}, "properties": {"type": "inleverpunt", "locatieNaam": "Jumbo", "straatNaam": "Esdoornlaan", "straatNr": "1", "postcode": "2651 RC", "plaats": "Berkel En Rodenrys", "merk": "Stibat", "puntType": "inzamelbak", "materialen": ["batterijen"], "uitbetaling": [], "vrijToegankelijk": false, "gemeenteBeperking": null, "openingstijden": null, "latitude": 52.002817, "longitude": 4.4882344, "bronId": "L035233"}}, {"type": "Feature", "geometry": {"type": "Point", "coordinates": [4.478584, 51.9955002]}, "properties": {"type": "inleverpunt", "locatieNaam": "Van Wijk Warmte B.V.", "straatNaam": "Noordeindseweg", "straatNr": "24", "postcode": "2651 CW", "plaats": "Berkel En Rodenrys", "merk": "Stibat", "puntType": "inzamelbak", "materialen": ["batterijen"], "uitbetaling": [], "vrijToegankelijk": false, "gemeenteBeperking": null, "openingstijden": null, "latitude": 51.9955002, "longitude": 4.478584, "bronId": "L030414"}}, {"type": "Feature", "geometry": {"type": "Point", "coordinates": [4.4794432, 51.9925661]}, "properties": {"type": "inleverpunt", "locatieNaam": "Aldi", "straatNaam": "Molenwerfstraat", "straatNr": "27", "postcode": "2651 CK", "plaats": "Berkel en Rodenrijs", "merk": "Stibat", "puntType": "inzamelbak", "materialen": ["batterijen"], "uitbetaling": [], "vrijToegankelijk": false, "gemeenteBeperking": null, "openingstijden": null, "latitude": 51.9925661, "longitude": 4.4794432, "bronId": "L041191"}}, {"type": "Feature", "geometry": {"type": "Point", "coordinates": [4.479246, 51.992626]}, "properties": {"type": "inleverpunt", "locatieNaam": "770 Hoogvliet", "straatNaam": "Molenwerfstraat", "straatNr": "25", "postcode": "2651 CK", "plaats": "Berkel En Rodenrijs", "merk": "Stibat", "puntType": "inzamelbak", "materialen": ["batterijen"], "uitbetaling": [], "vrijToegankelijk": false, "gemeenteBeperking": null, "openingstijden": null, "latitude": 51.992626, "longitude": 4.479246, "bronId": "L035373"}}, {"type": "Feature", "geometry": {"type": "Point", "coordinates": [4.4771647, 51.9944016]}, "properties": {"type": "inleverpunt", "locatieNaam": "Total", "straatNaam": "Roderijseweg", "straatNr": "369", "postcode": "2651 CW", "plaats": "Berkel En Rodenrijs", "merk": "Stibat", "puntType": "inzamelbak", "materialen": ["batterijen"], "uitbetaling": [], "vrijToegankelijk": false, "gemeenteBeperking": null, "openingstijden": null, "latitude": 51.9944016, "longitude": 4.4771647, "bronId": "L020596"}}, {"type": "Feature", "geometry": {"type": "Point", "coordinates": [4.4772424, 51.9934689]}, "properties": {"type": "inleverpunt", "locatieNaam": "Kruidvat", "straatNaam": "Kerkstraat", "straatNr": "16-18", "postcode": "2651 CE", "plaats": "Berkel En Rodenrijs", "merk": "Stibat", "puntType": "inzamelbak", "materialen": ["batterijen"], "uitbetaling": [], "vrijToegankelijk": false, "gemeenteBeperking": null, "openingstijden": null, "latitude": 51.9934689, "longitude": 4.4772424, "bronId": "L016495"}}, {"type": "Feature", "geometry": {"type": "Point", "coordinates": [4.4769781, 51.9935552]}, "properties": {"type": "inleverpunt", "locatieNaam": "1253 Action", "straatNaam": "Kerkstraat", "straatNr": "14", "postcode": "2651 CE", "plaats": "Berkel En Rodenrys", "merk": "Stibat", "puntType": "inzamelbak", "materialen": ["batterijen"], "uitbetaling": [], "vrijToegankelijk": false, "gemeenteBeperking": null, "openingstijden": null, "latitude": 51.9935552, "longitude": 4.4769781, "bronId": "L030614"}}, {"type": "Feature", "geometry": {"type": "Point", "coordinates": [4.4762488, 51.9950507]}, "properties": {"type": "inleverpunt", "locatieNaam": "Zeeman", "straatNaam": "Westerwater", "straatNr": "32", "postcode": "2651 JN", "plaats": "Berkel En Rodenrys", "merk": "Stibat", "puntType": "inzamelbak", "materialen": ["batterijen"], "uitbetaling": [], "vrijToegankelijk": false, "gemeenteBeperking": null, "openingstijden": null, "latitude": 51.9950507, "longitude": 4.4762488, "bronId": "L020546"}}, {"type": "Feature", "geometry": {"type": "Point", "coordinates": [4.4767293, 51.9936162]}, "properties": {"type": "inleverpunt", "locatieNaam": "Expert", "straatNaam": "Kerkstraat", "straatNr": "10", "postcode": "2651 CE", "plaats": "Berkel En Rodenrys", "merk": "Stibat", "puntType": "inzamelbak", "materialen": ["batterijen"], "uitbetaling": [], "vrijToegankelijk": false, "gemeenteBeperking": null, "openingstijden": null, "latitude": 51.9936162, "longitude": 4.4767293, "bronId": "L010995"}}, {"type": "Feature", "geometry": {"type": "Point", "coordinates": [4.4760387, 51.9954427]}, "properties": {"type": "inleverpunt", "locatieNaam": "Wibra", "straatNaam": "Westerwater", "straatNr": "46", "postcode": "2651 JN", "plaats": "Berkel En Rodenrys", "merk": "Stibat", "puntType": "inzamelbak", "materialen": ["batterijen"], "uitbetaling": [], "vrijToegankelijk": false, "gemeenteBeperking": null, "openingstijden": null, "latitude": 51.9954427, "longitude": 4.4760387, "bronId": "L031502"}}, {"type": "Feature", "geometry": {"type": "Point", "coordinates": [4.476618, 51.9936538]}, "properties": {"type": "inleverpunt", "locatieNaam": "Thuiskantoor", "straatNaam": "Kerkstraat", "straatNr": "8", "postcode": "2651 CE", "plaats": "Berkel En Rodenrys", "merk": "Stibat", "puntType": "inzamelbak", "materialen": ["batterijen"], "uitbetaling": [], "vrijToegankelijk": false, "gemeenteBeperking": null, "openingstijden": null, "latitude": 51.9936538, "longitude": 4.476618, "bronId": "L028573"}}, {"type": "Feature", "geometry": {"type": "Point", "coordinates": [4.4761641, 51.9949152]}, "properties": {"type": "inleverpunt", "locatieNaam": "Intertoys", "straatNaam": "Westerwater", "straatNr": "28", "postcode": "2651 JN", "plaats": "Berkel En Rodenrijs", "merk": "Stibat", "puntType": "inzamelbak", "materialen": ["batterijen"], "uitbetaling": [], "vrijToegankelijk": false, "gemeenteBeperking": null, "openingstijden": null, "latitude": 51.9949152, "longitude": 4.4761641, "bronId": "L006053"}}, {"type": "Feature", "geometry": {"type": "Point", "coordinates": [4.475956, 51.994698]}, "properties": {"type": "inleverpunt", "locatieNaam": "Hans Anders", "straatNaam": "Westerwater", "straatNr": "18", "postcode": "2651 JN", "plaats": "Berkel En Rodenrys", "merk": "Stibat", "puntType": "inzamelbak", "materialen": ["batterijen"], "uitbetaling": [], "vrijToegankelijk": false, "gemeenteBeperking": null, "openingstijden": null, "latitude": 51.994698, "longitude": 4.475956, "bronId": "L037754"}}, {"type": "Feature", "geometry": {"type": "Point", "coordinates": [4.476288, 51.9933862]}, "properties": {"type": "inleverpunt", "locatieNaam": "Foto Robert Philipe de Klijne", "straatNaam": "Herenstraat", "straatNr": "9a", "postcode": "2651 CB", "plaats": "Berkel En Rodenrijs", "merk": "Stibat", "puntType": "inzamelbak", "materialen": ["batterijen"], "uitbetaling": [], "vrijToegankelijk": false, "gemeenteBeperking": null, "openingstijden": null, "latitude": 51.9933862, "longitude": 4.476288, "bronId": "L009919"}}, {"type": "Feature", "geometry": {"type": "Point", "coordinates": [4.4757499, 51.9947394]}, "properties": {"type": "inleverpunt", "locatieNaam": "Xenos", "straatNaam": "Westerwater", "straatNr": "38", "postcode": "2651 JN", "plaats": "Berkel En Rodenrys", "merk": "Stibat", "puntType": "inzamelbak", "materialen": ["batterijen"], "uitbetaling": [], "vrijToegankelijk": false, "gemeenteBeperking": null, "openingstijden": null, "latitude": 51.9947394, "longitude": 4.4757499, "bronId": "L037022"}}, {"type": "Feature", "geometry": {"type": "Point", "coordinates": [4.4756844, 51.9947476]}, "properties": {"type": "inleverpunt", "locatieNaam": "CIGO", "straatNaam": "Westerwater", "straatNr": "16", "postcode": "2651 JN", "plaats": "Berkel En Rodenrys", "merk": "Stibat", "puntType": "inzamelbak", "materialen": ["batterijen"], "uitbetaling": [], "vrijToegankelijk": false, "gemeenteBeperking": null, "openingstijden": null, "latitude": 51.9947476, "longitude": 4.4756844, "bronId": "L034970"}}, {"type": "Feature", "geometry": {"type": "Point", "coordinates": [4.4752029, 51.9958513]}, "properties": {"type": "inleverpunt", "locatieNaam": "Ritel", "straatNaam": "Westersingel", "straatNr": "45g", "postcode": "2651 CM", "plaats": "Berkel En Rodenrys", "merk": "Stibat", "puntType": "inzamelbak", "materialen": ["batterijen"], "uitbetaling": [], "vrijToegankelijk": false, "gemeenteBeperking": null, "openingstijden": null, "latitude": 51.9958513, "longitude": 4.4752029, "bronId": "L047640"}}, {"type": "Feature", "geometry": {"type": "Point", "coordinates": [4.4756646, 51.9944686]}, "properties": {"type": "inleverpunt", "locatieNaam": "Phone House", "straatNaam": "Westerwater", "straatNr": "10", "postcode": "2651 JN", "plaats": "Berkel en Rodenrijs", "merk": "Stibat", "puntType": "inzamelbak", "materialen": ["batterijen"], "uitbetaling": [], "vrijToegankelijk": false, "gemeenteBeperking": null, "openingstijden": null, "latitude": 51.9944686, "longitude": 4.4756646, "bronId": "L024136"}}, {"type": "Feature", "geometry": {"type": "Point", "coordinates": [4.4758817, 51.9936345]}, "properties": {"type": "inleverpunt", "locatieNaam": "GSM Berkel", "straatNaam": "Herenstraat", "straatNr": "24", "postcode": "2651 CB", "plaats": "Berkel En Rodenrys", "merk": "Stibat", "puntType": "inzamelbak", "materialen": ["batterijen"], "uitbetaling": [], "vrijToegankelijk": false, "gemeenteBeperking": null, "openingstijden": null, "latitude": 51.9936345, "longitude": 4.4758817, "bronId": "L039209"}}, {"type": "Feature", "geometry": {"type": "Point", "coordinates": [4.4752127, 51.9952973]}, "properties": {"type": "inleverpunt", "locatieNaam": "Primera", "straatNaam": "Achterom", "straatNr": "5", "postcode": "2651 JH", "plaats": "Berkel En Rodenrijs", "merk": "Stibat", "puntType": "inzamelbak", "materialen": ["batterijen"], "uitbetaling": [], "vrijToegankelijk": false, "gemeenteBeperking": null, "openingstijden": null, "latitude": 51.9952973, "longitude": 4.4752127, "bronId": "L023260"}}, {"type": "Feature", "geometry": {"type": "Point", "coordinates": [4.4750324, 51.9953816]}, "properties": {"type": "inleverpunt", "locatieNaam": "Lidl", "straatNaam": "Westersingel", "straatNr": "49a", "postcode": "2651 CM", "plaats": "Berkel En Rodenrys", "merk": "Stibat", "puntType": "inzamelbak", "materialen": ["batterijen"], "uitbetaling": [], "vrijToegankelijk": false, "gemeenteBeperking": null, "openingstijden": null, "latitude": 51.9953816, "longitude": 4.4750324, "bronId": "L047212"}}, {"type": "Feature", "geometry": {"type": "Point", "coordinates": [4.4752576, 51.9943868]}, "properties": {"type": "inleverpunt", "locatieNaam": "7434 Etos", "straatNaam": "Westerwater", "straatNr": "13", "postcode": "2651 JN", "plaats": "Berkel & Rodenrijs", "merk": "Stibat", "puntType": "inzamelbak", "materialen": ["batterijen"], "uitbetaling": [], "vrijToegankelijk": false, "gemeenteBeperking": null, "openingstijden": null, "latitude": 51.9943868, "longitude": 4.4752576, "bronId": "L024067"}}, {"type": "Feature", "geometry": {"type": "Point", "coordinates": [4.4752146, 51.9943506]}, "properties": {"type": "inleverpunt", "locatieNaam": "HEMA Westerwater", "straatNaam": "Westerwater", "straatNr": "9", "postcode": "2651 JN", "plaats": "Berkel En Rodenrijs", "merk": "Stibat", "puntType": "inzamelbak", "materialen": ["batterijen"], "uitbetaling": [], "vrijToegankelijk": false, "gemeenteBeperking": null, "openingstijden": null, "latitude": 51.9943506, "longitude": 4.4752146, "bronId": "L006492"}}, {"type": "Feature", "geometry": {"type": "Point", "coordinates": [4.4749438, 51.9940608]}, "properties": {"type": "inleverpunt", "locatieNaam": "1003 Albert Heijn", "straatNaam": "Westerwater", "straatNr": "2", "postcode": "2651 JN", "plaats": "Berkel En Rodenrijs", "merk": "Stibat", "puntType": "inzamelbak", "materialen": ["batterijen"], "uitbetaling": [], "vrijToegankelijk": false, "gemeenteBeperking": null, "openingstijden": null, "latitude": 51.9940608, "longitude": 4.4749438, "bronId": "L007954"}}, {"type": "Feature", "geometry": {"type": "Point", "coordinates": [4.4747097, 51.990003]}, "properties": {"type": "inleverpunt", "locatieNaam": "Karwei", "straatNaam": "Berkelse Poort", "straatNr": "1", "postcode": "2651 JX", "plaats": "Berkel En Rodenrys", "merk": "Stibat", "puntType": "inzamelbak", "materialen": ["batterijen"], "uitbetaling": [], "vrijToegankelijk": false, "gemeenteBeperking": null, "openingstijden": null, "latitude": 51.990003, "longitude": 4.4747097, "bronId": "L021390"}}, {"type": "Feature", "geometry": {"type": "Point", "coordinates": [4.4651294, 51.979917]}, "properties": {"type": "inleverpunt", "locatieNaam": "Bike Totaal Rijwielspecialist Leo Smit", "straatNaam": "Rodenrijseweg", "straatNr": "309", "postcode": "2651 BS", "plaats": "Berkel en Rodenrijs", "merk": "Stibat", "puntType": "inzamelbak", "materialen": ["batterijen"], "uitbetaling": [], "vrijToegankelijk": false, "gemeenteBeperking": null, "openingstijden": null, "latitude": 51.979917, "longitude": 4.4651294, "bronId": "L018824"}}, {"type": "Feature", "geometry": {"type": "Point", "coordinates": [4.4609058, 51.9814389]}, "properties": {"type": "inleverpunt", "locatieNaam": "1854 Albert Heijn", "straatNaam": "Rozenoord", "straatNr": "2", "postcode": "2651 XN", "plaats": "Berkel En Rodenrys", "merk": "Stibat", "puntType": "inzamelbak", "materialen": ["batterijen"], "uitbetaling": [], "vrijToegankelijk": false, "gemeenteBeperking": null, "openingstijden": null, "latitude": 51.9814389, "longitude": 4.4609058, "bronId": "L025345"}}, {"type": "Feature", "geometry": {"type": "Point", "coordinates": [4.4551809, 51.9905782]}, "properties": {"type": "inleverpunt", "locatieNaam": "Jumbo", "straatNaam": "Westpolderstraat", "straatNr": "86", "postcode": "2652 KW", "plaats": "Berkel En Rodenrijs", "merk": "Stibat", "puntType": "inzamelbak", "materialen": ["batterijen"], "uitbetaling": [], "vrijToegankelijk": false, "gemeenteBeperking": null, "openingstijden": null, "latitude": 51.9905782, "longitude": 4.4551809, "bronId": "L037161"}}, {"type": "Feature", "geometry": {"type": "Point", "coordinates": [4.4592871, 51.9766532]}, "properties": {"type": "inleverpunt", "locatieNaam": "Total", "straatNaam": "Rodenrijseweg", "straatNr": "369", "postcode": "2651 AM", "plaats": "Berkel En Rodenrijs", "merk": "Stibat", "puntType": "inzamelbak", "materialen": ["batterijen"], "uitbetaling": [], "vrijToegankelijk": false, "gemeenteBeperking": null, "openingstijden": null, "latitude": 51.9766532, "longitude": 4.4592871, "bronId": "L020679"}}, {"type": "Feature", "geometry": {"type": "Point", "coordinates": [4.4559722, 51.9833574]}, "properties": {"type": "inleverpunt", "locatieNaam": "Kringloopwinkel Rataplan", "straatNaam": "Veilingweg", "straatNr": "54", "postcode": "2651 BE", "plaats": "Berkel En Rodenrys", "merk": "Stibat", "puntType": "inzamelbak", "materialen": ["batterijen"], "uitbetaling": [], "vrijToegankelijk": false, "gemeenteBeperking": null, "openingstijden": null, "latitude": 51.9833574, "longitude": 4.4559722, "bronId": "L038257"}}, {"type": "Feature", "geometry": {"type": "Point", "coordinates": [4.4525268, 51.982311]}, "properties": {"type": "inleverpunt", "locatieNaam": "Informatique Computers", "straatNaam": "Archimedesstraat", "straatNr": "1", "postcode": "2652 XR", "plaats": "Berkel En Rodenrys", "merk": "Stibat", "puntType": "inzamelbak", "materialen": ["batterijen"], "uitbetaling": [], "vrijToegankelijk": false, "gemeenteBeperking": null, "openingstijden": null, "latitude": 51.982311, "longitude": 4.4525268, "bronId": "L029524"}}, {"type": "Feature", "geometry": {"type": "Point", "coordinates": [4.4525268, 51.982311]}, "properties": {"type": "inleverpunt", "locatieNaam": "Informatique Computers", "straatNaam": "Braillestraat", "straatNr": "20", "postcode": "2652 XV", "plaats": "Berkel En Rodenrys", "merk": "Stibat", "puntType": "inzamelbak", "materialen": ["batterijen"], "uitbetaling": [], "vrijToegankelijk": false, "gemeenteBeperking": null, "openingstijden": null, "latitude": 51.982311, "longitude": 4.4525268, "bronId": "L030230"}}, {"type": "Feature", "geometry": {"type": "Point", "coordinates": [4.4391479, 51.9761832]}, "properties": {"type": "inleverpunt", "locatieNaam": "Picnic", "straatNaam": "Da Vincistraat", "straatNr": "1", "postcode": "2652 XE", "plaats": "Berkel en Rodenrijs", "merk": "Stibat", "puntType": "inzamelbak", "materialen": ["batterijen"], "uitbetaling": [], "vrijToegankelijk": false, "gemeenteBeperking": null, "openingstijden": null, "latitude": 51.9761832, "longitude": 4.4391479, "bronId": "L043741"}}, {"type": "Feature", "geometry": {"type": "Polygon", "coordinates": [[[4.518366000834414, 51.960399003890316], [4.521013000837231, 51.96345300389231], [4.523474000839726, 51.96386200389252], [4.527550000843904, 51.96552500389358], [4.528760000845201, 51.96702400389454], [4.534985000851519, 51.96827200389538], [4.535687000852335, 51.97041500389672], [4.539951000856592, 51.96988500389641], [4.545630000862423, 51.97235100389798], [4.549196000866048, 51.97316700389848], [4.552238000869198, 51.974978003899665], [4.55376100087083, 51.977041003900936], [4.55382800087093, 51.97757600390129], [4.552005000869163, 51.97884600390209], [4.551995000869226, 51.980229003902906], [4.550848000868161, 51.98193100390399], [4.548070000865446, 51.98342800390492], [4.5484280008658855, 51.984917003905856], [4.546339000864129, 51.99151400390998], [4.5483880008662405, 51.9925570039106], [4.547005000864924, 51.99394300391149], [4.547467000865424, 51.99465700391195], [4.549894000867919, 51.99574700391265], [4.552275000870574, 52.0008310039158], [4.552356000870738, 52.002458003916814], [4.5548750008734515, 52.00594900391903], [4.555839000874613, 52.00976400392142], [4.555665000874507, 52.01103100392218], [4.557134000876134, 52.01401200392403], [4.556627000875829, 52.01794900392649], [4.557368000876697, 52.020344003927995], [4.5574100008769145, 52.02369300393007], [4.558163000877747, 52.02515600393101], [4.5582180008779964, 52.02890800393333], [4.560140000880145, 52.033190003936014], [4.563457000883609, 52.03577700393762], [4.563272000883584, 52.038822003939515], [4.561060000881531, 52.042061003941484], [4.561462000881936, 52.04210600394153], [4.565201000886541, 52.05849600395167], [4.557809000879291, 52.061741003953685], [4.5571800008786365, 52.06123900395338], [4.55768600087913, 52.06095300395319], [4.5505330008717095, 52.0563040039503], [4.548884000869939, 52.05406400394888], [4.547547000868405, 52.050370003946604], [4.54537600086615, 52.04895900394573], [4.534666000855439, 52.04956300394601], [4.526780000847334, 52.04587700394368], [4.515292000835458, 52.03921600393952], [4.507091000826893, 52.03284700393547], [4.505730000825491, 52.03214000393506], [4.504710000824456, 52.031931003934915], [4.47738400079703, 52.031792003934676], [4.477681000797306, 52.03139500393441], [4.477028000796645, 52.031281003934296], [4.476706000796342, 52.03164200393456], [4.468602000787961, 52.026979003931565], [4.467993000787286, 52.02578700393085], [4.467324000786596, 52.025408003930615], [4.463566000782764, 52.02424000392987], [4.461304000780475, 52.023889003929625], [4.460385000779507, 52.02304200392907], [4.457275000776343, 52.02222000392859], [4.457631000776607, 52.02046500392749], [4.458325000777248, 52.0194330039268], [4.458084000776959, 52.01857600392629], [4.459121000777969, 52.01798500392595], [4.459438000778236, 52.01704500392535], [4.45854500077731, 52.016470003924994], [4.458547000777267, 52.01562100392442], [4.460681000779325, 52.0140450039235], [4.461562000780135, 52.01265100392261], [4.4596900007782, 52.011629003921975], [4.459223000777671, 52.010499003921254], [4.4578350007762335, 52.009647003920726], [4.457554000775918, 52.00903800392036], [4.456405000774738, 52.00852700392003], [4.455892000774149, 52.00712200391911], [4.455389000773626, 52.00679800391893], [4.45540600077362, 52.00634300391867], [4.457043000775187, 52.0049440039178], [4.457802000775932, 52.004564003917565], [4.458900000777034, 52.004644003917626], [4.458498000776584, 52.003687003917015], [4.458728000776732, 52.00220900391613], [4.449776000767657, 52.00050300391495], [4.451341000769104, 51.99819300391355], [4.452878000770601, 51.99727100391299], [4.4477090007652, 51.993372003910544], [4.447248000764686, 51.99240900390989], [4.4257980007424935, 51.98007600390203], [4.42502200074171, 51.97998200390194], [4.424222000740866, 51.979259003901504], [4.446682000762539, 51.96278600389138], [4.447494000763363, 51.96295900389148], [4.450514000766548, 51.96581300389327], [4.457196000773344, 51.967413003894315], [4.4600980007763305, 51.96878200389521], [4.460577000776853, 51.96959400389572], [4.460161000776545, 51.971609003896994], [4.46222100077867, 51.97268100389769], [4.461346000777903, 51.974837003899005], [4.464023000780718, 51.977148003900474], [4.463241000779951, 51.97752700390074], [4.46412500078088, 51.978307003901215], [4.465803000782597, 51.9789300039016], [4.466680000783454, 51.978498003901365], [4.46760700078441, 51.978957003901655], [4.469451000786329, 51.98018700390242], [4.4690120007859075, 51.980549003902645], [4.49525800081157, 51.96740300389461], [4.495800000812348, 51.971844003897374], [4.506628000822934, 51.966354003894004], [4.505844000822109, 51.96565200389353], [4.509274000825464, 51.96389500389247], [4.512247000828373, 51.962420003891566], [4.513103000829258, 51.96292200389188], [4.513901000830045, 51.96265400389169], [4.518366000834414, 51.960399003890316]]]}, "properties": {"type": "boundary", "gemeente": "Lansingerland"}}]}