{"type": "FeatureCollection", "metadata": {"gemeente": "Laren", "slug": "laren", "generated_at": "2026-07-28T19:03:25.026558Z", "total_points": 17, "merken": ["StatiegeldNederland", "Stibat", "StichtingOPEN"], "bounds": [5.2235493, 52.2502368, 5.2305862, 52.257952]}, "features": [{"type": "Feature", "geometry": {"type": "Point", "coordinates": [5.2269811, 52.2544365]}, "properties": {"type": "inleverpunt", "locatieNaam": "Albert Heijn", "straatNaam": "Zevenend", "straatNr": "2", "postcode": "1251 RN", "plaats": "Laren", "merk": "StatiegeldNederland", "puntType": "automaat", "materialen": ["pet-groot", "pet-klein", "blik", "glas", "krat"], "uitbetaling": ["bonnetje", "donatie"], "vrijToegankelijk": true, "gemeenteBeperking": null, "openingstijden": {"ma": "08:00–21:00", "di": "08:00–21:00", "wo": "08:00–21:00", "do": "08:00–21:00", "vr": "08:00–21:00", "za": "08:00–21:00", "zo": "09:00–20:00"}, "latitude": 52.2544365, "longitude": 5.2269811, "bronId": "252951"}}, {"type": "Feature", "geometry": {"type": "Point", "coordinates": [5.2295851, 52.2545911]}, "properties": {"type": "inleverpunt", "locatieNaam": "Jumbo", "straatNaam": "Plein 1945", "straatNr": "3", "postcode": "1251 MA", "plaats": "Laren", "merk": "StatiegeldNederland", "puntType": "automaat", "materialen": ["pet-groot", "pet-klein", "blik", "glas", "krat"], "uitbetaling": ["bonnetje"], "vrijToegankelijk": true, "gemeenteBeperking": null, "openingstijden": {"ma": "08:00–21:00", "di": "08:00–21:00", "wo": "08:00–21:00", "do": "08:00–21:00", "vr": "08:00–21:00", "za": "08:00–21:00", "zo": "12:00–18:00"}, "latitude": 52.2545911, "longitude": 5.2295851, "bronId": "255683"}}, {"type": "Feature", "geometry": {"type": "Point", "coordinates": [5.22968, 52.254592]}, "properties": {"type": "inleverpunt", "locatieNaam": "Jumbo Laren", "straatNaam": "Plein 1945", "straatNr": "3", "postcode": "1251 MA", "plaats": "Laren", "merk": "StichtingOPEN", "puntType": "balie", "materialen": ["batterijen", "lampen"], "uitbetaling": [], "vrijToegankelijk": false, "gemeenteBeperking": null, "openingstijden": null, "latitude": 52.254592, "longitude": 5.22968, "bronId": "SP00025276"}}, {"type": "Feature", "geometry": {"type": "Point", "coordinates": [5.224336, 52.255302]}, "properties": {"type": "inleverpunt", "locatieNaam": "Expert Laren bv", "straatNaam": "Nieuweweg", "straatNr": "27", "postcode": "1251 LH", "plaats": "Laren", "merk": "StichtingOPEN", "puntType": "balie", "materialen": ["batterijen", "elektro-groot", "elektro-klein", "elektro-middel", "lampen", "tl-buizen"], "uitbetaling": [], "vrijToegankelijk": false, "gemeenteBeperking": null, "openingstijden": null, "latitude": 52.255302, "longitude": 5.224336, "bronId": "SP00002366"}}, {"type": "Feature", "geometry": {"type": "Point", "coordinates": [5.224585, 52.255636]}, "properties": {"type": "inleverpunt", "locatieNaam": "Kruidvat Laren", "straatNaam": "Nieuweweg", "straatNr": "8", "postcode": "1251 LJ", "plaats": "Laren", "merk": "StichtingOPEN", "puntType": "balie", "materialen": ["batterijen", "elektro-klein", "lampen"], "uitbetaling": [], "vrijToegankelijk": false, "gemeenteBeperking": null, "openingstijden": null, "latitude": 52.255636, "longitude": 5.224585, "bronId": "SP00024712"}}, {"type": "Feature", "geometry": {"type": "Point", "coordinates": [5.2305862, 52.2502368]}, "properties": {"type": "inleverpunt", "locatieNaam": "Makker Hoorspecialisten", "straatNaam": "Melkweg", "straatNr": "2", "postcode": "1251 PS", "plaats": "Laren Nh", "merk": "Stibat", "puntType": "inzamelbak", "materialen": ["batterijen"], "uitbetaling": [], "vrijToegankelijk": false, "gemeenteBeperking": null, "openingstijden": null, "latitude": 52.2502368, "longitude": 5.2305862, "bronId": "L027739"}}, {"type": "Feature", "geometry": {"type": "Point", "coordinates": [5.2280712, 52.2535971]}, "properties": {"type": "inleverpunt", "locatieNaam": "Bruna", "straatNaam": "Zevenend", "straatNr": "27", "postcode": "1251 RK", "plaats": "Laren", "merk": "Stibat", "puntType": "inzamelbak", "materialen": ["batterijen"], "uitbetaling": [], "vrijToegankelijk": false, "gemeenteBeperking": null, "openingstijden": null, "latitude": 52.2535971, "longitude": 5.2280712, "bronId": "L024056"}}, {"type": "Feature", "geometry": {"type": "Point", "coordinates": [5.2279664, 52.253597]}, "properties": {"type": "inleverpunt", "locatieNaam": "Qbike", "straatNaam": "Zevenend", "straatNr": "25", "postcode": "1251 RK", "plaats": "Laren Nh", "merk": "Stibat", "puntType": "inzamelbak", "materialen": ["batterijen"], "uitbetaling": [], "vrijToegankelijk": false, "gemeenteBeperking": null, "openingstijden": null, "latitude": 52.253597, "longitude": 5.2279664, "bronId": "L041791"}}, {"type": "Feature", "geometry": {"type": "Point", "coordinates": [5.2297454, 52.2547524]}, "properties": {"type": "inleverpunt", "locatieNaam": "Jumbo", "straatNaam": "Plein 1945", "straatNr": "3", "postcode": "1251 MA", "plaats": "Laren Nh", "merk": "Stibat", "puntType": "inzamelbak", "materialen": ["batterijen"], "uitbetaling": [], "vrijToegankelijk": false, "gemeenteBeperking": null, "openingstijden": null, "latitude": 52.2547524, "longitude": 5.2297454, "bronId": "L007701"}}, {"type": "Feature", "geometry": {"type": "Point", "coordinates": [5.2268868, 52.2542759]}, "properties": {"type": "inleverpunt", "locatieNaam": "1048 Albert Heijn", "straatNaam": "Zevenend", "straatNr": "2", "postcode": "1251 RN", "plaats": "Laren Nh", "merk": "Stibat", "puntType": "inzamelbak", "materialen": ["batterijen"], "uitbetaling": [], "vrijToegankelijk": false, "gemeenteBeperking": null, "openingstijden": null, "latitude": 52.2542759, "longitude": 5.2268868, "bronId": "L004257"}}, {"type": "Feature", "geometry": {"type": "Point", "coordinates": [5.227372, 52.2544393]}, "properties": {"type": "inleverpunt", "locatieNaam": "DOUGLAS", "straatNaam": "Zevenend 17", "straatNr": "17", "postcode": "1251 RK", "plaats": "Laren", "merk": "Stibat", "puntType": "inzamelbak", "materialen": ["batterijen"], "uitbetaling": [], "vrijToegankelijk": false, "gemeenteBeperking": null, "openingstijden": null, "latitude": 52.2544393, "longitude": 5.227372, "bronId": "L049174"}}, {"type": "Feature", "geometry": {"type": "Point", "coordinates": [5.2247092, 52.255374]}, "properties": {"type": "inleverpunt", "locatieNaam": "HEMA Laren", "straatNaam": "Nieuweweg", "straatNr": "21", "postcode": "1251 LG", "plaats": "Laren", "merk": "Stibat", "puntType": "inzamelbak", "materialen": ["batterijen"], "uitbetaling": [], "vrijToegankelijk": false, "gemeenteBeperking": null, "openingstijden": null, "latitude": 52.255374, "longitude": 5.2247092, "bronId": "L046968"}}, {"type": "Feature", "geometry": {"type": "Point", "coordinates": [5.2244074, 52.2553669]}, "properties": {"type": "inleverpunt", "locatieNaam": "Expert", "straatNaam": "Nieuweweg", "straatNr": "27", "postcode": "1251 LH", "plaats": "Laren Nh", "merk": "Stibat", "puntType": "inzamelbak", "materialen": ["batterijen"], "uitbetaling": [], "vrijToegankelijk": false, "gemeenteBeperking": null, "openingstijden": null, "latitude": 52.2553669, "longitude": 5.2244074, "bronId": "L009038"}}, {"type": "Feature", "geometry": {"type": "Point", "coordinates": [5.224564, 52.2557067]}, "properties": {"type": "inleverpunt", "locatieNaam": "Kruidvat", "straatNaam": "Nieuweweg", "straatNr": "8", "postcode": "1251 LJ", "plaats": "Laren", "merk": "Stibat", "puntType": "inzamelbak", "materialen": ["batterijen"], "uitbetaling": [], "vrijToegankelijk": false, "gemeenteBeperking": null, "openingstijden": null, "latitude": 52.2557067, "longitude": 5.224564, "bronId": "L015095"}}, {"type": "Feature", "geometry": {"type": "Point", "coordinates": [5.2235493, 52.2563159]}, "properties": {"type": "inleverpunt", "locatieNaam": "Xenos", "straatNaam": "Klaaskampen", "straatNr": "2-4", "postcode": "1251 KP", "plaats": "Laren Nh", "merk": "Stibat", "puntType": "inzamelbak", "materialen": ["batterijen"], "uitbetaling": [], "vrijToegankelijk": false, "gemeenteBeperking": null, "openingstijden": null, "latitude": 52.2563159, "longitude": 5.2235493, "bronId": "L045511"}}, {"type": "Feature", "geometry": {"type": "Point", "coordinates": [5.2235874, 52.2563144]}, "properties": {"type": "inleverpunt", "locatieNaam": "Intertoys", "straatNaam": "Klaaskampen", "straatNr": "2", "postcode": "1251 KP", "plaats": "Laren", "merk": "Stibat", "puntType": "inzamelbak", "materialen": ["batterijen"], "uitbetaling": [], "vrijToegankelijk": false, "gemeenteBeperking": null, "openingstijden": null, "latitude": 52.2563144, "longitude": 5.2235874, "bronId": "L043528"}}, {"type": "Feature", "geometry": {"type": "Point", "coordinates": [5.2235604, 52.257952]}, "properties": {"type": "inleverpunt", "locatieNaam": "Phone Service Point", "straatNaam": "Naarderstraat", "straatNr": "16", "postcode": "1251 BC", "plaats": "Laren Nh", "merk": "Stibat", "puntType": "inzamelbak", "materialen": ["batterijen"], "uitbetaling": [], "vrijToegankelijk": false, "gemeenteBeperking": null, "openingstijden": null, "latitude": 52.257952, "longitude": 5.2235604, "bronId": "L041987"}}, {"type": "Feature", "geometry": {"type": "Polygon", "coordinates": [[[5.218945001549177, 52.21215100404387], [5.224730001555518, 52.22519700405169], [5.22290100155369, 52.22526100405174], [5.245093001577116, 52.25443100406904], [5.243980001576005, 52.25453500406915], [5.231787001564231, 52.26468300407539], [5.230593001563037, 52.264695004075385], [5.230135001562617, 52.26561800407597], [5.229572001562048, 52.26548900407588], [5.226393001558972, 52.267926004077374], [5.225897001558478, 52.26797600407739], [5.2262690015589435, 52.270254004078765], [5.225508001558294, 52.27290900408039], [5.2195890015522695, 52.27050300407899], [5.2169300015495494, 52.26899800407813], [5.21164400154419, 52.267344004077174], [5.20924400154173, 52.265935004076326], [5.203822001536356, 52.267115004077134], [5.188853001520554, 52.24765100406556], [5.198951001530373, 52.240848004061384], [5.218945001549177, 52.21215100404387]]]}, "properties": {"type": "boundary", "gemeente": "Laren"}}]}