{"type": "FeatureCollection", "metadata": {"gemeente": "Leidschendam-Voorburg", "slug": "leidschendam-voorburg", "generated_at": "2026-07-28T09:25:50.134599Z", "total_points": 108, "merken": ["StatiegeldNederland", "Stibat", "StichtingOPEN"], "bounds": [4.3445259, 52.0599007, 4.4707956, 52.1041274]}, "features": [{"type": "Feature", "geometry": {"type": "Point", "coordinates": [4.3594335, 52.0756589]}, "properties": {"type": "inleverpunt", "locatieNaam": "Albert Heijn", "straatNaam": "Kon. Julianalaan", "straatNr": "263", "postcode": "2273 JG", "plaats": "Voorburg", "merk": "StatiegeldNederland", "puntType": "automaat", "materialen": ["pet-groot", "pet-klein", "blik", "glas", "krat"], "uitbetaling": ["bonnetje", "donatie"], "vrijToegankelijk": true, "gemeenteBeperking": null, "openingstijden": {"ma": "08:00–22:00", "di": "08:00–22:00", "wo": "08:00–22:00", "do": "08:00–22:00", "vr": "08:00–22:00", "za": "08:00–22:00", "zo": "09:00–22:00"}, "latitude": 52.0756589, "longitude": 4.3594335, "bronId": "252418"}}, {"type": "Feature", "geometry": {"type": "Point", "coordinates": [4.3622434, 52.0678388]}, "properties": {"type": "inleverpunt", "locatieNaam": "Albert Heijn", "straatNaam": "Parkweg", "straatNr": "30", "postcode": "2271 AK", "plaats": "Voorburg", "merk": "StatiegeldNederland", "puntType": "automaat", "materialen": ["pet-groot", "pet-klein", "blik", "glas", "krat"], "uitbetaling": ["bonnetje", "donatie"], "vrijToegankelijk": true, "gemeenteBeperking": null, "openingstijden": {"ma": "08:00–21:00", "di": "08:00–21:00", "wo": "08:00–21:00", "do": "08:00–21:00", "vr": "08:00–21:00", "za": "08:00–21:00", "zo": "09:00–20:00"}, "latitude": 52.0678388, "longitude": 4.3622434, "bronId": "252615"}}, {"type": "Feature", "geometry": {"type": "Point", "coordinates": [4.3826862, 52.0870094]}, "properties": {"type": "inleverpunt", "locatieNaam": "Albert Heijn", "straatNaam": "Weigelia", "straatNr": "48", "postcode": "2262 AB", "plaats": "Leidschendam", "merk": "StatiegeldNederland", "puntType": "automaat", "materialen": ["pet-groot", "pet-klein", "blik", "glas", "krat"], "uitbetaling": ["bonnetje", "donatie"], "vrijToegankelijk": true, "gemeenteBeperking": null, "openingstijden": {"ma": "07:00–22:00", "di": "07:00–22:00", "wo": "07:00–22:00", "do": "07:00–22:00", "vr": "07:00–22:00", "za": "07:00–22:00", "zo": "08:00–22:00"}, "latitude": 52.0870094, "longitude": 4.3826862, "bronId": "252900"}}, {"type": "Feature", "geometry": {"type": "Point", "coordinates": [4.3626927, 52.0806311]}, "properties": {"type": "inleverpunt", "locatieNaam": "Aldi", "straatNaam": "Mgr. Van Steelaan", "straatNr": "205-211", "postcode": "2273 EM", "plaats": "Voorburg", "merk": "StatiegeldNederland", "puntType": "automaat", "materialen": ["pet-groot", "pet-klein", "blik", "glas", "krat"], "uitbetaling": ["bonnetje"], "vrijToegankelijk": true, "gemeenteBeperking": null, "openingstijden": {"ma": "08:00–20:00", "di": "08:00–20:00", "wo": "08:00–20:00", "do": "08:00–20:00", "vr": "08:00–20:00", "za": "08:00–20:00", "zo": "09:00–19:00"}, "latitude": 52.0806311, "longitude": 4.3626927, "bronId": "253259"}}, {"type": "Feature", "geometry": {"type": "Point", "coordinates": [4.4037199, 52.0971062]}, "properties": {"type": "inleverpunt", "locatieNaam": "Aldi", "straatNaam": "Prins Frederiklaan", "straatNr": "203", "postcode": "2263 HA", "plaats": "Leidschendam", "merk": "StatiegeldNederland", "puntType": "automaat", "materialen": ["pet-groot", "pet-klein", "blik", "glas", "krat"], "uitbetaling": ["bonnetje"], "vrijToegankelijk": true, "gemeenteBeperking": null, "openingstijden": {"ma": "08:00–20:00", "di": "08:00–20:00", "wo": "08:00–20:00", "do": "08:00–20:00", "vr": "08:00–20:00", "za": "08:00–20:00", "zo": "10:00–18:00"}, "latitude": 52.0971062, "longitude": 4.4037199, "bronId": "253330"}}, {"type": "Feature", "geometry": {"type": "Point", "coordinates": [4.4707956, 52.094647]}, "properties": {"type": "inleverpunt", "locatieNaam": "Boon‘s Markt", "straatNaam": "Hoefblad", "straatNr": "22", "postcode": "2266 JE", "plaats": "Stompwijk", "merk": "StatiegeldNederland", "puntType": "automaat", "materialen": ["pet-groot", "pet-klein", "blik", "glas", "krat"], "uitbetaling": ["bonnetje", "donatie"], "vrijToegankelijk": true, "gemeenteBeperking": null, "openingstijden": {"ma": "08:00–19:00", "di": "08:00–19:00", "wo": "08:00–19:00", "do": "08:00–19:00", "vr": "08:00–19:00", "za": "08:00–18:00", "zo": "12:00–17:00"}, "latitude": 52.094647, "longitude": 4.4707956, "bronId": "253858"}}, {"type": "Feature", "geometry": {"type": "Point", "coordinates": [4.3590952, 52.0765759]}, "properties": {"type": "inleverpunt", "locatieNaam": "Corbulo College", "straatNaam": "Van Tuyll Van Serooskerkenstraat", "straatNr": "2", "postcode": "2273 CB", "plaats": "Voorburg", "merk": "StatiegeldNederland", "puntType": "automaat", "materialen": ["pet-klein", "blik"], "uitbetaling": ["donatie", "tikkie"], "vrijToegankelijk": true, "gemeenteBeperking": null, "openingstijden": null, "latitude": 52.0765759, "longitude": 4.3590952, "bronId": "254208"}}, {"type": "Feature", "geometry": {"type": "Point", "coordinates": [4.3729305, 52.0750119]}, "properties": {"type": "inleverpunt", "locatieNaam": "Dalton College - Voorburg", "straatNaam": "Loolaan", "straatNr": "125", "postcode": "2271 TM", "plaats": "Voorburg", "merk": "StatiegeldNederland", "puntType": "automaat", "materialen": ["pet-klein", "blik"], "uitbetaling": ["donatie", "tikkie"], "vrijToegankelijk": false, "gemeenteBeperking": null, "openingstijden": null, "latitude": 52.0750119, "longitude": 4.3729305, "bronId": "254256"}}, {"type": "Feature", "geometry": {"type": "Point", "coordinates": [4.390634, 52.0908834]}, "properties": {"type": "inleverpunt", "locatieNaam": "Dirk", "straatNaam": "Burg. Sweenslaan", "straatNr": "15F", "postcode": "2262 BN", "plaats": "Leidschendam", "merk": "StatiegeldNederland", "puntType": "automaat", "materialen": ["pet-groot", "pet-klein", "blik", "glas", "krat"], "uitbetaling": ["bonnetje", "donatie"], "vrijToegankelijk": true, "gemeenteBeperking": null, "openingstijden": {"ma": "07:00–21:00", "di": "07:00–21:00", "wo": "07:00–21:00", "do": "07:00–21:00", "vr": "07:00–21:00", "za": "07:00–21:00", "zo": "10:00–19:00"}, "latitude": 52.0908834, "longitude": 4.390634, "bronId": "254451"}}, {"type": "Feature", "geometry": {"type": "Point", "coordinates": [4.3881993, 52.0804839]}, "properties": {"type": "inleverpunt", "locatieNaam": "FSN Total Voorburg", "straatNaam": "Oosteinde", "straatNr": "214", "postcode": "2272 AH", "plaats": "Voorburg", "merk": "StatiegeldNederland", "puntType": "balie", "materialen": ["pet-groot", "pet-klein", "blik"], "uitbetaling": [], "vrijToegankelijk": true, "gemeenteBeperking": null, "openingstijden": {"ma": "06:00–21:00", "di": "06:00–21:00", "wo": "06:00–21:00", "do": "06:00–21:00", "vr": "06:00–21:00", "za": "07:00–21:00", "zo": "08:00–21:00"}, "latitude": 52.0804839, "longitude": 4.3881993, "bronId": "254820"}}, {"type": "Feature", "geometry": {"type": "Point", "coordinates": [4.3584883, 52.0717444]}, "properties": {"type": "inleverpunt", "locatieNaam": "Gymnasium Novum - Voorburg", "straatNaam": "Aart Van Der Leeuwkade", "straatNr": "1", "postcode": "2274 KX", "plaats": "Voorburg", "merk": "StatiegeldNederland", "puntType": "automaat", "materialen": ["pet-klein", "blik"], "uitbetaling": ["donatie", "tikkie"], "vrijToegankelijk": false, "gemeenteBeperking": null, "openingstijden": null, "latitude": 52.0717444, "longitude": 4.3584883, "bronId": "254923"}}, {"type": "Feature", "geometry": {"type": "Point", "coordinates": [4.3980389, 52.0810184]}, "properties": {"type": "inleverpunt", "locatieNaam": "Hoogvliet", "straatNaam": "Damstraat", "straatNr": "8", "postcode": "2265 AG", "plaats": "Leidschendam", "merk": "StatiegeldNederland", "puntType": "automaat", "materialen": ["pet-groot", "pet-klein", "blik", "glas", "krat"], "uitbetaling": ["bonnetje", "donatie"], "vrijToegankelijk": true, "gemeenteBeperking": null, "openingstijden": {"ma": "08:00–20:00", "di": "08:00–20:00", "wo": "08:00–20:00", "do": "08:00–21:00", "vr": "08:00–21:00", "za": "08:00–20:00", "zo": "10:00–20:00"}, "latitude": 52.0810184, "longitude": 4.3980389, "bronId": "255043"}}, {"type": "Feature", "geometry": {"type": "Point", "coordinates": [4.3724684, 52.0857559]}, "properties": {"type": "inleverpunt", "locatieNaam": "Hoogvliet", "straatNaam": "Klaverweide", "straatNr": "84-90", "postcode": "2272 BV", "plaats": "Voorburg", "merk": "StatiegeldNederland", "puntType": "automaat", "materialen": ["pet-groot", "pet-klein", "blik", "glas", "krat"], "uitbetaling": ["bonnetje", "donatie"], "vrijToegankelijk": true, "gemeenteBeperking": null, "openingstijden": {"ma": "08:00–20:00", "di": "08:00–20:00", "wo": "08:00–20:00", "do": "08:00–20:00", "vr": "08:00–20:00", "za": "08:00–20:00", "zo": "10:00–20:00"}, "latitude": 52.0857559, "longitude": 4.3724684, "bronId": "255064"}}, {"type": "Feature", "geometry": {"type": "Point", "coordinates": [4.3642515, 52.0805452]}, "properties": {"type": "inleverpunt", "locatieNaam": "Hoogvliet", "straatNaam": "Mgr. Van Steelaan", "straatNr": "456", "postcode": "2273 GC", "plaats": "Voorburg", "merk": "StatiegeldNederland", "puntType": "automaat", "materialen": ["pet-groot", "pet-klein", "blik", "glas", "krat"], "uitbetaling": ["bonnetje", "donatie"], "vrijToegankelijk": true, "gemeenteBeperking": null, "openingstijden": {"ma": "08:00–21:00", "di": "08:00–21:00", "wo": "08:00–21:00", "do": "08:00–21:00", "vr": "08:00–21:00", "za": "08:00–20:00", "zo": "10:00–20:00"}, "latitude": 52.0805452, "longitude": 4.3642515, "bronId": "255073"}}, {"type": "Feature", "geometry": {"type": "Point", "coordinates": [4.358499, 52.075516]}, "properties": {"type": "inleverpunt", "locatieNaam": "Jumbo", "straatNaam": "Jacob van Eyndestraat", "straatNr": "14", "postcode": "2274 VZ", "plaats": "Voorburg", "merk": "StatiegeldNederland", "puntType": "automaat", "materialen": ["pet-groot", "pet-klein", "blik", "glas", "krat"], "uitbetaling": ["bonnetje", "donatie"], "vrijToegankelijk": true, "gemeenteBeperking": null, "openingstijden": {"ma": "08:00–22:00", "di": "08:00–22:00", "wo": "08:00–22:00", "do": "08:00–22:00", "vr": "08:00–22:00", "za": "08:00–22:00", "zo": "09:00–21:00"}, "latitude": 52.075516, "longitude": 4.358499, "bronId": "255451"}}, {"type": "Feature", "geometry": {"type": "Point", "coordinates": [4.358499, 52.075516]}, "properties": {"type": "inleverpunt", "locatieNaam": "Jumbo", "straatNaam": "Koningin Julianalaan", "straatNr": "370", "postcode": "2274 JV", "plaats": "Voorburg", "merk": "StatiegeldNederland", "puntType": "automaat", "materialen": ["pet-groot", "pet-klein", "blik", "glas", "krat"], "uitbetaling": ["bonnetje", "donatie"], "vrijToegankelijk": true, "gemeenteBeperking": null, "openingstijden": {"ma": "08:00–22:00", "di": "08:00–22:00", "wo": "08:00–22:00", "do": "08:00–22:00", "vr": "08:00–22:00", "za": "08:00–22:00", "zo": "09:00–21:00"}, "latitude": 52.075516, "longitude": 4.358499, "bronId": "255493"}}, {"type": "Feature", "geometry": {"type": "Point", "coordinates": [4.3864172, 52.0891912]}, "properties": {"type": "inleverpunt", "locatieNaam": "Jumbo", "straatNaam": "Liguster", "straatNr": "2", "postcode": "2262 AC", "plaats": "Leidschendam", "merk": "StatiegeldNederland", "puntType": "automaat", "materialen": ["pet-groot", "pet-klein", "blik", "glas", "krat"], "uitbetaling": ["bonnetje", "donatie"], "vrijToegankelijk": true, "gemeenteBeperking": null, "openingstijden": {"ma": "07:00–22:00", "di": "07:00–22:00", "wo": "07:00–22:00", "do": "07:00–22:00", "vr": "07:00–22:00", "za": "07:00–22:00", "zo": "08:00–21:00"}, "latitude": 52.0891912, "longitude": 4.3864172, "bronId": "255541"}}, {"type": "Feature", "geometry": {"type": "Point", "coordinates": [4.3815514, 52.0893906]}, "properties": {"type": "inleverpunt", "locatieNaam": "Pavarotti Motn B.v.", "straatNaam": "Weigelia", "straatNr": "21", "postcode": "2262 AB", "plaats": "Leidschendam", "merk": "StatiegeldNederland", "puntType": "balie", "materialen": ["pet-groot", "pet-klein", "blik"], "uitbetaling": [], "vrijToegankelijk": true, "gemeenteBeperking": null, "openingstijden": {"ma": "11:00–23:00", "di": "11:00–23:00", "wo": "11:00–23:00", "do": "11:00–23:00", "vr": "11:00–23:00", "za": "11:00–23:00", "zo": "11:00–23:00"}, "latitude": 52.0893906, "longitude": 4.3815514, "bronId": "257155"}}, {"type": "Feature", "geometry": {"type": "Point", "coordinates": [4.4025792, 52.0977805]}, "properties": {"type": "inleverpunt", "locatieNaam": "Plus", "straatNaam": "Prins Frederiklaan", "straatNr": "185", "postcode": "2263 HA", "plaats": "Leidschendam", "merk": "StatiegeldNederland", "puntType": "automaat", "materialen": ["pet-groot", "pet-klein", "blik", "glas", "krat"], "uitbetaling": ["bonnetje", "donatie"], "vrijToegankelijk": true, "gemeenteBeperking": null, "openingstijden": {"ma": "08:00–21:00", "di": "08:00–21:00", "wo": "08:00–21:00", "do": "08:00–21:00", "vr": "08:00–21:00", "za": "08:00–21:00", "zo": "10:00–18:00"}, "latitude": 52.0977805, "longitude": 4.4025792, "bronId": "257487"}}, {"type": "Feature", "geometry": {"type": "Point", "coordinates": [4.39233, 52.0938825]}, "properties": {"type": "inleverpunt", "locatieNaam": "S Gravend. C. Leidschendam", "straatNaam": "Fluitpolderplein", "straatNr": "9", "postcode": "2262 ED", "plaats": "Leidschendam", "merk": "StatiegeldNederland", "puntType": "automaat", "materialen": ["pet-klein", "blik"], "uitbetaling": ["donatie", "tikkie"], "vrijToegankelijk": false, "gemeenteBeperking": null, "openingstijden": null, "latitude": 52.0938825, "longitude": 4.39233, "bronId": "257937"}}, {"type": "Feature", "geometry": {"type": "Point", "coordinates": [4.3832633, 52.076422]}, "properties": {"type": "inleverpunt", "locatieNaam": "Scouting Hubertus Brandaan", "straatNaam": "Oosteinde", "straatNr": "144", "postcode": "2271 EJ", "plaats": "Voorburg", "merk": "StatiegeldNederland", "puntType": "balie", "materialen": ["pet-groot", "pet-klein", "blik"], "uitbetaling": [], "vrijToegankelijk": false, "gemeenteBeperking": null, "openingstijden": {"ma": "Gesloten", "di": "Gesloten", "wo": "Gesloten", "do": "Gesloten", "vr": "Gesloten", "za": "10:00–16:00", "zo": "Gesloten"}, "latitude": 52.076422, "longitude": 4.3832633, "bronId": "257995"}}, {"type": "Feature", "geometry": {"type": "Point", "coordinates": [4.382823, 52.086631]}, "properties": {"type": "inleverpunt", "locatieNaam": "Shell", "straatNaam": "Noordsingel", "straatNr": "10", "postcode": "2262 AW", "plaats": "Leidschendam", "merk": "StatiegeldNederland", "puntType": "balie", "materialen": ["pet-groot", "pet-klein", "blik"], "uitbetaling": [], "vrijToegankelijk": true, "gemeenteBeperking": null, "openingstijden": {"ma": "24 uur geopend", "di": "24 uur geopend", "wo": "24 uur geopend", "do": "24 uur geopend", "vr": "24 uur geopend", "za": "24 uur geopend", "zo": "24 uur geopend"}, "latitude": 52.086631, "longitude": 4.382823, "bronId": "258134"}}, {"type": "Feature", "geometry": {"type": "Point", "coordinates": [4.3935587, 52.0927114]}, "properties": {"type": "inleverpunt", "locatieNaam": "Veurs Lyceum - Leidschendam", "straatNaam": "Burgemeester Kolfschotenlaan", "straatNr": "5", "postcode": "2262 EZ", "plaats": "Leidschendam", "merk": "StatiegeldNederland", "puntType": "automaat", "materialen": ["pet-klein", "blik"], "uitbetaling": ["donatie", "tikkie"], "vrijToegankelijk": false, "gemeenteBeperking": null, "openingstijden": null, "latitude": 52.0927114, "longitude": 4.3935587, "bronId": "259195"}}, {"type": "Feature", "geometry": {"type": "Point", "coordinates": [4.3448914, 52.0749351]}, "properties": {"type": "inleverpunt", "locatieNaam": "ViaTim", "straatNaam": "Van de Wateringelaan", "straatNr": "23", "postcode": "2274 CA", "plaats": "Voorburg", "merk": "StatiegeldNederland", "puntType": "balie", "materialen": ["pet-groot", "pet-klein", "blik"], "uitbetaling": ["tikkie"], "vrijToegankelijk": true, "gemeenteBeperking": null, "openingstijden": {"ma": "Gesloten", "di": "08:30–16:00", "wo": "08:30–16:00", "do": "08:30–16:00", "vr": "08:30–16:00", "za": "08:30–16:00", "zo": "08:30–16:00"}, "latitude": 52.0749351, "longitude": 4.3448914, "bronId": "259508"}}, {"type": "Feature", "geometry": {"type": "Point", "coordinates": [4.3840889, 52.0851364]}, "properties": {"type": "inleverpunt", "locatieNaam": "Vmhc Cartouche", "straatNaam": "Veurselaan", "straatNr": "107", "postcode": "2272 AT", "plaats": "Voorburg", "merk": "StatiegeldNederland", "puntType": "balie", "materialen": ["pet-groot", "pet-klein", "blik"], "uitbetaling": [], "vrijToegankelijk": false, "gemeenteBeperking": null, "openingstijden": {"ma": "16:00–23:30", "di": "16:00–23:30", "wo": "13:00–23:30", "do": "16:00–23:30", "vr": "16:00–23:30", "za": "08:00–20:00", "zo": "08:00–20:00"}, "latitude": 52.0851364, "longitude": 4.3840889, "bronId": "259552"}}, {"type": "Feature", "geometry": {"type": "Point", "coordinates": [4.4059583, 52.1041274]}, "properties": {"type": "inleverpunt", "locatieNaam": "Voetbalvereniging Sport En Vriendschap Sev", "straatNaam": "Sportparkweg", "straatNr": "4", "postcode": "2263 SX", "plaats": "Leidschendam", "merk": "StatiegeldNederland", "puntType": "balie", "materialen": ["pet-groot", "pet-klein", "blik"], "uitbetaling": [], "vrijToegankelijk": false, "gemeenteBeperking": null, "openingstijden": null, "latitude": 52.1041274, "longitude": 4.4059583, "bronId": "259607"}}, {"type": "Feature", "geometry": {"type": "Point", "coordinates": [4.403719, 52.097106]}, "properties": {"type": "inleverpunt", "locatieNaam": "Aldi Leidschendam", "straatNaam": "Prins Frederiklaan", "straatNr": "203", "postcode": "2263 HA", "plaats": "Leidschendam", "merk": "StichtingOPEN", "puntType": "balie", "materialen": ["batterijen", "elektro-klein", "lampen"], "uitbetaling": [], "vrijToegankelijk": false, "gemeenteBeperking": null, "openingstijden": null, "latitude": 52.097106, "longitude": 4.403719, "bronId": "SP00027220"}}, {"type": "Feature", "geometry": {"type": "Point", "coordinates": [4.402812, 52.097764]}, "properties": {"type": "inleverpunt", "locatieNaam": "PLUS Leidschendam", "straatNaam": "Prins Frederiklaan", "straatNr": "185", "postcode": "2263 HA", "plaats": "Leidschendam", "merk": "StichtingOPEN", "puntType": "balie", "materialen": ["batterijen", "lampen"], "uitbetaling": [], "vrijToegankelijk": false, "gemeenteBeperking": null, "openingstijden": null, "latitude": 52.097764, "longitude": 4.402812, "bronId": "SP00024149"}}, {"type": "Feature", "geometry": {"type": "Point", "coordinates": [4.39805, 52.081019]}, "properties": {"type": "inleverpunt", "locatieNaam": "430 Hoogvliet Leidschendam", "straatNaam": "Damstraat", "straatNr": "8", "postcode": "2265 AG", "plaats": "Leidschendam", "merk": "StichtingOPEN", "puntType": "balie", "materialen": ["batterijen", "lampen"], "uitbetaling": [], "vrijToegankelijk": false, "gemeenteBeperking": null, "openingstijden": null, "latitude": 52.081019, "longitude": 4.39805, "bronId": "SP00023936"}}, {"type": "Feature", "geometry": {"type": "Point", "coordinates": [4.394994, 52.082767]}, "properties": {"type": "inleverpunt", "locatieNaam": "Van 't Hoeft Verlichting B.V.", "straatNaam": "Damlaan", "straatNr": "60", "postcode": "2265 AP", "plaats": "Leidschendam", "merk": "StichtingOPEN", "puntType": "balie", "materialen": ["batterijen", "lampen", "tl-buizen"], "uitbetaling": [], "vrijToegankelijk": false, "gemeenteBeperking": null, "openingstijden": null, "latitude": 52.082767, "longitude": 4.394994, "bronId": "SP00040747"}}, {"type": "Feature", "geometry": {"type": "Point", "coordinates": [4.390634, 52.090883]}, "properties": {"type": "inleverpunt", "locatieNaam": "Dirk Leidschendam", "straatNaam": "Burgemeester Sweenslaan", "straatNr": "15f", "postcode": "2262 BN", "plaats": "Leidschendam", "merk": "StichtingOPEN", "puntType": "balie", "materialen": ["batterijen", "lampen"], "uitbetaling": [], "vrijToegankelijk": false, "gemeenteBeperking": null, "openingstijden": null, "latitude": 52.090883, "longitude": 4.390634, "bronId": "SP00023497"}}, {"type": "Feature", "geometry": {"type": "Point", "coordinates": [4.386048, 52.088908]}, "properties": {"type": "inleverpunt", "locatieNaam": "Action Leidschendam 1204", "straatNaam": "Berberis", "straatNr": "9", "postcode": "2262 AT", "plaats": "Leidschendam", "merk": "StichtingOPEN", "puntType": "balie", "materialen": ["lampen"], "uitbetaling": [], "vrijToegankelijk": false, "gemeenteBeperking": null, "openingstijden": null, "latitude": 52.088908, "longitude": 4.386048, "bronId": "SP00007782"}}, {"type": "Feature", "geometry": {"type": "Point", "coordinates": [4.386109, 52.087115]}, "properties": {"type": "inleverpunt", "locatieNaam": "Kinderboerderij Rusthout", "straatNaam": "Noordsingel", "straatNr": "3", "postcode": "2264 EK", "plaats": "Leidschendam", "merk": "StichtingOPEN", "puntType": "balie", "materialen": ["elektro-klein"], "uitbetaling": [], "vrijToegankelijk": false, "gemeenteBeperking": null, "openingstijden": null, "latitude": 52.087115, "longitude": 4.386109, "bronId": "SP00004111"}}, {"type": "Feature", "geometry": {"type": "Point", "coordinates": [4.384598, 52.089699]}, "properties": {"type": "inleverpunt", "locatieNaam": "Action Leidschendam", "straatNaam": "Eglantierhof", "straatNr": "2", "postcode": "2262 AS", "plaats": "Leidschendam", "merk": "StichtingOPEN", "puntType": "balie", "materialen": ["batterijen", "lampen"], "uitbetaling": [], "vrijToegankelijk": false, "gemeenteBeperking": null, "openingstijden": null, "latitude": 52.089699, "longitude": 4.384598, "bronId": "SP00025512"}}, {"type": "Feature", "geometry": {"type": "Point", "coordinates": [4.384598, 52.089699]}, "properties": {"type": "inleverpunt", "locatieNaam": "Kruidvat Leidschendam", "straatNaam": "Eglantierhof", "straatNr": "2-3", "postcode": "2262 AS", "plaats": "Leidschendam", "merk": "StichtingOPEN", "puntType": "balie", "materialen": ["batterijen", "lampen"], "uitbetaling": [], "vrijToegankelijk": false, "gemeenteBeperking": null, "openingstijden": null, "latitude": 52.089699, "longitude": 4.384598, "bronId": "SP00024863"}}, {"type": "Feature", "geometry": {"type": "Point", "coordinates": [4.383395, 52.087422]}, "properties": {"type": "inleverpunt", "locatieNaam": "1151 Albert Heijn Leidschendam", "straatNaam": "Weigelia", "straatNr": "48", "postcode": "2262 AB", "plaats": "Leidschendam", "merk": "StichtingOPEN", "puntType": "balie", "materialen": ["batterijen", "elektro-klein", "lampen"], "uitbetaling": [], "vrijToegankelijk": false, "gemeenteBeperking": null, "openingstijden": null, "latitude": 52.087422, "longitude": 4.383395, "bronId": "SP00022870"}}, {"type": "Feature", "geometry": {"type": "Point", "coordinates": [4.383268, 52.087747]}, "properties": {"type": "inleverpunt", "locatieNaam": "Media Markt Leidschendam", "straatNaam": "Liguster", "straatNr": "102", "postcode": "2262 AC", "plaats": "Leidschendam", "merk": "StichtingOPEN", "puntType": "balie", "materialen": ["batterijen", "elektro-groot", "elektro-klein", "elektro-middel", "lampen", "tl-buizen"], "uitbetaling": [], "vrijToegankelijk": false, "gemeenteBeperking": null, "openingstijden": null, "latitude": 52.087747, "longitude": 4.383268, "bronId": "SP00031309"}}, {"type": "Feature", "geometry": {"type": "Point", "coordinates": [4.38262, 52.088379]}, "properties": {"type": "inleverpunt", "locatieNaam": "Jumbo Leidschendam", "straatNaam": "Weigelia", "straatNr": "18", "postcode": "2262 AB", "plaats": "Leidschendam", "merk": "StichtingOPEN", "puntType": "balie", "materialen": ["batterijen", "lampen"], "uitbetaling": [], "vrijToegankelijk": false, "gemeenteBeperking": null, "openingstijden": null, "latitude": 52.088379, "longitude": 4.38262, "bronId": "SP00025486"}}, {"type": "Feature", "geometry": {"type": "Point", "coordinates": [4.372846, 52.085797]}, "properties": {"type": "inleverpunt", "locatieNaam": "460 Hoogvliet Voorburg", "straatNaam": "Klaverweide", "straatNr": "8490", "postcode": "2272 BV", "plaats": "Voorburg", "merk": "StichtingOPEN", "puntType": "balie", "materialen": ["batterijen", "lampen"], "uitbetaling": [], "vrijToegankelijk": false, "gemeenteBeperking": null, "openingstijden": null, "latitude": 52.085797, "longitude": 4.372846, "bronId": "SP00023939"}}, {"type": "Feature", "geometry": {"type": "Point", "coordinates": [4.364341, 52.080489]}, "properties": {"type": "inleverpunt", "locatieNaam": "Hoogvliet Voorburg (250)", "straatNaam": "Monseigneur van Steelaan", "straatNr": "456", "postcode": "2273 GC", "plaats": "Voorburg", "merk": "StichtingOPEN", "puntType": "balie", "materialen": ["batterijen", "lampen"], "uitbetaling": [], "vrijToegankelijk": false, "gemeenteBeperking": null, "openingstijden": null, "latitude": 52.080489, "longitude": 4.364341, "bronId": "SP00023920"}}, {"type": "Feature", "geometry": {"type": "Point", "coordinates": [4.364976, 52.067874]}, "properties": {"type": "inleverpunt", "locatieNaam": "090 Hoogvliet Voorburg", "straatNaam": "Herenstraat", "straatNr": "52", "postcode": "2271 CJ", "plaats": "Voorburg", "merk": "StichtingOPEN", "puntType": "balie", "materialen": ["batterijen", "lampen"], "uitbetaling": [], "vrijToegankelijk": false, "gemeenteBeperking": null, "openingstijden": null, "latitude": 52.067874, "longitude": 4.364976, "bronId": "SP00023906"}}, {"type": "Feature", "geometry": {"type": "Point", "coordinates": [4.36241, 52.067845]}, "properties": {"type": "inleverpunt", "locatieNaam": "1659 Albert Heijn Voorburg", "straatNaam": "Parkweg", "straatNr": "30", "postcode": "2271 AK", "plaats": "Voorburg", "merk": "StichtingOPEN", "puntType": "balie", "materialen": ["batterijen", "lampen"], "uitbetaling": [], "vrijToegankelijk": false, "gemeenteBeperking": null, "openingstijden": null, "latitude": 52.067845, "longitude": 4.36241, "bronId": "SP00022844"}}, {"type": "Feature", "geometry": {"type": "Point", "coordinates": [4.359983, 52.075742]}, "properties": {"type": "inleverpunt", "locatieNaam": "1109 Albert Heijn Voorburg", "straatNaam": "Koningin Julianalaan", "straatNr": "263", "postcode": "2273 JG", "plaats": "Voorburg", "merk": "StichtingOPEN", "puntType": "balie", "materialen": ["batterijen", "elektro-klein", "lampen"], "uitbetaling": [], "vrijToegankelijk": false, "gemeenteBeperking": null, "openingstijden": null, "latitude": 52.075742, "longitude": 4.359983, "bronId": "SP00022850"}}, {"type": "Feature", "geometry": {"type": "Point", "coordinates": [4.359941, 52.076074]}, "properties": {"type": "inleverpunt", "locatieNaam": "Kruidvat Voorburg", "straatNaam": "Koningin Julianalaan", "straatNr": "235237", "postcode": "2273 JG", "plaats": "Voorburg", "merk": "StichtingOPEN", "puntType": "balie", "materialen": ["batterijen", "lampen"], "uitbetaling": [], "vrijToegankelijk": false, "gemeenteBeperking": null, "openingstijden": null, "latitude": 52.076074, "longitude": 4.359941, "bronId": "SP00024650"}}, {"type": "Feature", "geometry": {"type": "Point", "coordinates": [4.358533, 52.075304]}, "properties": {"type": "inleverpunt", "locatieNaam": "Jumbo Voorburg", "straatNaam": "Koningin Julianalaan", "straatNr": "370", "postcode": "2274 JV", "plaats": "Voorburg", "merk": "StichtingOPEN", "puntType": "balie", "materialen": ["batterijen", "lampen"], "uitbetaling": [], "vrijToegankelijk": false, "gemeenteBeperking": null, "openingstijden": null, "latitude": 52.075304, "longitude": 4.358533, "bronId": "SP00025453"}}, {"type": "Feature", "geometry": {"type": "Point", "coordinates": [4.357835, 52.075519]}, "properties": {"type": "inleverpunt", "locatieNaam": "GSm Fix", "straatNaam": "Koningin Julianaplein", "straatNr": "31", "postcode": "2274 JE", "plaats": "Voorburg", "merk": "StichtingOPEN", "puntType": "balie", "materialen": ["elektro-klein"], "uitbetaling": [], "vrijToegankelijk": false, "gemeenteBeperking": null, "openingstijden": null, "latitude": 52.075519, "longitude": 4.357835, "bronId": "SP00027372"}}, {"type": "Feature", "geometry": {"type": "Point", "coordinates": [4.4707956, 52.094647]}, "properties": {"type": "inleverpunt", "locatieNaam": "Boon's Dagmarkt", "straatNaam": "Hoefblad", "straatNr": "22", "postcode": "2266 JE", "plaats": "LEIDSCHENDAM", "merk": "Stibat", "puntType": "inzamelbak", "materialen": ["batterijen"], "uitbetaling": [], "vrijToegankelijk": false, "gemeenteBeperking": null, "openingstijden": null, "latitude": 52.094647, "longitude": 4.4707956, "bronId": "L048181"}}, {"type": "Feature", "geometry": {"type": "Point", "coordinates": [4.4037199, 52.0971062]}, "properties": {"type": "inleverpunt", "locatieNaam": "Aldi", "straatNaam": "Prins Frederiklaan", "straatNr": "203", "postcode": "2263 HA", "plaats": "Leidschendam", "merk": "Stibat", "puntType": "inzamelbak", "materialen": ["batterijen"], "uitbetaling": [], "vrijToegankelijk": false, "gemeenteBeperking": null, "openingstijden": null, "latitude": 52.0971062, "longitude": 4.4037199, "bronId": "L041176"}}, {"type": "Feature", "geometry": {"type": "Point", "coordinates": [4.4025387, 52.0976275]}, "properties": {"type": "inleverpunt", "locatieNaam": "Trekpleister", "straatNaam": "Prins Frederiklaan", "straatNr": "282 A", "postcode": "2263 HR", "plaats": "LEIDSCHENDAM", "merk": "Stibat", "puntType": "inzamelbak", "materialen": ["batterijen"], "uitbetaling": [], "vrijToegankelijk": false, "gemeenteBeperking": null, "openingstijden": null, "latitude": 52.0976275, "longitude": 4.4025387, "bronId": "L018173"}}, {"type": "Feature", "geometry": {"type": "Point", "coordinates": [4.4022391, 52.0982165]}, "properties": {"type": "inleverpunt", "locatieNaam": "PLUS", "straatNaam": "Prins Frederiklaan", "straatNr": "185", "postcode": "2263 HA", "plaats": "LEIDSCHENDAM", "merk": "Stibat", "puntType": "inzamelbak", "materialen": ["batterijen"], "uitbetaling": [], "vrijToegankelijk": false, "gemeenteBeperking": null, "openingstijden": null, "latitude": 52.0982165, "longitude": 4.4022391, "bronId": "L019446"}}, {"type": "Feature", "geometry": {"type": "Point", "coordinates": [4.3981419, 52.0808402]}, "properties": {"type": "inleverpunt", "locatieNaam": "430 Hoogvliet", "straatNaam": "Damstraat", "straatNr": "8", "postcode": "2265 AG", "plaats": "LEIDSCHENDAM", "merk": "Stibat", "puntType": "inzamelbak", "materialen": ["batterijen"], "uitbetaling": [], "vrijToegankelijk": false, "gemeenteBeperking": null, "openingstijden": null, "latitude": 52.0808402, "longitude": 4.3981419, "bronId": "L019633"}}, {"type": "Feature", "geometry": {"type": "Point", "coordinates": [4.3977681, 52.0811664]}, "properties": {"type": "inleverpunt", "locatieNaam": "Oorwerk", "straatNaam": "Damstraat", "straatNr": "14", "postcode": "2265 AH", "plaats": "LEIDSCHENDAM", "merk": "Stibat", "puntType": "inzamelbak", "materialen": ["batterijen"], "uitbetaling": [], "vrijToegankelijk": false, "gemeenteBeperking": null, "openingstijden": null, "latitude": 52.0811664, "longitude": 4.3977681, "bronId": "L048263"}}, {"type": "Feature", "geometry": {"type": "Point", "coordinates": [4.3974715, 52.081043]}, "properties": {"type": "inleverpunt", "locatieNaam": "C&amp;B by Amber", "straatNaam": "Damstraat", "straatNr": "47", "postcode": "2265 AE", "plaats": "LEIDSCHENDAM", "merk": "Stibat", "puntType": "inzamelbak", "materialen": ["batterijen"], "uitbetaling": [], "vrijToegankelijk": false, "gemeenteBeperking": null, "openingstijden": null, "latitude": 52.081043, "longitude": 4.3974715, "bronId": "L046177"}}, {"type": "Feature", "geometry": {"type": "Point", "coordinates": [4.3969797, 52.0815831]}, "properties": {"type": "inleverpunt", "locatieNaam": "Bike Totaal Thijs Brand", "straatNaam": "Zaagmolenstraat", "straatNr": "106", "postcode": "2265 WV", "plaats": "LEIDSCHENDAM", "merk": "Stibat", "puntType": "inzamelbak", "materialen": ["batterijen"], "uitbetaling": [], "vrijToegankelijk": false, "gemeenteBeperking": null, "openingstijden": null, "latitude": 52.0815831, "longitude": 4.3969797, "bronId": "L018189"}}, {"type": "Feature", "geometry": {"type": "Point", "coordinates": [4.3969797, 52.0815831]}, "properties": {"type": "inleverpunt", "locatieNaam": "Thijs Brand Fietsen en scooters", "straatNaam": "Damlaan", "straatNr": "6", "postcode": "2265 AN", "plaats": "LEIDSCHENDAM", "merk": "Stibat", "puntType": "inzamelbak", "materialen": ["batterijen"], "uitbetaling": [], "vrijToegankelijk": false, "gemeenteBeperking": null, "openingstijden": null, "latitude": 52.0815831, "longitude": 4.3969797, "bronId": "L032936"}}, {"type": "Feature", "geometry": {"type": "Point", "coordinates": [4.3967772, 52.0813643]}, "properties": {"type": "inleverpunt", "locatieNaam": "GSM &amp; Media Service", "straatNaam": "Damlaan", "straatNr": "3A", "postcode": "2265 AL", "plaats": "LEIDSCHENDAM", "merk": "Stibat", "puntType": "inzamelbak", "materialen": ["batterijen"], "uitbetaling": [], "vrijToegankelijk": false, "gemeenteBeperking": null, "openingstijden": null, "latitude": 52.0813643, "longitude": 4.3967772, "bronId": "L041684"}}, {"type": "Feature", "geometry": {"type": "Point", "coordinates": [4.3965986, 52.0818014]}, "properties": {"type": "inleverpunt", "locatieNaam": "Primera", "straatNaam": "Damlaan", "straatNr": "22", "postcode": "2265 AN", "plaats": "LEIDSCHENDAM", "merk": "Stibat", "puntType": "inzamelbak", "materialen": ["batterijen"], "uitbetaling": [], "vrijToegankelijk": false, "gemeenteBeperking": null, "openingstijden": null, "latitude": 52.0818014, "longitude": 4.3965986, "bronId": "L022623"}}, {"type": "Feature", "geometry": {"type": "Point", "coordinates": [4.390634, 52.0908834]}, "properties": {"type": "inleverpunt", "locatieNaam": "Dirk", "straatNaam": "Burgemeester Sweenslaan", "straatNr": "15f", "postcode": "2262 BN", "plaats": "LEIDSCHENDAM", "merk": "Stibat", "puntType": "inzamelbak", "materialen": ["batterijen"], "uitbetaling": [], "vrijToegankelijk": false, "gemeenteBeperking": null, "openingstijden": null, "latitude": 52.0908834, "longitude": 4.390634, "bronId": "L012571"}}, {"type": "Feature", "geometry": {"type": "Point", "coordinates": [4.3892172, 52.0803655]}, "properties": {"type": "inleverpunt", "locatieNaam": "Total", "straatNaam": "Oude Trambaan", "straatNr": "141", "postcode": "2265 DA", "plaats": "LEIDSCHENDAM", "merk": "Stibat", "puntType": "inzamelbak", "materialen": ["batterijen"], "uitbetaling": [], "vrijToegankelijk": false, "gemeenteBeperking": null, "openingstijden": null, "latitude": 52.0803655, "longitude": 4.3892172, "bronId": "L021026"}}, {"type": "Feature", "geometry": {"type": "Point", "coordinates": [4.3887759, 52.0793299]}, "properties": {"type": "inleverpunt", "locatieNaam": "Afvalbrengstation Voorburg", "straatNaam": "Nieuwe Havenstraat", "straatNr": "3b", "postcode": "2272 AD", "plaats": "VOORBURG", "merk": "Stibat", "puntType": "inzamelbak", "materialen": ["batterijen"], "uitbetaling": [], "vrijToegankelijk": false, "gemeenteBeperking": null, "openingstijden": null, "latitude": 52.0793299, "longitude": 4.3887759, "bronId": "L035620"}}, {"type": "Feature", "geometry": {"type": "Point", "coordinates": [4.3867345, 52.0928413]}, "properties": {"type": "inleverpunt", "locatieNaam": "Probike Tweewielers", "straatNaam": "Burgemeester Roeringlaan", "straatNr": "1", "postcode": "2262 EC", "plaats": "LEIDSCHENDAM", "merk": "Stibat", "puntType": "inzamelbak", "materialen": ["batterijen"], "uitbetaling": [], "vrijToegankelijk": false, "gemeenteBeperking": null, "openingstijden": null, "latitude": 52.0928413, "longitude": 4.3867345, "bronId": "L026823"}}, {"type": "Feature", "geometry": {"type": "Point", "coordinates": [4.3862042, 52.0887342]}, "properties": {"type": "inleverpunt", "locatieNaam": "Jumbo", "straatNaam": "Liguster", "straatNr": "2", "postcode": "2262 AC", "plaats": "LEIDSCHENDAM", "merk": "Stibat", "puntType": "inzamelbak", "materialen": ["batterijen"], "uitbetaling": [], "vrijToegankelijk": false, "gemeenteBeperking": null, "openingstijden": null, "latitude": 52.0887342, "longitude": 4.3862042, "bronId": "L020033"}}, {"type": "Feature", "geometry": {"type": "Point", "coordinates": [4.3860783, 52.0888532]}, "properties": {"type": "inleverpunt", "locatieNaam": "Kruidvat", "straatNaam": "Liguster", "straatNr": "10", "postcode": "2262 AC", "plaats": "LEIDSCHENDAM", "merk": "Stibat", "puntType": "inzamelbak", "materialen": ["batterijen"], "uitbetaling": [], "vrijToegankelijk": false, "gemeenteBeperking": null, "openingstijden": null, "latitude": 52.0888532, "longitude": 4.3860783, "bronId": "L015968"}}, {"type": "Feature", "geometry": {"type": "Point", "coordinates": [4.3859999, 52.0883581]}, "properties": {"type": "inleverpunt", "locatieNaam": "DOUGLAS", "straatNaam": "Liguster 23", "straatNr": "23", "postcode": "2262 AC", "plaats": "LEIDSCHENDAM", "merk": "Stibat", "puntType": "inzamelbak", "materialen": ["batterijen"], "uitbetaling": [], "vrijToegankelijk": false, "gemeenteBeperking": null, "openingstijden": null, "latitude": 52.0883581, "longitude": 4.3859999, "bronId": "L049176"}}, {"type": "Feature", "geometry": {"type": "Point", "coordinates": [4.3855063, 52.0886204]}, "properties": {"type": "inleverpunt", "locatieNaam": "7761 Etos", "straatNaam": "Liguster", "straatNr": "14", "postcode": "2262 AC", "plaats": "LEIDSCHENDAM", "merk": "Stibat", "puntType": "inzamelbak", "materialen": ["batterijen"], "uitbetaling": [], "vrijToegankelijk": false, "gemeenteBeperking": null, "openingstijden": null, "latitude": 52.0886204, "longitude": 4.3855063, "bronId": "L025632"}}, {"type": "Feature", "geometry": {"type": "Point", "coordinates": [4.3853695, 52.0882148]}, "properties": {"type": "inleverpunt", "locatieNaam": "KPN winkel", "straatNaam": "Liguster", "straatNr": "35", "postcode": "2262 AC", "plaats": "LEIDSCHENDAM", "merk": "Stibat", "puntType": "inzamelbak", "materialen": ["batterijen"], "uitbetaling": [], "vrijToegankelijk": false, "gemeenteBeperking": null, "openingstijden": null, "latitude": 52.0882148, "longitude": 4.3853695, "bronId": "L008132"}}, {"type": "Feature", "geometry": {"type": "Point", "coordinates": [4.3844698, 52.0879914]}, "properties": {"type": "inleverpunt", "locatieNaam": "Schoonenberg Hoorcomfort", "straatNaam": "Liguster", "straatNr": "13", "postcode": "2262 AC", "plaats": "LEIDSCHENDAM", "merk": "Stibat", "puntType": "inzamelbak", "materialen": ["batterijen"], "uitbetaling": [], "vrijToegankelijk": false, "gemeenteBeperking": null, "openingstijden": null, "latitude": 52.0879914, "longitude": 4.3844698, "bronId": "L019412"}}, {"type": "Feature", "geometry": {"type": "Point", "coordinates": [4.3841982, 52.0883936]}, "properties": {"type": "inleverpunt", "locatieNaam": "Specsavers", "straatNaam": "Rozemarijn", "straatNr": "10", "postcode": "2262 AH", "plaats": "LEIDSCHENDAM", "merk": "Stibat", "puntType": "inzamelbak", "materialen": ["batterijen"], "uitbetaling": [], "vrijToegankelijk": false, "gemeenteBeperking": null, "openingstijden": null, "latitude": 52.0883936, "longitude": 4.3841982, "bronId": "L023643"}}, {"type": "Feature", "geometry": {"type": "Point", "coordinates": [4.384109, 52.0884647]}, "properties": {"type": "inleverpunt", "locatieNaam": "Intertoys", "straatNaam": "Rozemarijn", "straatNr": "12", "postcode": "2262 AH", "plaats": "LEIDSCHENDAM", "merk": "Stibat", "puntType": "inzamelbak", "materialen": ["batterijen"], "uitbetaling": [], "vrijToegankelijk": false, "gemeenteBeperking": null, "openingstijden": null, "latitude": 52.0884647, "longitude": 4.384109, "bronId": "L006082"}}, {"type": "Feature", "geometry": {"type": "Point", "coordinates": [4.3839948, 52.0876997]}, "properties": {"type": "inleverpunt", "locatieNaam": "Primera", "straatNaam": "Liguster", "straatNr": "67", "postcode": "2262 AC", "plaats": "LEIDSCHENDAM", "merk": "Stibat", "puntType": "inzamelbak", "materialen": ["batterijen"], "uitbetaling": [], "vrijToegankelijk": false, "gemeenteBeperking": null, "openingstijden": null, "latitude": 52.0876997, "longitude": 4.3839948, "bronId": "L022808"}}, {"type": "Feature", "geometry": {"type": "Point", "coordinates": [4.3838697, 52.0903462]}, "properties": {"type": "inleverpunt", "locatieNaam": "HEMA Duindoorn", "straatNaam": "Duindoorn", "straatNr": "16", "postcode": "2262 AR", "plaats": "LEIDSCHENDAM", "merk": "Stibat", "puntType": "inzamelbak", "materialen": ["batterijen"], "uitbetaling": [], "vrijToegankelijk": false, "gemeenteBeperking": null, "openingstijden": null, "latitude": 52.0903462, "longitude": 4.3838697, "bronId": "L006793"}}, {"type": "Feature", "geometry": {"type": "Point", "coordinates": [4.3838853, 52.0894366]}, "properties": {"type": "inleverpunt", "locatieNaam": "Zeeman", "straatNaam": "Eglantier", "straatNr": "19", "postcode": "2262 AP", "plaats": "Leidschendam", "merk": "Stibat", "puntType": "inzamelbak", "materialen": ["batterijen"], "uitbetaling": [], "vrijToegankelijk": false, "gemeenteBeperking": null, "openingstijden": null, "latitude": 52.0894366, "longitude": 4.3838853, "bronId": "L020512"}}, {"type": "Feature", "geometry": {"type": "Point", "coordinates": [4.3838436, 52.0892176]}, "properties": {"type": "inleverpunt", "locatieNaam": "Samsung Experience Store Leidschendam", "straatNaam": "Berkenhove", "straatNr": "4", "postcode": "2262 AK", "plaats": "LEIDSCHENDAM", "merk": "Stibat", "puntType": "inzamelbak", "materialen": ["batterijen"], "uitbetaling": [], "vrijToegankelijk": false, "gemeenteBeperking": null, "openingstijden": null, "latitude": 52.0892176, "longitude": 4.3838436, "bronId": "L047219"}}, {"type": "Feature", "geometry": {"type": "Point", "coordinates": [4.383772, 52.08828]}, "properties": {"type": "inleverpunt", "locatieNaam": "Xenos", "straatNaam": "Rozemarijn", "straatNr": "5", "postcode": "2262 AH", "plaats": "LEIDSCHENDAM", "merk": "Stibat", "puntType": "inzamelbak", "materialen": ["batterijen"], "uitbetaling": [], "vrijToegankelijk": false, "gemeenteBeperking": null, "openingstijden": null, "latitude": 52.08828, "longitude": 4.383772, "bronId": "L036948"}}, {"type": "Feature", "geometry": {"type": "Point", "coordinates": [4.3835682, 52.088505]}, "properties": {"type": "inleverpunt", "locatieNaam": "Prenatal LEIDSCHENDAM", "straatNaam": "Rozemarijn", "straatNr": "15", "postcode": "2262 AH", "plaats": "LEIDSCHENDAM", "merk": "Stibat", "puntType": "inzamelbak", "materialen": ["batterijen"], "uitbetaling": [], "vrijToegankelijk": false, "gemeenteBeperking": null, "openingstijden": null, "latitude": 52.088505, "longitude": 4.3835682, "bronId": "L039596"}}, {"type": "Feature", "geometry": {"type": "Point", "coordinates": [4.3832688, 52.0877475]}, "properties": {"type": "inleverpunt", "locatieNaam": "MediaMarkt", "straatNaam": "Liguster", "straatNr": "102", "postcode": "2262 AC", "plaats": "LEIDSCHENDAM", "merk": "Stibat", "puntType": "inzamelbak", "materialen": ["batterijen"], "uitbetaling": [], "vrijToegankelijk": false, "gemeenteBeperking": null, "openingstijden": null, "latitude": 52.0877475, "longitude": 4.3832688, "bronId": "L041845"}}, {"type": "Feature", "geometry": {"type": "Point", "coordinates": [4.3830157, 52.0878375]}, "properties": {"type": "inleverpunt", "locatieNaam": "1204 Action", "straatNaam": "Liguster", "straatNr": "104", "postcode": "2262 AC", "plaats": "LEIDSCHENDAM", "merk": "Stibat", "puntType": "inzamelbak", "materialen": ["batterijen"], "uitbetaling": [], "vrijToegankelijk": false, "gemeenteBeperking": null, "openingstijden": null, "latitude": 52.0878375, "longitude": 4.3830157, "bronId": "L038695"}}, {"type": "Feature", "geometry": {"type": "Point", "coordinates": [4.3828667, 52.088553]}, "properties": {"type": "inleverpunt", "locatieNaam": "ANWB", "straatNaam": "Kamperfoelie", "straatNr": "5", "postcode": "2262 AE", "plaats": "LEIDSCHENDAM", "merk": "Stibat", "puntType": "inzamelbak", "materialen": ["batterijen"], "uitbetaling": [], "vrijToegankelijk": false, "gemeenteBeperking": null, "openingstijden": null, "latitude": 52.088553, "longitude": 4.3828667, "bronId": "L044610"}}, {"type": "Feature", "geometry": {"type": "Point", "coordinates": [4.382687, 52.088758]}, "properties": {"type": "inleverpunt", "locatieNaam": "Hans Anders", "straatNaam": "Kamperfoelie", "straatNr": "8", "postcode": "2262 AE", "plaats": "LEIDSCHENDAM", "merk": "Stibat", "puntType": "inzamelbak", "materialen": ["batterijen"], "uitbetaling": [], "vrijToegankelijk": false, "gemeenteBeperking": null, "openingstijden": null, "latitude": 52.088758, "longitude": 4.382687, "bronId": "L037865"}}, {"type": "Feature", "geometry": {"type": "Point", "coordinates": [4.382319, 52.086678]}, "properties": {"type": "inleverpunt", "locatieNaam": "1151 Albert Heijn", "straatNaam": "Weigelia", "straatNr": "48", "postcode": "2262 AB", "plaats": "LEIDSCHENDAM", "merk": "Stibat", "puntType": "inzamelbak", "materialen": ["batterijen"], "uitbetaling": [], "vrijToegankelijk": false, "gemeenteBeperking": null, "openingstijden": null, "latitude": 52.086678, "longitude": 4.382319, "bronId": "L007917"}}, {"type": "Feature", "geometry": {"type": "Point", "coordinates": [4.3812424, 52.0894575]}, "properties": {"type": "inleverpunt", "locatieNaam": "Bershka", "straatNaam": "Duindoorn", "straatNr": "35", "postcode": "2262 AR", "plaats": "Leidschendam", "merk": "Stibat", "puntType": "inzamelbak", "materialen": ["batterijen"], "uitbetaling": [], "vrijToegankelijk": false, "gemeenteBeperking": null, "openingstijden": null, "latitude": 52.0894575, "longitude": 4.3812424, "bronId": "L045679"}}, {"type": "Feature", "geometry": {"type": "Point", "coordinates": [4.3812423, 52.0894574]}, "properties": {"type": "inleverpunt", "locatieNaam": "Pull&amp;Bear", "straatNaam": "Duindoorn", "straatNr": "39", "postcode": "2262 AR", "plaats": "Leidschendam", "merk": "Stibat", "puntType": "inzamelbak", "materialen": ["batterijen"], "uitbetaling": [], "vrijToegankelijk": false, "gemeenteBeperking": null, "openingstijden": null, "latitude": 52.0894574, "longitude": 4.3812423, "bronId": "L045693"}}, {"type": "Feature", "geometry": {"type": "Point", "coordinates": [4.3812423, 52.0894574]}, "properties": {"type": "inleverpunt", "locatieNaam": "Stradivarius", "straatNaam": "Duindoorn", "straatNr": "76", "postcode": "2262 AR", "plaats": "Leidschendam", "merk": "Stibat", "puntType": "inzamelbak", "materialen": ["batterijen"], "uitbetaling": [], "vrijToegankelijk": false, "gemeenteBeperking": null, "openingstijden": null, "latitude": 52.0894574, "longitude": 4.3812423, "bronId": "L045730"}}, {"type": "Feature", "geometry": {"type": "Point", "coordinates": [4.3812423, 52.0894574]}, "properties": {"type": "inleverpunt", "locatieNaam": "Zara", "straatNaam": "Duindoorn", "straatNr": "80", "postcode": "2262 AR", "plaats": "Leidschendam", "merk": "Stibat", "puntType": "inzamelbak", "materialen": ["batterijen"], "uitbetaling": [], "vrijToegankelijk": false, "gemeenteBeperking": null, "openingstijden": null, "latitude": 52.0894574, "longitude": 4.3812423, "bronId": "L045723"}}, {"type": "Feature", "geometry": {"type": "Point", "coordinates": [4.3749066, 52.0918116]}, "properties": {"type": "inleverpunt", "locatieNaam": "Michiel Martens services", "straatNaam": "Charley Tooropstraat", "straatNr": "22", "postcode": "2272 TW", "plaats": "VOORBURG", "merk": "Stibat", "puntType": "inzamelbak", "materialen": ["batterijen"], "uitbetaling": [], "vrijToegankelijk": false, "gemeenteBeperking": null, "openingstijden": null, "latitude": 52.0918116, "longitude": 4.3749066, "bronId": "L039810"}}, {"type": "Feature", "geometry": {"type": "Point", "coordinates": [4.3739105, 52.0754343]}, "properties": {"type": "inleverpunt", "locatieNaam": "D.I.O.", "straatNaam": "Rembrandtlaan", "straatNr": "61", "postcode": "2271 GG", "plaats": "VOORBURG", "merk": "Stibat", "puntType": "inzamelbak", "materialen": ["batterijen"], "uitbetaling": [], "vrijToegankelijk": false, "gemeenteBeperking": null, "openingstijden": null, "latitude": 52.0754343, "longitude": 4.3739105, "bronId": "L026295"}}, {"type": "Feature", "geometry": {"type": "Point", "coordinates": [4.3728739, 52.0856773]}, "properties": {"type": "inleverpunt", "locatieNaam": "460 Hoogvliet", "straatNaam": "Klaverweide", "straatNr": "84-90", "postcode": "2272 BV", "plaats": "VOORBURG", "merk": "Stibat", "puntType": "inzamelbak", "materialen": ["batterijen"], "uitbetaling": [], "vrijToegankelijk": false, "gemeenteBeperking": null, "openingstijden": null, "latitude": 52.0856773, "longitude": 4.3728739, "bronId": "L010259"}}, {"type": "Feature", "geometry": {"type": "Point", "coordinates": [4.3640698, 52.0806032]}, "properties": {"type": "inleverpunt", "locatieNaam": "250 Hoogvliet", "straatNaam": "Mgr. Van Steelaan", "straatNr": "456", "postcode": "2273 GC", "plaats": "VOORBURG", "merk": "Stibat", "puntType": "inzamelbak", "materialen": ["batterijen"], "uitbetaling": [], "vrijToegankelijk": false, "gemeenteBeperking": null, "openingstijden": null, "latitude": 52.0806032, "longitude": 4.3640698, "bronId": "L010225"}}, {"type": "Feature", "geometry": {"type": "Point", "coordinates": [4.3626927, 52.0806311]}, "properties": {"type": "inleverpunt", "locatieNaam": "Aldi", "straatNaam": "Mgr. van Steelaan", "straatNr": "205", "postcode": "2273 EM", "plaats": "Voorburg", "merk": "Stibat", "puntType": "inzamelbak", "materialen": ["batterijen"], "uitbetaling": [], "vrijToegankelijk": false, "gemeenteBeperking": null, "openingstijden": null, "latitude": 52.0806311, "longitude": 4.3626927, "bronId": "L041177"}}, {"type": "Feature", "geometry": {"type": "Point", "coordinates": [4.3635577, 52.0683143]}, "properties": {"type": "inleverpunt", "locatieNaam": "Van Herwerden Tweewielers", "straatNaam": "Parkweg", "straatNr": "75-79", "postcode": "2271 AG", "plaats": "VOORBURG", "merk": "Stibat", "puntType": "inzamelbak", "materialen": ["batterijen"], "uitbetaling": [], "vrijToegankelijk": false, "gemeenteBeperking": null, "openingstijden": null, "latitude": 52.0683143, "longitude": 4.3635577, "bronId": "L030709"}}, {"type": "Feature", "geometry": {"type": "Point", "coordinates": [4.3629918, 52.0675322]}, "properties": {"type": "inleverpunt", "locatieNaam": "Beumer IJzerhandel", "straatNaam": "Franse Kerkstraat", "straatNr": "18", "postcode": "2271 CN", "plaats": "VOORBURG", "merk": "Stibat", "puntType": "inzamelbak", "materialen": ["batterijen"], "uitbetaling": [], "vrijToegankelijk": false, "gemeenteBeperking": null, "openingstijden": null, "latitude": 52.0675322, "longitude": 4.3629918, "bronId": "L027667"}}, {"type": "Feature", "geometry": {"type": "Point", "coordinates": [4.3624095, 52.0678502]}, "properties": {"type": "inleverpunt", "locatieNaam": "1659 Albert Heijn", "straatNaam": "Parkweg", "straatNr": "30", "postcode": "2271 AK", "plaats": "Voorburg", "merk": "Stibat", "puntType": "inzamelbak", "materialen": ["batterijen"], "uitbetaling": [], "vrijToegankelijk": false, "gemeenteBeperking": null, "openingstijden": null, "latitude": 52.0678502, "longitude": 4.3624095, "bronId": "L030502"}}, {"type": "Feature", "geometry": {"type": "Point", "coordinates": [4.3601962, 52.0761586]}, "properties": {"type": "inleverpunt", "locatieNaam": "Zeeman", "straatNaam": "Koningin Julianalaan", "straatNr": "239", "postcode": "2273 JG", "plaats": "VOORBURG", "merk": "Stibat", "puntType": "inzamelbak", "materialen": ["batterijen"], "uitbetaling": [], "vrijToegankelijk": false, "gemeenteBeperking": null, "openingstijden": null, "latitude": 52.0761586, "longitude": 4.3601962, "bronId": "L027778"}}, {"type": "Feature", "geometry": {"type": "Point", "coordinates": [4.35998, 52.0760529]}, "properties": {"type": "inleverpunt", "locatieNaam": "Kruidvat", "straatNaam": "Koningin Julianalaan", "straatNr": "235-237", "postcode": "2273 JG", "plaats": "VOORBURG", "merk": "Stibat", "puntType": "inzamelbak", "materialen": ["batterijen"], "uitbetaling": [], "vrijToegankelijk": false, "gemeenteBeperking": null, "openingstijden": null, "latitude": 52.0760529, "longitude": 4.35998, "bronId": "L014849"}}, {"type": "Feature", "geometry": {"type": "Point", "coordinates": [4.3594601, 52.0756363]}, "properties": {"type": "inleverpunt", "locatieNaam": "1109 Albert Heijn", "straatNaam": "Koningin Julianalaan", "straatNr": "263", "postcode": "2273 JG", "plaats": "VOORBURG", "merk": "Stibat", "puntType": "inzamelbak", "materialen": ["batterijen"], "uitbetaling": [], "vrijToegankelijk": false, "gemeenteBeperking": null, "openingstijden": null, "latitude": 52.0756363, "longitude": 4.3594601, "bronId": "L006578"}}, {"type": "Feature", "geometry": {"type": "Point", "coordinates": [4.3594374, 52.0747909]}, "properties": {"type": "inleverpunt", "locatieNaam": "Beter Horen", "straatNaam": "Kon. Julianalaan", "straatNr": "372a", "postcode": "2274 JV", "plaats": "Voorburg", "merk": "Stibat", "puntType": "inzamelbak", "materialen": ["batterijen"], "uitbetaling": [], "vrijToegankelijk": false, "gemeenteBeperking": null, "openingstijden": null, "latitude": 52.0747909, "longitude": 4.3594374, "bronId": "L019041"}}, {"type": "Feature", "geometry": {"type": "Point", "coordinates": [4.3592552, 52.075775]}, "properties": {"type": "inleverpunt", "locatieNaam": "HEMA Kon. Julianalaan", "straatNaam": "Kon. Julianalaan", "straatNr": "231", "postcode": "2273 JG", "plaats": "VOORBURG", "merk": "Stibat", "puntType": "inzamelbak", "materialen": ["batterijen"], "uitbetaling": [], "vrijToegankelijk": false, "gemeenteBeperking": null, "openingstijden": null, "latitude": 52.075775, "longitude": 4.3592552, "bronId": "L006494"}}, {"type": "Feature", "geometry": {"type": "Point", "coordinates": [4.358892, 52.075879]}, "properties": {"type": "inleverpunt", "locatieNaam": "Intertoys", "straatNaam": "Koningin Julianalaan", "straatNr": "229", "postcode": "2273 JG", "plaats": "Voorburg", "merk": "Stibat", "puntType": "inzamelbak", "materialen": ["batterijen"], "uitbetaling": [], "vrijToegankelijk": false, "gemeenteBeperking": null, "openingstijden": null, "latitude": 52.075879, "longitude": 4.358892, "bronId": "L043550"}}, {"type": "Feature", "geometry": {"type": "Point", "coordinates": [4.3586573, 52.0759839]}, "properties": {"type": "inleverpunt", "locatieNaam": "8468 Etos", "straatNaam": "Kon.Julianaplein", "straatNr": "26", "postcode": "2273 BR", "plaats": "VOORBURG", "merk": "Stibat", "puntType": "inzamelbak", "materialen": ["batterijen"], "uitbetaling": [], "vrijToegankelijk": false, "gemeenteBeperking": null, "openingstijden": null, "latitude": 52.0759839, "longitude": 4.3586573, "bronId": "L026019"}}, {"type": "Feature", "geometry": {"type": "Point", "coordinates": [4.3585111, 52.0760979]}, "properties": {"type": "inleverpunt", "locatieNaam": "Bruna", "straatNaam": "Kon. Julianaplein", "straatNr": "24", "postcode": "2273 BR", "plaats": "VOORBURG", "merk": "Stibat", "puntType": "inzamelbak", "materialen": ["batterijen"], "uitbetaling": [], "vrijToegankelijk": false, "gemeenteBeperking": null, "openingstijden": null, "latitude": 52.0760979, "longitude": 4.3585111, "bronId": "L023701"}}, {"type": "Feature", "geometry": {"type": "Point", "coordinates": [4.3578354, 52.0755192]}, "properties": {"type": "inleverpunt", "locatieNaam": "Optie 1", "straatNaam": "Koningin Julianaplein", "straatNr": "31", "postcode": "2274 JE", "plaats": "VOORBURG", "merk": "Stibat", "puntType": "inzamelbak", "materialen": ["batterijen"], "uitbetaling": [], "vrijToegankelijk": false, "gemeenteBeperking": null, "openingstijden": null, "latitude": 52.0755192, "longitude": 4.3578354, "bronId": "L041739"}}, {"type": "Feature", "geometry": {"type": "Point", "coordinates": [4.3572602, 52.0755269]}, "properties": {"type": "inleverpunt", "locatieNaam": "D.I.O.", "straatNaam": "Koningin Julianaplein", "straatNr": "3", "postcode": "2274 JD", "plaats": "VOORBURG", "merk": "Stibat", "puntType": "inzamelbak", "materialen": ["batterijen"], "uitbetaling": [], "vrijToegankelijk": false, "gemeenteBeperking": null, "openingstijden": null, "latitude": 52.0755269, "longitude": 4.3572602, "bronId": "L025990"}}, {"type": "Feature", "geometry": {"type": "Point", "coordinates": [4.3572049, 52.0751579]}, "properties": {"type": "inleverpunt", "locatieNaam": "Jumbo", "straatNaam": "Jacob van den Eyndestraat", "straatNr": "14", "postcode": "2274 VZ", "plaats": "VOORBURG", "merk": "Stibat", "puntType": "inzamelbak", "materialen": ["batterijen"], "uitbetaling": [], "vrijToegankelijk": false, "gemeenteBeperking": null, "openingstijden": null, "latitude": 52.0751579, "longitude": 4.3572049, "bronId": "L019552"}}, {"type": "Feature", "geometry": {"type": "Point", "coordinates": [4.3528478, 52.0769372]}, "properties": {"type": "inleverpunt", "locatieNaam": "Diego 2wielers", "straatNaam": "Koningin Julianalaan", "straatNr": "168", "postcode": "2274 JN", "plaats": "VOORBURG", "merk": "Stibat", "puntType": "inzamelbak", "materialen": ["batterijen"], "uitbetaling": [], "vrijToegankelijk": false, "gemeenteBeperking": null, "openingstijden": null, "latitude": 52.0769372, "longitude": 4.3528478, "bronId": "L031555"}}, {"type": "Feature", "geometry": {"type": "Point", "coordinates": [4.3506942, 52.0777409]}, "properties": {"type": "inleverpunt", "locatieNaam": "2220 Albert Heijn", "straatNaam": "Koningin Julianaplein", "straatNr": "102", "postcode": "2595 AA", "plaats": "DEN HAAG", "merk": "Stibat", "puntType": "inzamelbak", "materialen": ["batterijen"], "uitbetaling": [], "vrijToegankelijk": false, "gemeenteBeperking": null, "openingstijden": null, "latitude": 52.0777409, "longitude": 4.3506942, "bronId": "L042662"}}, {"type": "Feature", "geometry": {"type": "Point", "coordinates": [4.3499124, 52.0744073]}, "properties": {"type": "inleverpunt", "locatieNaam": "Primera", "straatNaam": "Laan van Nieuw Oosteinde", "straatNr": "294", "postcode": "2274 ER", "plaats": "VOORBURG", "merk": "Stibat", "puntType": "inzamelbak", "materialen": ["batterijen"], "uitbetaling": [], "vrijToegankelijk": false, "gemeenteBeperking": null, "openingstijden": null, "latitude": 52.0744073, "longitude": 4.3499124, "bronId": "L024036"}}, {"type": "Feature", "geometry": {"type": "Point", "coordinates": [4.3455381, 52.0774478]}, "properties": {"type": "inleverpunt", "locatieNaam": "Van Buuren Fietsen", "straatNaam": "Van de Wateringelaan", "straatNr": "206", "postcode": "2274 CN", "plaats": "VOORBURG", "merk": "Stibat", "puntType": "inzamelbak", "materialen": ["batterijen"], "uitbetaling": [], "vrijToegankelijk": false, "gemeenteBeperking": null, "openingstijden": null, "latitude": 52.0774478, "longitude": 4.3455381, "bronId": "L032938"}}, {"type": "Feature", "geometry": {"type": "Point", "coordinates": [4.3445259, 52.0599007]}, "properties": {"type": "inleverpunt", "locatieNaam": "Rijwielhandel van Beek", "straatNaam": "Prinses Mariannelaan", "straatNr": "308", "postcode": "2275 BR", "plaats": "VOORBURG", "merk": "Stibat", "puntType": "inzamelbak", "materialen": ["batterijen"], "uitbetaling": [], "vrijToegankelijk": false, "gemeenteBeperking": null, "openingstijden": null, "latitude": 52.0599007, "longitude": 4.3445259, "bronId": "L025123"}}, {"type": "Feature", "geometry": {"type": "Polygon", "coordinates": [[[4.397033000718767, 52.07474600396063], [4.394454000716239, 52.07579000396126], [4.38865100071027, 52.072974003959466], [4.384583000706372, 52.076234003961446], [4.37999600070169, 52.07474500396047], [4.362535000683618, 52.0643360039539], [4.356011000676925, 52.06156700395213], [4.360826000681581, 52.05846800395026], [4.3595770006803125, 52.05819900395008], [4.3599690006806915, 52.0579280039499], [4.359437000680142, 52.057631003949695], [4.359823000680513, 52.057366003949596], [4.358380000679052, 52.057086003949365], [4.357350000677975, 52.056255003948856], [4.357575000678216, 52.05655400394902], [4.353941000674709, 52.05901200395052], [4.353316000674063, 52.0586680039503], [4.352281000673067, 52.05939400395072], [4.34800400066862, 52.05649800394892], [4.344666000665439, 52.05950100395072], [4.342196000663054, 52.0611350039517], [4.355519000676792, 52.06804000395613], [4.34093500066245, 52.07304700395908], [4.34057900066212, 52.073488003959326], [4.340066000661597, 52.073344003959235], [4.335213000656826, 52.07500000396021], [4.345484000667348, 52.0791510039629], [4.345239000667127, 52.07957900396313], [4.346808000668732, 52.08016900396353], [4.347126000669041, 52.08000300396342], [4.347116000669046, 52.0802810039636], [4.373514000696161, 52.092297003971254], [4.371516000694236, 52.09368600397206], [4.372146000694904, 52.094381003972515], [4.389310000712628, 52.10392200397856], [4.401159000724934, 52.11187000398354], [4.412085000735666, 52.10795700398122], [4.411303000734849, 52.10731700398083], [4.412980000736491, 52.10664000398044], [4.414158000737715, 52.107508003980946], [4.4212650007447, 52.10496500397946], [4.420843000744257, 52.104610003979246], [4.423787000747152, 52.10358600397862], [4.427903000751159, 52.10147000397733], [4.433579000756994, 52.104158003979094], [4.435745000759341, 52.10740200398107], [4.437639000761328, 52.10902900398208], [4.439278000763024, 52.11007500398272], [4.443735000767587, 52.111821003983835], [4.446853000770806, 52.11361800398493], [4.452202000776434, 52.118572003988035], [4.4644920007892175, 52.12731100399349], [4.465192000789883, 52.12661300399308], [4.466420000791151, 52.127333003993535], [4.465982000790744, 52.12789000399388], [4.466632000791446, 52.12886500399445], [4.467481000792266, 52.12832300399412], [4.468149000792949, 52.12855100399428], [4.472941000797488, 52.123703003991345], [4.472317000796848, 52.12345700399117], [4.472289000796618, 52.11963500398883], [4.472975000797265, 52.11895200398841], [4.470826000795045, 52.117708003987644], [4.490414000813615, 52.097858003975624], [4.489914000813105, 52.09768400397547], [4.491814000814601, 52.090032003970734], [4.492219000815006, 52.09001000397076], [4.4930180008156855, 52.08775200396937], [4.474275000796764, 52.08526100396772], [4.475660000797941, 52.08129600396527], [4.456752000778849, 52.07881500396363], [4.4214320007426045, 52.06331600395382], [4.421712000742861, 52.06289400395351], [4.420833000741965, 52.06258000395333], [4.420691000741867, 52.06345500395384], [4.417152000738476, 52.06630600395559], [4.411950000733574, 52.072077003959116], [4.403924000725843, 52.07784500396261], [4.397779000719526, 52.07495600396076], [4.397033000718767, 52.07474600396063]]]}, "properties": {"type": "boundary", "gemeente": "Leidschendam-Voorburg"}}]}