{"type": "FeatureCollection", "metadata": {"gemeente": "Lelystad", "slug": "lelystad", "generated_at": "2026-07-28T09:25:50.134599Z", "total_points": 125, "merken": ["StatiegeldNederland", "Stibat", "StichtingOPEN"], "bounds": [5.4171871, 52.432778, 5.5405626, 52.5497764]}, "features": [{"type": "Feature", "geometry": {"type": "Point", "coordinates": [5.5036492, 52.523041]}, "properties": {"type": "inleverpunt", "locatieNaam": "Akv Exakwa", "straatNaam": "Toeloop", "straatNr": "16", "postcode": "8223 PH", "plaats": "Lelystad", "merk": "StatiegeldNederland", "puntType": "balie", "materialen": ["pet-groot", "pet-klein", "blik"], "uitbetaling": [], "vrijToegankelijk": false, "gemeenteBeperking": null, "openingstijden": null, "latitude": 52.523041, "longitude": 5.5036492, "bronId": "251947"}}, {"type": "Feature", "geometry": {"type": "Point", "coordinates": [5.4888279, 52.5013432]}, "properties": {"type": "inleverpunt", "locatieNaam": "Albert Heijn", "straatNaam": "De Kamp", "straatNr": "42-22", "postcode": "8225 HN", "plaats": "Lelystad", "merk": "StatiegeldNederland", "puntType": "automaat", "materialen": ["pet-groot", "pet-klein", "blik", "glas", "krat"], "uitbetaling": ["bonnetje", "donatie"], "vrijToegankelijk": true, "gemeenteBeperking": null, "openingstijden": {"ma": "08:00–21:00", "di": "08:00–21:00", "wo": "08:00–21:00", "do": "08:00–21:00", "vr": "08:00–21:00", "za": "08:00–21:00", "zo": "09:00–21:00"}, "latitude": 52.5013432, "longitude": 5.4888279, "bronId": "252124"}}, {"type": "Feature", "geometry": {"type": "Point", "coordinates": [5.4604064, 52.5177718]}, "properties": {"type": "inleverpunt", "locatieNaam": "Albert Heijn", "straatNaam": "De Kempenaar", "straatNr": "03-41", "postcode": "8242 BD", "plaats": "Lelystad", "merk": "StatiegeldNederland", "puntType": "automaat", "materialen": ["pet-groot", "pet-klein", "blik", "glas", "krat"], "uitbetaling": ["bonnetje", "donatie"], "vrijToegankelijk": true, "gemeenteBeperking": null, "openingstijden": {"ma": "07:00–22:00", "di": "07:00–22:00", "wo": "07:00–22:00", "do": "07:00–22:00", "vr": "07:00–22:00", "za": "07:00–22:00", "zo": "08:00–22:00"}, "latitude": 52.5177718, "longitude": 5.4604064, "bronId": "252125"}}, {"type": "Feature", "geometry": {"type": "Point", "coordinates": [5.4775747, 52.5087659]}, "properties": {"type": "inleverpunt", "locatieNaam": "Albert Heijn", "straatNaam": "Neringpassage", "straatNr": "127", "postcode": "8224 JB", "plaats": "Lelystad", "merk": "StatiegeldNederland", "puntType": "automaat", "materialen": ["pet-groot", "pet-klein", "blik", "glas", "krat"], "uitbetaling": ["bonnetje"], "vrijToegankelijk": true, "gemeenteBeperking": null, "openingstijden": {"ma": "08:00–22:00", "di": "08:00–22:00", "wo": "08:00–22:00", "do": "08:00–22:00", "vr": "08:00–22:00", "za": "08:00–22:00", "zo": "08:00–22:00"}, "latitude": 52.5087659, "longitude": 5.4775747, "bronId": "252560"}}, {"type": "Feature", "geometry": {"type": "Point", "coordinates": [5.4398905, 52.4902326]}, "properties": {"type": "inleverpunt", "locatieNaam": "Albert Heijn", "straatNaam": "Ranonkellaan", "straatNr": "1", "postcode": "8245 HE", "plaats": "Lelystad", "merk": "StatiegeldNederland", "puntType": "automaat", "materialen": ["pet-groot", "pet-klein", "blik", "glas", "krat"], "uitbetaling": ["bonnetje", "donatie"], "vrijToegankelijk": true, "gemeenteBeperking": null, "openingstijden": {"ma": "08:00–21:00", "di": "08:00–21:00", "wo": "08:00–21:00", "do": "08:00–21:00", "vr": "08:00–21:00", "za": "08:00–21:00", "zo": "09:00–21:00"}, "latitude": 52.4902326, "longitude": 5.4398905, "bronId": "252661"}}, {"type": "Feature", "geometry": {"type": "Point", "coordinates": [5.5033426, 52.514019]}, "properties": {"type": "inleverpunt", "locatieNaam": "Albert Heijn", "straatNaam": "Voorhof", "straatNr": "12", "postcode": "8212 CA", "plaats": "Lelystad", "merk": "StatiegeldNederland", "puntType": "automaat", "materialen": ["pet-groot", "pet-klein", "blik", "glas", "krat"], "uitbetaling": ["bonnetje"], "vrijToegankelijk": true, "gemeenteBeperking": null, "openingstijden": {"ma": "07:00–22:00", "di": "07:00–22:00", "wo": "07:00–22:00", "do": "07:00–22:00", "vr": "07:00–22:00", "za": "07:00–22:00", "zo": "07:00–22:00"}, "latitude": 52.514019, "longitude": 5.5033426, "bronId": "252871"}}, {"type": "Feature", "geometry": {"type": "Point", "coordinates": [5.447465, 52.510499]}, "properties": {"type": "inleverpunt", "locatieNaam": "Aldi", "straatNaam": "Jol", "straatNr": "35-25", "postcode": "8243 HG", "plaats": "Lelystad", "merk": "StatiegeldNederland", "puntType": "automaat", "materialen": ["pet-groot", "pet-klein", "blik", "glas"], "uitbetaling": ["bonnetje"], "vrijToegankelijk": true, "gemeenteBeperking": null, "openingstijden": {"ma": "08:00–20:00", "di": "08:00–20:00", "wo": "08:00–20:00", "do": "08:00–20:00", "vr": "08:00–20:00", "za": "08:00–20:00", "zo": "10:00–18:00"}, "latitude": 52.510499, "longitude": 5.447465, "bronId": "253188"}}, {"type": "Feature", "geometry": {"type": "Point", "coordinates": [5.4805313, 52.4891788]}, "properties": {"type": "inleverpunt", "locatieNaam": "Cg 2654 J.j.i. Lelystad", "straatNaam": "Bosvalkweg", "straatNr": "1", "postcode": "8239 AC", "plaats": "Lelystad", "merk": "StatiegeldNederland", "puntType": "balie", "materialen": ["pet-groot", "pet-klein", "blik"], "uitbetaling": [], "vrijToegankelijk": true, "gemeenteBeperking": null, "openingstijden": {"ma": "09:00–17:00", "di": "09:00–17:00", "wo": "09:00–17:00", "do": "09:00–17:00", "vr": "09:00–17:00", "za": "Gesloten", "zo": "Gesloten"}, "latitude": 52.4891788, "longitude": 5.4805313, "bronId": "254089"}}, {"type": "Feature", "geometry": {"type": "Point", "coordinates": [5.4399808, 52.5257613]}, "properties": {"type": "inleverpunt", "locatieNaam": "Circlek Servauto - Batavia", "straatNaam": "Bataviaweg", "straatNr": "4", "postcode": "8242 PW", "plaats": "Lelystad", "merk": "StatiegeldNederland", "puntType": "balie", "materialen": ["pet-groot", "pet-klein", "blik"], "uitbetaling": [], "vrijToegankelijk": true, "gemeenteBeperking": null, "openingstijden": null, "latitude": 52.5257613, "longitude": 5.4399808, "bronId": "254124"}}, {"type": "Feature", "geometry": {"type": "Point", "coordinates": [5.4404888, 52.5005273]}, "properties": {"type": "inleverpunt", "locatieNaam": "Concern voor Werk", "straatNaam": "Vaartweg", "straatNr": "67", "postcode": "8243 PD", "plaats": "Lelystad", "merk": "StatiegeldNederland", "puntType": "automaat", "materialen": ["pet-groot", "pet-klein", "blik", "krat"], "uitbetaling": ["donatie", "tikkie"], "vrijToegankelijk": true, "gemeenteBeperking": null, "openingstijden": {"ma": "07:30–15:30", "di": "07:30–15:30", "wo": "07:30–15:30", "do": "07:30–15:30", "vr": "07:30–11:30", "za": "Gesloten", "zo": "Gesloten"}, "latitude": 52.5005273, "longitude": 5.4404888, "bronId": "254204"}}, {"type": "Feature", "geometry": {"type": "Point", "coordinates": [5.4829662, 52.5197123]}, "properties": {"type": "inleverpunt", "locatieNaam": "Dekamarkt", "straatNaam": "Weversstraat", "straatNr": "34", "postcode": "8223 AC", "plaats": "Lelystad", "merk": "StatiegeldNederland", "puntType": "automaat", "materialen": ["pet-groot", "pet-klein", "blik", "glas", "krat"], "uitbetaling": ["bonnetje"], "vrijToegankelijk": true, "gemeenteBeperking": null, "openingstijden": {"ma": "08:00–20:00", "di": "08:00–20:00", "wo": "08:00–20:00", "do": "08:00–20:00", "vr": "08:00–20:00", "za": "08:00–20:00", "zo": "10:00–20:00"}, "latitude": 52.5197123, "longitude": 5.4829662, "bronId": "254404"}}, {"type": "Feature", "geometry": {"type": "Point", "coordinates": [5.424424, 52.433291]}, "properties": {"type": "inleverpunt", "locatieNaam": "Hajé Restaurant De Lepelaar B.V.", "straatNaam": "Rijksweg A6, De Lepelaar", "straatNr": "4", "postcode": "8218 PX", "plaats": "Lelystad", "merk": "StatiegeldNederland", "puntType": "automaat", "materialen": ["pet-klein", "blik"], "uitbetaling": [], "vrijToegankelijk": true, "gemeenteBeperking": null, "openingstijden": {"ma": "06:00–22:00", "di": "06:00–22:00", "wo": "06:00–22:00", "do": "06:00–22:00", "vr": "06:00–22:00", "za": "07:00–22:00", "zo": "08:00–22:00"}, "latitude": 52.433291, "longitude": 5.424424, "bronId": "254935"}}, {"type": "Feature", "geometry": {"type": "Point", "coordinates": [5.447317, 52.510327]}, "properties": {"type": "inleverpunt", "locatieNaam": "Jumbo", "straatNaam": "Jol 37 -", "straatNr": "01", "postcode": "8243 HP", "plaats": "Lelystad", "merk": "StatiegeldNederland", "puntType": "automaat", "materialen": ["pet-groot", "pet-klein", "blik", "glas", "krat"], "uitbetaling": ["bonnetje", "donatie"], "vrijToegankelijk": true, "gemeenteBeperking": null, "openingstijden": {"ma": "07:30–21:00", "di": "07:30–21:00", "wo": "07:30–21:00", "do": "07:30–21:00", "vr": "07:30–21:00", "za": "07:30–21:00", "zo": "09:00–20:00"}, "latitude": 52.510327, "longitude": 5.447317, "bronId": "255459"}}, {"type": "Feature", "geometry": {"type": "Point", "coordinates": [5.490848, 52.493662]}, "properties": {"type": "inleverpunt", "locatieNaam": "Jumbo", "straatNaam": "Voorstraat", "straatNr": "282", "postcode": "8226 HG", "plaats": "Lelystad", "merk": "StatiegeldNederland", "puntType": "automaat", "materialen": ["pet-groot", "pet-klein", "blik", "glas", "krat"], "uitbetaling": ["bonnetje", "donatie"], "vrijToegankelijk": true, "gemeenteBeperking": null, "openingstijden": {"ma": "08:00–21:00", "di": "08:00–21:00", "wo": "08:00–21:00", "do": "08:00–21:00", "vr": "08:00–21:00", "za": "08:00–21:00", "zo": "09:00–20:00"}, "latitude": 52.493662, "longitude": 5.490848, "bronId": "255833"}}, {"type": "Feature", "geometry": {"type": "Point", "coordinates": [5.4744154, 52.5100288]}, "properties": {"type": "inleverpunt", "locatieNaam": "Jumbo", "straatNaam": "Waagpassage", "straatNr": "76", "postcode": "8232 DV", "plaats": "Lelystad", "merk": "StatiegeldNederland", "puntType": "automaat", "materialen": ["pet-groot", "pet-klein", "blik", "glas", "krat"], "uitbetaling": ["bonnetje", "donatie"], "vrijToegankelijk": true, "gemeenteBeperking": null, "openingstijden": {"ma": "08:00–20:00", "di": "08:00–20:00", "wo": "08:00–20:00", "do": "08:00–20:00", "vr": "08:00–20:00", "za": "08:00–20:00", "zo": "08:00–20:00"}, "latitude": 52.5100288, "longitude": 5.4744154, "bronId": "255841"}}, {"type": "Feature", "geometry": {"type": "Point", "coordinates": [5.47232, 52.50124]}, "properties": {"type": "inleverpunt", "locatieNaam": "Lidl", "straatNaam": "De Tjalk", "straatNr": "15-09", "postcode": "8232 LK", "plaats": "Lelystad", "merk": "StatiegeldNederland", "puntType": "automaat", "materialen": ["pet-groot", "pet-klein", "blik", "glas", "krat"], "uitbetaling": ["bonnetje", "donatie"], "vrijToegankelijk": true, "gemeenteBeperking": null, "openingstijden": {"ma": "07:00–21:00", "di": "07:00–21:00", "wo": "07:00–21:00", "do": "07:00–22:00", "vr": "07:00–22:00", "za": "07:00–21:00", "zo": "09:00–21:00"}, "latitude": 52.50124, "longitude": 5.47232, "bronId": "256122"}}, {"type": "Feature", "geometry": {"type": "Point", "coordinates": [5.4848134, 52.5204675]}, "properties": {"type": "inleverpunt", "locatieNaam": "Lidl", "straatNaam": "Passage", "straatNr": "1", "postcode": "8223 AJ", "plaats": "Lelystad", "merk": "StatiegeldNederland", "puntType": "automaat", "materialen": ["pet-groot", "pet-klein", "blik", "glas", "krat"], "uitbetaling": ["bonnetje", "donatie"], "vrijToegankelijk": true, "gemeenteBeperking": null, "openingstijden": {"ma": "08:00–21:00", "di": "08:00–21:00", "wo": "08:00–21:00", "do": "08:00–21:00", "vr": "08:00–21:00", "za": "08:00–21:00", "zo": "09:00–20:00"}, "latitude": 52.5204675, "longitude": 5.4848134, "bronId": "256332"}}, {"type": "Feature", "geometry": {"type": "Point", "coordinates": [5.4746937, 52.5093513]}, "properties": {"type": "inleverpunt", "locatieNaam": "Medikamente die Grenze", "straatNaam": "De Promesse", "straatNr": "135", "postcode": "8232 VZ", "plaats": "Lelystad", "merk": "StatiegeldNederland", "puntType": "automaat", "materialen": ["pet-groot", "pet-klein", "blik"], "uitbetaling": ["bonnetje"], "vrijToegankelijk": true, "gemeenteBeperking": null, "openingstijden": null, "latitude": 52.5093513, "longitude": 5.4746937, "bronId": "256706"}}, {"type": "Feature", "geometry": {"type": "Point", "coordinates": [5.4719264, 52.5021353]}, "properties": {"type": "inleverpunt", "locatieNaam": "Nettorama", "straatNaam": "Tjalk 15 -", "straatNr": "01", "postcode": "8232 LK", "plaats": "Lelystad", "merk": "StatiegeldNederland", "puntType": "automaat", "materialen": ["pet-groot", "pet-klein", "blik", "glas", "krat"], "uitbetaling": ["bonnetje"], "vrijToegankelijk": true, "gemeenteBeperking": null, "openingstijden": {"ma": "07:00–21:00", "di": "07:00–21:00", "wo": "07:00–21:00", "do": "07:00–21:00", "vr": "07:00–21:00", "za": "07:00–21:00", "zo": "10:00–18:00"}, "latitude": 52.5021353, "longitude": 5.4719264, "bronId": "256915"}}, {"type": "Feature", "geometry": {"type": "Point", "coordinates": [5.4617237, 52.5028745]}, "properties": {"type": "inleverpunt", "locatieNaam": "Plus", "straatNaam": "Botter", "straatNr": "44-31", "postcode": "8243 JE", "plaats": "Lelystad", "merk": "StatiegeldNederland", "puntType": "automaat", "materialen": ["pet-groot", "pet-klein", "blik", "glas", "krat"], "uitbetaling": ["bonnetje", "donatie"], "vrijToegankelijk": true, "gemeenteBeperking": null, "openingstijden": {"ma": "07:30–21:00", "di": "07:30–21:00", "wo": "07:30–21:00", "do": "07:30–21:00", "vr": "07:30–21:00", "za": "07:30–21:00", "zo": "09:00–21:00"}, "latitude": 52.5028745, "longitude": 5.4617237, "bronId": "257215"}}, {"type": "Feature", "geometry": {"type": "Point", "coordinates": [5.49296, 52.486582]}, "properties": {"type": "inleverpunt", "locatieNaam": "Shell", "straatNaam": "Larserdreef", "straatNr": "698", "postcode": "8233 HA", "plaats": "Lelystad", "merk": "StatiegeldNederland", "puntType": "balie", "materialen": ["pet-groot", "pet-klein", "blik"], "uitbetaling": [], "vrijToegankelijk": true, "gemeenteBeperking": null, "openingstijden": {"ma": "24 uur geopend", "di": "24 uur geopend", "wo": "24 uur geopend", "do": "24 uur geopend", "vr": "24 uur geopend", "za": "24 uur geopend", "zo": "24 uur geopend"}, "latitude": 52.486582, "longitude": 5.49296, "bronId": "258113"}}, {"type": "Feature", "geometry": {"type": "Point", "coordinates": [5.481866, 52.520265]}, "properties": {"type": "inleverpunt", "locatieNaam": "Shell", "straatNaam": "Noorderwagenplein", "straatNr": "2", "postcode": "8223 AL", "plaats": "Lelystad", "merk": "StatiegeldNederland", "puntType": "balie", "materialen": ["pet-groot", "pet-klein", "blik"], "uitbetaling": [], "vrijToegankelijk": true, "gemeenteBeperking": null, "openingstijden": {"ma": "24 uur geopend", "di": "24 uur geopend", "wo": "24 uur geopend", "do": "24 uur geopend", "vr": "24 uur geopend", "za": "24 uur geopend", "zo": "24 uur geopend"}, "latitude": 52.520265, "longitude": 5.481866, "bronId": "258133"}}, {"type": "Feature", "geometry": {"type": "Point", "coordinates": [5.422194, 52.432778]}, "properties": {"type": "inleverpunt", "locatieNaam": "Shell", "straatNaam": "Rijksweg A6 OZ", "straatNr": "", "postcode": "8218 PZ", "plaats": "Lelystad", "merk": "StatiegeldNederland", "puntType": "balie", "materialen": ["pet-groot", "pet-klein", "blik"], "uitbetaling": [], "vrijToegankelijk": true, "gemeenteBeperking": null, "openingstijden": {"ma": "24 uur geopend", "di": "24 uur geopend", "wo": "24 uur geopend", "do": "24 uur geopend", "vr": "24 uur geopend", "za": "24 uur geopend", "zo": "24 uur geopend"}, "latitude": 52.432778, "longitude": 5.422194, "bronId": "258168"}}, {"type": "Feature", "geometry": {"type": "Point", "coordinates": [5.4609354, 52.5497764]}, "properties": {"type": "inleverpunt", "locatieNaam": "Supermarkt Flevo Marina", "straatNaam": "Overstag", "straatNr": "20", "postcode": "8221 RG", "plaats": "Lelystad", "merk": "StatiegeldNederland", "puntType": "balie", "materialen": ["pet-groot", "pet-klein", "blik"], "uitbetaling": [], "vrijToegankelijk": true, "gemeenteBeperking": null, "openingstijden": {"ma": "08:30–17:00", "di": "08:30–17:00", "wo": "08:30–17:00", "do": "08:30–17:00", "vr": "08:30–17:00", "za": "08:30–17:00", "zo": "08:30–17:00"}, "latitude": 52.5497764, "longitude": 5.4609354, "bronId": "258766"}}, {"type": "Feature", "geometry": {"type": "Point", "coordinates": [5.4960407, 52.4968682]}, "properties": {"type": "inleverpunt", "locatieNaam": "Sv Batavia 1990", "straatNaam": "Doggersbank", "straatNr": "3", "postcode": "8226 CE", "plaats": "Lelystad", "merk": "StatiegeldNederland", "puntType": "balie", "materialen": ["pet-groot", "pet-klein", "blik"], "uitbetaling": [], "vrijToegankelijk": false, "gemeenteBeperking": null, "openingstijden": {"ma": "18:00–22:00", "di": "18:00–22:00", "wo": "18:00–22:00", "do": "18:00–22:00", "vr": "16:00–23:00", "za": "06:30–22:00", "zo": "09:30–17:00"}, "latitude": 52.4968682, "longitude": 5.4960407, "bronId": "258798"}}, {"type": "Feature", "geometry": {"type": "Point", "coordinates": [5.425037, 52.4356596]}, "properties": {"type": "inleverpunt", "locatieNaam": "Total Lelystad De Aalscholver", "straatNaam": "A6", "straatNr": "1", "postcode": "8218 PW", "plaats": "Lelystad", "merk": "StatiegeldNederland", "puntType": "balie", "materialen": ["pet-groot", "pet-klein", "blik"], "uitbetaling": [], "vrijToegankelijk": true, "gemeenteBeperking": null, "openingstijden": {"ma": "06:00–22:00", "di": "06:00–22:00", "wo": "06:00–22:00", "do": "06:00–22:00", "vr": "06:00–22:00", "za": "07:00–22:00", "zo": "08:00–22:00"}, "latitude": 52.4356596, "longitude": 5.425037, "bronId": "259018"}}, {"type": "Feature", "geometry": {"type": "Point", "coordinates": [5.4212941, 52.4997885]}, "properties": {"type": "inleverpunt", "locatieNaam": "ViaTim", "straatNaam": "Binnendijk", "straatNr": "88", "postcode": "8244 AH", "plaats": "Lelystad", "merk": "StatiegeldNederland", "puntType": "balie", "materialen": ["pet-groot", "pet-klein", "blik"], "uitbetaling": ["tikkie"], "vrijToegankelijk": true, "gemeenteBeperking": null, "openingstijden": null, "latitude": 52.4997885, "longitude": 5.4212941, "bronId": "259223"}}, {"type": "Feature", "geometry": {"type": "Point", "coordinates": [5.5278024, 52.5141252]}, "properties": {"type": "inleverpunt", "locatieNaam": "ViaTim", "straatNaam": "Haverlij", "straatNr": "8", "postcode": "8219 DA", "plaats": "Lelystad", "merk": "StatiegeldNederland", "puntType": "balie", "materialen": ["pet-groot", "pet-klein", "blik"], "uitbetaling": ["tikkie"], "vrijToegankelijk": true, "gemeenteBeperking": null, "openingstijden": {"ma": "15:30–20:00", "di": "15:30–20:00", "wo": "15:30–20:00", "do": "15:30–20:00", "vr": "15:30–20:00", "za": "Gesloten", "zo": "Gesloten"}, "latitude": 52.5141252, "longitude": 5.5278024, "bronId": "259307"}}, {"type": "Feature", "geometry": {"type": "Point", "coordinates": [5.4935792, 52.5019842]}, "properties": {"type": "inleverpunt", "locatieNaam": "ViaTim", "straatNaam": "Horst 20", "straatNr": "26", "postcode": "8225 LW", "plaats": "Lelystad", "merk": "StatiegeldNederland", "puntType": "balie", "materialen": ["pet-groot", "pet-klein", "blik"], "uitbetaling": ["tikkie"], "vrijToegankelijk": true, "gemeenteBeperking": null, "openingstijden": {"ma": "09:30–13:00", "di": "09:30–13:00", "wo": "09:30–13:00", "do": "09:30–13:00", "vr": "09:30–13:00", "za": "Gesloten", "zo": "Gesloten"}, "latitude": 52.5019842, "longitude": 5.4935792, "bronId": "259330"}}, {"type": "Feature", "geometry": {"type": "Point", "coordinates": [5.5278024, 52.5141252]}, "properties": {"type": "inleverpunt", "locatieNaam": "ViaTim", "straatNaam": "Ringdijk", "straatNr": "275", "postcode": "8244 BK", "plaats": "Lelystad", "merk": "StatiegeldNederland", "puntType": "balie", "materialen": ["pet-groot", "pet-klein", "blik"], "uitbetaling": ["tikkie"], "vrijToegankelijk": true, "gemeenteBeperking": null, "openingstijden": {"ma": "15:30–20:00", "di": "15:30–20:00", "wo": "15:30–20:00", "do": "15:30–20:00", "vr": "15:30–20:00", "za": "Gesloten", "zo": "Gesloten"}, "latitude": 52.5141252, "longitude": 5.5278024, "bronId": "259464"}}, {"type": "Feature", "geometry": {"type": "Point", "coordinates": [5.4899179, 52.5030462]}, "properties": {"type": "inleverpunt", "locatieNaam": "ViaTim", "straatNaam": "Wold 23", "straatNr": "69", "postcode": "8225 BB", "plaats": "Lelystad", "merk": "StatiegeldNederland", "puntType": "balie", "materialen": ["pet-groot", "pet-klein", "blik"], "uitbetaling": ["tikkie"], "vrijToegankelijk": true, "gemeenteBeperking": null, "openingstijden": null, "latitude": 52.5030462, "longitude": 5.4899179, "bronId": "259539"}}, {"type": "Feature", "geometry": {"type": "Point", "coordinates": [5.4780279, 52.5061867]}, "properties": {"type": "inleverpunt", "locatieNaam": "Vomar", "straatNaam": "Neringweg", "straatNr": "391", "postcode": "8224 KJ", "plaats": "Lelystad", "merk": "StatiegeldNederland", "puntType": "automaat", "materialen": ["pet-groot", "pet-klein", "blik", "glas", "krat"], "uitbetaling": ["bonnetje", "donatie"], "vrijToegankelijk": true, "gemeenteBeperking": null, "openingstijden": {"ma": "07:30–22:00", "di": "07:30–22:00", "wo": "07:30–22:00", "do": "07:30–22:00", "vr": "07:30–22:00", "za": "07:30–22:00", "zo": "08:00–22:00"}, "latitude": 52.5061867, "longitude": 5.4780279, "bronId": "259699"}}, {"type": "Feature", "geometry": {"type": "Point", "coordinates": [5.482125, 52.490355]}, "properties": {"type": "inleverpunt", "locatieNaam": "Intratuin Lelystad", "straatNaam": "Zuiderpoort", "straatNr": "20", "postcode": "8239 AD", "plaats": "Lelystad", "merk": "StichtingOPEN", "puntType": "balie", "materialen": ["batterijen", "lampen"], "uitbetaling": [], "vrijToegankelijk": false, "gemeenteBeperking": null, "openingstijden": null, "latitude": 52.490355, "longitude": 5.482125, "bronId": "SP00005557"}}, {"type": "Feature", "geometry": {"type": "Point", "coordinates": [5.484811, 52.490774]}, "properties": {"type": "inleverpunt", "locatieNaam": "Praxis Lelystad (Palazzo) - 2414", "straatNaam": "Zuiderpoort", "straatNr": "35", "postcode": "8239 AB", "plaats": "Lelystad", "merk": "StichtingOPEN", "puntType": "balie", "materialen": ["elektro-middel", "lampen", "tl-buizen"], "uitbetaling": [], "vrijToegankelijk": false, "gemeenteBeperking": null, "openingstijden": null, "latitude": 52.490774, "longitude": 5.484811, "bronId": "SP00004520"}}, {"type": "Feature", "geometry": {"type": "Point", "coordinates": [5.481427, 52.491767]}, "properties": {"type": "inleverpunt", "locatieNaam": "GAMMA Lelystad", "straatNaam": "Zuiderpoort", "straatNr": "3", "postcode": "8239 AB", "plaats": "Lelystad", "merk": "StichtingOPEN", "puntType": "balie", "materialen": ["batterijen", "elektro-middel", "lampen", "tl-buizen"], "uitbetaling": [], "vrijToegankelijk": false, "gemeenteBeperking": null, "openingstijden": null, "latitude": 52.491767, "longitude": 5.481427, "bronId": "SP00003037"}}, {"type": "Feature", "geometry": {"type": "Point", "coordinates": [5.435538, 52.500907]}, "properties": {"type": "inleverpunt", "locatieNaam": "De Groene Sluis", "straatNaam": "Zuiveringweg", "straatNr": "83", "postcode": "8243 PE", "plaats": "Lelystad", "merk": "StichtingOPEN", "puntType": "balie", "materialen": ["batterijen", "elektro-groot", "elektro-klein", "elektro-middel", "lampen", "tl-buizen"], "uitbetaling": [], "vrijToegankelijk": false, "gemeenteBeperking": null, "openingstijden": null, "latitude": 52.500907, "longitude": 5.435538, "bronId": "SP00006806"}}, {"type": "Feature", "geometry": {"type": "Point", "coordinates": [5.490687, 52.493694]}, "properties": {"type": "inleverpunt", "locatieNaam": "Jumbo Lelystad", "straatNaam": "Voorstraat", "straatNr": "282", "postcode": "8226 HG", "plaats": "Lelystad", "merk": "StichtingOPEN", "puntType": "balie", "materialen": ["batterijen", "lampen"], "uitbetaling": [], "vrijToegankelijk": false, "gemeenteBeperking": null, "openingstijden": null, "latitude": 52.493694, "longitude": 5.490687, "bronId": "SP00025320"}}, {"type": "Feature", "geometry": {"type": "Point", "coordinates": [5.47243, 52.500792]}, "properties": {"type": "inleverpunt", "locatieNaam": "Kruidvat Lelystad", "straatNaam": "Tjalk", "straatNr": "1506", "postcode": "8232 LK", "plaats": "Lelystad", "merk": "StichtingOPEN", "puntType": "balie", "materialen": ["batterijen", "lampen"], "uitbetaling": [], "vrijToegankelijk": false, "gemeenteBeperking": null, "openingstijden": null, "latitude": 52.500792, "longitude": 5.47243, "bronId": "SP00024775"}}, {"type": "Feature", "geometry": {"type": "Point", "coordinates": [5.461784, 52.502682]}, "properties": {"type": "inleverpunt", "locatieNaam": "PLUS Lelystad", "straatNaam": "Botter 44", "straatNr": "31", "postcode": "8243 JE", "plaats": "Lelystad", "merk": "StichtingOPEN", "puntType": "balie", "materialen": ["batterijen", "lampen"], "uitbetaling": [], "vrijToegankelijk": false, "gemeenteBeperking": null, "openingstijden": null, "latitude": 52.502682, "longitude": 5.461784, "bronId": "SP00024004"}}, {"type": "Feature", "geometry": {"type": "Point", "coordinates": [5.472008, 52.501118]}, "properties": {"type": "inleverpunt", "locatieNaam": "Aldi Lelystad", "straatNaam": "Tjalk", "straatNr": "1502-3", "postcode": "8232 LK", "plaats": "Lelystad", "merk": "StichtingOPEN", "puntType": "balie", "materialen": ["batterijen", "elektro-klein", "lampen"], "uitbetaling": [], "vrijToegankelijk": false, "gemeenteBeperking": null, "openingstijden": null, "latitude": 52.501118, "longitude": 5.472008, "bronId": "SP00027024"}}, {"type": "Feature", "geometry": {"type": "Point", "coordinates": [5.47069, 52.50211]}, "properties": {"type": "inleverpunt", "locatieNaam": "Aldi Lelystad", "straatNaam": "Tjalk 14", "straatNr": "1502-3", "postcode": "8232 LK", "plaats": "Lelystad", "merk": "StichtingOPEN", "puntType": "balie", "materialen": ["batterijen", "elektro-klein", "lampen"], "uitbetaling": [], "vrijToegankelijk": false, "gemeenteBeperking": null, "openingstijden": null, "latitude": 52.50211, "longitude": 5.47069, "bronId": "SP00029851"}}, {"type": "Feature", "geometry": {"type": "Point", "coordinates": [5.471132, 52.502102]}, "properties": {"type": "inleverpunt", "locatieNaam": "Boni Lelystad", "straatNaam": "Tjalk 14", "straatNr": "15-1", "postcode": "8232 LK", "plaats": "Lelystad", "merk": "StichtingOPEN", "puntType": "balie", "materialen": ["batterijen", "lampen"], "uitbetaling": [], "vrijToegankelijk": false, "gemeenteBeperking": null, "openingstijden": null, "latitude": 52.502102, "longitude": 5.471132, "bronId": "SP00023754"}}, {"type": "Feature", "geometry": {"type": "Point", "coordinates": [5.471132, 52.502102]}, "properties": {"type": "inleverpunt", "locatieNaam": "Action Lelystad 1142", "straatNaam": "Tjalk 15", "straatNr": "2", "postcode": "8232 LK", "plaats": "Lelystad", "merk": "StichtingOPEN", "puntType": "balie", "materialen": ["lampen"], "uitbetaling": [], "vrijToegankelijk": false, "gemeenteBeperking": null, "openingstijden": null, "latitude": 52.502102, "longitude": 5.471132, "bronId": "SP00007587"}}, {"type": "Feature", "geometry": {"type": "Point", "coordinates": [5.471132, 52.502102]}, "properties": {"type": "inleverpunt", "locatieNaam": "Action Lelystad", "straatNaam": "Tjalk 14", "straatNr": "15-2", "postcode": "8232 LK", "plaats": "Lelystad", "merk": "StichtingOPEN", "puntType": "balie", "materialen": ["batterijen", "lampen"], "uitbetaling": [], "vrijToegankelijk": false, "gemeenteBeperking": null, "openingstijden": null, "latitude": 52.502102, "longitude": 5.471132, "bronId": "SP00025566"}}, {"type": "Feature", "geometry": {"type": "Point", "coordinates": [5.4889, 52.501351]}, "properties": {"type": "inleverpunt", "locatieNaam": "1116 Albert Heijn Lelystad", "straatNaam": "Kamp", "straatNr": "4222", "postcode": "8225 HN", "plaats": "Lelystad", "merk": "StichtingOPEN", "puntType": "balie", "materialen": ["batterijen", "elektro-klein", "lampen"], "uitbetaling": [], "vrijToegankelijk": false, "gemeenteBeperking": null, "openingstijden": null, "latitude": 52.501351, "longitude": 5.4889, "bronId": "SP00023110"}}, {"type": "Feature", "geometry": {"type": "Point", "coordinates": [5.448122, 52.50976]}, "properties": {"type": "inleverpunt", "locatieNaam": "Jumbo Lelystad", "straatNaam": "Jol 37", "straatNr": "1", "postcode": "8243 HP", "plaats": "Lelystad", "merk": "StichtingOPEN", "puntType": "balie", "materialen": ["batterijen", "lampen"], "uitbetaling": [], "vrijToegankelijk": false, "gemeenteBeperking": null, "openingstijden": null, "latitude": 52.50976, "longitude": 5.448122, "bronId": "SP00025452"}}, {"type": "Feature", "geometry": {"type": "Point", "coordinates": [5.447672, 52.510508]}, "properties": {"type": "inleverpunt", "locatieNaam": "Aldi Lelystad", "straatNaam": "Jol", "straatNr": "3525", "postcode": "8243 HG", "plaats": "Lelystad", "merk": "StichtingOPEN", "puntType": "balie", "materialen": ["batterijen", "elektro-klein", "lampen"], "uitbetaling": [], "vrijToegankelijk": false, "gemeenteBeperking": null, "openingstijden": null, "latitude": 52.510508, "longitude": 5.447672, "bronId": "SP00027033"}}, {"type": "Feature", "geometry": {"type": "Point", "coordinates": [5.476137, 52.50677]}, "properties": {"type": "inleverpunt", "locatieNaam": "Kruidvat Lelystad", "straatNaam": "Stadhuisstraat", "straatNr": "58", "postcode": "8232 VC", "plaats": "Lelystad", "merk": "StichtingOPEN", "puntType": "balie", "materialen": ["batterijen", "lampen"], "uitbetaling": [], "vrijToegankelijk": false, "gemeenteBeperking": null, "openingstijden": null, "latitude": 52.50677, "longitude": 5.476137, "bronId": "SP00024778"}}, {"type": "Feature", "geometry": {"type": "Point", "coordinates": [5.477575, 52.508766]}, "properties": {"type": "inleverpunt", "locatieNaam": "8601 Albert Heijn Lelystad", "straatNaam": "Neringpassage", "straatNr": "127", "postcode": "8224 JB", "plaats": "Lelystad", "merk": "StichtingOPEN", "puntType": "balie", "materialen": ["batterijen", "elektro-klein", "lampen"], "uitbetaling": [], "vrijToegankelijk": false, "gemeenteBeperking": null, "openingstijden": null, "latitude": 52.508766, "longitude": 5.477575, "bronId": "SP00023114"}}, {"type": "Feature", "geometry": {"type": "Point", "coordinates": [5.476762, 52.509152]}, "properties": {"type": "inleverpunt", "locatieNaam": "Kruidvat Lelystad", "straatNaam": "De Wissel", "straatNr": "12", "postcode": "8232 DP", "plaats": "Lelystad", "merk": "StichtingOPEN", "puntType": "balie", "materialen": ["batterijen", "lampen"], "uitbetaling": [], "vrijToegankelijk": false, "gemeenteBeperking": null, "openingstijden": null, "latitude": 52.509152, "longitude": 5.476762, "bronId": "SP00029564"}}, {"type": "Feature", "geometry": {"type": "Point", "coordinates": [5.47537, 52.50954]}, "properties": {"type": "inleverpunt", "locatieNaam": "Xenos Lelystad", "straatNaam": "De Promesse", "straatNr": "54", "postcode": "8232 VX", "plaats": "Lelystad", "merk": "StichtingOPEN", "puntType": "balie", "materialen": ["batterijen", "lampen"], "uitbetaling": [], "vrijToegankelijk": false, "gemeenteBeperking": null, "openingstijden": null, "latitude": 52.50954, "longitude": 5.47537, "bronId": "SP00029942"}}, {"type": "Feature", "geometry": {"type": "Point", "coordinates": [5.475026, 52.509753]}, "properties": {"type": "inleverpunt", "locatieNaam": "Jumbo Lelystad", "straatNaam": "Waagpassage", "straatNr": "76", "postcode": "8232 DV", "plaats": "Lelystad", "merk": "StichtingOPEN", "puntType": "balie", "materialen": ["batterijen", "lampen"], "uitbetaling": [], "vrijToegankelijk": false, "gemeenteBeperking": null, "openingstijden": null, "latitude": 52.509753, "longitude": 5.475026, "bronId": "SP00025324"}}, {"type": "Feature", "geometry": {"type": "Point", "coordinates": [5.47562, 52.51531]}, "properties": {"type": "inleverpunt", "locatieNaam": "PLUS Apeldoorn", "straatNaam": "de Schans", "straatNr": "16", "postcode": "7332 BC", "plaats": "Apeldoorn", "merk": "StichtingOPEN", "puntType": "balie", "materialen": ["batterijen", "lampen"], "uitbetaling": [], "vrijToegankelijk": false, "gemeenteBeperking": null, "openingstijden": null, "latitude": 52.51531, "longitude": 5.47562, "bronId": "SP00030094"}}, {"type": "Feature", "geometry": {"type": "Point", "coordinates": [5.459275, 52.517993]}, "properties": {"type": "inleverpunt", "locatieNaam": "1235 Albert Heijn Lelystad", "straatNaam": "Kempenaar 03", "straatNr": "341", "postcode": "8242 BD", "plaats": "Lelystad", "merk": "StichtingOPEN", "puntType": "balie", "materialen": ["batterijen", "elektro-klein", "lampen"], "uitbetaling": [], "vrijToegankelijk": false, "gemeenteBeperking": null, "openingstijden": null, "latitude": 52.517993, "longitude": 5.459275, "bronId": "SP00023240"}}, {"type": "Feature", "geometry": {"type": "Point", "coordinates": [5.503218, 52.514035]}, "properties": {"type": "inleverpunt", "locatieNaam": "8784 Albert Heijn Lelystad", "straatNaam": "Voorhof", "straatNr": "12", "postcode": "8212 CA", "plaats": "Lelystad", "merk": "StichtingOPEN", "puntType": "balie", "materialen": ["batterijen", "elektro-klein", "lampen"], "uitbetaling": [], "vrijToegankelijk": false, "gemeenteBeperking": null, "openingstijden": null, "latitude": 52.514035, "longitude": 5.503218, "bronId": "SP00023118"}}, {"type": "Feature", "geometry": {"type": "Point", "coordinates": [5.484413, 52.519481]}, "properties": {"type": "inleverpunt", "locatieNaam": "Action Lelystad 1286", "straatNaam": "Snijdersstraat", "straatNr": "11", "postcode": "8223 AA", "plaats": "Lelystad", "merk": "StichtingOPEN", "puntType": "balie", "materialen": ["batterijen", "lampen"], "uitbetaling": [], "vrijToegankelijk": false, "gemeenteBeperking": null, "openingstijden": null, "latitude": 52.519481, "longitude": 5.484413, "bronId": "SP00007858"}}, {"type": "Feature", "geometry": {"type": "Point", "coordinates": [5.482999, 52.519806]}, "properties": {"type": "inleverpunt", "locatieNaam": "Dekamarkt Lelystad", "straatNaam": "Weversstraat", "straatNr": "34", "postcode": "8223 AC", "plaats": "Lelystad", "merk": "StichtingOPEN", "puntType": "balie", "materialen": ["batterijen", "lampen"], "uitbetaling": [], "vrijToegankelijk": false, "gemeenteBeperking": null, "openingstijden": null, "latitude": 52.519806, "longitude": 5.482999, "bronId": "SP00023693"}}, {"type": "Feature", "geometry": {"type": "Point", "coordinates": [5.48315, 52.51996]}, "properties": {"type": "inleverpunt", "locatieNaam": "Kruidvat Lelystad", "straatNaam": "Weversstraat", "straatNr": "10-32-36", "postcode": "8223 AC", "plaats": "Lelystad", "merk": "StichtingOPEN", "puntType": "balie", "materialen": ["batterijen", "lampen"], "uitbetaling": [], "vrijToegankelijk": false, "gemeenteBeperking": null, "openingstijden": null, "latitude": 52.51996, "longitude": 5.48315, "bronId": "SP00029754"}}, {"type": "Feature", "geometry": {"type": "Point", "coordinates": [5.491298, 52.51862]}, "properties": {"type": "inleverpunt", "locatieNaam": "Stichting Dierenweide Lelystad \"Het Stadspark\"", "straatNaam": "Stadspark", "straatNr": "9", "postcode": "8224 ET", "plaats": "Lelystad", "merk": "StichtingOPEN", "puntType": "balie", "materialen": ["elektro-middel"], "uitbetaling": [], "vrijToegankelijk": false, "gemeenteBeperking": null, "openingstijden": null, "latitude": 52.51862, "longitude": 5.491298, "bronId": "SP00007975"}}, {"type": "Feature", "geometry": {"type": "Point", "coordinates": [5.49667, 52.522822]}, "properties": {"type": "inleverpunt", "locatieNaam": "Praxis Lelystad Schroefstraat - 2062", "straatNaam": "Schroefstraat", "straatNr": "8", "postcode": "8223 ED", "plaats": "Lelystad", "merk": "StichtingOPEN", "puntType": "balie", "materialen": ["elektro-middel", "lampen", "tl-buizen"], "uitbetaling": [], "vrijToegankelijk": false, "gemeenteBeperking": null, "openingstijden": null, "latitude": 52.522822, "longitude": 5.49667, "bronId": "SP00004521"}}, {"type": "Feature", "geometry": {"type": "Point", "coordinates": [5.539426, 52.493872]}, "properties": {"type": "inleverpunt", "locatieNaam": "ABS Lelystad", "straatNaam": "Zeeasterweg", "straatNr": "40C", "postcode": "8219 PN", "plaats": "Lelystad", "merk": "StichtingOPEN", "puntType": "milieustraat", "materialen": ["batterijen", "elektro-groot", "elektro-klein", "elektro-middel", "lampen", "tl-buizen"], "uitbetaling": [], "vrijToegankelijk": false, "gemeenteBeperking": ["Lelystad"], "openingstijden": null, "latitude": 52.493872, "longitude": 5.539426, "bronId": "SP00001353"}}, {"type": "Feature", "geometry": {"type": "Point", "coordinates": [5.4398905, 52.4902326]}, "properties": {"type": "inleverpunt", "locatieNaam": "2257 Albert Heijn", "straatNaam": "Ranonkellaan", "straatNr": "1", "postcode": "8245 HE", "plaats": "Lelystad", "merk": "Stibat", "puntType": "inzamelbak", "materialen": ["batterijen"], "uitbetaling": [], "vrijToegankelijk": false, "gemeenteBeperking": null, "openingstijden": null, "latitude": 52.4902326, "longitude": 5.4398905, "bronId": "L043910"}}, {"type": "Feature", "geometry": {"type": "Point", "coordinates": [5.4879324, 52.4851425]}, "properties": {"type": "inleverpunt", "locatieNaam": "Isero Lelystad", "straatNaam": "Apolloweg", "straatNr": "263", "postcode": "8239 DC", "plaats": "LELYSTAD", "merk": "Stibat", "puntType": "inzamelbak", "materialen": ["batterijen"], "uitbetaling": [], "vrijToegankelijk": false, "gemeenteBeperking": null, "openingstijden": null, "latitude": 52.4851425, "longitude": 5.4879324, "bronId": "L043360"}}, {"type": "Feature", "geometry": {"type": "Point", "coordinates": [5.482218, 52.490361]}, "properties": {"type": "inleverpunt", "locatieNaam": "Intratuin", "straatNaam": "Zuiderpoort", "straatNr": "20", "postcode": "8239 AD", "plaats": "LELYSTAD", "merk": "Stibat", "puntType": "inzamelbak", "materialen": ["batterijen"], "uitbetaling": [], "vrijToegankelijk": false, "gemeenteBeperking": null, "openingstijden": null, "latitude": 52.490361, "longitude": 5.482218, "bronId": "L020487"}}, {"type": "Feature", "geometry": {"type": "Point", "coordinates": [5.4839974, 52.4904301]}, "properties": {"type": "inleverpunt", "locatieNaam": "Kwantum", "straatNaam": "Zuiderpoort", "straatNr": "32-34", "postcode": "8239 AD", "plaats": "LELYSTAD", "merk": "Stibat", "puntType": "inzamelbak", "materialen": ["batterijen"], "uitbetaling": [], "vrijToegankelijk": false, "gemeenteBeperking": null, "openingstijden": null, "latitude": 52.4904301, "longitude": 5.4839974, "bronId": "L018470"}}, {"type": "Feature", "geometry": {"type": "Point", "coordinates": [5.4811905, 52.4909343]}, "properties": {"type": "inleverpunt", "locatieNaam": "Enjoy &amp; Meerens", "straatNaam": "Zuiderpoort", "straatNr": "4", "postcode": "8239 AD", "plaats": "LELYSTAD", "merk": "Stibat", "puntType": "inzamelbak", "materialen": ["batterijen"], "uitbetaling": [], "vrijToegankelijk": false, "gemeenteBeperking": null, "openingstijden": null, "latitude": 52.4909343, "longitude": 5.4811905, "bronId": "L029231"}}, {"type": "Feature", "geometry": {"type": "Point", "coordinates": [5.4844302, 52.4907442]}, "properties": {"type": "inleverpunt", "locatieNaam": "Praxis 2414", "straatNaam": "Zuiderpoort", "straatNr": "35", "postcode": "8239 AB", "plaats": "LELYSTAD", "merk": "Stibat", "puntType": "inzamelbak", "materialen": ["batterijen"], "uitbetaling": [], "vrijToegankelijk": false, "gemeenteBeperking": null, "openingstijden": null, "latitude": 52.4907442, "longitude": 5.4844302, "bronId": "L016185"}}, {"type": "Feature", "geometry": {"type": "Point", "coordinates": [5.4814771, 52.4918635]}, "properties": {"type": "inleverpunt", "locatieNaam": "Gamma", "straatNaam": "Zuiderpoort", "straatNr": "3", "postcode": "8239 AB", "plaats": "LELYSTAD", "merk": "Stibat", "puntType": "inzamelbak", "materialen": ["batterijen"], "uitbetaling": [], "vrijToegankelijk": false, "gemeenteBeperking": null, "openingstijden": null, "latitude": 52.4918635, "longitude": 5.4814771, "bronId": "L007030"}}, {"type": "Feature", "geometry": {"type": "Point", "coordinates": [5.4845132, 52.491333]}, "properties": {"type": "inleverpunt", "locatieNaam": "Welkoop", "straatNaam": "Zuiderpoort", "straatNr": "31-33", "postcode": "8239 AB", "plaats": "LELYSTAD", "merk": "Stibat", "puntType": "inzamelbak", "materialen": ["batterijen"], "uitbetaling": [], "vrijToegankelijk": false, "gemeenteBeperking": null, "openingstijden": null, "latitude": 52.491333, "longitude": 5.4845132, "bronId": "L045823"}}, {"type": "Feature", "geometry": {"type": "Point", "coordinates": [5.4834736, 52.4916513]}, "properties": {"type": "inleverpunt", "locatieNaam": "Leen Bakker", "straatNaam": "Zuiderpoort", "straatNr": "19/21", "postcode": "8239 AB", "plaats": "LELYSTAD", "merk": "Stibat", "puntType": "inzamelbak", "materialen": ["batterijen"], "uitbetaling": [], "vrijToegankelijk": false, "gemeenteBeperking": null, "openingstijden": null, "latitude": 52.4916513, "longitude": 5.4834736, "bronId": "L019073"}}, {"type": "Feature", "geometry": {"type": "Point", "coordinates": [5.4354057, 52.5008988]}, "properties": {"type": "inleverpunt", "locatieNaam": "Kringloopwinkel De Groene Sluis", "straatNaam": "Zuiveringweg", "straatNr": "83a", "postcode": "8243 PE", "plaats": "LELYSTAD", "merk": "Stibat", "puntType": "inzamelbak", "materialen": ["batterijen"], "uitbetaling": [], "vrijToegankelijk": false, "gemeenteBeperking": null, "openingstijden": null, "latitude": 52.5008988, "longitude": 5.4354057, "bronId": "L036251"}}, {"type": "Feature", "geometry": {"type": "Point", "coordinates": [5.4171871, 52.5032696]}, "properties": {"type": "inleverpunt", "locatieNaam": "Tagrijn Wielersport", "straatNaam": "Oostvaardersdijk", "straatNr": "25a", "postcode": "8244 PA", "plaats": "LELYSTAD", "merk": "Stibat", "puntType": "inzamelbak", "materialen": ["batterijen"], "uitbetaling": [], "vrijToegankelijk": false, "gemeenteBeperking": null, "openingstijden": null, "latitude": 52.5032696, "longitude": 5.4171871, "bronId": "L049492"}}, {"type": "Feature", "geometry": {"type": "Point", "coordinates": [5.4909974, 52.493799]}, "properties": {"type": "inleverpunt", "locatieNaam": "Jumbo", "straatNaam": "Voorstraat", "straatNr": "282", "postcode": "8226 HG", "plaats": "LELYSTAD", "merk": "Stibat", "puntType": "inzamelbak", "materialen": ["batterijen"], "uitbetaling": [], "vrijToegankelijk": false, "gemeenteBeperking": null, "openingstijden": null, "latitude": 52.493799, "longitude": 5.4909974, "bronId": "L035551"}}, {"type": "Feature", "geometry": {"type": "Point", "coordinates": [5.4724198, 52.5007772]}, "properties": {"type": "inleverpunt", "locatieNaam": "Wibra", "straatNaam": "Tjalk", "straatNr": "15", "postcode": "8232 LK", "plaats": "LELYSTAD", "merk": "Stibat", "puntType": "inzamelbak", "materialen": ["batterijen"], "uitbetaling": [], "vrijToegankelijk": false, "gemeenteBeperking": null, "openingstijden": null, "latitude": 52.5007772, "longitude": 5.4724198, "bronId": "L036260"}}, {"type": "Feature", "geometry": {"type": "Point", "coordinates": [5.4720087, 52.5011184]}, "properties": {"type": "inleverpunt", "locatieNaam": "1142 Action", "straatNaam": "Tjalk 15-2 unit", "straatNr": "5", "postcode": "8232 LK", "plaats": "LELYSTAD", "merk": "Stibat", "puntType": "inzamelbak", "materialen": ["batterijen"], "uitbetaling": [], "vrijToegankelijk": false, "gemeenteBeperking": null, "openingstijden": null, "latitude": 52.5011184, "longitude": 5.4720087, "bronId": "L016664"}}, {"type": "Feature", "geometry": {"type": "Point", "coordinates": [5.4618436, 52.5028427]}, "properties": {"type": "inleverpunt", "locatieNaam": "Primera", "straatNaam": "Botter", "straatNr": "44 23", "postcode": "8243 JE", "plaats": "LELYSTAD", "merk": "Stibat", "puntType": "inzamelbak", "materialen": ["batterijen"], "uitbetaling": [], "vrijToegankelijk": false, "gemeenteBeperking": null, "openingstijden": null, "latitude": 52.5028427, "longitude": 5.4618436, "bronId": "L023999"}}, {"type": "Feature", "geometry": {"type": "Point", "coordinates": [5.4872175, 52.4987294]}, "properties": {"type": "inleverpunt", "locatieNaam": "Tweewielersmarkt", "straatNaam": "Griend", "straatNr": "3", "postcode": "8225 SJ", "plaats": "LELYSTAD", "merk": "Stibat", "puntType": "inzamelbak", "materialen": ["batterijen"], "uitbetaling": [], "vrijToegankelijk": false, "gemeenteBeperking": null, "openingstijden": null, "latitude": 52.4987294, "longitude": 5.4872175, "bronId": "L048901"}}, {"type": "Feature", "geometry": {"type": "Point", "coordinates": [5.4719006, 52.5021631]}, "properties": {"type": "inleverpunt", "locatieNaam": "Kruidvat", "straatNaam": "Tjalk", "straatNr": "1506", "postcode": "8232 LK", "plaats": "LELYSTAD", "merk": "Stibat", "puntType": "inzamelbak", "materialen": ["batterijen"], "uitbetaling": [], "vrijToegankelijk": false, "gemeenteBeperking": null, "openingstijden": null, "latitude": 52.5021631, "longitude": 5.4719006, "bronId": "L014940"}}, {"type": "Feature", "geometry": {"type": "Point", "coordinates": [5.4719006, 52.5021631]}, "properties": {"type": "inleverpunt", "locatieNaam": "Zeeman", "straatNaam": "De Tjalk", "straatNr": "15-02", "postcode": "8232 LK", "plaats": "Lelystad", "merk": "Stibat", "puntType": "inzamelbak", "materialen": ["batterijen"], "uitbetaling": [], "vrijToegankelijk": false, "gemeenteBeperking": null, "openingstijden": null, "latitude": 52.5021631, "longitude": 5.4719006, "bronId": "L019245"}}, {"type": "Feature", "geometry": {"type": "Point", "coordinates": [5.4719006, 52.5021631]}, "properties": {"type": "inleverpunt", "locatieNaam": "Lidl", "straatNaam": "Tjalk", "straatNr": "15-09", "postcode": "8232 LK", "plaats": "Lelystad", "merk": "Stibat", "puntType": "inzamelbak", "materialen": ["batterijen"], "uitbetaling": [], "vrijToegankelijk": false, "gemeenteBeperking": null, "openingstijden": null, "latitude": 52.5021631, "longitude": 5.4719006, "bronId": "L017707"}}, {"type": "Feature", "geometry": {"type": "Point", "coordinates": [5.462516, 52.503801]}, "properties": {"type": "inleverpunt", "locatieNaam": "PLUS", "straatNaam": "Botter", "straatNr": "4431", "postcode": "8243 JE", "plaats": "LELYSTAD", "merk": "Stibat", "puntType": "inzamelbak", "materialen": ["batterijen"], "uitbetaling": [], "vrijToegankelijk": false, "gemeenteBeperking": null, "openingstijden": null, "latitude": 52.503801, "longitude": 5.462516, "bronId": "L008375"}}, {"type": "Feature", "geometry": {"type": "Point", "coordinates": [5.4455638, 52.5072091]}, "properties": {"type": "inleverpunt", "locatieNaam": "Romeo Delta (winkel bij tankstation)", "straatNaam": "Jol", "straatNr": "1101", "postcode": "8243 ED", "plaats": "LELYSTAD", "merk": "Stibat", "puntType": "inzamelbak", "materialen": ["batterijen"], "uitbetaling": [], "vrijToegankelijk": false, "gemeenteBeperking": null, "openingstijden": null, "latitude": 52.5072091, "longitude": 5.4455638, "bronId": "L031134"}}, {"type": "Feature", "geometry": {"type": "Point", "coordinates": [5.4891024, 52.5021869]}, "properties": {"type": "inleverpunt", "locatieNaam": "1116 Albert Heijn", "straatNaam": "Kamp", "straatNr": "4222", "postcode": "8225 HN", "plaats": "LELYSTAD", "merk": "Stibat", "puntType": "inzamelbak", "materialen": ["batterijen"], "uitbetaling": [], "vrijToegankelijk": false, "gemeenteBeperking": null, "openingstijden": null, "latitude": 52.5021869, "longitude": 5.4891024, "bronId": "L007430"}}, {"type": "Feature", "geometry": {"type": "Point", "coordinates": [5.4475974, 52.5101142]}, "properties": {"type": "inleverpunt", "locatieNaam": "Jumbo", "straatNaam": "Jol", "straatNr": "37-01", "postcode": "8243 HP", "plaats": "LELYSTAD", "merk": "Stibat", "puntType": "inzamelbak", "materialen": ["batterijen"], "uitbetaling": [], "vrijToegankelijk": false, "gemeenteBeperking": null, "openingstijden": null, "latitude": 52.5101142, "longitude": 5.4475974, "bronId": "L036509"}}, {"type": "Feature", "geometry": {"type": "Point", "coordinates": [5.4478646, 52.5103716]}, "properties": {"type": "inleverpunt", "locatieNaam": "Primera", "straatNaam": "Jol", "straatNr": "35-19", "postcode": "8243 HG", "plaats": "LELYSTAD", "merk": "Stibat", "puntType": "inzamelbak", "materialen": ["batterijen"], "uitbetaling": [], "vrijToegankelijk": false, "gemeenteBeperking": null, "openingstijden": null, "latitude": 52.5103716, "longitude": 5.4478646, "bronId": "L047367"}}, {"type": "Feature", "geometry": {"type": "Point", "coordinates": [5.447672, 52.5105086]}, "properties": {"type": "inleverpunt", "locatieNaam": "Aldi", "straatNaam": "Jol", "straatNr": "3525", "postcode": "8243 HG", "plaats": "Lelystad", "merk": "Stibat", "puntType": "inzamelbak", "materialen": ["batterijen"], "uitbetaling": [], "vrijToegankelijk": false, "gemeenteBeperking": null, "openingstijden": null, "latitude": 52.5105086, "longitude": 5.447672, "bronId": "L041542"}}, {"type": "Feature", "geometry": {"type": "Point", "coordinates": [5.4761082, 52.5065361]}, "properties": {"type": "inleverpunt", "locatieNaam": "Ringfoto Doornbos", "straatNaam": "Stadhuisstraat", "straatNr": "64", "postcode": "8232 VC", "plaats": "LELYSTAD", "merk": "Stibat", "puntType": "inzamelbak", "materialen": ["batterijen"], "uitbetaling": [], "vrijToegankelijk": false, "gemeenteBeperking": null, "openingstijden": null, "latitude": 52.5065361, "longitude": 5.4761082, "bronId": "L011045"}}, {"type": "Feature", "geometry": {"type": "Point", "coordinates": [5.478472, 52.5063207]}, "properties": {"type": "inleverpunt", "locatieNaam": "Vomar", "straatNaam": "Neringweg", "straatNr": "391", "postcode": "8224 KJ", "plaats": "LELYSTAD", "merk": "Stibat", "puntType": "inzamelbak", "materialen": ["batterijen"], "uitbetaling": [], "vrijToegankelijk": false, "gemeenteBeperking": null, "openingstijden": null, "latitude": 52.5063207, "longitude": 5.478472, "bronId": "L044467"}}, {"type": "Feature", "geometry": {"type": "Point", "coordinates": [5.4775722, 52.5065527]}, "properties": {"type": "inleverpunt", "locatieNaam": "Beter Horen", "straatNaam": "Neringweg", "straatNr": "378", "postcode": "8224 KK", "plaats": "Lelystad", "merk": "Stibat", "puntType": "inzamelbak", "materialen": ["batterijen"], "uitbetaling": [], "vrijToegankelijk": false, "gemeenteBeperking": null, "openingstijden": null, "latitude": 52.5065527, "longitude": 5.4775722, "bronId": "L016998"}}, {"type": "Feature", "geometry": {"type": "Point", "coordinates": [5.5405626, 52.4943919]}, "properties": {"type": "inleverpunt", "locatieNaam": "Afvalscheidingsstation Lelystad", "straatNaam": "Zeeasterweg", "straatNr": "40", "postcode": "8219 PN", "plaats": "LELYSTAD", "merk": "Stibat", "puntType": "inzamelbak", "materialen": ["batterijen"], "uitbetaling": [], "vrijToegankelijk": false, "gemeenteBeperking": null, "openingstijden": null, "latitude": 52.4943919, "longitude": 5.5405626, "bronId": "L035878"}}, {"type": "Feature", "geometry": {"type": "Point", "coordinates": [5.4747164, 52.5075461]}, "properties": {"type": "inleverpunt", "locatieNaam": "Schoonenberg Hoorcomfort", "straatNaam": "Kroonpassage", "straatNr": "27", "postcode": "8232 VP", "plaats": "LELYSTAD", "merk": "Stibat", "puntType": "inzamelbak", "materialen": ["batterijen"], "uitbetaling": [], "vrijToegankelijk": false, "gemeenteBeperking": null, "openingstijden": null, "latitude": 52.5075461, "longitude": 5.4747164, "bronId": "L028890"}}, {"type": "Feature", "geometry": {"type": "Point", "coordinates": [5.4725851, 52.5079899]}, "properties": {"type": "inleverpunt", "locatieNaam": "AKO", "straatNaam": "Stationsplein", "straatNr": "4", "postcode": "8232 DL", "plaats": "LELYSTAD", "merk": "Stibat", "puntType": "inzamelbak", "materialen": ["batterijen"], "uitbetaling": [], "vrijToegankelijk": false, "gemeenteBeperking": null, "openingstijden": null, "latitude": 52.5079899, "longitude": 5.4725851, "bronId": "L023974"}}, {"type": "Feature", "geometry": {"type": "Point", "coordinates": [5.4729058, 52.5081236]}, "properties": {"type": "inleverpunt", "locatieNaam": "Rijwielshop van Keulen", "straatNaam": "Stationsplein", "straatNr": "8", "postcode": "8232 DL", "plaats": "LELYSTAD", "merk": "Stibat", "puntType": "inzamelbak", "materialen": ["batterijen"], "uitbetaling": [], "vrijToegankelijk": false, "gemeenteBeperking": null, "openingstijden": null, "latitude": 52.5081236, "longitude": 5.4729058, "bronId": "L049493"}}, {"type": "Feature", "geometry": {"type": "Point", "coordinates": [5.4745645, 52.5084706]}, "properties": {"type": "inleverpunt", "locatieNaam": "KPN winkel", "straatNaam": "De Promesse", "straatNr": "70", "postcode": "8232 VX", "plaats": "LELYSTAD", "merk": "Stibat", "puntType": "inzamelbak", "materialen": ["batterijen"], "uitbetaling": [], "vrijToegankelijk": false, "gemeenteBeperking": null, "openingstijden": null, "latitude": 52.5084706, "longitude": 5.4745645, "bronId": "L007492"}}, {"type": "Feature", "geometry": {"type": "Point", "coordinates": [5.474376, 52.508627]}, "properties": {"type": "inleverpunt", "locatieNaam": "Mobieltjesdokter", "straatNaam": "De Promesse", "straatNr": "115", "postcode": "8232 VZ", "plaats": "LELYSTAD", "merk": "Stibat", "puntType": "inzamelbak", "materialen": ["batterijen"], "uitbetaling": [], "vrijToegankelijk": false, "gemeenteBeperking": null, "openingstijden": null, "latitude": 52.508627, "longitude": 5.474376, "bronId": "L035423"}}, {"type": "Feature", "geometry": {"type": "Point", "coordinates": [5.4749651, 52.5085938]}, "properties": {"type": "inleverpunt", "locatieNaam": "Specsavers", "straatNaam": "De Promesse", "straatNr": "7", "postcode": "8232 GC", "plaats": "Lelystad", "merk": "Stibat", "puntType": "inzamelbak", "materialen": ["batterijen"], "uitbetaling": [], "vrijToegankelijk": false, "gemeenteBeperking": null, "openingstijden": null, "latitude": 52.5085938, "longitude": 5.4749651, "bronId": "L045055"}}, {"type": "Feature", "geometry": {"type": "Point", "coordinates": [5.4750283, 52.5090459]}, "properties": {"type": "inleverpunt", "locatieNaam": "Xenos", "straatNaam": "De Promesse", "straatNr": "44", "postcode": "8232 VX", "plaats": "LELYSTAD", "merk": "Stibat", "puntType": "inzamelbak", "materialen": ["batterijen"], "uitbetaling": [], "vrijToegankelijk": false, "gemeenteBeperking": null, "openingstijden": null, "latitude": 52.5090459, "longitude": 5.4750283, "bronId": "L036933"}}, {"type": "Feature", "geometry": {"type": "Point", "coordinates": [5.4744243, 52.5091838]}, "properties": {"type": "inleverpunt", "locatieNaam": "Kruidvat", "straatNaam": "De Promesse", "straatNr": "37", "postcode": "8232 VX", "plaats": "LELYSTAD", "merk": "Stibat", "puntType": "inzamelbak", "materialen": ["batterijen"], "uitbetaling": [], "vrijToegankelijk": false, "gemeenteBeperking": null, "openingstijden": null, "latitude": 52.5091838, "longitude": 5.4744243, "bronId": "L014556"}}, {"type": "Feature", "geometry": {"type": "Point", "coordinates": [5.4744243, 52.5091838]}, "properties": {"type": "inleverpunt", "locatieNaam": "HEMA Lelystad", "straatNaam": "Promesse", "straatNr": "18-22", "postcode": "8232 VX", "plaats": "Lelystad", "merk": "Stibat", "puntType": "inzamelbak", "materialen": ["batterijen"], "uitbetaling": [], "vrijToegankelijk": false, "gemeenteBeperking": null, "openingstijden": null, "latitude": 52.5091838, "longitude": 5.4744243, "bronId": "L046765"}}, {"type": "Feature", "geometry": {"type": "Point", "coordinates": [5.4767649, 52.5091541]}, "properties": {"type": "inleverpunt", "locatieNaam": "Kruidvat", "straatNaam": "De Wissel", "straatNr": "12", "postcode": "8232 DP", "plaats": "LELYSTAD", "merk": "Stibat", "puntType": "inzamelbak", "materialen": ["batterijen"], "uitbetaling": [], "vrijToegankelijk": false, "gemeenteBeperking": null, "openingstijden": null, "latitude": 52.5091541, "longitude": 5.4767649, "bronId": "L016084"}}, {"type": "Feature", "geometry": {"type": "Point", "coordinates": [5.4776674, 52.5090744]}, "properties": {"type": "inleverpunt", "locatieNaam": "8601 Albert Heijn", "straatNaam": "Neringpassage", "straatNr": "127", "postcode": "8224 JB", "plaats": "LELYSTAD", "merk": "Stibat", "puntType": "inzamelbak", "materialen": ["batterijen"], "uitbetaling": [], "vrijToegankelijk": false, "gemeenteBeperking": null, "openingstijden": null, "latitude": 52.5090744, "longitude": 5.4776674, "bronId": "L006783"}}, {"type": "Feature", "geometry": {"type": "Point", "coordinates": [5.475619, 52.5094243]}, "properties": {"type": "inleverpunt", "locatieNaam": "Intertoys", "straatNaam": "de Wissel", "straatNr": "39", "postcode": "8232 DM", "plaats": "LELYSTAD", "merk": "Stibat", "puntType": "inzamelbak", "materialen": ["batterijen"], "uitbetaling": [], "vrijToegankelijk": false, "gemeenteBeperking": null, "openingstijden": null, "latitude": 52.5094243, "longitude": 5.475619, "bronId": "L007118"}}, {"type": "Feature", "geometry": {"type": "Point", "coordinates": [5.475892, 52.509467]}, "properties": {"type": "inleverpunt", "locatieNaam": "Hans Anders", "straatNaam": "De Wissel", "straatNr": "34", "postcode": "8232 DP", "plaats": "LELYSTAD", "merk": "Stibat", "puntType": "inzamelbak", "materialen": ["batterijen"], "uitbetaling": [], "vrijToegankelijk": false, "gemeenteBeperking": null, "openingstijden": null, "latitude": 52.509467, "longitude": 5.475892, "bronId": "L037866"}}, {"type": "Feature", "geometry": {"type": "Point", "coordinates": [5.474976, 52.5096305]}, "properties": {"type": "inleverpunt", "locatieNaam": "7489 Etos", "straatNaam": "Waagpassage", "straatNr": "70", "postcode": "8232 DV", "plaats": "LELYSTAD", "merk": "Stibat", "puntType": "inzamelbak", "materialen": ["batterijen"], "uitbetaling": [], "vrijToegankelijk": false, "gemeenteBeperking": null, "openingstijden": null, "latitude": 52.5096305, "longitude": 5.474976, "bronId": "L023118"}}, {"type": "Feature", "geometry": {"type": "Point", "coordinates": [5.474976, 52.5096305]}, "properties": {"type": "inleverpunt", "locatieNaam": "Handyman", "straatNaam": "Waagpassage", "straatNr": "70", "postcode": "8232 DV", "plaats": "LELYSTAD", "merk": "Stibat", "puntType": "inzamelbak", "materialen": ["batterijen"], "uitbetaling": [], "vrijToegankelijk": false, "gemeenteBeperking": null, "openingstijden": null, "latitude": 52.5096305, "longitude": 5.474976, "bronId": "L020661"}}, {"type": "Feature", "geometry": {"type": "Point", "coordinates": [5.474898, 52.5098749]}, "properties": {"type": "inleverpunt", "locatieNaam": "Zeeman", "straatNaam": "Waagpassage", "straatNr": "64", "postcode": "8232 DV", "plaats": "Lelystad", "merk": "Stibat", "puntType": "inzamelbak", "materialen": ["batterijen"], "uitbetaling": [], "vrijToegankelijk": false, "gemeenteBeperking": null, "openingstijden": null, "latitude": 52.5098749, "longitude": 5.474898, "bronId": "L021392"}}, {"type": "Feature", "geometry": {"type": "Point", "coordinates": [5.4774088, 52.509654]}, "properties": {"type": "inleverpunt", "locatieNaam": "HM Fietsen", "straatNaam": "Neringpassage", "straatNr": "3", "postcode": "8224 JA", "plaats": "LELYSTAD", "merk": "Stibat", "puntType": "inzamelbak", "materialen": ["batterijen"], "uitbetaling": [], "vrijToegankelijk": false, "gemeenteBeperking": null, "openingstijden": null, "latitude": 52.509654, "longitude": 5.4774088, "bronId": "L047377"}}, {"type": "Feature", "geometry": {"type": "Point", "coordinates": [5.4747667, 52.5106811]}, "properties": {"type": "inleverpunt", "locatieNaam": "Jumbo", "straatNaam": "Waagpassage", "straatNr": "76", "postcode": "8232 DV", "plaats": "LELYSTAD", "merk": "Stibat", "puntType": "inzamelbak", "materialen": ["batterijen"], "uitbetaling": [], "vrijToegankelijk": false, "gemeenteBeperking": null, "openingstijden": null, "latitude": 52.5106811, "longitude": 5.4747667, "bronId": "L009195"}}, {"type": "Feature", "geometry": {"type": "Point", "coordinates": [5.4766408, 52.5138404]}, "properties": {"type": "inleverpunt", "locatieNaam": "Kringloopwinkel RataPlan", "straatNaam": "De Meent", "straatNr": "14", "postcode": "8224 BR", "plaats": "LELYSTAD", "merk": "Stibat", "puntType": "inzamelbak", "materialen": ["batterijen"], "uitbetaling": [], "vrijToegankelijk": false, "gemeenteBeperking": null, "openingstijden": null, "latitude": 52.5138404, "longitude": 5.4766408, "bronId": "L030797"}}, {"type": "Feature", "geometry": {"type": "Point", "coordinates": [5.458866, 52.5175372]}, "properties": {"type": "inleverpunt", "locatieNaam": "4071 Albert Heijn", "straatNaam": "Kempenaar", "straatNr": "341", "postcode": "8242 BD", "plaats": "LELYSTAD", "merk": "Stibat", "puntType": "inzamelbak", "materialen": ["batterijen"], "uitbetaling": [], "vrijToegankelijk": false, "gemeenteBeperking": null, "openingstijden": null, "latitude": 52.5175372, "longitude": 5.458866, "bronId": "L007081"}}, {"type": "Feature", "geometry": {"type": "Point", "coordinates": [5.4587959, 52.5178542]}, "properties": {"type": "inleverpunt", "locatieNaam": "7439 Etos", "straatNaam": "Kempenaar", "straatNr": "3 -47", "postcode": "8242 BD", "plaats": "LELYSTAD", "merk": "Stibat", "puntType": "inzamelbak", "materialen": ["batterijen"], "uitbetaling": [], "vrijToegankelijk": false, "gemeenteBeperking": null, "openingstijden": null, "latitude": 52.5178542, "longitude": 5.4587959, "bronId": "L026252"}}, {"type": "Feature", "geometry": {"type": "Point", "coordinates": [5.4580012, 52.519346]}, "properties": {"type": "inleverpunt", "locatieNaam": "BIKESHOP LELYSTAD BV", "straatNaam": "KEMPENAAR", "straatNr": "1-6", "postcode": "8242 BA", "plaats": "LELYSTAD", "merk": "Stibat", "puntType": "inzamelbak", "materialen": ["batterijen"], "uitbetaling": [], "vrijToegankelijk": false, "gemeenteBeperking": null, "openingstijden": null, "latitude": 52.519346, "longitude": 5.4580012, "bronId": "L034104"}}, {"type": "Feature", "geometry": {"type": "Point", "coordinates": [5.5032819, 52.5139416]}, "properties": {"type": "inleverpunt", "locatieNaam": "8784 Albert Heijn", "straatNaam": "Voorhof", "straatNr": "12", "postcode": "8212 CA", "plaats": "LELYSTAD", "merk": "Stibat", "puntType": "inzamelbak", "materialen": ["batterijen"], "uitbetaling": [], "vrijToegankelijk": false, "gemeenteBeperking": null, "openingstijden": null, "latitude": 52.5139416, "longitude": 5.5032819, "bronId": "L006931"}}, {"type": "Feature", "geometry": {"type": "Point", "coordinates": [5.4838921, 52.5192769]}, "properties": {"type": "inleverpunt", "locatieNaam": "Van Boxtel hoorwinkel", "straatNaam": "Snijdersstraat", "straatNr": "12", "postcode": "8224 AA", "plaats": "LELYSTAD", "merk": "Stibat", "puntType": "inzamelbak", "materialen": ["batterijen"], "uitbetaling": [], "vrijToegankelijk": false, "gemeenteBeperking": null, "openingstijden": null, "latitude": 52.5192769, "longitude": 5.4838921, "bronId": "L031384"}}, {"type": "Feature", "geometry": {"type": "Point", "coordinates": [5.483097, 52.5194474]}, "properties": {"type": "inleverpunt", "locatieNaam": "Zeeman", "straatNaam": "Weverstraat", "straatNr": "54", "postcode": "8223 AC", "plaats": "Lelystad", "merk": "Stibat", "puntType": "inzamelbak", "materialen": ["batterijen"], "uitbetaling": [], "vrijToegankelijk": false, "gemeenteBeperking": null, "openingstijden": null, "latitude": 52.5194474, "longitude": 5.483097, "bronId": "L021479"}}, {"type": "Feature", "geometry": {"type": "Point", "coordinates": [5.4844133, 52.5194814]}, "properties": {"type": "inleverpunt", "locatieNaam": "1286 Action", "straatNaam": "Snijdersstraat", "straatNr": "11", "postcode": "8223 AA", "plaats": "LELYSTAD", "merk": "Stibat", "puntType": "inzamelbak", "materialen": ["batterijen"], "uitbetaling": [], "vrijToegankelijk": false, "gemeenteBeperking": null, "openingstijden": null, "latitude": 52.5194814, "longitude": 5.4844133, "bronId": "L030410"}}, {"type": "Feature", "geometry": {"type": "Point", "coordinates": [5.4830413, 52.519807]}, "properties": {"type": "inleverpunt", "locatieNaam": "Dekamarkt", "straatNaam": "Weverstraat", "straatNr": "34", "postcode": "8223 AC", "plaats": "LELYSTAD", "merk": "Stibat", "puntType": "inzamelbak", "materialen": ["batterijen"], "uitbetaling": [], "vrijToegankelijk": false, "gemeenteBeperking": null, "openingstijden": null, "latitude": 52.519807, "longitude": 5.4830413, "bronId": "L006427"}}, {"type": "Feature", "geometry": {"type": "Point", "coordinates": [5.4832206, 52.5198149]}, "properties": {"type": "inleverpunt", "locatieNaam": "KiK Lelystad", "straatNaam": "Weversstraat", "straatNr": "12-14", "postcode": "8223 AC", "plaats": "LELYSTAD", "merk": "Stibat", "puntType": "inzamelbak", "materialen": ["batterijen"], "uitbetaling": [], "vrijToegankelijk": false, "gemeenteBeperking": null, "openingstijden": null, "latitude": 52.5198149, "longitude": 5.4832206, "bronId": "L036040"}}, {"type": "Feature", "geometry": {"type": "Point", "coordinates": [5.4831559, 52.5199657]}, "properties": {"type": "inleverpunt", "locatieNaam": "Kruidvat", "straatNaam": "Weverstraat", "straatNr": "10-32-36", "postcode": "8223 AC", "plaats": "LELYSTAD", "merk": "Stibat", "puntType": "inzamelbak", "materialen": ["batterijen"], "uitbetaling": [], "vrijToegankelijk": false, "gemeenteBeperking": null, "openingstijden": null, "latitude": 52.5199657, "longitude": 5.4831559, "bronId": "L019111"}}, {"type": "Feature", "geometry": {"type": "Point", "coordinates": [5.4845362, 52.5199381]}, "properties": {"type": "inleverpunt", "locatieNaam": "Tom’s tweewielers", "straatNaam": "Koopmansstraat", "straatNr": "8", "postcode": "8223 AG", "plaats": "LELYSTAD", "merk": "Stibat", "puntType": "inzamelbak", "materialen": ["batterijen"], "uitbetaling": [], "vrijToegankelijk": false, "gemeenteBeperking": null, "openingstijden": null, "latitude": 52.5199381, "longitude": 5.4845362, "bronId": "L049494"}}, {"type": "Feature", "geometry": {"type": "Point", "coordinates": [5.4849673, 52.5199897]}, "properties": {"type": "inleverpunt", "locatieNaam": "Wibra", "straatNaam": "Koopmansstraat", "straatNr": "9", "postcode": "8223 AH", "plaats": "Lelystad", "merk": "Stibat", "puntType": "inzamelbak", "materialen": ["batterijen"], "uitbetaling": [], "vrijToegankelijk": false, "gemeenteBeperking": null, "openingstijden": null, "latitude": 52.5199897, "longitude": 5.4849673, "bronId": "L022518"}}, {"type": "Feature", "geometry": {"type": "Point", "coordinates": [5.4848187, 52.5204815]}, "properties": {"type": "inleverpunt", "locatieNaam": "Lidl", "straatNaam": "Passage", "straatNr": "1", "postcode": "8223 AJ", "plaats": "LELYSTAD", "merk": "Stibat", "puntType": "inzamelbak", "materialen": ["batterijen"], "uitbetaling": [], "vrijToegankelijk": false, "gemeenteBeperking": null, "openingstijden": null, "latitude": 52.5204815, "longitude": 5.4848187, "bronId": "L039245"}}, {"type": "Feature", "geometry": {"type": "Point", "coordinates": [5.4958405, 52.5226889]}, "properties": {"type": "inleverpunt", "locatieNaam": "Toolstation", "straatNaam": "Schroefstraat", "straatNr": "3", "postcode": "8223 EC", "plaats": "LELYSTAD", "merk": "Stibat", "puntType": "inzamelbak", "materialen": ["batterijen"], "uitbetaling": [], "vrijToegankelijk": false, "gemeenteBeperking": null, "openingstijden": null, "latitude": 52.5226889, "longitude": 5.4958405, "bronId": "L045879"}}, {"type": "Feature", "geometry": {"type": "Point", "coordinates": [5.4963997, 52.522922]}, "properties": {"type": "inleverpunt", "locatieNaam": "Praxis 2062", "straatNaam": "Schroefstraat", "straatNr": "8", "postcode": "8223 ED", "plaats": "LELYSTAD", "merk": "Stibat", "puntType": "inzamelbak", "materialen": ["batterijen"], "uitbetaling": [], "vrijToegankelijk": false, "gemeenteBeperking": null, "openingstijden": null, "latitude": 52.522922, "longitude": 5.4963997, "bronId": "L015259"}}, {"type": "Feature", "geometry": {"type": "Point", "coordinates": [5.519413, 52.5394896]}, "properties": {"type": "inleverpunt", "locatieNaam": "WeeversNieuwstad B.V.", "straatNaam": "Binnenhavenweg", "straatNr": "43", "postcode": "8211 AA", "plaats": "LELYSTAD", "merk": "Stibat", "puntType": "inzamelbak", "materialen": ["batterijen"], "uitbetaling": [], "vrijToegankelijk": false, "gemeenteBeperking": null, "openingstijden": null, "latitude": 52.5394896, "longitude": 5.519413, "bronId": "L046718"}}, {"type": "Feature", "geometry": {"type": "Polygon", "coordinates": [[[5.350772001688649, 52.400209004154355], [5.387363001725741, 52.41512700416259], [5.401793001740401, 52.42189800416636], [5.4210080017599545, 52.43208300417201], [5.423775001762732, 52.43256400417223], [5.427177001766201, 52.43455400417334], [5.42688900176595, 52.43550500417392], [5.438705001778005, 52.4426560041779], [5.4462290017852855, 52.43694200417446], [5.474979001813308, 52.42003300416409], [5.50950000184689, 52.397355004150185], [5.533006001869856, 52.3843770041422], [5.533982001870852, 52.385032004142545], [5.534824001871678, 52.38468800414232], [5.5367640018736335, 52.385206004142596], [5.537298001874158, 52.38500000414247], [5.554142001891362, 52.396083004148686], [5.578014001915662, 52.40996800415634], [5.580509001918185, 52.41088300415683], [5.5832170019209, 52.411358004157094], [5.58907000192673, 52.41118700415685], [5.589057001926781, 52.41301700415796], [5.587682001925468, 52.41464900415893], [5.587998001925789, 52.414766004159], [5.587459001925269, 52.41531200415932], [5.587025001924838, 52.41531000415932], [5.566637001905256, 52.43586300417173], [5.573803001912501, 52.43879400417331], [5.581975001920887, 52.44566300417715], [5.586389001925359, 52.44771100417828], [5.5654200019052835, 52.4702810041918], [5.605871001946069, 52.48452000419927], [5.591293001932107, 52.50003600420848], [5.588056001929374, 52.51377300421653], [5.59130500193261, 52.51390500421648], [5.589237001931211, 52.532402004227194], [5.5874100019304995, 52.56346000424504], [5.564508001909586, 52.61501000427478], [5.511294001858523, 52.66355600430311], [5.361147001709947, 52.67572600431237], [5.353294001702264, 52.67863700431412], [5.301635001651541, 52.69242700432255], [5.295777001645747, 52.692845004322834], [5.2876190016376, 52.69165600432228], [5.286450001636318, 52.68874900432067], [5.285048001634942, 52.689133004320894], [5.276294001626041, 52.684033004318145], [5.262266001611812, 52.676829004314264], [5.25718700160542, 52.64447100429613], [5.074624001421256, 52.58368200426341], [5.2543000015939825, 52.43899200417825], [5.266139001605368, 52.4287640041722], [5.268978001608118, 52.42670300417093], [5.2733810016124085, 52.42432700416946], [5.278374001617315, 52.42243600416834], [5.31332300165177, 52.41235400416199], [5.333799001671947, 52.40610500415805], [5.33900100167705, 52.40389400415669], [5.343357001681286, 52.401152004155016], [5.344318001682252, 52.40133400415512], [5.347694001685609, 52.40104600415491], [5.349514001687443, 52.40146800415513], [5.350772001688649, 52.400209004154355]]]}, "properties": {"type": "boundary", "gemeente": "Lelystad"}}]}