{"type": "FeatureCollection", "metadata": {"gemeente": "Loon op Zand", "slug": "loon-op-zand", "generated_at": "2026-07-28T09:25:50.134599Z", "total_points": 49, "merken": ["StatiegeldNederland", "Stibat", "StichtingOPEN"], "bounds": [5.0195242, 51.6265107, 5.0744866, 51.6667771]}, "features": [{"type": "Feature", "geometry": {"type": "Point", "coordinates": [5.0396211, 51.6566673]}, "properties": {"type": "inleverpunt", "locatieNaam": "Albert Heijn", "straatNaam": "Gasthuisstraat", "straatNr": "124-128", "postcode": "5171 GJ", "plaats": "Kaatsheuvel", "merk": "StatiegeldNederland", "puntType": "automaat", "materialen": ["pet-groot", "pet-klein", "blik", "glas", "krat"], "uitbetaling": ["bonnetje", "donatie"], "vrijToegankelijk": true, "gemeenteBeperking": null, "openingstijden": {"ma": "07:00–22:00", "di": "07:00–22:00", "wo": "07:00–22:00", "do": "07:00–22:00", "vr": "07:00–22:00", "za": "07:00–22:00", "zo": "07:00–22:00"}, "latitude": 51.6566673, "longitude": 5.0396211, "bronId": "252235"}}, {"type": "Feature", "geometry": {"type": "Point", "coordinates": [5.0315131, 51.6627965]}, "properties": {"type": "inleverpunt", "locatieNaam": "Aldi", "straatNaam": "Jan De Rooystraat", "straatNr": "15A", "postcode": "5171 DR", "plaats": "Kaatsheuvel", "merk": "StatiegeldNederland", "puntType": "automaat", "materialen": ["pet-groot", "pet-klein", "blik", "glas", "krat"], "uitbetaling": ["bonnetje"], "vrijToegankelijk": true, "gemeenteBeperking": null, "openingstijden": {"ma": "08:00–20:00", "di": "08:00–20:00", "wo": "08:00–20:00", "do": "08:00–20:00", "vr": "08:00–20:00", "za": "08:00–20:00", "zo": "10:00–17:00"}, "latitude": 51.6627965, "longitude": 5.0315131, "bronId": "253182"}}, {"type": "Feature", "geometry": {"type": "Point", "coordinates": [5.049194, 51.6529346]}, "properties": {"type": "inleverpunt", "locatieNaam": "Efteling", "straatNaam": "Europalaan", "straatNr": "1", "postcode": "5171 KW", "plaats": "Kaatsheuvel", "merk": "StatiegeldNederland", "puntType": "automaat", "materialen": ["pet-groot", "pet-klein", "blik"], "uitbetaling": ["bonnetje", "donatie", "tikkie"], "vrijToegankelijk": true, "gemeenteBeperking": null, "openingstijden": null, "latitude": 51.6529346, "longitude": 5.049194, "bronId": "254622"}}, {"type": "Feature", "geometry": {"type": "Point", "coordinates": [5.0358207, 51.6618919]}, "properties": {"type": "inleverpunt", "locatieNaam": "Jumbo", "straatNaam": "Hoofdpoort", "straatNr": "22", "postcode": "5171 DN", "plaats": "Kaatsheuvel", "merk": "StatiegeldNederland", "puntType": "automaat", "materialen": ["pet-groot", "pet-klein", "blik", "glas", "krat"], "uitbetaling": ["bonnetje", "donatie"], "vrijToegankelijk": true, "gemeenteBeperking": null, "openingstijden": {"ma": "08:00–21:00", "di": "08:00–21:00", "wo": "08:00–21:00", "do": "08:00–21:00", "vr": "08:00–21:00", "za": "08:00–21:00", "zo": "08:00–21:00"}, "latitude": 51.6618919, "longitude": 5.0358207, "bronId": "255429"}}, {"type": "Feature", "geometry": {"type": "Point", "coordinates": [5.03484, 51.65877]}, "properties": {"type": "inleverpunt", "locatieNaam": "Lidl", "straatNaam": "Gasthuisstraat", "straatNr": "27", "postcode": "5171 GG", "plaats": "Kaatsheuvel", "merk": "StatiegeldNederland", "puntType": "automaat", "materialen": ["pet-groot", "pet-klein", "blik", "glas", "krat"], "uitbetaling": ["bonnetje", "donatie"], "vrijToegankelijk": true, "gemeenteBeperking": null, "openingstijden": {"ma": "07:30–21:00", "di": "07:30–21:00", "wo": "07:30–21:00", "do": "07:30–21:00", "vr": "07:30–21:00", "za": "07:30–21:00", "zo": "08:00–20:00"}, "latitude": 51.65877, "longitude": 5.03484, "bronId": "256157"}}, {"type": "Feature", "geometry": {"type": "Point", "coordinates": [5.07405, 51.62801]}, "properties": {"type": "inleverpunt", "locatieNaam": "Plus", "straatNaam": "Oranjeplein", "straatNr": "47", "postcode": "5175 BX", "plaats": "Loon Op Zand", "merk": "StatiegeldNederland", "puntType": "automaat", "materialen": ["pet-groot", "pet-klein", "blik", "glas", "krat"], "uitbetaling": ["bonnetje", "donatie"], "vrijToegankelijk": true, "gemeenteBeperking": null, "openingstijden": {"ma": "08:00–20:00", "di": "08:00–20:00", "wo": "08:00–20:00", "do": "08:00–20:00", "vr": "08:00–20:00", "za": "08:00–18:00", "zo": "09:00–14:00"}, "latitude": 51.62801, "longitude": 5.07405, "bronId": "257459"}}, {"type": "Feature", "geometry": {"type": "Point", "coordinates": [5.0195242, 51.6466362]}, "properties": {"type": "inleverpunt", "locatieNaam": "Ruitersportvereniging De Kegelaer", "straatNaam": "Baan", "straatNr": "48", "postcode": "5171 NC", "plaats": "Kaatsheuvel", "merk": "StatiegeldNederland", "puntType": "balie", "materialen": ["pet-groot", "pet-klein", "blik"], "uitbetaling": [], "vrijToegankelijk": false, "gemeenteBeperking": null, "openingstijden": null, "latitude": 51.6466362, "longitude": 5.0195242, "bronId": "257902"}}, {"type": "Feature", "geometry": {"type": "Point", "coordinates": [5.058883, 51.642188]}, "properties": {"type": "inleverpunt", "locatieNaam": "Shell", "straatNaam": "Middenbrabantsweg", "straatNr": "2", "postcode": "5171 RS", "plaats": "Kaatsheuvel", "merk": "StatiegeldNederland", "puntType": "balie", "materialen": ["pet-groot", "pet-klein", "blik"], "uitbetaling": [], "vrijToegankelijk": true, "gemeenteBeperking": null, "openingstijden": {"ma": "24 uur geopend", "di": "24 uur geopend", "wo": "24 uur geopend", "do": "24 uur geopend", "vr": "24 uur geopend", "za": "24 uur geopend", "zo": "24 uur geopend"}, "latitude": 51.642188, "longitude": 5.058883, "bronId": "258122"}}, {"type": "Feature", "geometry": {"type": "Point", "coordinates": [5.0306825, 51.6634174]}, "properties": {"type": "inleverpunt", "locatieNaam": "ViaTim", "straatNaam": "Jan de Rooijstraat", "straatNr": "30", "postcode": "5171 DS", "plaats": "Kaatsheuvel", "merk": "StatiegeldNederland", "puntType": "balie", "materialen": ["pet-groot", "pet-klein", "blik"], "uitbetaling": ["tikkie"], "vrijToegankelijk": true, "gemeenteBeperking": null, "openingstijden": {"ma": "10:00–17:00", "di": "10:00–17:00", "wo": "10:00–17:00", "do": "10:00–17:00", "vr": "10:00–17:00", "za": "24 uur geopend", "zo": "Gesloten"}, "latitude": 51.6634174, "longitude": 5.0306825, "bronId": "259345"}}, {"type": "Feature", "geometry": {"type": "Point", "coordinates": [5.031513, 51.662786]}, "properties": {"type": "inleverpunt", "locatieNaam": "Aldi Kaatsheuvel", "straatNaam": "Jan de Rooystraat", "straatNr": "15a", "postcode": "5171 DR", "plaats": "Kaatsheuvel", "merk": "StichtingOPEN", "puntType": "balie", "materialen": ["batterijen", "elektro-klein", "lampen"], "uitbetaling": [], "vrijToegankelijk": false, "gemeenteBeperking": null, "openingstijden": null, "latitude": 51.662786, "longitude": 5.031513, "bronId": "SP00027109"}}, {"type": "Feature", "geometry": {"type": "Point", "coordinates": [5.03343, 51.66206]}, "properties": {"type": "inleverpunt", "locatieNaam": "Jumbo Kaatsheuvel", "straatNaam": "Poolsestraat", "straatNr": "3", "postcode": "5171 DP", "plaats": "Kaatsheuvel", "merk": "StichtingOPEN", "puntType": "balie", "materialen": ["batterijen", "elektro-klein", "lampen"], "uitbetaling": [], "vrijToegankelijk": false, "gemeenteBeperking": null, "openingstijden": null, "latitude": 51.66206, "longitude": 5.03343, "bronId": "SP00029912"}}, {"type": "Feature", "geometry": {"type": "Point", "coordinates": [5.035757, 51.661286]}, "properties": {"type": "inleverpunt", "locatieNaam": "Kruidvat Kaatsheuvel", "straatNaam": "Hoofdpoort", "straatNr": "15", "postcode": "5171 DN", "plaats": "Kaatsheuvel", "merk": "StichtingOPEN", "puntType": "balie", "materialen": ["batterijen", "lampen"], "uitbetaling": [], "vrijToegankelijk": false, "gemeenteBeperking": null, "openingstijden": null, "latitude": 51.661286, "longitude": 5.035757, "bronId": "SP00024530"}}, {"type": "Feature", "geometry": {"type": "Point", "coordinates": [5.035619, 51.661297]}, "properties": {"type": "inleverpunt", "locatieNaam": "Jumbo Kaatsheuvel", "straatNaam": "Hoofdpoort", "straatNr": "22", "postcode": "5171 DN", "plaats": "Kaatsheuvel", "merk": "StichtingOPEN", "puntType": "balie", "materialen": ["batterijen", "lampen"], "uitbetaling": [], "vrijToegankelijk": false, "gemeenteBeperking": null, "openingstijden": null, "latitude": 51.661297, "longitude": 5.035619, "bronId": "SP00025065"}}, {"type": "Feature", "geometry": {"type": "Point", "coordinates": [5.034806, 51.661436]}, "properties": {"type": "inleverpunt", "locatieNaam": "Action Kaatsheuvel 1153", "straatNaam": "Hoofdstraat", "straatNr": "47", "postcode": "5171 DJ", "plaats": "Kaatsheuvel", "merk": "StichtingOPEN", "puntType": "balie", "materialen": ["batterijen", "lampen"], "uitbetaling": [], "vrijToegankelijk": false, "gemeenteBeperking": null, "openingstijden": null, "latitude": 51.661436, "longitude": 5.034806, "bronId": "SP00007739"}}, {"type": "Feature", "geometry": {"type": "Point", "coordinates": [5.026608, 51.662124]}, "properties": {"type": "inleverpunt", "locatieNaam": "Expert Kaatsheuvel", "straatNaam": "Hoofdstraat", "straatNr": "169a", "postcode": "5171 DM", "plaats": "Kaatsheuvel", "merk": "StichtingOPEN", "puntType": "balie", "materialen": ["elektro-middel", "lampen"], "uitbetaling": [], "vrijToegankelijk": false, "gemeenteBeperking": null, "openingstijden": null, "latitude": 51.662124, "longitude": 5.026608, "bronId": "SP00020131"}}, {"type": "Feature", "geometry": {"type": "Point", "coordinates": [5.03776, 51.65811]}, "properties": {"type": "inleverpunt", "locatieNaam": "Lidl Kaatsheuvel", "straatNaam": "Gasthuisstraat", "straatNr": "27", "postcode": "5171 GG", "plaats": "Kaatsheuvel", "merk": "StichtingOPEN", "puntType": "balie", "materialen": ["batterijen", "lampen"], "uitbetaling": [], "vrijToegankelijk": false, "gemeenteBeperking": null, "openingstijden": null, "latitude": 51.65811, "longitude": 5.03776, "bronId": "SP00029978"}}, {"type": "Feature", "geometry": {"type": "Point", "coordinates": [5.041663, 51.65673]}, "properties": {"type": "inleverpunt", "locatieNaam": "8611 Albert Heijn Kaatsheuvel", "straatNaam": "Gasthuisstraat", "straatNr": "124", "postcode": "5171 GJ", "plaats": "Kaatsheuvel", "merk": "StichtingOPEN", "puntType": "balie", "materialen": ["batterijen", "elektro-klein", "lampen"], "uitbetaling": [], "vrijToegankelijk": false, "gemeenteBeperking": null, "openingstijden": null, "latitude": 51.65673, "longitude": 5.041663, "bronId": "SP00022632"}}, {"type": "Feature", "geometry": {"type": "Point", "coordinates": [5.033057, 51.651544]}, "properties": {"type": "inleverpunt", "locatieNaam": "Stichting Saved", "straatNaam": "Berkakker", "straatNr": "2", "postcode": "5171 SR", "plaats": "Kaatsheuvel", "merk": "StichtingOPEN", "puntType": "balie", "materialen": ["elektro-groot", "elektro-klein", "elektro-middel", "tl-buizen"], "uitbetaling": [], "vrijToegankelijk": false, "gemeenteBeperking": null, "openingstijden": null, "latitude": 51.651544, "longitude": 5.033057, "bronId": "SP00040511"}}, {"type": "Feature", "geometry": {"type": "Point", "coordinates": [5.073298, 51.626759]}, "properties": {"type": "inleverpunt", "locatieNaam": "EP:Frans Smits", "straatNaam": "Oranjeplein", "straatNr": "6", "postcode": "5175 BE", "plaats": "Loon op Zand", "merk": "StichtingOPEN", "puntType": "balie", "materialen": ["elektro-middel", "lampen"], "uitbetaling": [], "vrijToegankelijk": false, "gemeenteBeperking": null, "openingstijden": null, "latitude": 51.626759, "longitude": 5.073298, "bronId": "SP00003132"}}, {"type": "Feature", "geometry": {"type": "Point", "coordinates": [5.072094, 51.626516]}, "properties": {"type": "inleverpunt", "locatieNaam": "Kruidvat Loon op Zand", "straatNaam": "Kerkstraat", "straatNr": "56a", "postcode": "5175 BB", "plaats": "Loon op Zand", "merk": "StichtingOPEN", "puntType": "balie", "materialen": ["batterijen", "lampen"], "uitbetaling": [], "vrijToegankelijk": false, "gemeenteBeperking": null, "openingstijden": null, "latitude": 51.626516, "longitude": 5.072094, "bronId": "SP00024525"}}, {"type": "Feature", "geometry": {"type": "Point", "coordinates": [5.040995, 51.655659]}, "properties": {"type": "inleverpunt", "locatieNaam": "Milieustraat Loon op Zand", "straatNaam": "Modelleur", "straatNr": "13", "postcode": "5171 SL", "plaats": "Kaatsheuvel", "merk": "StichtingOPEN", "puntType": "milieustraat", "materialen": ["batterijen", "elektro-groot", "elektro-klein", "elektro-middel", "lampen", "tl-buizen"], "uitbetaling": [], "vrijToegankelijk": false, "gemeenteBeperking": ["Loon op Zand"], "openingstijden": null, "latitude": 51.655659, "longitude": 5.040995, "bronId": "SP00004241"}}, {"type": "Feature", "geometry": {"type": "Point", "coordinates": [5.0362867, 51.6638072]}, "properties": {"type": "inleverpunt", "locatieNaam": "Post Fietsen", "straatNaam": "Verzetstraat", "straatNr": "13", "postcode": "5171 PT", "plaats": "KAATSHEUVEL", "merk": "Stibat", "puntType": "inzamelbak", "materialen": ["batterijen"], "uitbetaling": [], "vrijToegankelijk": false, "gemeenteBeperking": null, "openingstijden": null, "latitude": 51.6638072, "longitude": 5.0362867, "bronId": "L033489"}}, {"type": "Feature", "geometry": {"type": "Point", "coordinates": [5.0224517, 51.6667771]}, "properties": {"type": "inleverpunt", "locatieNaam": "Milieustraat Kaatsheuvel", "straatNaam": "Liechtensteinstraat", "straatNr": "4", "postcode": "5171 PH", "plaats": "KAATSHEUVEL", "merk": "Stibat", "puntType": "inzamelbak", "materialen": ["batterijen"], "uitbetaling": [], "vrijToegankelijk": false, "gemeenteBeperking": null, "openingstijden": null, "latitude": 51.6667771, "longitude": 5.0224517, "bronId": "L035752"}}, {"type": "Feature", "geometry": {"type": "Point", "coordinates": [5.035362, 51.662941]}, "properties": {"type": "inleverpunt", "locatieNaam": "Isero Kaatsheuvel", "straatNaam": "Schotsestraat", "straatNr": "8", "postcode": "5171 DT", "plaats": "KAATSHEUVEL", "merk": "Stibat", "puntType": "inzamelbak", "materialen": ["batterijen"], "uitbetaling": [], "vrijToegankelijk": false, "gemeenteBeperking": null, "openingstijden": null, "latitude": 51.662941, "longitude": 5.035362, "bronId": "L043309"}}, {"type": "Feature", "geometry": {"type": "Point", "coordinates": [5.0289612, 51.6643516]}, "properties": {"type": "inleverpunt", "locatieNaam": "The Gearshed", "straatNaam": "Frankrijkstraat", "straatNr": "10", "postcode": "5171 PR", "plaats": "KAATSHEUVEL", "merk": "Stibat", "puntType": "inzamelbak", "materialen": ["batterijen"], "uitbetaling": [], "vrijToegankelijk": false, "gemeenteBeperking": null, "openingstijden": null, "latitude": 51.6643516, "longitude": 5.0289612, "bronId": "L012805"}}, {"type": "Feature", "geometry": {"type": "Point", "coordinates": [5.0340322, 51.662803]}, "properties": {"type": "inleverpunt", "locatieNaam": "AK Hout &amp; Vakbouwmarkt", "straatNaam": "Poolsestraat", "straatNr": "10-12", "postcode": "5171 DP", "plaats": "KAATSHEUVEL", "merk": "Stibat", "puntType": "inzamelbak", "materialen": ["batterijen"], "uitbetaling": [], "vrijToegankelijk": false, "gemeenteBeperking": null, "openingstijden": null, "latitude": 51.662803, "longitude": 5.0340322, "bronId": "L043892"}}, {"type": "Feature", "geometry": {"type": "Point", "coordinates": [5.0315134, 51.6627864]}, "properties": {"type": "inleverpunt", "locatieNaam": "Aldi", "straatNaam": "Jan de Rooijstraat", "straatNr": "15a", "postcode": "5171 DR", "plaats": "Kaatsheuvel", "merk": "Stibat", "puntType": "inzamelbak", "materialen": ["batterijen"], "uitbetaling": [], "vrijToegankelijk": false, "gemeenteBeperking": null, "openingstijden": null, "latitude": 51.6627864, "longitude": 5.0315134, "bronId": "L041323"}}, {"type": "Feature", "geometry": {"type": "Point", "coordinates": [5.0358694, 51.6616296]}, "properties": {"type": "inleverpunt", "locatieNaam": "Kruidvat", "straatNaam": "Hoofdpoort", "straatNr": "15", "postcode": "5171 DN", "plaats": "KAATSHEUVEL", "merk": "Stibat", "puntType": "inzamelbak", "materialen": ["batterijen"], "uitbetaling": [], "vrijToegankelijk": false, "gemeenteBeperking": null, "openingstijden": null, "latitude": 51.6616296, "longitude": 5.0358694, "bronId": "L016314"}}, {"type": "Feature", "geometry": {"type": "Point", "coordinates": [5.0358694, 51.6616296]}, "properties": {"type": "inleverpunt", "locatieNaam": "HEMA Hoofdpoort", "straatNaam": "Hoofdpoort", "straatNr": "18", "postcode": "5171 DN", "plaats": "KAATSHEUVEL", "merk": "Stibat", "puntType": "inzamelbak", "materialen": ["batterijen"], "uitbetaling": [], "vrijToegankelijk": false, "gemeenteBeperking": null, "openingstijden": null, "latitude": 51.6616296, "longitude": 5.0358694, "bronId": "L006754"}}, {"type": "Feature", "geometry": {"type": "Point", "coordinates": [5.0358694, 51.6616296]}, "properties": {"type": "inleverpunt", "locatieNaam": "Jumbo", "straatNaam": "Hoofdpoort", "straatNr": "22", "postcode": "5171 DN", "plaats": "KAATSHEUVEL", "merk": "Stibat", "puntType": "inzamelbak", "materialen": ["batterijen"], "uitbetaling": [], "vrijToegankelijk": false, "gemeenteBeperking": null, "openingstijden": null, "latitude": 51.6616296, "longitude": 5.0358694, "bronId": "L020933"}}, {"type": "Feature", "geometry": {"type": "Point", "coordinates": [5.03543, 51.661504]}, "properties": {"type": "inleverpunt", "locatieNaam": "Hans Anders", "straatNaam": "Hoofdpoort", "straatNr": "5", "postcode": "5171 DN", "plaats": "KAATSHEUVEL", "merk": "Stibat", "puntType": "inzamelbak", "materialen": ["batterijen"], "uitbetaling": [], "vrijToegankelijk": false, "gemeenteBeperking": null, "openingstijden": null, "latitude": 51.661504, "longitude": 5.03543, "bronId": "L037851"}}, {"type": "Feature", "geometry": {"type": "Point", "coordinates": [5.0347526, 51.6614339]}, "properties": {"type": "inleverpunt", "locatieNaam": "1153 Action", "straatNaam": "Hoofdstraat", "straatNr": "47", "postcode": "5171 DJ", "plaats": "KAATSHEUVEL", "merk": "Stibat", "puntType": "inzamelbak", "materialen": ["batterijen"], "uitbetaling": [], "vrijToegankelijk": false, "gemeenteBeperking": null, "openingstijden": null, "latitude": 51.6614339, "longitude": 5.0347526, "bronId": "L018229"}}, {"type": "Feature", "geometry": {"type": "Point", "coordinates": [5.0339019, 51.6615161]}, "properties": {"type": "inleverpunt", "locatieNaam": "Bruna", "straatNaam": "Hoofdstraat", "straatNr": "65", "postcode": "5171 DK", "plaats": "KAATSHEUVEL", "merk": "Stibat", "puntType": "inzamelbak", "materialen": ["batterijen"], "uitbetaling": [], "vrijToegankelijk": false, "gemeenteBeperking": null, "openingstijden": null, "latitude": 51.6615161, "longitude": 5.0339019, "bronId": "L024422"}}, {"type": "Feature", "geometry": {"type": "Point", "coordinates": [5.0333214, 51.661614]}, "properties": {"type": "inleverpunt", "locatieNaam": "7707 Etos", "straatNaam": "Hoofdstraat", "straatNr": "71", "postcode": "5171 DK", "plaats": "KAATSHEUVEL", "merk": "Stibat", "puntType": "inzamelbak", "materialen": ["batterijen"], "uitbetaling": [], "vrijToegankelijk": false, "gemeenteBeperking": null, "openingstijden": null, "latitude": 51.661614, "longitude": 5.0333214, "bronId": "L024513"}}, {"type": "Feature", "geometry": {"type": "Point", "coordinates": [5.0330991, 51.6615769]}, "properties": {"type": "inleverpunt", "locatieNaam": "Zeeman", "straatNaam": "Hoofdstraat", "straatNr": "75", "postcode": "5171 DK", "plaats": "Kaatsheuvel", "merk": "Stibat", "puntType": "inzamelbak", "materialen": ["batterijen"], "uitbetaling": [], "vrijToegankelijk": false, "gemeenteBeperking": null, "openingstijden": null, "latitude": 51.6615769, "longitude": 5.0330991, "bronId": "L020021"}}, {"type": "Feature", "geometry": {"type": "Point", "coordinates": [5.0335955, 51.6613603]}, "properties": {"type": "inleverpunt", "locatieNaam": "Expert", "straatNaam": "Hoofdstraat", "straatNr": "50a", "postcode": "5171 DE", "plaats": "KAATSHEUVEL", "merk": "Stibat", "puntType": "inzamelbak", "materialen": ["batterijen"], "uitbetaling": [], "vrijToegankelijk": false, "gemeenteBeperking": null, "openingstijden": null, "latitude": 51.6613603, "longitude": 5.0335955, "bronId": "L008405"}}, {"type": "Feature", "geometry": {"type": "Point", "coordinates": [5.0314056, 51.6615168]}, "properties": {"type": "inleverpunt", "locatieNaam": "ATZ Bike Tweewielers", "straatNaam": "Hoofdstraat", "straatNr": "70", "postcode": "5171 DE", "plaats": "KAATSHEUVEL", "merk": "Stibat", "puntType": "inzamelbak", "materialen": ["batterijen"], "uitbetaling": [], "vrijToegankelijk": false, "gemeenteBeperking": null, "openingstijden": null, "latitude": 51.6615168, "longitude": 5.0314056, "bronId": "L049467"}}, {"type": "Feature", "geometry": {"type": "Point", "coordinates": [5.0309782, 51.6615084]}, "properties": {"type": "inleverpunt", "locatieNaam": "Primera", "straatNaam": "Hoofdstraat", "straatNr": "76", "postcode": "5171 DE", "plaats": "KAATSHEUVEL", "merk": "Stibat", "puntType": "inzamelbak", "materialen": ["batterijen"], "uitbetaling": [], "vrijToegankelijk": false, "gemeenteBeperking": null, "openingstijden": null, "latitude": 51.6615084, "longitude": 5.0309782, "bronId": "L023899"}}, {"type": "Feature", "geometry": {"type": "Point", "coordinates": [5.0325035, 51.6606483]}, "properties": {"type": "inleverpunt", "locatieNaam": "Compupower", "straatNaam": "Peperstraat", "straatNr": "16", "postcode": "5171 EC", "plaats": "KAATSHEUVEL", "merk": "Stibat", "puntType": "inzamelbak", "materialen": ["batterijen"], "uitbetaling": [], "vrijToegankelijk": false, "gemeenteBeperking": null, "openingstijden": null, "latitude": 51.6606483, "longitude": 5.0325035, "bronId": "L042842"}}, {"type": "Feature", "geometry": {"type": "Point", "coordinates": [5.0350891, 51.6589284]}, "properties": {"type": "inleverpunt", "locatieNaam": "Lidl", "straatNaam": "Gasthuisstraat", "straatNr": "24", "postcode": "5171 GG", "plaats": "KAATSHEUVEL", "merk": "Stibat", "puntType": "inzamelbak", "materialen": ["batterijen"], "uitbetaling": [], "vrijToegankelijk": false, "gemeenteBeperking": null, "openingstijden": null, "latitude": 51.6589284, "longitude": 5.0350891, "bronId": "L040314"}}, {"type": "Feature", "geometry": {"type": "Point", "coordinates": [5.0458888, 51.6557007]}, "properties": {"type": "inleverpunt", "locatieNaam": "De Haan", "straatNaam": "Van Heeswijkstraat", "straatNr": "30", "postcode": "5171 KK", "plaats": "Kaatsheuvel", "merk": "Stibat", "puntType": "inzamelbak", "materialen": ["batterijen"], "uitbetaling": [], "vrijToegankelijk": false, "gemeenteBeperking": null, "openingstijden": null, "latitude": 51.6557007, "longitude": 5.0458888, "bronId": "L044761"}}, {"type": "Feature", "geometry": {"type": "Point", "coordinates": [5.0393748, 51.6562948]}, "properties": {"type": "inleverpunt", "locatieNaam": "8611 Albert Heijn", "straatNaam": "Gasthuisstraat", "straatNr": "124", "postcode": "5171 GJ", "plaats": "KAATSHEUVEL", "merk": "Stibat", "puntType": "inzamelbak", "materialen": ["batterijen"], "uitbetaling": [], "vrijToegankelijk": false, "gemeenteBeperking": null, "openingstijden": null, "latitude": 51.6562948, "longitude": 5.0393748, "bronId": "L007406"}}, {"type": "Feature", "geometry": {"type": "Point", "coordinates": [5.0721861, 51.6300316]}, "properties": {"type": "inleverpunt", "locatieNaam": "jorisdefietsenmaker", "straatNaam": "Gerlachusstraat", "straatNr": "75", "postcode": "5175 AK", "plaats": "LOON OP ZAND", "merk": "Stibat", "puntType": "inzamelbak", "materialen": ["batterijen"], "uitbetaling": [], "vrijToegankelijk": false, "gemeenteBeperking": null, "openingstijden": null, "latitude": 51.6300316, "longitude": 5.0721861, "bronId": "L049279"}}, {"type": "Feature", "geometry": {"type": "Point", "coordinates": [5.0743076, 51.6280459]}, "properties": {"type": "inleverpunt", "locatieNaam": "PLUS", "straatNaam": "Oranjeplein", "straatNr": "47", "postcode": "5175 BX", "plaats": "LOON OP ZAND", "merk": "Stibat", "puntType": "inzamelbak", "materialen": ["batterijen"], "uitbetaling": [], "vrijToegankelijk": false, "gemeenteBeperking": null, "openingstijden": null, "latitude": 51.6280459, "longitude": 5.0743076, "bronId": "L045964"}}, {"type": "Feature", "geometry": {"type": "Point", "coordinates": [5.0744866, 51.6274509]}, "properties": {"type": "inleverpunt", "locatieNaam": "Primera", "straatNaam": "Oranjeplein", "straatNr": "24", "postcode": "5175 BE", "plaats": "LOON OP ZAND", "merk": "Stibat", "puntType": "inzamelbak", "materialen": ["batterijen"], "uitbetaling": [], "vrijToegankelijk": false, "gemeenteBeperking": null, "openingstijden": null, "latitude": 51.6274509, "longitude": 5.0744866, "bronId": "L029503"}}, {"type": "Feature", "geometry": {"type": "Point", "coordinates": [5.0640445, 51.6285794]}, "properties": {"type": "inleverpunt", "locatieNaam": "Huski E-Bikes", "straatNaam": "De Hoogt", "straatNr": "34", "postcode": "5175 AX", "plaats": "LOON OP ZAND", "merk": "Stibat", "puntType": "inzamelbak", "materialen": ["batterijen"], "uitbetaling": [], "vrijToegankelijk": false, "gemeenteBeperking": null, "openingstijden": null, "latitude": 51.6285794, "longitude": 5.0640445, "bronId": "L043832"}}, {"type": "Feature", "geometry": {"type": "Point", "coordinates": [5.0673696, 51.627913]}, "properties": {"type": "inleverpunt", "locatieNaam": "TOBY VAN DER HEIJDEN", "straatNaam": "Hoge Steenweg", "straatNr": "37", "postcode": "5175 AG", "plaats": "LOON OP ZAND", "merk": "Stibat", "puntType": "inzamelbak", "materialen": ["batterijen"], "uitbetaling": [], "vrijToegankelijk": false, "gemeenteBeperking": null, "openingstijden": null, "latitude": 51.627913, "longitude": 5.0673696, "bronId": "L033490"}}, {"type": "Feature", "geometry": {"type": "Point", "coordinates": [5.0732982, 51.6267595]}, "properties": {"type": "inleverpunt", "locatieNaam": "Electro World", "straatNaam": "Oranjeplein", "straatNr": "6", "postcode": "5175 BE", "plaats": "LOON OP ZAND", "merk": "Stibat", "puntType": "inzamelbak", "materialen": ["batterijen"], "uitbetaling": [], "vrijToegankelijk": false, "gemeenteBeperking": null, "openingstijden": null, "latitude": 51.6267595, "longitude": 5.0732982, "bronId": "L017556"}}, {"type": "Feature", "geometry": {"type": "Point", "coordinates": [5.0721062, 51.6265107]}, "properties": {"type": "inleverpunt", "locatieNaam": "Kruidvat", "straatNaam": "Kerkstraat", "straatNr": "56a", "postcode": "5175 BB", "plaats": "LOON OP ZAND", "merk": "Stibat", "puntType": "inzamelbak", "materialen": ["batterijen"], "uitbetaling": [], "vrijToegankelijk": false, "gemeenteBeperking": null, "openingstijden": null, "latitude": 51.6265107, "longitude": 5.0721062, "bronId": "L015807"}}, {"type": "Feature", "geometry": {"type": "Polygon", "coordinates": [[[5.004265001307154, 51.60789600366379], [5.042927001346138, 51.60603900366238], [5.044111001347391, 51.607318003663245], [5.043913001347241, 51.608500003664034], [5.045011001348464, 51.61109700366573], [5.048182001351638, 51.61042700366528], [5.051841001355341, 51.61059600366534], [5.051822001355334, 51.61082600366551], [5.057174001360745, 51.61092900366552], [5.060387001363985, 51.610740003665406], [5.061771001365323, 51.609346003664434], [5.070591001374274, 51.61029100366505], [5.071007001374604, 51.60822700366365], [5.072057001375669, 51.608311003663694], [5.074059001377743, 51.6094830036645], [5.074025001377545, 51.60568100366197], [5.07554000137908, 51.60576800366201], [5.075469001379143, 51.60895000366409], [5.080182001383933, 51.60954200366446], [5.079439001383235, 51.610784003665266], [5.09374500139771, 51.611249003665506], [5.096003001400043, 51.612466003666256], [5.099203001403505, 51.61780500366976], [5.100566001404884, 51.61785500366979], [5.101323001405593, 51.61658000366896], [5.1029590014072586, 51.616911003669124], [5.101217001405651, 51.62040600367145], [5.100900001405437, 51.62296000367311], [5.0996300014043285, 51.626975003675774], [5.099849001404588, 51.62785200367632], [5.098119001402856, 51.628244003676606], [5.0983260014031, 51.62904300367714], [5.101370001406328, 51.63259900367945], [5.101545001406571, 51.634170003680474], [5.103709001408769, 51.63444400368064], [5.106137001411286, 51.63595600368162], [5.101626001407816, 51.66134500369825], [5.1027180014092215, 51.66835000370286], [5.101768001408359, 51.67071100370436], [5.102312001408963, 51.67194300370518], [5.101581001408249, 51.672442003705505], [5.1041070014109025, 51.67498600370716], [5.102887001409728, 51.67621600370799], [5.101509001408363, 51.67683500370838], [5.100313001407146, 51.67662200370826], [5.094183001400867, 51.67445300370685], [5.0892630013959135, 51.67483100370715], [5.080175001386601, 51.67165500370511], [5.0802650013866835, 51.67138900370499], [5.0720430013783515, 51.67076300370462], [5.0606210013668385, 51.67111300370491], [5.061013001367113, 51.66829000370307], [5.0579700013640405, 51.6683160037031], [5.058727001364657, 51.664925003700866], [5.058404001364192, 51.66172700369882], [5.049741001355442, 51.66160700369879], [5.047368001353065, 51.66208200369913], [5.047247001352994, 51.66325100369989], [5.045239001350961, 51.6631310036998], [5.045286001350989, 51.662694003699514], [4.992246001298035, 51.67625100370867], [4.9872620012920414, 51.654520003694515], [5.004265001307154, 51.60789600366379]]]}, "properties": {"type": "boundary", "gemeente": "Loon op Zand"}}]}