{"type": "FeatureCollection", "metadata": {"gemeente": "Lopik", "slug": "lopik", "generated_at": "2026-08-17T03:07:05.158046Z", "total_points": 23, "merken": ["StatiegeldNederland", "Stibat", "StichtingOPEN"], "bounds": [4.884081, 51.9430474, 5.0276199, 52.0127671]}, "features": [{"type": "Feature", "geometry": {"type": "Point", "coordinates": [5.0276199, 52.0127671]}, "properties": {"type": "inleverpunt", "locatieNaam": "Intratuin IJsselstein B.V.", "straatNaam": "Weg Der Verenigde Naties", "straatNr": "2", "postcode": "3405 AZ", "plaats": "Ijsselstein", "merk": "StatiegeldNederland", "puntType": "automaat", "materialen": ["pet-groot", "pet-klein", "blik", "krat"], "uitbetaling": ["donatie", "tikkie"], "vrijToegankelijk": true, "gemeenteBeperking": null, "openingstijden": {"ma": "09:30–17:30", "di": "09:30–17:30", "wo": "09:30–17:30", "do": "09:30–17:30", "vr": "09:30–17:30", "za": "09:30–17:30", "zo": "11:00–17:00"}, "latitude": 52.0127671, "longitude": 5.0276199, "bronId": "279900"}}, {"type": "Feature", "geometry": {"type": "Point", "coordinates": [4.9789464, 52.0082087]}, "properties": {"type": "inleverpunt", "locatieNaam": "Plus", "straatNaam": "Oranje Nassaustraat", "straatNr": "1-3", "postcode": "3405 XH", "plaats": "Benschop", "merk": "StatiegeldNederland", "puntType": "automaat", "materialen": ["pet-groot", "pet-klein", "blik", "glas", "krat"], "uitbetaling": ["bonnetje", "donatie"], "vrijToegankelijk": true, "gemeenteBeperking": null, "openingstijden": {"ma": "08:00–20:00", "di": "08:00–20:00", "wo": "08:00–20:00", "do": "08:00–20:00", "vr": "08:00–20:00", "za": "08:00–20:00", "zo": "12:00–17:00"}, "latitude": 52.0082087, "longitude": 4.9789464, "bronId": "282205"}}, {"type": "Feature", "geometry": {"type": "Point", "coordinates": [4.94916, 51.97471]}, "properties": {"type": "inleverpunt", "locatieNaam": "Plus", "straatNaam": "President Kennedy", "straatNr": "2A", "postcode": "3411 BR", "plaats": "Lopik", "merk": "StatiegeldNederland", "puntType": "automaat", "materialen": ["pet-groot", "pet-klein", "blik", "glas", "krat"], "uitbetaling": ["bonnetje", "donatie"], "vrijToegankelijk": true, "gemeenteBeperking": null, "openingstijden": {"ma": "08:00–20:30", "di": "08:00–20:30", "wo": "08:00–20:30", "do": "08:00–20:30", "vr": "08:00–20:30", "za": "08:00–20:30", "zo": "12:00–17:00"}, "latitude": 51.97471, "longitude": 4.94916, "bronId": "282235"}}, {"type": "Feature", "geometry": {"type": "Point", "coordinates": [4.952922, 51.9697669]}, "properties": {"type": "inleverpunt", "locatieNaam": "S.v. Lopik", "straatNaam": "Rolafweg Zuid", "straatNr": "1A", "postcode": "3411 ND", "plaats": "Lopik", "merk": "StatiegeldNederland", "puntType": "balie", "materialen": ["pet-groot", "pet-klein", "blik"], "uitbetaling": [], "vrijToegankelijk": false, "gemeenteBeperking": null, "openingstijden": {"ma": "Gesloten", "di": "Gesloten", "wo": "Gesloten", "do": "Gesloten", "vr": "Gesloten", "za": "08:30–19:00", "zo": "Gesloten"}, "latitude": 51.9697669, "longitude": 4.952922, "bronId": "282677"}}, {"type": "Feature", "geometry": {"type": "Point", "coordinates": [4.9533879, 51.9696232]}, "properties": {"type": "inleverpunt", "locatieNaam": "Tennisvereniging Lopik", "straatNaam": "Rolafweg-Zuid", "straatNr": "3a", "postcode": "3411 ND", "plaats": "Lopik", "merk": "StatiegeldNederland", "puntType": "balie", "materialen": ["pet-groot", "pet-klein", "blik"], "uitbetaling": [], "vrijToegankelijk": false, "gemeenteBeperking": null, "openingstijden": {"ma": "08:00–23:00", "di": "08:00–23:00", "wo": "08:00–23:00", "do": "08:00–23:00", "vr": "08:00–23:00", "za": "08:00–23:00", "zo": "08:00–23:00"}, "latitude": 51.9696232, "longitude": 4.9533879, "bronId": "283715"}}, {"type": "Feature", "geometry": {"type": "Point", "coordinates": [4.884081, 51.9430474]}, "properties": {"type": "inleverpunt", "locatieNaam": "ViaTim", "straatNaam": "Tiendweg", "straatNr": "24", "postcode": "3411 NB", "plaats": "Lopik", "merk": "StatiegeldNederland", "puntType": "balie", "materialen": ["pet-groot", "pet-klein", "blik"], "uitbetaling": ["tikkie"], "vrijToegankelijk": true, "gemeenteBeperking": null, "openingstijden": null, "latitude": 51.9430474, "longitude": 4.884081, "bronId": "284300"}}, {"type": "Feature", "geometry": {"type": "Point", "coordinates": [4.9806596, 52.0039834]}, "properties": {"type": "inleverpunt", "locatieNaam": "Voetbal Vereniging Benschop", "straatNaam": "Koningin Wilhelminastraat", "straatNr": "27", "postcode": "3405 XP", "plaats": "Benschop", "merk": "StatiegeldNederland", "puntType": "balie", "materialen": ["pet-groot", "pet-klein", "blik"], "uitbetaling": [], "vrijToegankelijk": false, "gemeenteBeperking": null, "openingstijden": {"ma": "Gesloten", "di": "20:00–23:30", "wo": "20:00–23:30", "do": "20:00–23:30", "vr": "Gesloten", "za": "08:00–19:00", "zo": "Gesloten"}, "latitude": 52.0039834, "longitude": 4.9806596, "bronId": "284369"}}, {"type": "Feature", "geometry": {"type": "Point", "coordinates": [5.027554, 52.012669]}, "properties": {"type": "inleverpunt", "locatieNaam": "Intratuin IJsselstein", "straatNaam": "Weg der Verenigde Naties", "straatNr": "2", "postcode": "3405 AZ", "plaats": "Benschop", "merk": "StichtingOPEN", "puntType": "balie", "materialen": ["batterijen", "elektro-klein", "elektro-middel", "lampen"], "uitbetaling": [], "vrijToegankelijk": false, "gemeenteBeperking": null, "openingstijden": null, "latitude": 52.012669, "longitude": 5.027554, "bronId": "SP00005553"}}, {"type": "Feature", "geometry": {"type": "Point", "coordinates": [4.979367, 52.008134]}, "properties": {"type": "inleverpunt", "locatieNaam": "PLUS Benschop", "straatNaam": "Oranje-Nassaustraat", "straatNr": "13", "postcode": "3405 XH", "plaats": "Benschop", "merk": "StichtingOPEN", "puntType": "balie", "materialen": ["batterijen", "lampen"], "uitbetaling": [], "vrijToegankelijk": false, "gemeenteBeperking": null, "openingstijden": null, "latitude": 52.008134, "longitude": 4.979367, "bronId": "SP00024129"}}, {"type": "Feature", "geometry": {"type": "Point", "coordinates": [4.974589, 51.979227]}, "properties": {"type": "inleverpunt", "locatieNaam": "Elektrovakman Hans Jongbloed", "straatNaam": "Lopikerweg oost", "straatNr": "60", "postcode": "3411 JH", "plaats": "Lopik", "merk": "StichtingOPEN", "puntType": "balie", "materialen": ["elektro-middel", "lampen"], "uitbetaling": [], "vrijToegankelijk": false, "gemeenteBeperking": null, "openingstijden": null, "latitude": 51.979227, "longitude": 4.974589, "bronId": "SP00006126"}}, {"type": "Feature", "geometry": {"type": "Point", "coordinates": [4.950411, 51.974853]}, "properties": {"type": "inleverpunt", "locatieNaam": "PLUS Lopik", "straatNaam": "President Kennedylaan", "straatNr": "2a", "postcode": "3411 BR", "plaats": "Lopik", "merk": "StichtingOPEN", "puntType": "balie", "materialen": ["batterijen", "lampen"], "uitbetaling": [], "vrijToegankelijk": false, "gemeenteBeperking": null, "openingstijden": null, "latitude": 51.974853, "longitude": 4.950411, "bronId": "SP00024148"}}, {"type": "Feature", "geometry": {"type": "Point", "coordinates": [4.949692, 51.973977]}, "properties": {"type": "inleverpunt", "locatieNaam": "Kruidvat Lopik", "straatNaam": "Achterom", "straatNr": "55", "postcode": "3411 BJ", "plaats": "Lopik", "merk": "StichtingOPEN", "puntType": "balie", "materialen": ["batterijen", "lampen"], "uitbetaling": [], "vrijToegankelijk": false, "gemeenteBeperking": null, "openingstijden": null, "latitude": 51.973977, "longitude": 4.949692, "bronId": "SP00024840"}}, {"type": "Feature", "geometry": {"type": "Point", "coordinates": [4.946546, 51.970647]}, "properties": {"type": "inleverpunt", "locatieNaam": "Milieustraat Lopik", "straatNaam": "M A Reinaldaweg", "straatNr": "21", "postcode": "3411 MB", "plaats": "Lopik", "merk": "StichtingOPEN", "puntType": "milieustraat", "materialen": ["batterijen", "elektro-groot", "elektro-klein", "elektro-middel", "lampen", "tl-buizen"], "uitbetaling": [], "vrijToegankelijk": false, "gemeenteBeperking": ["Lopik"], "openingstijden": null, "latitude": 51.970647, "longitude": 4.946546, "bronId": "SP00001025"}}, {"type": "Feature", "geometry": {"type": "Point", "coordinates": [5.0275548, 52.0126695]}, "properties": {"type": "inleverpunt", "locatieNaam": "Intratuin", "straatNaam": "Weg der Verenigde Naties", "straatNr": "2", "postcode": "3405 AZ", "plaats": "Ijsselstein", "merk": "Stibat", "puntType": "inzamelbak", "materialen": ["batterijen"], "uitbetaling": [], "vrijToegankelijk": false, "gemeenteBeperking": null, "openingstijden": null, "latitude": 52.0126695, "longitude": 5.0275548, "bronId": "L035985"}}, {"type": "Feature", "geometry": {"type": "Point", "coordinates": [4.9790506, 52.0081187]}, "properties": {"type": "inleverpunt", "locatieNaam": "PLUS", "straatNaam": "Oranje Nassaustraat", "straatNr": "1-3", "postcode": "3405 XH", "plaats": "Benschop", "merk": "Stibat", "puntType": "inzamelbak", "materialen": ["batterijen"], "uitbetaling": [], "vrijToegankelijk": false, "gemeenteBeperking": null, "openingstijden": null, "latitude": 52.0081187, "longitude": 4.9790506, "bronId": "L011372"}}, {"type": "Feature", "geometry": {"type": "Point", "coordinates": [4.9778033, 51.9787297]}, "properties": {"type": "inleverpunt", "locatieNaam": "De Haan", "straatNaam": "M.A. Reinaldaweg", "straatNr": "10", "postcode": "3411 MB", "plaats": "Lopik", "merk": "Stibat", "puntType": "inzamelbak", "materialen": ["batterijen"], "uitbetaling": [], "vrijToegankelijk": false, "gemeenteBeperking": null, "openingstijden": null, "latitude": 51.9787297, "longitude": 4.9778033, "bronId": "L044768"}}, {"type": "Feature", "geometry": {"type": "Point", "coordinates": [4.9777551, 51.9787242]}, "properties": {"type": "inleverpunt", "locatieNaam": "De Haan", "straatNaam": "M.A. Reinaldaweg", "straatNr": "10", "postcode": "3411 MB", "plaats": "Lopik", "merk": "Stibat", "puntType": "inzamelbak", "materialen": ["batterijen"], "uitbetaling": [], "vrijToegankelijk": false, "gemeenteBeperking": null, "openingstijden": null, "latitude": 51.9787242, "longitude": 4.9777551, "bronId": "L044767"}}, {"type": "Feature", "geometry": {"type": "Point", "coordinates": [4.9560994, 51.9718197]}, "properties": {"type": "inleverpunt", "locatieNaam": "Afvalinzamelstation Lopik", "straatNaam": "M.A. Reinaldaweg", "straatNr": "19", "postcode": "3411 MB", "plaats": "Lopik", "merk": "Stibat", "puntType": "inzamelbak", "materialen": ["batterijen"], "uitbetaling": [], "vrijToegankelijk": false, "gemeenteBeperking": null, "openingstijden": null, "latitude": 51.9718197, "longitude": 4.9560994, "bronId": "L035673"}}, {"type": "Feature", "geometry": {"type": "Point", "coordinates": [4.9534925, 51.9742264]}, "properties": {"type": "inleverpunt", "locatieNaam": "Prima Lopik", "straatNaam": "Churchill-laan", "straatNr": "19", "postcode": "3411 CE", "plaats": "Lopik", "merk": "Stibat", "puntType": "inzamelbak", "materialen": ["batterijen"], "uitbetaling": [], "vrijToegankelijk": false, "gemeenteBeperking": null, "openingstijden": null, "latitude": 51.9742264, "longitude": 4.9534925, "bronId": "L039711"}}, {"type": "Feature", "geometry": {"type": "Point", "coordinates": [4.9507803, 51.9743954]}, "properties": {"type": "inleverpunt", "locatieNaam": "PLUS", "straatNaam": "President Kennedylaan", "straatNr": "2A", "postcode": "3411 BR", "plaats": "Lopik", "merk": "Stibat", "puntType": "inzamelbak", "materialen": ["batterijen"], "uitbetaling": [], "vrijToegankelijk": false, "gemeenteBeperking": null, "openingstijden": null, "latitude": 51.9743954, "longitude": 4.9507803, "bronId": "L010062"}}, {"type": "Feature", "geometry": {"type": "Point", "coordinates": [4.9492623, 51.9748481]}, "properties": {"type": "inleverpunt", "locatieNaam": "Kruidvat", "straatNaam": "Rolafweg Noord", "straatNr": "55", "postcode": "3411 BJ", "plaats": "Lopik", "merk": "Stibat", "puntType": "inzamelbak", "materialen": ["batterijen"], "uitbetaling": [], "vrijToegankelijk": false, "gemeenteBeperking": null, "openingstijden": null, "latitude": 51.9748481, "longitude": 4.9492623, "bronId": "L015913"}}, {"type": "Feature", "geometry": {"type": "Point", "coordinates": [4.9490552, 51.9749675]}, "properties": {"type": "inleverpunt", "locatieNaam": "Cooiman Fietsen", "straatNaam": "Wielsekade", "straatNr": "2", "postcode": "3411 AA", "plaats": "Lopik", "merk": "Stibat", "puntType": "inzamelbak", "materialen": ["batterijen"], "uitbetaling": [], "vrijToegankelijk": false, "gemeenteBeperking": null, "openingstijden": null, "latitude": 51.9749675, "longitude": 4.9490552, "bronId": "L035496"}}, {"type": "Feature", "geometry": {"type": "Point", "coordinates": [4.9009203, 51.9943939]}, "properties": {"type": "inleverpunt", "locatieNaam": "Uw Groene Vakwinkel", "straatNaam": "Zuidzijdseweg", "straatNr": "208a", "postcode": "3415 PV", "plaats": "Polsbroekerdam", "merk": "Stibat", "puntType": "inzamelbak", "materialen": ["batterijen"], "uitbetaling": [], "vrijToegankelijk": false, "gemeenteBeperking": null, "openingstijden": null, "latitude": 51.9943939, "longitude": 4.9009203, "bronId": "L019516"}}, {"type": "Feature", "geometry": {"type": "Polygon", "coordinates": [[[4.885110001202001, 51.938587003877174], [4.9140110012312475, 51.94243600387956], [4.916380001233663, 51.94317800388001], [4.919188001236559, 51.94472900388096], [4.925290001242925, 51.949721003884065], [4.933584001251724, 51.95970700389031], [4.935739001253971, 51.96145600389139], [4.9383320012566445, 51.96287400389227], [4.941567001259941, 51.96383400389286], [4.946905001265298, 51.96369400389277], [4.952034001270416, 51.96282600389224], [4.957987001276307, 51.9607570038909], [4.96240900128071, 51.959721003890216], [4.96529800128359, 51.95921700388988], [4.968194001286508, 51.95935200388993], [4.972548001290966, 51.961148003891054], [4.975436001293948, 51.96288600389214], [4.985940001304947, 51.972551003898154], [4.988045001307127, 51.97399300389905], [4.991862001311048, 51.975853003900156], [4.998074001317383, 51.977872003901425], [5.003010001322358, 51.978138003901535], [5.010077001329346, 51.97554400389989], [5.017769001336889, 51.97136700389723], [5.022376001341449, 51.96972700389616], [5.024788001343854, 51.969311003895896], [5.029673001348761, 51.969203003895785], [5.032069001351186, 51.96956000389601], [5.0340550013532095, 51.97017000389638], [5.036127001355341, 51.97132900389711], [5.038830001358185, 51.97413600389884], [5.041044001360604, 51.97849200390152], [5.042857001362512, 51.980381003902735], [5.047753001367575, 51.983598003904696], [5.059346001379469, 51.989135003908075], [5.062638001382872, 51.99123300390937], [5.0530820013734505, 51.99538500391204], [5.054240001374658, 51.99631900391261], [5.042555001363327, 52.0056360039185], [5.034063001354714, 52.00384600391742], [5.020295001341855, 52.02562700393107], [5.001058001322407, 52.02275200392942], [4.99216200131339, 52.02103200392837], [4.986261001307467, 52.02115400392847], [4.980715001301883, 52.02088500392831], [4.976061001297184, 52.02036100392803], [4.972101001293166, 52.0194630039275], [4.971826001292904, 52.019724003927664], [4.966235001287248, 52.01894200392717], [4.959001001279922, 52.0176150039264], [4.954918001275807, 52.01734700392625], [4.919867001240254, 52.00998800392179], [4.91685600123724, 52.010145003921906], [4.913888001234301, 52.011078003922464], [4.909735001230125, 52.011041003922486], [4.89219100121222, 52.005014003918795], [4.878306001198069, 52.00075500391619], [4.853260001172476, 51.99172700391061], [4.840887001159868, 51.988054003908324], [4.834127001152963, 51.98565400390681], [4.845622001164008, 51.97498500390008], [4.847553001165956, 51.97513700390017], [4.857828001175998, 51.96900400389636], [4.859484001177644, 51.96867300389614], [4.860806001178932, 51.96778400389562], [4.864072001182033, 51.963911003893166], [4.865689001183495, 51.96040000389094], [4.8704290011880085, 51.95500000388755], [4.871223001188788, 51.9546430038873], [4.877768001194638, 51.93904000387749], [4.877793001194617, 51.938031003876866], [4.885110001202001, 51.938587003877174]]]}, "properties": {"type": "boundary", "gemeente": "Lopik"}}]}