{"type": "FeatureCollection", "metadata": {"gemeente": "Medemblik", "slug": "medemblik", "generated_at": "2026-07-28T19:03:25.026558Z", "total_points": 92, "merken": ["StatiegeldNederland", "Stibat", "StichtingOPEN"], "bounds": [5.0124049, 52.6813938, 5.2234074, 52.7725563]}, "features": [{"type": "Feature", "geometry": {"type": "Point", "coordinates": [5.1523158, 52.7272133]}, "properties": {"type": "inleverpunt", "locatieNaam": "Albert Heijn", "straatNaam": "Dorpsstraat", "straatNr": "14", "postcode": "1693 AG", "plaats": "Wervershoof", "merk": "StatiegeldNederland", "puntType": "automaat", "materialen": ["pet-groot", "pet-klein", "blik", "glas", "krat"], "uitbetaling": ["bonnetje", "donatie"], "vrijToegankelijk": true, "gemeenteBeperking": null, "openingstijden": {"ma": "08:00–21:00", "di": "08:00–21:00", "wo": "08:00–21:00", "do": "08:00–21:00", "vr": "08:00–21:00", "za": "08:00–21:00", "zo": "09:00–20:00"}, "latitude": 52.7272133, "longitude": 5.1523158, "bronId": "252168"}}, {"type": "Feature", "geometry": {"type": "Point", "coordinates": [5.0570634, 52.6915287]}, "properties": {"type": "inleverpunt", "locatieNaam": "Albert Heijn", "straatNaam": "Ganker", "straatNr": "3A", "postcode": "1688 CR", "plaats": "Nibbixwoud", "merk": "StatiegeldNederland", "puntType": "automaat", "materialen": ["pet-groot", "pet-klein", "blik", "glas", "krat"], "uitbetaling": ["bonnetje", "donatie"], "vrijToegankelijk": true, "gemeenteBeperking": null, "openingstijden": {"ma": "08:00–21:00", "di": "08:00–21:00", "wo": "08:00–21:00", "do": "08:00–21:00", "vr": "08:00–21:00", "za": "08:00–21:00", "zo": "09:00–20:00"}, "latitude": 52.6915287, "longitude": 5.0570634, "bronId": "252234"}}, {"type": "Feature", "geometry": {"type": "Point", "coordinates": [5.024043, 52.6816216]}, "properties": {"type": "inleverpunt", "locatieNaam": "Albert Heijn", "straatNaam": "Kerkstraat", "straatNr": "15", "postcode": "1687 AL", "plaats": "Wognum", "merk": "StatiegeldNederland", "puntType": "automaat", "materialen": ["pet-groot", "pet-klein", "blik", "glas", "krat"], "uitbetaling": ["bonnetje", "donatie"], "vrijToegankelijk": true, "gemeenteBeperking": null, "openingstijden": {"ma": "08:00–21:00", "di": "08:00–21:00", "wo": "08:00–21:00", "do": "08:00–21:00", "vr": "08:00–21:00", "za": "08:00–21:00", "zo": "08:00–20:00"}, "latitude": 52.6816216, "longitude": 5.024043, "bronId": "252394"}}, {"type": "Feature", "geometry": {"type": "Point", "coordinates": [5.1008479, 52.7661053]}, "properties": {"type": "inleverpunt", "locatieNaam": "Albert Heijn", "straatNaam": "Overleek", "straatNr": "1", "postcode": "1671 GD", "plaats": "Medemblik", "merk": "StatiegeldNederland", "puntType": "automaat", "materialen": ["pet-groot", "pet-klein", "blik", "glas", "krat"], "uitbetaling": ["bonnetje", "donatie"], "vrijToegankelijk": true, "gemeenteBeperking": null, "openingstijden": {"ma": "07:00–22:00", "di": "07:00–22:00", "wo": "07:00–22:00", "do": "07:00–22:00", "vr": "07:00–22:00", "za": "07:00–22:00", "zo": "08:00–21:00"}, "latitude": 52.7661053, "longitude": 5.1008479, "bronId": "252606"}}, {"type": "Feature", "geometry": {"type": "Point", "coordinates": [5.1023493, 52.7667342]}, "properties": {"type": "inleverpunt", "locatieNaam": "Aldi", "straatNaam": "Randweg", "straatNr": "17", "postcode": "1671 GG", "plaats": "Medemblik", "merk": "StatiegeldNederland", "puntType": "automaat", "materialen": ["pet-groot", "pet-klein", "blik", "glas", "krat"], "uitbetaling": ["bonnetje"], "vrijToegankelijk": true, "gemeenteBeperking": null, "openingstijden": {"ma": "08:00–20:00", "di": "08:00–20:00", "wo": "08:00–20:00", "do": "08:00–20:00", "vr": "08:00–20:00", "za": "08:00–19:00", "zo": "09:00–18:00"}, "latitude": 52.7667342, "longitude": 5.1023493, "bronId": "253335"}}, {"type": "Feature", "geometry": {"type": "Point", "coordinates": [5.1503387, 52.7277614]}, "properties": {"type": "inleverpunt", "locatieNaam": "Medikamente die Grenze", "straatNaam": "Raadhuisplein", "straatNr": "9-11", "postcode": "1693 EA", "plaats": "Wervershoof", "merk": "StatiegeldNederland", "puntType": "automaat", "materialen": ["pet-groot", "pet-klein", "blik"], "uitbetaling": ["bonnetje"], "vrijToegankelijk": true, "gemeenteBeperking": null, "openingstijden": null, "latitude": 52.7277614, "longitude": 5.1503387, "bronId": "256735"}}, {"type": "Feature", "geometry": {"type": "Point", "coordinates": [5.1175909, 52.6969744]}, "properties": {"type": "inleverpunt", "locatieNaam": "Aldi", "straatNaam": "Zwaagdijk", "straatNr": "227C", "postcode": "1684 NG", "plaats": "Zwaagdijk", "merk": "StatiegeldNederland", "puntType": "automaat", "materialen": ["pet-groot", "pet-klein", "blik", "glas", "krat"], "uitbetaling": ["bonnetje"], "vrijToegankelijk": true, "gemeenteBeperking": null, "openingstijden": {"ma": "08:00–20:00", "di": "08:00–20:00", "wo": "08:00–20:00", "do": "08:00–20:00", "vr": "08:00–20:00", "za": "08:00–20:00", "zo": "10:00–18:00"}, "latitude": 52.6969744, "longitude": 5.1175909, "bronId": "253462"}}, {"type": "Feature", "geometry": {"type": "Point", "coordinates": [5.0282362, 52.6908369]}, "properties": {"type": "inleverpunt", "locatieNaam": "Circlek Servauto - Nieuweweg", "straatNaam": "Nieuweweg", "straatNr": "24A", "postcode": "1687 BA", "plaats": "Wognum", "merk": "StatiegeldNederland", "puntType": "balie", "materialen": ["pet-groot", "pet-klein", "blik"], "uitbetaling": [], "vrijToegankelijk": true, "gemeenteBeperking": null, "openingstijden": null, "latitude": 52.6908369, "longitude": 5.0282362, "bronId": "254155"}}, {"type": "Feature", "geometry": {"type": "Point", "coordinates": [5.2214255, 52.7474763]}, "properties": {"type": "inleverpunt", "locatieNaam": "Dekamarkt", "straatNaam": "Middenweg", "straatNr": "59A", "postcode": "1619 BN", "plaats": "Andijk", "merk": "StatiegeldNederland", "puntType": "automaat", "materialen": ["pet-groot", "pet-klein", "blik", "glas", "krat"], "uitbetaling": ["bonnetje"], "vrijToegankelijk": true, "gemeenteBeperking": null, "openingstijden": {"ma": "08:00–21:00", "di": "08:00–21:00", "wo": "08:00–21:00", "do": "08:00–21:00", "vr": "08:00–21:00", "za": "08:00–21:00", "zo": "09:00–20:00"}, "latitude": 52.7474763, "longitude": 5.2214255, "bronId": "254354"}}, {"type": "Feature", "geometry": {"type": "Point", "coordinates": [5.1502493, 52.7280611]}, "properties": {"type": "inleverpunt", "locatieNaam": "Dekamarkt", "straatNaam": "Raadhuisplein", "straatNr": "13", "postcode": "1693 EA", "plaats": "Wervershoof", "merk": "StatiegeldNederland", "puntType": "automaat", "materialen": ["pet-groot", "pet-klein", "blik", "glas", "krat"], "uitbetaling": ["bonnetje"], "vrijToegankelijk": true, "gemeenteBeperking": null, "openingstijden": {"ma": "08:00–21:00", "di": "08:00–21:00", "wo": "08:00–21:00", "do": "08:00–21:00", "vr": "08:00–21:00", "za": "08:00–21:00", "zo": "09:00–20:00"}, "latitude": 52.7280611, "longitude": 5.1502493, "bronId": "254376"}}, {"type": "Feature", "geometry": {"type": "Point", "coordinates": [5.117826, 52.696381]}, "properties": {"type": "inleverpunt", "locatieNaam": "Jumbo", "straatNaam": "Zwaagdijk", "straatNr": "227F", "postcode": "1684 NG", "plaats": "Zwaagdijk", "merk": "StatiegeldNederland", "puntType": "automaat", "materialen": ["pet-groot", "pet-klein", "blik", "glas", "krat"], "uitbetaling": ["bonnetje", "donatie"], "vrijToegankelijk": true, "gemeenteBeperking": null, "openingstijden": {"ma": "07:00–21:00", "di": "07:00–21:00", "wo": "07:00–21:00", "do": "07:00–21:00", "vr": "07:00–21:00", "za": "07:00–21:00", "zo": "09:00–18:00"}, "latitude": 52.696381, "longitude": 5.117826, "bronId": "255890"}}, {"type": "Feature", "geometry": {"type": "Point", "coordinates": [5.2234074, 52.7400481]}, "properties": {"type": "inleverpunt", "locatieNaam": "Lidl", "straatNaam": "Dijkgraaf Grootweg", "straatNr": "34", "postcode": "1619 BV", "plaats": "Andijk", "merk": "StatiegeldNederland", "puntType": "automaat", "materialen": ["pet-groot", "pet-klein", "blik", "glas", "krat"], "uitbetaling": ["bonnetje", "donatie"], "vrijToegankelijk": true, "gemeenteBeperking": null, "openingstijden": {"ma": "08:00–20:00", "di": "08:00–20:00", "wo": "08:00–20:00", "do": "08:00–21:00", "vr": "08:00–21:00", "za": "08:00–20:00", "zo": "10:00–18:00"}, "latitude": 52.7400481, "longitude": 5.2234074, "bronId": "256128"}}, {"type": "Feature", "geometry": {"type": "Point", "coordinates": [5.0222492, 52.6819516]}, "properties": {"type": "inleverpunt", "locatieNaam": "Lidl", "straatNaam": "Wc De Boogerd", "straatNr": "", "postcode": "1687 VX", "plaats": "Wognum", "merk": "StatiegeldNederland", "puntType": "automaat", "materialen": ["pet-groot", "pet-klein", "blik", "glas", "krat"], "uitbetaling": ["bonnetje", "donatie"], "vrijToegankelijk": true, "gemeenteBeperking": null, "openingstijden": {"ma": "08:00–20:00", "di": "08:00–20:00", "wo": "08:00–20:00", "do": "08:00–20:00", "vr": "08:00–20:00", "za": "08:00–20:00", "zo": "10:00–19:00"}, "latitude": 52.6819516, "longitude": 5.0222492, "bronId": "256449"}}, {"type": "Feature", "geometry": {"type": "Point", "coordinates": [5.1068525, 52.7722849]}, "properties": {"type": "inleverpunt", "locatieNaam": "Odin Medemblik", "straatNaam": "Nieuwstraat", "straatNr": "45", "postcode": "1671 BB", "plaats": "Medemblik", "merk": "StatiegeldNederland", "puntType": "balie", "materialen": ["pet-groot", "pet-klein", "blik"], "uitbetaling": [], "vrijToegankelijk": true, "gemeenteBeperking": null, "openingstijden": {"ma": "08:30–18:00", "di": "08:30–18:00", "wo": "08:30–18:00", "do": "08:30–18:00", "vr": "08:30–18:00", "za": "08:30–17:00", "zo": "Gesloten"}, "latitude": 52.7722849, "longitude": 5.1068525, "bronId": "256977"}}, {"type": "Feature", "geometry": {"type": "Point", "coordinates": [5.020669, 52.7314581]}, "properties": {"type": "inleverpunt", "locatieNaam": "Spar", "straatNaam": "Burgemeester P. Kromplein", "straatNr": "7A", "postcode": "1657 AH", "plaats": "Abbekerk", "merk": "StatiegeldNederland", "puntType": "automaat", "materialen": ["pet-groot", "pet-klein", "blik", "glas", "krat"], "uitbetaling": ["bonnetje", "donatie"], "vrijToegankelijk": true, "gemeenteBeperking": null, "openingstijden": {"ma": "08:00–19:00", "di": "08:00–19:00", "wo": "08:00–19:00", "do": "08:00–19:00", "vr": "08:00–20:00", "za": "08:00–18:00", "zo": "Gesloten"}, "latitude": 52.7314581, "longitude": 5.020669, "bronId": "258317"}}, {"type": "Feature", "geometry": {"type": "Point", "coordinates": [5.075081, 52.719801]}, "properties": {"type": "inleverpunt", "locatieNaam": "Spar", "straatNaam": "Korteling", "straatNr": "10", "postcode": "1679 VH", "plaats": "Midwoud", "merk": "StatiegeldNederland", "puntType": "automaat", "materialen": ["pet-groot", "pet-klein", "blik", "glas"], "uitbetaling": ["bonnetje"], "vrijToegankelijk": true, "gemeenteBeperking": null, "openingstijden": {"ma": "08:00–20:00", "di": "08:00–20:00", "wo": "08:00–20:00", "do": "08:00–20:00", "vr": "08:00–20:00", "za": "08:00–20:00", "zo": "08:00–20:00"}, "latitude": 52.719801, "longitude": 5.075081, "bronId": "258401"}}, {"type": "Feature", "geometry": {"type": "Point", "coordinates": [5.106915, 52.772169]}, "properties": {"type": "inleverpunt", "locatieNaam": "Spar", "straatNaam": "Nieuwstraat 49 -", "straatNr": "51", "postcode": "1671 BB", "plaats": "Medemblik", "merk": "StatiegeldNederland", "puntType": "automaat", "materialen": ["pet-groot", "pet-klein", "blik", "glas", "krat"], "uitbetaling": ["bonnetje"], "vrijToegankelijk": true, "gemeenteBeperking": null, "openingstijden": {"ma": "08:00–19:00", "di": "08:00–19:00", "wo": "08:00–19:00", "do": "08:00–19:00", "vr": "08:00–19:00", "za": "08:00–18:00", "zo": "09:00–17:00"}, "latitude": 52.772169, "longitude": 5.106915, "bronId": "258427"}}, {"type": "Feature", "geometry": {"type": "Point", "coordinates": [5.0281547, 52.7118845]}, "properties": {"type": "inleverpunt", "locatieNaam": "Spar Express", "straatNaam": "RIJKSWEG A7 NR.", "straatNr": "20", "postcode": "1654 EG", "plaats": "Benningbroek", "merk": "StatiegeldNederland", "puntType": "balie", "materialen": ["pet-groot", "pet-klein", "blik"], "uitbetaling": [], "vrijToegankelijk": true, "gemeenteBeperking": null, "openingstijden": {"ma": "06:00–21:00", "di": "06:00–21:00", "wo": "06:00–21:00", "do": "06:00–21:00", "vr": "06:00–21:00", "za": "07:00–21:00", "zo": "08:00–21:00"}, "latitude": 52.7118845, "longitude": 5.0281547, "bronId": "258570"}}, {"type": "Feature", "geometry": {"type": "Point", "coordinates": [5.0242809, 52.6853489]}, "properties": {"type": "inleverpunt", "locatieNaam": "Sportvereniging Spartanen", "straatNaam": "Sportlaan", "straatNr": "19", "postcode": "1687 BP", "plaats": "Wognum", "merk": "StatiegeldNederland", "puntType": "balie", "materialen": ["pet-groot", "pet-klein", "blik"], "uitbetaling": [], "vrijToegankelijk": false, "gemeenteBeperking": null, "openingstijden": null, "latitude": 52.6853489, "longitude": 5.0242809, "bronId": "258652"}}, {"type": "Feature", "geometry": {"type": "Point", "coordinates": [5.0124049, 52.7021346]}, "properties": {"type": "inleverpunt", "locatieNaam": "Sv Dess", "straatNaam": "Molenstraat", "straatNr": "40", "postcode": "1654 KB", "plaats": "Benningbroek", "merk": "StatiegeldNederland", "puntType": "balie", "materialen": ["pet-groot", "pet-klein", "blik"], "uitbetaling": [], "vrijToegankelijk": false, "gemeenteBeperking": null, "openingstijden": null, "latitude": 52.7021346, "longitude": 5.0124049, "bronId": "258806"}}, {"type": "Feature", "geometry": {"type": "Point", "coordinates": [5.0178072, 52.7305152]}, "properties": {"type": "inleverpunt", "locatieNaam": "Tennisvereniging Abbekerk - 44049", "straatNaam": "Plantsoenstraat", "straatNr": "6", "postcode": "1657 EB", "plaats": "Abbekerk", "merk": "StatiegeldNederland", "puntType": "balie", "materialen": ["pet-groot", "pet-klein", "blik"], "uitbetaling": [], "vrijToegankelijk": false, "gemeenteBeperking": null, "openingstijden": {"ma": "08:00–23:00", "di": "08:00–23:00", "wo": "08:00–23:00", "do": "08:00–23:00", "vr": "08:00–23:00", "za": "08:00–23:00", "zo": "08:00–23:00"}, "latitude": 52.7305152, "longitude": 5.0178072, "bronId": "258929"}}, {"type": "Feature", "geometry": {"type": "Point", "coordinates": [5.0720699, 52.7561433]}, "properties": {"type": "inleverpunt", "locatieNaam": "Voetbalvereniging Opperdoes", "straatNaam": "Sportlaan", "straatNr": "2", "postcode": "1674 PT", "plaats": "Opperdoes", "merk": "StatiegeldNederland", "puntType": "balie", "materialen": ["pet-groot", "pet-klein", "blik"], "uitbetaling": [], "vrijToegankelijk": false, "gemeenteBeperking": null, "openingstijden": null, "latitude": 52.7561433, "longitude": 5.0720699, "bronId": "259599"}}, {"type": "Feature", "geometry": {"type": "Point", "coordinates": [5.1407852, 52.7429632]}, "properties": {"type": "inleverpunt", "locatieNaam": "Voetbalvereniging Strandvogels", "straatNaam": "Sportlaan", "straatNr": "10A", "postcode": "1693 CZ", "plaats": "Wervershoof", "merk": "StatiegeldNederland", "puntType": "balie", "materialen": ["pet-groot", "pet-klein", "blik"], "uitbetaling": [], "vrijToegankelijk": false, "gemeenteBeperking": null, "openingstijden": null, "latitude": 52.7429632, "longitude": 5.1407852, "bronId": "259609"}}, {"type": "Feature", "geometry": {"type": "Point", "coordinates": [5.053415, 52.6893622]}, "properties": {"type": "inleverpunt", "locatieNaam": "Westfriesland Sew", "straatNaam": "Wijzend", "straatNr": "40", "postcode": "1688 JB", "plaats": "Nibbixwoud", "merk": "StatiegeldNederland", "puntType": "balie", "materialen": ["pet-groot", "pet-klein", "blik"], "uitbetaling": [], "vrijToegankelijk": false, "gemeenteBeperking": null, "openingstijden": null, "latitude": 52.6893622, "longitude": 5.053415, "bronId": "259864"}}, {"type": "Feature", "geometry": {"type": "Point", "coordinates": [5.022246, 52.681919]}, "properties": {"type": "inleverpunt", "locatieNaam": "LIDL Wognum", "straatNaam": "Boogerd", "straatNr": "5", "postcode": "1687 VX", "plaats": "Wognum", "merk": "StichtingOPEN", "puntType": "balie", "materialen": ["batterijen", "lampen"], "uitbetaling": [], "vrijToegankelijk": false, "gemeenteBeperking": null, "openingstijden": null, "latitude": 52.681919, "longitude": 5.022246, "bronId": "SP00025644"}}, {"type": "Feature", "geometry": {"type": "Point", "coordinates": [5.02282, 52.68222]}, "properties": {"type": "inleverpunt", "locatieNaam": "Kruidvat Wognum", "straatNaam": "Boogerd", "straatNr": "17", "postcode": "1687 VX", "plaats": "Wognum", "merk": "StichtingOPEN", "puntType": "balie", "materialen": ["batterijen", "lampen"], "uitbetaling": [], "vrijToegankelijk": false, "gemeenteBeperking": null, "openingstijden": null, "latitude": 52.68222, "longitude": 5.02282, "bronId": "SP00029581"}}, {"type": "Feature", "geometry": {"type": "Point", "coordinates": [5.1178263, 52.6963814]}, "properties": {"type": "inleverpunt", "locatieNaam": "Jumbo Zwaagdijk-Oost", "straatNaam": "Zwaagdijk", "straatNr": "227f", "postcode": "1684 NG", "plaats": "Zwaagdijk-Oost", "merk": "StichtingOPEN", "puntType": "balie", "materialen": ["batterijen", "lampen"], "uitbetaling": [], "vrijToegankelijk": false, "gemeenteBeperking": null, "openingstijden": null, "latitude": 52.6963814, "longitude": 5.1178263, "bronId": "SP00025489"}}, {"type": "Feature", "geometry": {"type": "Point", "coordinates": [5.1247244, 52.7005561]}, "properties": {"type": "inleverpunt", "locatieNaam": "Aldi Zwaagdijk-Oost", "straatNaam": "Zwaagdijk", "straatNr": "227v", "postcode": "1684 NG", "plaats": "Zwaagdijk-Oost", "merk": "StichtingOPEN", "puntType": "balie", "materialen": ["batterijen", "elektro-klein", "lampen"], "uitbetaling": [], "vrijToegankelijk": false, "gemeenteBeperking": null, "openingstijden": null, "latitude": 52.7005561, "longitude": 5.1247244, "bronId": "SP00027203"}}, {"type": "Feature", "geometry": {"type": "Point", "coordinates": [5.152997, 52.703323]}, "properties": {"type": "inleverpunt", "locatieNaam": "Zwaagdijk-Oost Welkoop", "straatNaam": "Marktweg", "straatNr": "12", "postcode": "1681 NM", "plaats": "Zwaagdijk-Oost", "merk": "StichtingOPEN", "puntType": "balie", "materialen": ["elektro-middel", "lampen", "tl-buizen"], "uitbetaling": [], "vrijToegankelijk": false, "gemeenteBeperking": null, "openingstijden": null, "latitude": 52.703323, "longitude": 5.152997, "bronId": "SP00006773"}}, {"type": "Feature", "geometry": {"type": "Point", "coordinates": [5.057231, 52.692074]}, "properties": {"type": "inleverpunt", "locatieNaam": "8731 Albert Heijn Nibbixwoud", "straatNaam": "Ganker", "straatNr": "40", "postcode": "1688 CT", "plaats": "Nibbixwoud", "merk": "StichtingOPEN", "puntType": "balie", "materialen": ["batterijen", "elektro-klein", "lampen"], "uitbetaling": [], "vrijToegankelijk": false, "gemeenteBeperking": null, "openingstijden": null, "latitude": 52.692074, "longitude": 5.057231, "bronId": "SP00023146"}}, {"type": "Feature", "geometry": {"type": "Point", "coordinates": [5.144332, 52.704102]}, "properties": {"type": "inleverpunt", "locatieNaam": "Action Service & Distributie B.V. Zwaagdijk Oost", "straatNaam": "Perenmarkt", "straatNr": "15", "postcode": "1681 PG", "plaats": "Zwaagdijk-Oost", "merk": "StichtingOPEN", "puntType": "balie", "materialen": ["batterijen", "elektro-klein", "lampen"], "uitbetaling": [], "vrijToegankelijk": false, "gemeenteBeperking": null, "openingstijden": null, "latitude": 52.704102, "longitude": 5.144332, "bronId": "SP00004832"}}, {"type": "Feature", "geometry": {"type": "Point", "coordinates": [5.146404, 52.705429]}, "properties": {"type": "inleverpunt", "locatieNaam": "Beerepoot Wervershoof B.V.", "straatNaam": "Bollenmarkt", "straatNr": "15", "postcode": "1681 PJ", "plaats": "Zwaagdijk-Oost", "merk": "StichtingOPEN", "puntType": "balie", "materialen": ["elektro-klein", "elektro-middel"], "uitbetaling": [], "vrijToegankelijk": false, "gemeenteBeperking": null, "openingstijden": null, "latitude": 52.705429, "longitude": 5.146404, "bronId": "SP00021202"}}, {"type": "Feature", "geometry": {"type": "Point", "coordinates": [5.150293, 52.728069]}, "properties": {"type": "inleverpunt", "locatieNaam": "Dekamarkt Wervershoof", "straatNaam": "Raadhuisplein", "straatNr": "13", "postcode": "1693 EA", "plaats": "Wervershoof", "merk": "StichtingOPEN", "puntType": "balie", "materialen": ["batterijen", "elektro-klein", "lampen"], "uitbetaling": [], "vrijToegankelijk": false, "gemeenteBeperking": null, "openingstijden": null, "latitude": 52.728069, "longitude": 5.150293, "bronId": "SP00023703"}}, {"type": "Feature", "geometry": {"type": "Point", "coordinates": [5.075083, 52.719784]}, "properties": {"type": "inleverpunt", "locatieNaam": "Spar Midwoud", "straatNaam": "Korteling", "straatNr": "10", "postcode": "1679 VH", "plaats": "Midwoud", "merk": "StichtingOPEN", "puntType": "balie", "materialen": ["batterijen", "lampen"], "uitbetaling": [], "vrijToegankelijk": false, "gemeenteBeperking": null, "openingstijden": null, "latitude": 52.719784, "longitude": 5.075083, "bronId": "SP00022459"}}, {"type": "Feature", "geometry": {"type": "Point", "coordinates": [5.147568, 52.729778]}, "properties": {"type": "inleverpunt", "locatieNaam": "63190 Hubo Wervershoof", "straatNaam": "Simon Koopmanstraat", "straatNr": "63", "postcode": "1693 BB", "plaats": "Wervershoof", "merk": "StichtingOPEN", "puntType": "balie", "materialen": ["elektro-groot", "elektro-middel", "lampen", "tl-buizen"], "uitbetaling": [], "vrijToegankelijk": false, "gemeenteBeperking": null, "openingstijden": null, "latitude": 52.729778, "longitude": 5.147568, "bronId": "SP00020864"}}, {"type": "Feature", "geometry": {"type": "Point", "coordinates": [5.222095, 52.747048]}, "properties": {"type": "inleverpunt", "locatieNaam": "Elektro Andijk", "straatNaam": "Middenweg", "straatNr": "36", "postcode": "1619 BM", "plaats": "Andijk", "merk": "StichtingOPEN", "puntType": "balie", "materialen": ["elektro-klein", "elektro-middel"], "uitbetaling": [], "vrijToegankelijk": false, "gemeenteBeperking": null, "openingstijden": null, "latitude": 52.747048, "longitude": 5.222095, "bronId": "SP00002581"}}, {"type": "Feature", "geometry": {"type": "Point", "coordinates": [5.221309, 52.747479]}, "properties": {"type": "inleverpunt", "locatieNaam": "Dekamarkt Andijk", "straatNaam": "Middenweg", "straatNr": "59a", "postcode": "1619 BN", "plaats": "Andijk", "merk": "StichtingOPEN", "puntType": "balie", "materialen": ["batterijen", "elektro-klein", "lampen"], "uitbetaling": [], "vrijToegankelijk": false, "gemeenteBeperking": null, "openingstijden": null, "latitude": 52.747479, "longitude": 5.221309, "bronId": "SP00023715"}}, {"type": "Feature", "geometry": {"type": "Point", "coordinates": [5.138369, 52.743227]}, "properties": {"type": "inleverpunt", "locatieNaam": "Attent Wervershoof", "straatNaam": "Nes", "straatNr": "116", "postcode": "1693 CK", "plaats": "Wervershoof", "merk": "StichtingOPEN", "puntType": "balie", "materialen": ["batterijen", "lampen"], "uitbetaling": [], "vrijToegankelijk": false, "gemeenteBeperking": null, "openingstijden": null, "latitude": 52.743227, "longitude": 5.138369, "bronId": "SP00025822"}}, {"type": "Feature", "geometry": {"type": "Point", "coordinates": [5.021643, 52.731756]}, "properties": {"type": "inleverpunt", "locatieNaam": "Spar Abbekerk", "straatNaam": "Burgemeester P. Kromplein", "straatNr": "7a", "postcode": "1657 AH", "plaats": "Abbekerk", "merk": "StichtingOPEN", "puntType": "balie", "materialen": ["batterijen", "lampen"], "uitbetaling": [], "vrijToegankelijk": false, "gemeenteBeperking": null, "openingstijden": null, "latitude": 52.731756, "longitude": 5.021643, "bronId": "SP00022463"}}, {"type": "Feature", "geometry": {"type": "Point", "coordinates": [5.074035, 52.758901]}, "properties": {"type": "inleverpunt", "locatieNaam": "Spar Opperdoes", "straatNaam": "Noorderpad", "straatNr": "59", "postcode": "1674 NT", "plaats": "Opperdoes", "merk": "StichtingOPEN", "puntType": "balie", "materialen": ["batterijen", "lampen"], "uitbetaling": [], "vrijToegankelijk": false, "gemeenteBeperking": null, "openingstijden": null, "latitude": 52.758901, "longitude": 5.074035, "bronId": "SP00022466"}}, {"type": "Feature", "geometry": {"type": "Point", "coordinates": [5.102663, 52.766747]}, "properties": {"type": "inleverpunt", "locatieNaam": "Aldi Medemblik", "straatNaam": "Randweg", "straatNr": "17", "postcode": "1671 GG", "plaats": "Medemblik", "merk": "StichtingOPEN", "puntType": "balie", "materialen": ["batterijen", "elektro-klein", "lampen"], "uitbetaling": [], "vrijToegankelijk": false, "gemeenteBeperking": null, "openingstijden": null, "latitude": 52.766747, "longitude": 5.102663, "bronId": "SP00027189"}}, {"type": "Feature", "geometry": {"type": "Point", "coordinates": [5.106406, 52.772121]}, "properties": {"type": "inleverpunt", "locatieNaam": "Kruidvat Medemblik", "straatNaam": "Nieuwstraat", "straatNr": "4446", "postcode": "1671 BE", "plaats": "Medemblik", "merk": "StichtingOPEN", "puntType": "balie", "materialen": ["batterijen", "lampen"], "uitbetaling": [], "vrijToegankelijk": false, "gemeenteBeperking": null, "openingstijden": null, "latitude": 52.772121, "longitude": 5.106406, "bronId": "SP00024803"}}, {"type": "Feature", "geometry": {"type": "Point", "coordinates": [5.106926, 52.772187]}, "properties": {"type": "inleverpunt", "locatieNaam": "Spar Medemblik", "straatNaam": "Nieuwstraat", "straatNr": "49-51", "postcode": "1671 BB", "plaats": "Medemblik", "merk": "StichtingOPEN", "puntType": "balie", "materialen": ["batterijen", "lampen"], "uitbetaling": [], "vrijToegankelijk": false, "gemeenteBeperking": null, "openingstijden": null, "latitude": 52.772187, "longitude": 5.106926, "bronId": "SP00025893"}}, {"type": "Feature", "geometry": {"type": "Point", "coordinates": [5.107397, 52.772429]}, "properties": {"type": "inleverpunt", "locatieNaam": "Radio Bood", "straatNaam": "Tuinstraat", "straatNr": "28", "postcode": "1671 AJ", "plaats": "Medemblik", "merk": "StichtingOPEN", "puntType": "balie", "materialen": ["elektro-middel", "lampen"], "uitbetaling": [], "vrijToegankelijk": false, "gemeenteBeperking": null, "openingstijden": null, "latitude": 52.772429, "longitude": 5.107397, "bronId": "SP00003706"}}, {"type": "Feature", "geometry": {"type": "Point", "coordinates": [5.0242795, 52.6813938]}, "properties": {"type": "inleverpunt", "locatieNaam": "Media &amp; Game Store Wognum", "straatNaam": "Kerkstraat", "straatNr": "13", "postcode": "1687 AL", "plaats": "Wognum", "merk": "Stibat", "puntType": "inzamelbak", "materialen": ["batterijen"], "uitbetaling": [], "vrijToegankelijk": false, "gemeenteBeperking": null, "openingstijden": null, "latitude": 52.6813938, "longitude": 5.0242795, "bronId": "L043127"}}, {"type": "Feature", "geometry": {"type": "Point", "coordinates": [5.0239092, 52.6816068]}, "properties": {"type": "inleverpunt", "locatieNaam": "2275 Albert Heijn", "straatNaam": "Kerkstraat", "straatNr": "15", "postcode": "1687 AL", "plaats": "Wognum", "merk": "Stibat", "puntType": "inzamelbak", "materialen": ["batterijen"], "uitbetaling": [], "vrijToegankelijk": false, "gemeenteBeperking": null, "openingstijden": null, "latitude": 52.6816068, "longitude": 5.0239092, "bronId": "L044195"}}, {"type": "Feature", "geometry": {"type": "Point", "coordinates": [5.0232863, 52.68192]}, "properties": {"type": "inleverpunt", "locatieNaam": "The Read Shop", "straatNaam": "Boogerd", "straatNr": "27", "postcode": "1687 VX", "plaats": "Wognum", "merk": "Stibat", "puntType": "inzamelbak", "materialen": ["batterijen"], "uitbetaling": [], "vrijToegankelijk": false, "gemeenteBeperking": null, "openingstijden": null, "latitude": 52.68192, "longitude": 5.0232863, "bronId": "L023955"}}, {"type": "Feature", "geometry": {"type": "Point", "coordinates": [5.022267, 52.6818287]}, "properties": {"type": "inleverpunt", "locatieNaam": "Lidl", "straatNaam": "Boogerd", "straatNr": "5", "postcode": "1687 VX", "plaats": "Wognum", "merk": "Stibat", "puntType": "inzamelbak", "materialen": ["batterijen"], "uitbetaling": [], "vrijToegankelijk": false, "gemeenteBeperking": null, "openingstijden": null, "latitude": 52.6818287, "longitude": 5.022267, "bronId": "L038157"}}, {"type": "Feature", "geometry": {"type": "Point", "coordinates": [5.0225862, 52.6819703]}, "properties": {"type": "inleverpunt", "locatieNaam": "Drogisterij Rozemarijn", "straatNaam": "Boogerd", "straatNr": "12", "postcode": "1687 VX", "plaats": "Wognum", "merk": "Stibat", "puntType": "inzamelbak", "materialen": ["batterijen"], "uitbetaling": [], "vrijToegankelijk": false, "gemeenteBeperking": null, "openingstijden": null, "latitude": 52.6819703, "longitude": 5.0225862, "bronId": "L025446"}}, {"type": "Feature", "geometry": {"type": "Point", "coordinates": [5.0231166, 52.6820729]}, "properties": {"type": "inleverpunt", "locatieNaam": "DA", "straatNaam": "Boogerd", "straatNr": "26", "postcode": "1687 VX", "plaats": "Wognum", "merk": "Stibat", "puntType": "inzamelbak", "materialen": ["batterijen"], "uitbetaling": [], "vrijToegankelijk": false, "gemeenteBeperking": null, "openingstijden": null, "latitude": 52.6820729, "longitude": 5.0231166, "bronId": "L027475"}}, {"type": "Feature", "geometry": {"type": "Point", "coordinates": [5.0228272, 52.6822258]}, "properties": {"type": "inleverpunt", "locatieNaam": "Kruidvat", "straatNaam": "Boogerd", "straatNr": "17", "postcode": "1687 VX", "plaats": "Wognum", "merk": "Stibat", "puntType": "inzamelbak", "materialen": ["batterijen"], "uitbetaling": [], "vrijToegankelijk": false, "gemeenteBeperking": null, "openingstijden": null, "latitude": 52.6822258, "longitude": 5.0228272, "bronId": "L030593"}}, {"type": "Feature", "geometry": {"type": "Point", "coordinates": [5.1174426, 52.6969227]}, "properties": {"type": "inleverpunt", "locatieNaam": "1009 Action", "straatNaam": "Zwaagdijk", "straatNr": "227E", "postcode": "1684 NG", "plaats": "Zwaagdijk", "merk": "Stibat", "puntType": "inzamelbak", "materialen": ["batterijen"], "uitbetaling": [], "vrijToegankelijk": false, "gemeenteBeperking": null, "openingstijden": null, "latitude": 52.6969227, "longitude": 5.1174426, "bronId": "L030554"}}, {"type": "Feature", "geometry": {"type": "Point", "coordinates": [5.1175909, 52.6969744]}, "properties": {"type": "inleverpunt", "locatieNaam": "Aldi", "straatNaam": "Zwaagdijk", "straatNr": "227c", "postcode": "1684 NG", "plaats": "Zwaagdijk-Oost", "merk": "Stibat", "puntType": "inzamelbak", "materialen": ["batterijen"], "uitbetaling": [], "vrijToegankelijk": false, "gemeenteBeperking": null, "openingstijden": null, "latitude": 52.6969744, "longitude": 5.1175909, "bronId": "L041144"}}, {"type": "Feature", "geometry": {"type": "Point", "coordinates": [5.11721, 52.6973649]}, "properties": {"type": "inleverpunt", "locatieNaam": "Wibra", "straatNaam": "Zwaagdijk", "straatNr": "227", "postcode": "1684 NG", "plaats": "Zwaagdyk", "merk": "Stibat", "puntType": "inzamelbak", "materialen": ["batterijen"], "uitbetaling": [], "vrijToegankelijk": false, "gemeenteBeperking": null, "openingstijden": null, "latitude": 52.6973649, "longitude": 5.11721, "bronId": "L030310"}}, {"type": "Feature", "geometry": {"type": "Point", "coordinates": [5.1172373, 52.697511]}, "properties": {"type": "inleverpunt", "locatieNaam": "Jumbo", "straatNaam": "Zwaagdijk", "straatNr": "227 F", "postcode": "1684 NG", "plaats": "Zwaagdijk", "merk": "Stibat", "puntType": "inzamelbak", "materialen": ["batterijen"], "uitbetaling": [], "vrijToegankelijk": false, "gemeenteBeperking": null, "openingstijden": null, "latitude": 52.697511, "longitude": 5.1172373, "bronId": "L030887"}}, {"type": "Feature", "geometry": {"type": "Point", "coordinates": [5.0600448, 52.690575]}, "properties": {"type": "inleverpunt", "locatieNaam": "8731 Albert Heijn", "straatNaam": "Ganker", "straatNr": "40", "postcode": "1688 CT", "plaats": "Nibbixwoud", "merk": "Stibat", "puntType": "inzamelbak", "materialen": ["batterijen"], "uitbetaling": [], "vrijToegankelijk": false, "gemeenteBeperking": null, "openingstijden": null, "latitude": 52.690575, "longitude": 5.0600448, "bronId": "L008043"}}, {"type": "Feature", "geometry": {"type": "Point", "coordinates": [5.1178668, 52.698779]}, "properties": {"type": "inleverpunt", "locatieNaam": "Kruidvat", "straatNaam": "Zwaagdijk", "straatNr": "225", "postcode": "1684 NG", "plaats": "Zwaagdijk", "merk": "Stibat", "puntType": "inzamelbak", "materialen": ["batterijen"], "uitbetaling": [], "vrijToegankelijk": false, "gemeenteBeperking": null, "openingstijden": null, "latitude": 52.698779, "longitude": 5.1178668, "bronId": "L042724"}}, {"type": "Feature", "geometry": {"type": "Point", "coordinates": [5.1530143, 52.7031978]}, "properties": {"type": "inleverpunt", "locatieNaam": "Welkoop", "straatNaam": "Marktweg", "straatNr": "12", "postcode": "1681 NM", "plaats": "Zwaagdijk", "merk": "Stibat", "puntType": "inzamelbak", "materialen": ["batterijen"], "uitbetaling": [], "vrijToegankelijk": false, "gemeenteBeperking": null, "openingstijden": null, "latitude": 52.7031978, "longitude": 5.1530143, "bronId": "L020244"}}, {"type": "Feature", "geometry": {"type": "Point", "coordinates": [5.0570336, 52.6915804]}, "properties": {"type": "inleverpunt", "locatieNaam": "2300 Albert Heijn", "straatNaam": "Ganker", "straatNr": "3a", "postcode": "1688 CR", "plaats": "Nibbixwoud", "merk": "Stibat", "puntType": "inzamelbak", "materialen": ["batterijen"], "uitbetaling": [], "vrijToegankelijk": false, "gemeenteBeperking": null, "openingstijden": null, "latitude": 52.6915804, "longitude": 5.0570336, "bronId": "L047368"}}, {"type": "Feature", "geometry": {"type": "Point", "coordinates": [5.018579, 52.6862479]}, "properties": {"type": "inleverpunt", "locatieNaam": "Fietsspecialist Bankras", "straatNaam": "Kerkweg", "straatNr": "8", "postcode": "1687 PJ", "plaats": "Wognum", "merk": "Stibat", "puntType": "inzamelbak", "materialen": ["batterijen"], "uitbetaling": [], "vrijToegankelijk": false, "gemeenteBeperking": null, "openingstijden": null, "latitude": 52.6862479, "longitude": 5.018579, "bronId": "L032803"}}, {"type": "Feature", "geometry": {"type": "Point", "coordinates": [5.1097076, 52.7022597]}, "properties": {"type": "inleverpunt", "locatieNaam": "Camping Hauwert", "straatNaam": "Tuinstraat", "straatNr": "45", "postcode": "1682 NA", "plaats": "Zwaagdijk", "merk": "Stibat", "puntType": "inzamelbak", "materialen": ["batterijen"], "uitbetaling": [], "vrijToegankelijk": false, "gemeenteBeperking": null, "openingstijden": null, "latitude": 52.7022597, "longitude": 5.1097076, "bronId": "L003723"}}, {"type": "Feature", "geometry": {"type": "Point", "coordinates": [5.0279929, 52.6908979]}, "properties": {"type": "inleverpunt", "locatieNaam": "Total", "straatNaam": "Nieuweweg", "straatNr": "24A", "postcode": "1687 BA", "plaats": "Wognum", "merk": "Stibat", "puntType": "inzamelbak", "materialen": ["batterijen"], "uitbetaling": [], "vrijToegankelijk": false, "gemeenteBeperking": null, "openingstijden": null, "latitude": 52.6908979, "longitude": 5.0279929, "bronId": "L021708"}}, {"type": "Feature", "geometry": {"type": "Point", "coordinates": [5.148055, 52.7238716]}, "properties": {"type": "inleverpunt", "locatieNaam": "Tuin en Bloemencentrum Den Heuvel", "straatNaam": "Molenweg", "straatNr": "1a", "postcode": "1693 NS", "plaats": "Wervershoof", "merk": "Stibat", "puntType": "inzamelbak", "materialen": ["batterijen"], "uitbetaling": [], "vrijToegankelijk": false, "gemeenteBeperking": null, "openingstijden": null, "latitude": 52.7238716, "longitude": 5.148055, "bronId": "L026435"}}, {"type": "Feature", "geometry": {"type": "Point", "coordinates": [5.1500641, 52.7265649]}, "properties": {"type": "inleverpunt", "locatieNaam": "Boos Tweewielers", "straatNaam": "De Hoek", "straatNr": "10", "postcode": "1693 AA", "plaats": "Wervershoof", "merk": "Stibat", "puntType": "inzamelbak", "materialen": ["batterijen"], "uitbetaling": [], "vrijToegankelijk": false, "gemeenteBeperking": null, "openingstijden": null, "latitude": 52.7265649, "longitude": 5.1500641, "bronId": "L032805"}}, {"type": "Feature", "geometry": {"type": "Point", "coordinates": [5.1523919, 52.7271487]}, "properties": {"type": "inleverpunt", "locatieNaam": "2273 Albert Heijn", "straatNaam": "Dorpsstraat", "straatNr": "14", "postcode": "1693 AG", "plaats": "Wervershoof", "merk": "Stibat", "puntType": "inzamelbak", "materialen": ["batterijen"], "uitbetaling": [], "vrijToegankelijk": false, "gemeenteBeperking": null, "openingstijden": null, "latitude": 52.7271487, "longitude": 5.1523919, "bronId": "L044193"}}, {"type": "Feature", "geometry": {"type": "Point", "coordinates": [5.1505488, 52.7271204]}, "properties": {"type": "inleverpunt", "locatieNaam": "HEMA Wervershoof", "straatNaam": "Raadhuisplein", "straatNr": "1b", "postcode": "1693 EA", "plaats": "Wervershoof", "merk": "Stibat", "puntType": "inzamelbak", "materialen": ["batterijen"], "uitbetaling": [], "vrijToegankelijk": false, "gemeenteBeperking": null, "openingstijden": null, "latitude": 52.7271204, "longitude": 5.1505488, "bronId": "L046914"}}, {"type": "Feature", "geometry": {"type": "Point", "coordinates": [5.1505447, 52.7272248]}, "properties": {"type": "inleverpunt", "locatieNaam": "Dekamarkt", "straatNaam": "Raadhuisplein", "straatNr": "13", "postcode": "1693 EA", "plaats": "Wervershoof", "merk": "Stibat", "puntType": "inzamelbak", "materialen": ["batterijen"], "uitbetaling": [], "vrijToegankelijk": false, "gemeenteBeperking": null, "openingstijden": null, "latitude": 52.7272248, "longitude": 5.1505447, "bronId": "L007082"}}, {"type": "Feature", "geometry": {"type": "Point", "coordinates": [5.1508941, 52.7273926]}, "properties": {"type": "inleverpunt", "locatieNaam": "Drogisterij Vroegop", "straatNaam": "Raadhuisplein", "straatNr": "36-40", "postcode": "1693 EA", "plaats": "Wervershoof", "merk": "Stibat", "puntType": "inzamelbak", "materialen": ["batterijen"], "uitbetaling": [], "vrijToegankelijk": false, "gemeenteBeperking": null, "openingstijden": null, "latitude": 52.7273926, "longitude": 5.1508941, "bronId": "L020969"}}, {"type": "Feature", "geometry": {"type": "Point", "coordinates": [5.0751003, 52.719703]}, "properties": {"type": "inleverpunt", "locatieNaam": "Spar", "straatNaam": "Korteling", "straatNr": "10", "postcode": "1679 VH", "plaats": "Midwoud", "merk": "Stibat", "puntType": "inzamelbak", "materialen": ["batterijen"], "uitbetaling": [], "vrijToegankelijk": false, "gemeenteBeperking": null, "openingstijden": null, "latitude": 52.719703, "longitude": 5.0751003, "bronId": "L010204"}}, {"type": "Feature", "geometry": {"type": "Point", "coordinates": [5.1476155, 52.7297603]}, "properties": {"type": "inleverpunt", "locatieNaam": "Hubo", "straatNaam": "Simon Koopmanstraat", "straatNr": "63", "postcode": "1693 BB", "plaats": "Wervershoof", "merk": "Stibat", "puntType": "inzamelbak", "materialen": ["batterijen"], "uitbetaling": [], "vrijToegankelijk": false, "gemeenteBeperking": null, "openingstijden": null, "latitude": 52.7297603, "longitude": 5.1476155, "bronId": "L009688"}}, {"type": "Feature", "geometry": {"type": "Point", "coordinates": [5.1687401, 52.733221]}, "properties": {"type": "inleverpunt", "locatieNaam": "Andre van Duin Tweewielers", "straatNaam": "Zeeweg", "straatNr": "43", "postcode": "1693 AR", "plaats": "Wervershoof", "merk": "Stibat", "puntType": "inzamelbak", "materialen": ["batterijen"], "uitbetaling": [], "vrijToegankelijk": false, "gemeenteBeperking": null, "openingstijden": null, "latitude": 52.733221, "longitude": 5.1687401, "bronId": "L032806"}}, {"type": "Feature", "geometry": {"type": "Point", "coordinates": [5.0964328, 52.728046]}, "properties": {"type": "inleverpunt", "locatieNaam": "Camping Veerhof", "straatNaam": "Vereweg", "straatNr": "4", "postcode": "1678 HW", "plaats": "Oostwoud", "merk": "Stibat", "puntType": "inzamelbak", "materialen": ["batterijen"], "uitbetaling": [], "vrijToegankelijk": false, "gemeenteBeperking": null, "openingstijden": null, "latitude": 52.728046, "longitude": 5.0964328, "bronId": "L008935"}}, {"type": "Feature", "geometry": {"type": "Point", "coordinates": [5.2233157, 52.7400981]}, "properties": {"type": "inleverpunt", "locatieNaam": "Lidl", "straatNaam": "Dijkgraaf Grootweg", "straatNr": "34", "postcode": "1619 BV", "plaats": "Andijk", "merk": "Stibat", "puntType": "inzamelbak", "materialen": ["batterijen"], "uitbetaling": [], "vrijToegankelijk": false, "gemeenteBeperking": null, "openingstijden": null, "latitude": 52.7400981, "longitude": 5.2233157, "bronId": "L021686"}}, {"type": "Feature", "geometry": {"type": "Point", "coordinates": [5.2211967, 52.7470699]}, "properties": {"type": "inleverpunt", "locatieNaam": "DA Drogisterij Vroegop", "straatNaam": "Middenweg", "straatNr": "67a", "postcode": "1619 BN", "plaats": "Andijk", "merk": "Stibat", "puntType": "inzamelbak", "materialen": ["batterijen"], "uitbetaling": [], "vrijToegankelijk": false, "gemeenteBeperking": null, "openingstijden": null, "latitude": 52.7470699, "longitude": 5.2211967, "bronId": "L021801"}}, {"type": "Feature", "geometry": {"type": "Point", "coordinates": [5.2210564, 52.7475115]}, "properties": {"type": "inleverpunt", "locatieNaam": "Dekamarkt", "straatNaam": "Middenweg", "straatNr": "59A", "postcode": "1619 BN", "plaats": "Andijk", "merk": "Stibat", "puntType": "inzamelbak", "materialen": ["batterijen"], "uitbetaling": [], "vrijToegankelijk": false, "gemeenteBeperking": null, "openingstijden": null, "latitude": 52.7475115, "longitude": 5.2210564, "bronId": "L006139"}}, {"type": "Feature", "geometry": {"type": "Point", "coordinates": [5.2212415, 52.7472739]}, "properties": {"type": "inleverpunt", "locatieNaam": "Primera", "straatNaam": "Middenweg", "straatNr": "61B", "postcode": "1619 BN", "plaats": "Andijk", "merk": "Stibat", "puntType": "inzamelbak", "materialen": ["batterijen"], "uitbetaling": [], "vrijToegankelijk": false, "gemeenteBeperking": null, "openingstijden": null, "latitude": 52.7472739, "longitude": 5.2212415, "bronId": "L024282"}}, {"type": "Feature", "geometry": {"type": "Point", "coordinates": [5.1383699, 52.7432278]}, "properties": {"type": "inleverpunt", "locatieNaam": "Attent", "straatNaam": "Nes", "straatNr": "116", "postcode": "1693 CK", "plaats": "Wervershoof", "merk": "Stibat", "puntType": "inzamelbak", "materialen": ["batterijen"], "uitbetaling": [], "vrijToegankelijk": false, "gemeenteBeperking": null, "openingstijden": null, "latitude": 52.7432278, "longitude": 5.1383699, "bronId": "L038436"}}, {"type": "Feature", "geometry": {"type": "Point", "coordinates": [5.0206373, 52.7314764]}, "properties": {"type": "inleverpunt", "locatieNaam": "Spar", "straatNaam": "Burgemeester P.Kromplein", "straatNr": "7a", "postcode": "1657 AH", "plaats": "Abbekerk", "merk": "Stibat", "puntType": "inzamelbak", "materialen": ["batterijen"], "uitbetaling": [], "vrijToegankelijk": false, "gemeenteBeperking": null, "openingstijden": null, "latitude": 52.7314764, "longitude": 5.0206373, "bronId": "L010219"}}, {"type": "Feature", "geometry": {"type": "Point", "coordinates": [5.1927696, 52.751272]}, "properties": {"type": "inleverpunt", "locatieNaam": "Vakantiedorp het Grootslag", "straatNaam": "Proefpolder", "straatNr": "4", "postcode": "1619 EH", "plaats": "Andijk", "merk": "Stibat", "puntType": "inzamelbak", "materialen": ["batterijen"], "uitbetaling": [], "vrijToegankelijk": false, "gemeenteBeperking": null, "openingstijden": null, "latitude": 52.751272, "longitude": 5.1927696, "bronId": "L005267"}}, {"type": "Feature", "geometry": {"type": "Point", "coordinates": [5.0947583, 52.7634358]}, "properties": {"type": "inleverpunt", "locatieNaam": "Bike Totaal Tweewielercentrum Smit", "straatNaam": "Almereweg", "straatNr": "41a", "postcode": "1671 ND", "plaats": "Medemblik", "merk": "Stibat", "puntType": "inzamelbak", "materialen": ["batterijen"], "uitbetaling": [], "vrijToegankelijk": false, "gemeenteBeperking": null, "openingstijden": null, "latitude": 52.7634358, "longitude": 5.0947583, "bronId": "L017115"}}, {"type": "Feature", "geometry": {"type": "Point", "coordinates": [5.1009822, 52.7662935]}, "properties": {"type": "inleverpunt", "locatieNaam": "2259 Albert Heijn", "straatNaam": "Overleek", "straatNr": "1", "postcode": "1671 GD", "plaats": "Medemblik", "merk": "Stibat", "puntType": "inzamelbak", "materialen": ["batterijen"], "uitbetaling": [], "vrijToegankelijk": false, "gemeenteBeperking": null, "openingstijden": null, "latitude": 52.7662935, "longitude": 5.1009822, "bronId": "L043945"}}, {"type": "Feature", "geometry": {"type": "Point", "coordinates": [5.1026631, 52.7667472]}, "properties": {"type": "inleverpunt", "locatieNaam": "Aldi", "straatNaam": "Randweg", "straatNr": "17", "postcode": "1671 GG", "plaats": "Medemblik", "merk": "Stibat", "puntType": "inzamelbak", "materialen": ["batterijen"], "uitbetaling": [], "vrijToegankelijk": false, "gemeenteBeperking": null, "openingstijden": null, "latitude": 52.7667472, "longitude": 5.1026631, "bronId": "L041143"}}, {"type": "Feature", "geometry": {"type": "Point", "coordinates": [5.0941317, 52.7663311]}, "properties": {"type": "inleverpunt", "locatieNaam": "KlusWijs", "straatNaam": "Nijverheidsweg", "straatNr": "6", "postcode": "1671 GC", "plaats": "Medemblik", "merk": "Stibat", "puntType": "inzamelbak", "materialen": ["batterijen"], "uitbetaling": [], "vrijToegankelijk": false, "gemeenteBeperking": null, "openingstijden": null, "latitude": 52.7663311, "longitude": 5.0941317, "bronId": "L038533"}}, {"type": "Feature", "geometry": {"type": "Point", "coordinates": [5.1068266, 52.7713314]}, "properties": {"type": "inleverpunt", "locatieNaam": "HEMA Medemblik", "straatNaam": "Nieuwstraat", "straatNr": "74", "postcode": "1671 BG", "plaats": "Medemblik", "merk": "Stibat", "puntType": "inzamelbak", "materialen": ["batterijen"], "uitbetaling": [], "vrijToegankelijk": false, "gemeenteBeperking": null, "openingstijden": null, "latitude": 52.7713314, "longitude": 5.1068266, "bronId": "L046966"}}, {"type": "Feature", "geometry": {"type": "Point", "coordinates": [5.1067355, 52.7714409]}, "properties": {"type": "inleverpunt", "locatieNaam": "6332 Etos", "straatNaam": "Nieuwstraat", "straatNr": "72", "postcode": "1671 BG", "plaats": "Medemblik", "merk": "Stibat", "puntType": "inzamelbak", "materialen": ["batterijen"], "uitbetaling": [], "vrijToegankelijk": false, "gemeenteBeperking": null, "openingstijden": null, "latitude": 52.7714409, "longitude": 5.1067355, "bronId": "L045364"}}, {"type": "Feature", "geometry": {"type": "Point", "coordinates": [5.1063826, 52.7714037]}, "properties": {"type": "inleverpunt", "locatieNaam": "DA", "straatNaam": "Nieuwstraat", "straatNr": "72", "postcode": "1671 BG", "plaats": "Medemblik", "merk": "Stibat", "puntType": "inzamelbak", "materialen": ["batterijen"], "uitbetaling": [], "vrijToegankelijk": false, "gemeenteBeperking": null, "openingstijden": null, "latitude": 52.7714037, "longitude": 5.1063826, "bronId": "L023857"}}, {"type": "Feature", "geometry": {"type": "Point", "coordinates": [5.1066385, 52.771487]}, "properties": {"type": "inleverpunt", "locatieNaam": "Stumpel", "straatNaam": "Nieuwstraat", "straatNr": "70", "postcode": "1671 BG", "plaats": "Medemblik", "merk": "Stibat", "puntType": "inzamelbak", "materialen": ["batterijen"], "uitbetaling": [], "vrijToegankelijk": false, "gemeenteBeperking": null, "openingstijden": null, "latitude": 52.771487, "longitude": 5.1066385, "bronId": "L045559"}}, {"type": "Feature", "geometry": {"type": "Point", "coordinates": [5.1064265, 52.7721045]}, "properties": {"type": "inleverpunt", "locatieNaam": "Kruidvat", "straatNaam": "Nieuwstraat", "straatNr": "44-46", "postcode": "1671 BE", "plaats": "Medemblik", "merk": "Stibat", "puntType": "inzamelbak", "materialen": ["batterijen"], "uitbetaling": [], "vrijToegankelijk": false, "gemeenteBeperking": null, "openingstijden": null, "latitude": 52.7721045, "longitude": 5.1064265, "bronId": "L015591"}}, {"type": "Feature", "geometry": {"type": "Point", "coordinates": [5.1071242, 52.772198]}, "properties": {"type": "inleverpunt", "locatieNaam": "Spar", "straatNaam": "Nieuwstraat", "straatNr": "49 - 51", "postcode": "1671 BB", "plaats": "Medemblik", "merk": "Stibat", "puntType": "inzamelbak", "materialen": ["batterijen"], "uitbetaling": [], "vrijToegankelijk": false, "gemeenteBeperking": null, "openingstijden": null, "latitude": 52.772198, "longitude": 5.1071242, "bronId": "L012445"}}, {"type": "Feature", "geometry": {"type": "Point", "coordinates": [5.106064, 52.7722007]}, "properties": {"type": "inleverpunt", "locatieNaam": "Zeeman", "straatNaam": "Nieuwstraat", "straatNr": "40", "postcode": "1671 BE", "plaats": "Medemblik", "merk": "Stibat", "puntType": "inzamelbak", "materialen": ["batterijen"], "uitbetaling": [], "vrijToegankelijk": false, "gemeenteBeperking": null, "openingstijden": null, "latitude": 52.7722007, "longitude": 5.106064, "bronId": "L021538"}}, {"type": "Feature", "geometry": {"type": "Point", "coordinates": [5.1057105, 52.7725082]}, "properties": {"type": "inleverpunt", "locatieNaam": "Marskramer", "straatNaam": "Bagijnhof", "straatNr": "6", "postcode": "1671 CD", "plaats": "Medemblik", "merk": "Stibat", "puntType": "inzamelbak", "materialen": ["batterijen"], "uitbetaling": [], "vrijToegankelijk": false, "gemeenteBeperking": null, "openingstijden": null, "latitude": 52.7725082, "longitude": 5.1057105, "bronId": "L019200"}}, {"type": "Feature", "geometry": {"type": "Point", "coordinates": [5.1061506, 52.7725563]}, "properties": {"type": "inleverpunt", "locatieNaam": "Electro World Bood", "straatNaam": "Nieuwstraat", "straatNr": "32", "postcode": "1671 BD", "plaats": "Medemblik", "merk": "Stibat", "puntType": "inzamelbak", "materialen": ["batterijen"], "uitbetaling": [], "vrijToegankelijk": false, "gemeenteBeperking": null, "openingstijden": null, "latitude": 52.7725563, "longitude": 5.1061506, "bronId": "L044472"}}, {"type": "Feature", "geometry": {"type": "Polygon", "coordinates": [[[5.021266001371892, 52.664420004309434], [5.023915001374534, 52.66459500430951], [5.034898001385536, 52.66658200431059], [5.035829001386546, 52.66846800431163], [5.0355400013863525, 52.670453004312776], [5.047171001397971, 52.671916004313516], [5.058875001409628, 52.672569004313786], [5.063455001414203, 52.67313300431408], [5.0621390014129934, 52.67525100431526], [5.063346001414215, 52.675797004315555], [5.06229200141321, 52.676708004316104], [5.07275700142378, 52.6805590043182], [5.073957001424974, 52.68059000431818], [5.073830001424862, 52.68092400431838], [5.0826070014337175, 52.68400300432005], [5.083002001434072, 52.68320100431956], [5.086730001437826, 52.684365004320206], [5.0873070014383215, 52.68259300431919], [5.091491001442309, 52.678831004317054], [5.125448001476577, 52.691164004323696], [5.1458770014971025, 52.69669900432661], [5.159880001511191, 52.700949004328834], [5.187023001538416, 52.70745200433221], [5.185373001536897, 52.710228004333786], [5.189566001541094, 52.71104800433417], [5.1910410015425965, 52.711945004334694], [5.1961060015476805, 52.713303004335394], [5.201452001553027, 52.71426700433587], [5.210698001562313, 52.71685400433721], [5.221500001573068, 52.71769700433757], [5.227372001578877, 52.71724000433724], [5.234145001585598, 52.717295004337224], [5.23683600158825, 52.716869004336935], [5.257501001608727, 52.71618100433629], [5.2553530016076175, 52.74060300434994], [5.254319001606862, 52.74701100435349], [5.257648001610094, 52.74536000435251], [5.25934100161175, 52.74487000435222], [5.2699870016223205, 52.745184004352275], [5.27200600162435, 52.745836004352626], [5.2719610016243275, 52.74638900435288], [5.27438700162691, 52.750634004355234], [5.21133800156652, 52.800406004383355], [5.281179001637374, 52.84063100440458], [5.238682001596724, 52.87406100442323], [5.215064001575166, 52.91610200444615], [5.121476001479526, 52.845928004409124], [5.111993001467146, 52.77917100437264], [5.106523001461514, 52.77446900437008], [5.1039010014589135, 52.77444700437013], [5.103356001458362, 52.774150004369936], [5.103051001458069, 52.77443400437012], [5.099812001454817, 52.77344100436959], [5.098086001453033, 52.77185000436873], [5.093476001448361, 52.769605004367506], [5.092108001446993, 52.76928500436738], [5.088001001442931, 52.76957400436755], [5.08014100143514, 52.769521004367604], [5.073518001428543, 52.7688850043673], [5.0697230014247445, 52.76810300436685], [5.067461001422436, 52.76667100436608], [5.063721001418518, 52.76203700436356], [5.05822000141289, 52.75822500436149], [5.05622200141086, 52.75718900436096], [5.049502001404094, 52.75493200435976], [5.045499001400044, 52.7532320043588], [5.039927001394477, 52.752390004358396], [5.025926001380556, 52.75157100435805], [4.9968600013517515, 52.752065004358506], [4.9965460013512235, 52.747430004355934], [4.9961440013508085, 52.747151004355764], [4.998329001352888, 52.74518500435464], [4.9984040013529345, 52.74464300435439], [4.995215001349726, 52.74369600435384], [4.99840200135273, 52.740329004351956], [4.996554001350863, 52.739652004351626], [4.997421001351695, 52.73898600435122], [4.99638700135065, 52.73862000435104], [4.999025001353091, 52.734854004348925], [5.001147001355134, 52.733535004348184], [5.002844001356725, 52.73154200434704], [5.004697001358404, 52.728109004345164], [5.007343001360923, 52.725832004343886], [5.007591001361151, 52.7254570043437], [5.007131001360683, 52.725235004343524], [5.007503001361039, 52.72491300434336], [5.011047001364616, 52.72624100434408], [5.0111640013645795, 52.72290700434223], [4.988271001341413, 52.713382004337014], [4.985804001339094, 52.71614400433859], [4.985239001338537, 52.716225004338646], [4.984523001337858, 52.716918004339036], [4.971888001325095, 52.71213800433646], [4.97775700133067, 52.70688300433347], [4.977811001330645, 52.705192004332496], [4.983888001336497, 52.70137500433038], [4.986065001338556, 52.69922200432917], [4.986107001338587, 52.698926004328975], [4.983819001336253, 52.69764500432829], [4.984469001336893, 52.69752300432822], [4.981157001333379, 52.69276000432555], [4.981038001333194, 52.69136900432479], [4.981571001333711, 52.69105900432459], [4.98151400133362, 52.69034100432422], [4.98045600133257, 52.690350004324195], [4.979135001330879, 52.682293004319696], [4.979118001330746, 52.67982200431835], [4.983009001334387, 52.675100004315674], [5.002353001353596, 52.674927004315485], [5.001493001352683, 52.67372100431481], [5.003064001354233, 52.673494004314676], [5.003876001354995, 52.67258600431415], [5.004046001355129, 52.671781004313694], [5.003414001354442, 52.67048900431298], [5.0061040013571025, 52.670269004312836], [5.012026001362905, 52.66853500431184], [5.021266001371892, 52.664420004309434]]]}, "properties": {"type": "boundary", "gemeente": "Medemblik"}}]}