{"type": "FeatureCollection", "metadata": {"gemeente": "Midden-Drenthe", "slug": "midden-drenthe", "generated_at": "2026-08-31T08:03:42.037366Z", "total_points": 89, "merken": ["StatiegeldNederland", "Stibat", "StichtingOPEN"], "bounds": [6.380519, 52.7694133, 6.6645276, 52.9791453]}, "features": [{"type": "Feature", "geometry": {"type": "Point", "coordinates": [6.5161832, 52.8606742]}, "properties": {"type": "inleverpunt", "locatieNaam": "Albert Heijn", "straatNaam": "Weverstraat", "straatNr": "3", "postcode": "9411 NC", "plaats": "Beilen", "merk": "StatiegeldNederland", "puntType": "automaat", "materialen": ["pet-groot", "pet-klein", "blik", "glas", "krat"], "uitbetaling": ["bonnetje", "donatie"], "vrijToegankelijk": true, "gemeenteBeperking": null, "openingstijden": {"ma": "08:00–21:00", "di": "08:00–21:00", "wo": "08:00–21:00", "do": "08:00–21:00", "vr": "08:00–21:00", "za": "08:00–21:00", "zo": "10:00–18:00"}, "latitude": 52.8606742, "longitude": 6.5161832, "bronId": "311002"}}, {"type": "Feature", "geometry": {"type": "Point", "coordinates": [6.4436947, 52.946814]}, "properties": {"type": "inleverpunt", "locatieNaam": "Aldi", "straatNaam": "Veenhoopsweg", "straatNr": "4A", "postcode": "9422 AA", "plaats": "Smilde", "merk": "StatiegeldNederland", "puntType": "automaat", "materialen": ["pet-groot", "pet-klein", "blik", "glas", "krat"], "uitbetaling": ["bonnetje"], "vrijToegankelijk": true, "gemeenteBeperking": null, "openingstijden": {"ma": "08:00–20:00", "di": "08:00–20:00", "wo": "08:00–20:00", "do": "08:00–20:00", "vr": "08:00–20:00", "za": "08:00–20:00", "zo": "10:00–18:00"}, "latitude": 52.946814, "longitude": 6.4436947, "bronId": "311484"}}, {"type": "Feature", "geometry": {"type": "Point", "coordinates": [6.513647, 52.858643]}, "properties": {"type": "inleverpunt", "locatieNaam": "Aldi", "straatNaam": "Ventweg Zuid", "straatNr": "1", "postcode": "9411 ZZ", "plaats": "Beilen", "merk": "StatiegeldNederland", "puntType": "automaat", "materialen": ["pet-groot", "pet-klein", "blik", "glas", "krat"], "uitbetaling": ["bonnetje"], "vrijToegankelijk": true, "gemeenteBeperking": null, "openingstijden": {"ma": "08:00–20:00", "di": "08:00–20:00", "wo": "08:00–20:00", "do": "08:00–20:00", "vr": "08:00–20:00", "za": "08:00–20:00", "zo": "10:00–18:00"}, "latitude": 52.858643, "longitude": 6.513647, "bronId": "311489"}}, {"type": "Feature", "geometry": {"type": "Point", "coordinates": [6.5067173, 52.8567445]}, "properties": {"type": "inleverpunt", "locatieNaam": "Gulf", "straatNaam": "Kanaalweg", "straatNr": "1C", "postcode": "9411 KB", "plaats": "Beilen", "merk": "StatiegeldNederland", "puntType": "balie", "materialen": ["pet-groot", "pet-klein", "blik"], "uitbetaling": [], "vrijToegankelijk": true, "gemeenteBeperking": null, "openingstijden": null, "latitude": 52.8567445, "longitude": 6.5067173, "bronId": "313206"}}, {"type": "Feature", "geometry": {"type": "Point", "coordinates": [6.60704, 52.849851]}, "properties": {"type": "inleverpunt", "locatieNaam": "Jumbo", "straatNaam": "B.G. van Weezelplein", "straatNr": "8", "postcode": "9431 AG", "plaats": "Westerbork", "merk": "StatiegeldNederland", "puntType": "automaat", "materialen": ["pet-groot", "pet-klein", "blik", "glas", "krat"], "uitbetaling": ["bonnetje"], "vrijToegankelijk": true, "gemeenteBeperking": null, "openingstijden": {"ma": "08:00–20:30", "di": "08:00–20:30", "wo": "08:00–20:30", "do": "08:00–20:30", "vr": "08:00–21:00", "za": "08:00–20:00", "zo": "13:00–18:00"}, "latitude": 52.849851, "longitude": 6.60704, "bronId": "313533"}}, {"type": "Feature", "geometry": {"type": "Point", "coordinates": [6.445401, 52.948429]}, "properties": {"type": "inleverpunt", "locatieNaam": "Jumbo", "straatNaam": "Veenhoopsweg", "straatNr": "21-4", "postcode": "9422 AB", "plaats": "Smilde", "merk": "StatiegeldNederland", "puntType": "automaat", "materialen": ["pet-groot", "pet-klein", "blik", "glas", "krat"], "uitbetaling": ["bonnetje", "donatie"], "vrijToegankelijk": true, "gemeenteBeperking": null, "openingstijden": {"ma": "08:00–20:00", "di": "08:00–20:00", "wo": "08:00–20:00", "do": "08:00–20:00", "vr": "08:00–20:00", "za": "08:00–20:00", "zo": "10:00–18:00"}, "latitude": 52.948429, "longitude": 6.445401, "bronId": "314126"}}, {"type": "Feature", "geometry": {"type": "Point", "coordinates": [6.512763, 52.858527]}, "properties": {"type": "inleverpunt", "locatieNaam": "Jumbo", "straatNaam": "Ventweg Zuid", "straatNr": "3", "postcode": "9411 ZZ", "plaats": "Beilen", "merk": "StatiegeldNederland", "puntType": "automaat", "materialen": ["pet-groot", "pet-klein", "blik", "glas", "krat"], "uitbetaling": ["bonnetje", "donatie"], "vrijToegankelijk": true, "gemeenteBeperking": null, "openingstijden": {"ma": "08:00–21:00", "di": "08:00–21:00", "wo": "08:00–21:00", "do": "08:00–21:00", "vr": "08:00–21:00", "za": "08:00–20:00", "zo": "10:00–18:00"}, "latitude": 52.858527, "longitude": 6.512763, "bronId": "314128"}}, {"type": "Feature", "geometry": {"type": "Point", "coordinates": [6.6627386, 52.8342955]}, "properties": {"type": "inleverpunt", "locatieNaam": "Landal Orveltermarke", "straatNaam": "Mr.j.b Kanweg", "straatNr": "3", "postcode": "9439 TD", "plaats": "Witteveen", "merk": "StatiegeldNederland", "puntType": "automaat", "materialen": ["pet-groot", "pet-klein", "blik"], "uitbetaling": ["bonnetje", "donatie", "tikkie"], "vrijToegankelijk": true, "gemeenteBeperking": null, "openingstijden": null, "latitude": 52.8342955, "longitude": 6.6627386, "bronId": "314332"}}, {"type": "Feature", "geometry": {"type": "Point", "coordinates": [6.6128427, 52.8492511]}, "properties": {"type": "inleverpunt", "locatieNaam": "Lidl", "straatNaam": "Brinklaan", "straatNr": "2", "postcode": "9431 AK", "plaats": "Westerbork", "merk": "StatiegeldNederland", "puntType": "automaat", "materialen": ["pet-groot", "pet-klein", "blik", "glas", "krat"], "uitbetaling": ["bonnetje", "donatie"], "vrijToegankelijk": true, "gemeenteBeperking": null, "openingstijden": {"ma": "08:00–20:30", "di": "08:00–20:30", "wo": "08:00–20:30", "do": "08:00–20:30", "vr": "08:00–21:00", "za": "08:00–20:00", "zo": "13:00–18:00"}, "latitude": 52.8492511, "longitude": 6.6128427, "bronId": "314409"}}, {"type": "Feature", "geometry": {"type": "Point", "coordinates": [6.51658, 52.86076]}, "properties": {"type": "inleverpunt", "locatieNaam": "Lidl", "straatNaam": "Karspelstraat", "straatNr": "66", "postcode": "9411 ND", "plaats": "Beilen", "merk": "StatiegeldNederland", "puntType": "automaat", "materialen": ["pet-groot", "pet-klein", "blik", "glas", "krat"], "uitbetaling": ["bonnetje", "donatie"], "vrijToegankelijk": true, "gemeenteBeperking": null, "openingstijden": {"ma": "08:00–21:00", "di": "08:00–21:00", "wo": "08:00–21:00", "do": "08:00–21:00", "vr": "08:00–21:00", "za": "08:00–21:00", "zo": "10:00–18:00"}, "latitude": 52.86076, "longitude": 6.51658, "bronId": "314548"}}, {"type": "Feature", "geometry": {"type": "Point", "coordinates": [6.5803487, 52.8453879]}, "properties": {"type": "inleverpunt", "locatieNaam": "Msv Motordrenthe", "straatNaam": "Homaat", "straatNr": "10", "postcode": "9431 MK", "plaats": "Westerbork", "merk": "StatiegeldNederland", "puntType": "balie", "materialen": ["pet-groot", "pet-klein", "blik"], "uitbetaling": [], "vrijToegankelijk": false, "gemeenteBeperking": null, "openingstijden": {"ma": "Gesloten", "di": "Gesloten", "wo": "11:00–20:00", "do": "Gesloten", "vr": "Gesloten", "za": "13:00–17:00", "zo": "Gesloten"}, "latitude": 52.8453879, "longitude": 6.5803487, "bronId": "315156"}}, {"type": "Feature", "geometry": {"type": "Point", "coordinates": [6.5085628, 52.8577731]}, "properties": {"type": "inleverpunt", "locatieNaam": "NassauVincent - Volta Beilen", "straatNaam": "De Omloop", "straatNr": "5", "postcode": "9411 KA", "plaats": "Beilen", "merk": "StatiegeldNederland", "puntType": "automaat", "materialen": ["pet-klein", "blik"], "uitbetaling": [], "vrijToegankelijk": false, "gemeenteBeperking": null, "openingstijden": null, "latitude": 52.8577731, "longitude": 6.5085628, "bronId": "315177"}}, {"type": "Feature", "geometry": {"type": "Point", "coordinates": [6.5058195, 52.8630761]}, "properties": {"type": "inleverpunt", "locatieNaam": "Poiesz", "straatNaam": "Reigerlaan", "straatNr": "15", "postcode": "9411 GS", "plaats": "Beilen", "merk": "StatiegeldNederland", "puntType": "automaat", "materialen": ["pet-groot", "pet-klein", "blik", "glas", "krat"], "uitbetaling": ["bonnetje", "donatie"], "vrijToegankelijk": true, "gemeenteBeperking": null, "openingstijden": {"ma": "08:00–20:00", "di": "08:00–20:00", "wo": "08:00–20:00", "do": "08:00–20:00", "vr": "08:00–20:00", "za": "08:00–20:00", "zo": "10:00–18:00"}, "latitude": 52.8630761, "longitude": 6.5058195, "bronId": "316030"}}, {"type": "Feature", "geometry": {"type": "Point", "coordinates": [6.4796565, 52.9791453]}, "properties": {"type": "inleverpunt", "locatieNaam": "Poiesz", "straatNaam": "Schoolstraat", "straatNr": "10", "postcode": "9421 SM", "plaats": "Bovensmilde", "merk": "StatiegeldNederland", "puntType": "automaat", "materialen": ["pet-groot", "pet-klein", "blik", "glas", "krat"], "uitbetaling": ["bonnetje", "donatie"], "vrijToegankelijk": true, "gemeenteBeperking": null, "openingstijden": {"ma": "08:00–20:00", "di": "08:00–20:00", "wo": "08:00–20:00", "do": "08:00–20:00", "vr": "08:00–21:00", "za": "08:00–20:00", "zo": "10:00–18:00"}, "latitude": 52.9791453, "longitude": 6.4796565, "bronId": "316034"}}, {"type": "Feature", "geometry": {"type": "Point", "coordinates": [6.4877823, 52.845076]}, "properties": {"type": "inleverpunt", "locatieNaam": "Shoppoint Beilen", "straatNaam": "Rijksweg A28", "straatNr": "2", "postcode": "9411 TW", "plaats": "Beilen", "merk": "StatiegeldNederland", "puntType": "balie", "materialen": ["pet-groot", "pet-klein", "blik"], "uitbetaling": [], "vrijToegankelijk": true, "gemeenteBeperking": null, "openingstijden": {"ma": "06:00–21:00", "di": "06:00–21:00", "wo": "06:00–21:00", "do": "06:00–21:00", "vr": "06:00–21:00", "za": "07:00–21:00", "zo": "07:00–21:00"}, "latitude": 52.845076, "longitude": 6.4877823, "bronId": "316632"}}, {"type": "Feature", "geometry": {"type": "Point", "coordinates": [6.5175724, 52.8587138]}, "properties": {"type": "inleverpunt", "locatieNaam": "Snackbar City", "straatNaam": "Kruisstraat", "straatNr": "12", "postcode": "9411 PE", "plaats": "Beilen", "merk": "StatiegeldNederland", "puntType": "balie", "materialen": ["pet-groot", "pet-klein", "blik"], "uitbetaling": [], "vrijToegankelijk": true, "gemeenteBeperking": null, "openingstijden": {"ma": "Gesloten", "di": "11:00–20:30", "wo": "11:00–20:30", "do": "11:00–20:30", "vr": "11:00–20:30", "za": "11:00–20:30", "zo": "12:00–20:30"}, "latitude": 52.8587138, "longitude": 6.5175724, "bronId": "316651"}}, {"type": "Feature", "geometry": {"type": "Point", "coordinates": [6.5420222, 52.9207706]}, "properties": {"type": "inleverpunt", "locatieNaam": "Supermarkt Hooghalen", "straatNaam": "Hoofdstraat", "straatNr": "18", "postcode": "9414 AC", "plaats": "Hooghalen", "merk": "StatiegeldNederland", "puntType": "automaat", "materialen": ["pet-groot", "pet-klein", "blik", "glas", "krat"], "uitbetaling": ["bonnetje"], "vrijToegankelijk": true, "gemeenteBeperking": null, "openingstijden": {"ma": "08:00–19:00", "di": "08:00–19:00", "wo": "08:00–19:00", "do": "08:00–19:00", "vr": "08:00–19:00", "za": "08:00–19:00", "zo": "10:00–17:00"}, "latitude": 52.9207706, "longitude": 6.5420222, "bronId": "317139"}}, {"type": "Feature", "geometry": {"type": "Point", "coordinates": [6.6017326, 52.7694133]}, "properties": {"type": "inleverpunt", "locatieNaam": "Sv Nieuw Balinge", "straatNaam": "Haarweg", "straatNr": "69", "postcode": "7938 PS", "plaats": "Nieuw-balinge", "merk": "StatiegeldNederland", "puntType": "balie", "materialen": ["pet-groot", "pet-klein", "blik"], "uitbetaling": [], "vrijToegankelijk": false, "gemeenteBeperking": null, "openingstijden": null, "latitude": 52.7694133, "longitude": 6.6017326, "bronId": "317201"}}, {"type": "Feature", "geometry": {"type": "Point", "coordinates": [6.5180988, 52.817712]}, "properties": {"type": "inleverpunt", "locatieNaam": "Supermarkt Wiester", "straatNaam": "Bruntingerweg", "straatNr": "6", "postcode": "9418 PP", "plaats": "Wijster", "merk": "StatiegeldNederland", "puntType": "automaat", "materialen": ["pet-groot", "pet-klein", "blik"], "uitbetaling": ["bonnetje", "donatie"], "vrijToegankelijk": true, "gemeenteBeperking": null, "openingstijden": null, "latitude": 52.817712, "longitude": 6.5180988, "bronId": "317242"}}, {"type": "Feature", "geometry": {"type": "Point", "coordinates": [6.39777, 52.90607]}, "properties": {"type": "inleverpunt", "locatieNaam": "Coop Hoogersmilde", "straatNaam": "Rijksweg", "straatNr": "183", "postcode": "9423 PD", "plaats": "Hoogersmilde", "merk": "StichtingOPEN", "puntType": "balie", "materialen": ["batterijen", "lampen"], "uitbetaling": [], "vrijToegankelijk": false, "gemeenteBeperking": null, "openingstijden": null, "latitude": 52.90607, "longitude": 6.39777, "bronId": "SP00029832"}}, {"type": "Feature", "geometry": {"type": "Point", "coordinates": [6.499738, 52.855541]}, "properties": {"type": "inleverpunt", "locatieNaam": "Gamma Beilen (doe het zelf bouwmarkt)", "straatNaam": "Dambroeken", "straatNr": "1", "postcode": "9411 SG", "plaats": "Beilen", "merk": "StichtingOPEN", "puntType": "balie", "materialen": ["batterijen", "elektro-middel", "lampen", "tl-buizen"], "uitbetaling": [], "vrijToegankelijk": false, "gemeenteBeperking": null, "openingstijden": null, "latitude": 52.855541, "longitude": 6.499738, "bronId": "SP00000604"}}, {"type": "Feature", "geometry": {"type": "Point", "coordinates": [6.512801, 52.85854]}, "properties": {"type": "inleverpunt", "locatieNaam": "Jumbo Beilen", "straatNaam": "Ventweg Zuid", "straatNr": "3", "postcode": "9411 ZZ", "plaats": "Beilen", "merk": "StichtingOPEN", "puntType": "balie", "materialen": ["batterijen", "lampen"], "uitbetaling": [], "vrijToegankelijk": false, "gemeenteBeperking": null, "openingstijden": null, "latitude": 52.85854, "longitude": 6.512801, "bronId": "SP00025361"}}, {"type": "Feature", "geometry": {"type": "Point", "coordinates": [6.505848, 52.863021]}, "properties": {"type": "inleverpunt", "locatieNaam": "Poiesz Beilen", "straatNaam": "Reigerlaan", "straatNr": "15", "postcode": "9411 GS", "plaats": "Beilen", "merk": "StichtingOPEN", "puntType": "balie", "materialen": ["batterijen", "lampen"], "uitbetaling": [], "vrijToegankelijk": false, "gemeenteBeperking": null, "openingstijden": null, "latitude": 52.863021, "longitude": 6.505848, "bronId": "SP00023767"}}, {"type": "Feature", "geometry": {"type": "Point", "coordinates": [6.513603, 52.858692]}, "properties": {"type": "inleverpunt", "locatieNaam": "Aldi Beilen", "straatNaam": "Ventweg Zuid", "straatNr": "1", "postcode": "9411 ZZ", "plaats": "Beilen", "merk": "StichtingOPEN", "puntType": "balie", "materialen": ["batterijen", "elektro-klein", "lampen"], "uitbetaling": [], "vrijToegankelijk": false, "gemeenteBeperking": null, "openingstijden": null, "latitude": 52.858692, "longitude": 6.513603, "bronId": "SP00026877"}}, {"type": "Feature", "geometry": {"type": "Point", "coordinates": [6.515752, 52.859666]}, "properties": {"type": "inleverpunt", "locatieNaam": "Action Beilen 1157", "straatNaam": "Raadhuisstraat", "straatNr": "4a", "postcode": "9411 NB", "plaats": "Beilen", "merk": "StichtingOPEN", "puntType": "balie", "materialen": ["batterijen", "lampen"], "uitbetaling": [], "vrijToegankelijk": false, "gemeenteBeperking": null, "openingstijden": null, "latitude": 52.859666, "longitude": 6.515752, "bronId": "SP00007590"}}, {"type": "Feature", "geometry": {"type": "Point", "coordinates": [6.515639, 52.859756]}, "properties": {"type": "inleverpunt", "locatieNaam": "Kruidvat Beilen", "straatNaam": "Raadhuisplein", "straatNr": "4b", "postcode": "9411 NB", "plaats": "Beilen", "merk": "StichtingOPEN", "puntType": "balie", "materialen": ["batterijen", "lampen"], "uitbetaling": [], "vrijToegankelijk": false, "gemeenteBeperking": null, "openingstijden": null, "latitude": 52.859756, "longitude": 6.515639, "bronId": "SP00024808"}}, {"type": "Feature", "geometry": {"type": "Point", "coordinates": [6.516229, 52.860645]}, "properties": {"type": "inleverpunt", "locatieNaam": "1865 Albert Heijn Beilen", "straatNaam": "Weversstraat", "straatNr": "3", "postcode": "9411 NC", "plaats": "Beilen", "merk": "StichtingOPEN", "puntType": "balie", "materialen": ["batterijen", "elektro-klein", "lampen"], "uitbetaling": [], "vrijToegankelijk": false, "gemeenteBeperking": null, "openingstijden": null, "latitude": 52.860645, "longitude": 6.516229, "bronId": "SP00023161"}}, {"type": "Feature", "geometry": {"type": "Point", "coordinates": [6.518573, 52.874525]}, "properties": {"type": "inleverpunt", "locatieNaam": "Hubo Beilen", "straatNaam": "De Hanekampen", "straatNr": "1", "postcode": "9411 XN", "plaats": "Beilen", "merk": "StichtingOPEN", "puntType": "balie", "materialen": ["batterijen", "elektro-middel", "lampen", "tl-buizen"], "uitbetaling": [], "vrijToegankelijk": false, "gemeenteBeperking": null, "openingstijden": null, "latitude": 52.874525, "longitude": 6.518573, "bronId": "SP00036602"}}, {"type": "Feature", "geometry": {"type": "Point", "coordinates": [6.603057, 52.851775]}, "properties": {"type": "inleverpunt", "locatieNaam": "Borker Servicedienst", "straatNaam": "Westeinde", "straatNr": "30", "postcode": "9431 CG", "plaats": "Westerbork", "merk": "StichtingOPEN", "puntType": "balie", "materialen": ["elektro-groot", "elektro-klein", "elektro-middel"], "uitbetaling": [], "vrijToegankelijk": false, "gemeenteBeperking": null, "openingstijden": null, "latitude": 52.851775, "longitude": 6.603057, "bronId": "SP00032693"}}, {"type": "Feature", "geometry": {"type": "Point", "coordinates": [6.607063, 52.849857]}, "properties": {"type": "inleverpunt", "locatieNaam": "Jumbo Westerbork", "straatNaam": "Burgemeester Gualthérie van Weezelplein", "straatNr": "8", "postcode": "9431 AG", "plaats": "Westerbork", "merk": "StichtingOPEN", "puntType": "balie", "materialen": ["batterijen", "lampen"], "uitbetaling": [], "vrijToegankelijk": false, "gemeenteBeperking": null, "openingstijden": null, "latitude": 52.849857, "longitude": 6.607063, "bronId": "SP00025360"}}, {"type": "Feature", "geometry": {"type": "Point", "coordinates": [6.617396, 52.845792]}, "properties": {"type": "inleverpunt", "locatieNaam": "66960 Hubo Westerbork", "straatNaam": "De Noesten", "straatNr": "3", "postcode": "9431 TC", "plaats": "Westerbork", "merk": "StichtingOPEN", "puntType": "balie", "materialen": ["elektro-middel", "lampen", "tl-buizen"], "uitbetaling": [], "vrijToegankelijk": false, "gemeenteBeperking": null, "openingstijden": null, "latitude": 52.845792, "longitude": 6.617396, "bronId": "SP00006333"}}, {"type": "Feature", "geometry": {"type": "Point", "coordinates": [6.443372, 52.947062]}, "properties": {"type": "inleverpunt", "locatieNaam": "Aldi Smilde", "straatNaam": "Veenhoopsweg", "straatNr": "34-36", "postcode": "9422 AC", "plaats": "Smilde", "merk": "StichtingOPEN", "puntType": "balie", "materialen": ["batterijen", "elektro-klein", "lampen"], "uitbetaling": [], "vrijToegankelijk": false, "gemeenteBeperking": null, "openingstijden": null, "latitude": 52.947062, "longitude": 6.443372, "bronId": "SP00026915"}}, {"type": "Feature", "geometry": {"type": "Point", "coordinates": [6.44423, 52.947643]}, "properties": {"type": "inleverpunt", "locatieNaam": "Kruidvat Smilde", "straatNaam": "Veenhoopsweg", "straatNr": "27", "postcode": "9422 AB", "plaats": "Smilde", "merk": "StichtingOPEN", "puntType": "balie", "materialen": ["batterijen", "lampen"], "uitbetaling": [], "vrijToegankelijk": false, "gemeenteBeperking": null, "openingstijden": null, "latitude": 52.947643, "longitude": 6.44423, "bronId": "SP00024813"}}, {"type": "Feature", "geometry": {"type": "Point", "coordinates": [6.612575, 52.85117]}, "properties": {"type": "inleverpunt", "locatieNaam": "Kringloop de Zandhoek", "straatNaam": "Zandhoeklaan", "straatNr": "19", "postcode": "9431 BK", "plaats": "Westerbork", "merk": "StichtingOPEN", "puntType": "balie", "materialen": ["batterijen", "elektro-klein", "elektro-middel", "lampen", "tl-buizen"], "uitbetaling": [], "vrijToegankelijk": false, "gemeenteBeperking": null, "openingstijden": null, "latitude": 52.85117, "longitude": 6.612575, "bronId": "SP00032678"}}, {"type": "Feature", "geometry": {"type": "Point", "coordinates": [6.444818, 52.947606]}, "properties": {"type": "inleverpunt", "locatieNaam": "Action Smilde 1256", "straatNaam": "Veenhoopsweg", "straatNr": "27-1", "postcode": "9422 AB", "plaats": "Smilde", "merk": "StichtingOPEN", "puntType": "balie", "materialen": ["batterijen", "lampen"], "uitbetaling": [], "vrijToegankelijk": false, "gemeenteBeperking": null, "openingstijden": null, "latitude": 52.947606, "longitude": 6.444818, "bronId": "SP00007830"}}, {"type": "Feature", "geometry": {"type": "Point", "coordinates": [6.445535, 52.948414]}, "properties": {"type": "inleverpunt", "locatieNaam": "Jumbo Smilde", "straatNaam": "Veenhoopsweg", "straatNr": "214", "postcode": "9422 AB", "plaats": "Smilde", "merk": "StichtingOPEN", "puntType": "balie", "materialen": ["batterijen", "lampen"], "uitbetaling": [], "vrijToegankelijk": false, "gemeenteBeperking": null, "openingstijden": null, "latitude": 52.948414, "longitude": 6.445535, "bronId": "SP00025481"}}, {"type": "Feature", "geometry": {"type": "Point", "coordinates": [6.479646, 52.979116]}, "properties": {"type": "inleverpunt", "locatieNaam": "Poiesz Bovensmilde", "straatNaam": "Schoolstraat", "straatNr": "10", "postcode": "9421 SM", "plaats": "Bovensmilde", "merk": "StichtingOPEN", "puntType": "balie", "materialen": ["batterijen", "elektro-klein", "lampen"], "uitbetaling": [], "vrijToegankelijk": false, "gemeenteBeperking": null, "openingstijden": null, "latitude": 52.979116, "longitude": 6.479646, "bronId": "SP00023777"}}, {"type": "Feature", "geometry": {"type": "Point", "coordinates": [6.521587, 52.873801]}, "properties": {"type": "inleverpunt", "locatieNaam": "Milieustraat Beilen", "straatNaam": "Eursing", "straatNr": "2a", "postcode": "9411 XC", "plaats": "Beilen", "merk": "StichtingOPEN", "puntType": "milieustraat", "materialen": ["batterijen", "elektro-groot", "elektro-klein", "elektro-middel", "lampen", "tl-buizen"], "uitbetaling": [], "vrijToegankelijk": false, "gemeenteBeperking": ["Midden-Drenthe"], "openingstijden": null, "latitude": 52.873801, "longitude": 6.521587, "bronId": "SP00001047"}}, {"type": "Feature", "geometry": {"type": "Point", "coordinates": [6.5245574, 52.8012202]}, "properties": {"type": "inleverpunt", "locatieNaam": "Camping De Otterberg", "straatNaam": "Drijberseweg", "straatNr": "36a", "postcode": "9418 TL", "plaats": "Wijster", "merk": "Stibat", "puntType": "inzamelbak", "materialen": ["batterijen"], "uitbetaling": [], "vrijToegankelijk": false, "gemeenteBeperking": null, "openingstijden": null, "latitude": 52.8012202, "longitude": 6.5245574, "bronId": "L010878"}}, {"type": "Feature", "geometry": {"type": "Point", "coordinates": [6.380519, 52.9035233]}, "properties": {"type": "inleverpunt", "locatieNaam": "Camping de Reeënwissel", "straatNaam": "Bosweg", "straatNr": "23", "postcode": "9423 TA", "plaats": "Hoogersmilde", "merk": "Stibat", "puntType": "inzamelbak", "materialen": ["batterijen"], "uitbetaling": [], "vrijToegankelijk": false, "gemeenteBeperking": null, "openingstijden": null, "latitude": 52.9035233, "longitude": 6.380519, "bronId": "L003602"}}, {"type": "Feature", "geometry": {"type": "Point", "coordinates": [6.3977724, 52.9060724]}, "properties": {"type": "inleverpunt", "locatieNaam": "Coop", "straatNaam": "Rijksweg", "straatNr": "183", "postcode": "9423 PD", "plaats": "Hoogersmilde", "merk": "Stibat", "puntType": "inzamelbak", "materialen": ["batterijen"], "uitbetaling": [], "vrijToegankelijk": false, "gemeenteBeperking": null, "openingstijden": null, "latitude": 52.9060724, "longitude": 6.3977724, "bronId": "L036189"}}, {"type": "Feature", "geometry": {"type": "Point", "coordinates": [6.4985797, 52.8556642]}, "properties": {"type": "inleverpunt", "locatieNaam": "Welkoop", "straatNaam": "Dambroeken", "straatNr": "3", "postcode": "9411 SG", "plaats": "Beilen", "merk": "Stibat", "puntType": "inzamelbak", "materialen": ["batterijen"], "uitbetaling": [], "vrijToegankelijk": false, "gemeenteBeperking": null, "openingstijden": null, "latitude": 52.8556642, "longitude": 6.4985797, "bronId": "L027515"}}, {"type": "Feature", "geometry": {"type": "Point", "coordinates": [6.4995349, 52.855532]}, "properties": {"type": "inleverpunt", "locatieNaam": "Gamma", "straatNaam": "Dambroeken", "straatNr": "1", "postcode": "9411 SG", "plaats": "Beilen", "merk": "Stibat", "puntType": "inzamelbak", "materialen": ["batterijen"], "uitbetaling": [], "vrijToegankelijk": false, "gemeenteBeperking": null, "openingstijden": null, "latitude": 52.855532, "longitude": 6.4995349, "bronId": "L009161"}}, {"type": "Feature", "geometry": {"type": "Point", "coordinates": [6.4053227, 52.9135685]}, "properties": {"type": "inleverpunt", "locatieNaam": "Rijwielhandel Jan Kwint", "straatNaam": "Rijksweg", "straatNr": "152-A", "postcode": "9423 PB", "plaats": "Hoogersmilde", "merk": "Stibat", "puntType": "inzamelbak", "materialen": ["batterijen"], "uitbetaling": [], "vrijToegankelijk": false, "gemeenteBeperking": null, "openingstijden": null, "latitude": 52.9135685, "longitude": 6.4053227, "bronId": "L034249"}}, {"type": "Feature", "geometry": {"type": "Point", "coordinates": [6.5127666, 52.8585295]}, "properties": {"type": "inleverpunt", "locatieNaam": "Jumbo", "straatNaam": "Ventweg Zuid", "straatNr": "3", "postcode": "9411 ZZ", "plaats": "Beilen", "merk": "Stibat", "puntType": "inzamelbak", "materialen": ["batterijen"], "uitbetaling": [], "vrijToegankelijk": false, "gemeenteBeperking": null, "openingstijden": null, "latitude": 52.8585295, "longitude": 6.5127666, "bronId": "L031871"}}, {"type": "Feature", "geometry": {"type": "Point", "coordinates": [6.5058511, 52.8630235]}, "properties": {"type": "inleverpunt", "locatieNaam": "Poiesz", "straatNaam": "Reigerlaan", "straatNr": "15", "postcode": "9411 GS", "plaats": "Beilen", "merk": "Stibat", "puntType": "inzamelbak", "materialen": ["batterijen"], "uitbetaling": [], "vrijToegankelijk": false, "gemeenteBeperking": null, "openingstijden": null, "latitude": 52.8630235, "longitude": 6.5058511, "bronId": "L027742"}}, {"type": "Feature", "geometry": {"type": "Point", "coordinates": [6.512753, 52.858948]}, "properties": {"type": "inleverpunt", "locatieNaam": "Hans Anders", "straatNaam": "Brinkstraat", "straatNr": "2", "postcode": "9411 KM", "plaats": "Beilen", "merk": "Stibat", "puntType": "inzamelbak", "materialen": ["batterijen"], "uitbetaling": [], "vrijToegankelijk": false, "gemeenteBeperking": null, "openingstijden": null, "latitude": 52.858948, "longitude": 6.512753, "bronId": "L037752"}}, {"type": "Feature", "geometry": {"type": "Point", "coordinates": [6.5135275, 52.8586618]}, "properties": {"type": "inleverpunt", "locatieNaam": "Aldi", "straatNaam": "Ventweg Zuid", "straatNr": "1", "postcode": "9411 ZZ", "plaats": "Beilen", "merk": "Stibat", "puntType": "inzamelbak", "materialen": ["batterijen"], "uitbetaling": [], "vrijToegankelijk": false, "gemeenteBeperking": null, "openingstijden": null, "latitude": 52.8586618, "longitude": 6.5135275, "bronId": "L041583"}}, {"type": "Feature", "geometry": {"type": "Point", "coordinates": [6.5207785, 52.8545603]}, "properties": {"type": "inleverpunt", "locatieNaam": "Fietswereld Biemold", "straatNaam": "Stationslaan", "straatNr": "11", "postcode": "9411 PS", "plaats": "Beilen", "merk": "Stibat", "puntType": "inzamelbak", "materialen": ["batterijen"], "uitbetaling": [], "vrijToegankelijk": false, "gemeenteBeperking": null, "openingstijden": null, "latitude": 52.8545603, "longitude": 6.5207785, "bronId": "L024894"}}, {"type": "Feature", "geometry": {"type": "Point", "coordinates": [6.513383, 52.8591061]}, "properties": {"type": "inleverpunt", "locatieNaam": "Foto", "straatNaam": "Brinkstraat", "straatNr": "14", "postcode": "9411 KM", "plaats": "Beilen", "merk": "Stibat", "puntType": "inzamelbak", "materialen": ["batterijen"], "uitbetaling": [], "vrijToegankelijk": false, "gemeenteBeperking": null, "openingstijden": null, "latitude": 52.8591061, "longitude": 6.513383, "bronId": "L002739"}}, {"type": "Feature", "geometry": {"type": "Point", "coordinates": [6.513669, 52.8592562]}, "properties": {"type": "inleverpunt", "locatieNaam": "DA", "straatNaam": "Brinkstraat", "straatNr": "19", "postcode": "9411 KJ", "plaats": "Beilen", "merk": "Stibat", "puntType": "inzamelbak", "materialen": ["batterijen"], "uitbetaling": [], "vrijToegankelijk": false, "gemeenteBeperking": null, "openingstijden": null, "latitude": 52.8592562, "longitude": 6.513669, "bronId": "L025185"}}, {"type": "Feature", "geometry": {"type": "Point", "coordinates": [6.5143633, 52.8591148]}, "properties": {"type": "inleverpunt", "locatieNaam": "HEMA Brinkstraat", "straatNaam": "Brinkstraat", "straatNr": "28", "postcode": "9411 KM", "plaats": "Beilen", "merk": "Stibat", "puntType": "inzamelbak", "materialen": ["batterijen"], "uitbetaling": [], "vrijToegankelijk": false, "gemeenteBeperking": null, "openingstijden": null, "latitude": 52.8591148, "longitude": 6.5143633, "bronId": "L006020"}}, {"type": "Feature", "geometry": {"type": "Point", "coordinates": [6.5147322, 52.8592304]}, "properties": {"type": "inleverpunt", "locatieNaam": "Trekpleister", "straatNaam": "Brinkstraat", "straatNr": "32A", "postcode": "9411 KM", "plaats": "Beilen", "merk": "Stibat", "puntType": "inzamelbak", "materialen": ["batterijen"], "uitbetaling": [], "vrijToegankelijk": false, "gemeenteBeperking": null, "openingstijden": null, "latitude": 52.8592304, "longitude": 6.5147322, "bronId": "L018961"}}, {"type": "Feature", "geometry": {"type": "Point", "coordinates": [6.5146889, 52.8593041]}, "properties": {"type": "inleverpunt", "locatieNaam": "Primera", "straatNaam": "Brinkstraat", "straatNr": "37", "postcode": "9411 KK", "plaats": "Beilen", "merk": "Stibat", "puntType": "inzamelbak", "materialen": ["batterijen"], "uitbetaling": [], "vrijToegankelijk": false, "gemeenteBeperking": null, "openingstijden": null, "latitude": 52.8593041, "longitude": 6.5146889, "bronId": "L023861"}}, {"type": "Feature", "geometry": {"type": "Point", "coordinates": [6.5151521, 52.8591882]}, "properties": {"type": "inleverpunt", "locatieNaam": "Intertoys", "straatNaam": "Brinkstraat", "straatNr": "34", "postcode": "9411 KM", "plaats": "Beilen", "merk": "Stibat", "puntType": "inzamelbak", "materialen": ["batterijen"], "uitbetaling": [], "vrijToegankelijk": false, "gemeenteBeperking": null, "openingstijden": null, "latitude": 52.8591882, "longitude": 6.5151521, "bronId": "L006346"}}, {"type": "Feature", "geometry": {"type": "Point", "coordinates": [6.5161901, 52.8591335]}, "properties": {"type": "inleverpunt", "locatieNaam": "Zeeman", "straatNaam": "Brinkstraat", "straatNr": "46", "postcode": "9411 KN", "plaats": "Beilen", "merk": "Stibat", "puntType": "inzamelbak", "materialen": ["batterijen"], "uitbetaling": [], "vrijToegankelijk": false, "gemeenteBeperking": null, "openingstijden": null, "latitude": 52.8591335, "longitude": 6.5161901, "bronId": "L021279"}}, {"type": "Feature", "geometry": {"type": "Point", "coordinates": [6.5156354, 52.8597606]}, "properties": {"type": "inleverpunt", "locatieNaam": "1157 Action", "straatNaam": "Raadhuisstraat", "straatNr": "4a", "postcode": "9411 NB", "plaats": "Beilen", "merk": "Stibat", "puntType": "inzamelbak", "materialen": ["batterijen"], "uitbetaling": [], "vrijToegankelijk": false, "gemeenteBeperking": null, "openingstijden": null, "latitude": 52.8597606, "longitude": 6.5156354, "bronId": "L017519"}}, {"type": "Feature", "geometry": {"type": "Point", "coordinates": [6.5156778, 52.8599921]}, "properties": {"type": "inleverpunt", "locatieNaam": "Kruidvat", "straatNaam": "Raadhuisstraat", "straatNr": "4b", "postcode": "9411 NB", "plaats": "Beilen", "merk": "Stibat", "puntType": "inzamelbak", "materialen": ["batterijen"], "uitbetaling": [], "vrijToegankelijk": false, "gemeenteBeperking": null, "openingstijden": null, "latitude": 52.8599921, "longitude": 6.5156778, "bronId": "L015987"}}, {"type": "Feature", "geometry": {"type": "Point", "coordinates": [6.5165968, 52.85946]}, "properties": {"type": "inleverpunt", "locatieNaam": "Van Boxtel hoorwinkel", "straatNaam": "Brinkstraat", "straatNr": "63", "postcode": "9411 KL", "plaats": "Beilen", "merk": "Stibat", "puntType": "inzamelbak", "materialen": ["batterijen"], "uitbetaling": [], "vrijToegankelijk": false, "gemeenteBeperking": null, "openingstijden": null, "latitude": 52.85946, "longitude": 6.5165968, "bronId": "L036242"}}, {"type": "Feature", "geometry": {"type": "Point", "coordinates": [6.517371, 52.8594368]}, "properties": {"type": "inleverpunt", "locatieNaam": "Expert", "straatNaam": "Hekstraat", "straatNr": "2", "postcode": "9411 NG", "plaats": "Beilen", "merk": "Stibat", "puntType": "inzamelbak", "materialen": ["batterijen"], "uitbetaling": [], "vrijToegankelijk": false, "gemeenteBeperking": null, "openingstijden": null, "latitude": 52.8594368, "longitude": 6.517371, "bronId": "L010128"}}, {"type": "Feature", "geometry": {"type": "Point", "coordinates": [6.5199154, 52.8579208]}, "properties": {"type": "inleverpunt", "locatieNaam": "EP:", "straatNaam": "de Paltz", "straatNr": "5", "postcode": "9411 PM", "plaats": "Beilen", "merk": "Stibat", "puntType": "inzamelbak", "materialen": ["batterijen"], "uitbetaling": [], "vrijToegankelijk": false, "gemeenteBeperking": null, "openingstijden": null, "latitude": 52.8579208, "longitude": 6.5199154, "bronId": "L018012"}}, {"type": "Feature", "geometry": {"type": "Point", "coordinates": [6.5159804, 52.860624]}, "properties": {"type": "inleverpunt", "locatieNaam": "1865 Albert Heijn", "straatNaam": "Weversstraat", "straatNr": "3", "postcode": "9411 NC", "plaats": "Beilen", "merk": "Stibat", "puntType": "inzamelbak", "materialen": ["batterijen"], "uitbetaling": [], "vrijToegankelijk": false, "gemeenteBeperking": null, "openingstijden": null, "latitude": 52.860624, "longitude": 6.5159804, "bronId": "L030522"}}, {"type": "Feature", "geometry": {"type": "Point", "coordinates": [6.5158978, 52.8607581]}, "properties": {"type": "inleverpunt", "locatieNaam": "Lidl", "straatNaam": "Karspelstraat", "straatNr": "66", "postcode": "9411 ND", "plaats": "Beilen", "merk": "Stibat", "puntType": "inzamelbak", "materialen": ["batterijen"], "uitbetaling": [], "vrijToegankelijk": false, "gemeenteBeperking": null, "openingstijden": null, "latitude": 52.8607581, "longitude": 6.5158978, "bronId": "L044327"}}, {"type": "Feature", "geometry": {"type": "Point", "coordinates": [6.5174783, 52.8612872]}, "properties": {"type": "inleverpunt", "locatieNaam": "L. WINTERS RIJWIELEN", "straatNaam": "Hekstraat", "straatNr": "46", "postcode": "9411 NH", "plaats": "Beilen", "merk": "Stibat", "puntType": "inzamelbak", "materialen": ["batterijen"], "uitbetaling": [], "vrijToegankelijk": false, "gemeenteBeperking": null, "openingstijden": null, "latitude": 52.8612872, "longitude": 6.5174783, "bronId": "L034247"}}, {"type": "Feature", "geometry": {"type": "Point", "coordinates": [6.5185732, 52.874525]}, "properties": {"type": "inleverpunt", "locatieNaam": "Hubo", "straatNaam": "De Hanekampen", "straatNr": "1", "postcode": "9411 XN", "plaats": "Beilen", "merk": "Stibat", "puntType": "inzamelbak", "materialen": ["batterijen"], "uitbetaling": [], "vrijToegankelijk": false, "gemeenteBeperking": null, "openingstijden": null, "latitude": 52.874525, "longitude": 6.5185732, "bronId": "L043807"}}, {"type": "Feature", "geometry": {"type": "Point", "coordinates": [6.5212698, 52.8734919]}, "properties": {"type": "inleverpunt", "locatieNaam": "Afvalbrengstation Beilen", "straatNaam": "Eursing", "straatNr": "2a", "postcode": "9411 XC", "plaats": "Beilen", "merk": "Stibat", "puntType": "inzamelbak", "materialen": ["batterijen"], "uitbetaling": [], "vrijToegankelijk": false, "gemeenteBeperking": null, "openingstijden": null, "latitude": 52.8734919, "longitude": 6.5212698, "bronId": "L035910"}}, {"type": "Feature", "geometry": {"type": "Point", "coordinates": [6.4295066, 52.9357264]}, "properties": {"type": "inleverpunt", "locatieNaam": "Uw Groene Vakwinke / Bosma Tuinmachines", "straatNaam": "Rijksweg", "straatNr": "42", "postcode": "9422 CD", "plaats": "Smilde", "merk": "Stibat", "puntType": "inzamelbak", "materialen": ["batterijen"], "uitbetaling": [], "vrijToegankelijk": false, "gemeenteBeperking": null, "openingstijden": null, "latitude": 52.9357264, "longitude": 6.4295066, "bronId": "L020063"}}, {"type": "Feature", "geometry": {"type": "Point", "coordinates": [6.5911139, 52.8514805]}, "properties": {"type": "inleverpunt", "locatieNaam": "Camping de Valkenhof", "straatNaam": "Beilerstraat", "straatNr": "13a", "postcode": "9431 GA", "plaats": "Westerbork", "merk": "Stibat", "puntType": "inzamelbak", "materialen": ["batterijen"], "uitbetaling": [], "vrijToegankelijk": false, "gemeenteBeperking": null, "openingstijden": null, "latitude": 52.8514805, "longitude": 6.5911139, "bronId": "L008819"}}, {"type": "Feature", "geometry": {"type": "Point", "coordinates": [6.6022887, 52.8523917]}, "properties": {"type": "inleverpunt", "locatieNaam": "Tweewielercentrum A. Eising BV", "straatNaam": "Westeinde", "straatNr": "22", "postcode": "9431 CE", "plaats": "Westerbork", "merk": "Stibat", "puntType": "inzamelbak", "materialen": ["batterijen"], "uitbetaling": [], "vrijToegankelijk": false, "gemeenteBeperking": null, "openingstijden": null, "latitude": 52.8523917, "longitude": 6.6022887, "bronId": "L034250"}}, {"type": "Feature", "geometry": {"type": "Point", "coordinates": [6.6070402, 52.8498515]}, "properties": {"type": "inleverpunt", "locatieNaam": "Jumbo", "straatNaam": "Burgemeester Gualtherie van Weezelplein", "straatNr": "8", "postcode": "9431 AG", "plaats": "Westerbork", "merk": "Stibat", "puntType": "inzamelbak", "materialen": ["batterijen"], "uitbetaling": [], "vrijToegankelijk": false, "gemeenteBeperking": null, "openingstijden": null, "latitude": 52.8498515, "longitude": 6.6070402, "bronId": "L036626"}}, {"type": "Feature", "geometry": {"type": "Point", "coordinates": [6.6203215, 52.8427158]}, "properties": {"type": "inleverpunt", "locatieNaam": "Uw Groene Vakwinkel", "straatNaam": "de Noesten", "straatNr": "72", "postcode": "9431 TG", "plaats": "Westerbork", "merk": "Stibat", "puntType": "inzamelbak", "materialen": ["batterijen"], "uitbetaling": [], "vrijToegankelijk": false, "gemeenteBeperking": null, "openingstijden": null, "latitude": 52.8427158, "longitude": 6.6203215, "bronId": "L021185"}}, {"type": "Feature", "geometry": {"type": "Point", "coordinates": [6.6186289, 52.8439156]}, "properties": {"type": "inleverpunt", "locatieNaam": "Welkoop", "straatNaam": "De Noesten", "straatNr": "11", "postcode": "9431 TC", "plaats": "Westerbork", "merk": "Stibat", "puntType": "inzamelbak", "materialen": ["batterijen"], "uitbetaling": [], "vrijToegankelijk": false, "gemeenteBeperking": null, "openingstijden": null, "latitude": 52.8439156, "longitude": 6.6186289, "bronId": "L018854"}}, {"type": "Feature", "geometry": {"type": "Point", "coordinates": [6.6190442, 52.8439944]}, "properties": {"type": "inleverpunt", "locatieNaam": "Bouwmarkt Westerbork", "straatNaam": "De Noesten", "straatNr": "11A", "postcode": "9431 TC", "plaats": "Westerbork", "merk": "Stibat", "puntType": "inzamelbak", "materialen": ["batterijen"], "uitbetaling": [], "vrijToegankelijk": false, "gemeenteBeperking": null, "openingstijden": null, "latitude": 52.8439944, "longitude": 6.6190442, "bronId": "L047465"}}, {"type": "Feature", "geometry": {"type": "Point", "coordinates": [6.6176009, 52.8458245]}, "properties": {"type": "inleverpunt", "locatieNaam": "Hubo", "straatNaam": "De Noesten", "straatNr": "3", "postcode": "9431 TC", "plaats": "Westerbork", "merk": "Stibat", "puntType": "inzamelbak", "materialen": ["batterijen"], "uitbetaling": [], "vrijToegankelijk": false, "gemeenteBeperking": null, "openingstijden": null, "latitude": 52.8458245, "longitude": 6.6176009, "bronId": "L034672"}}, {"type": "Feature", "geometry": {"type": "Point", "coordinates": [6.6126799, 52.8492576]}, "properties": {"type": "inleverpunt", "locatieNaam": "Lidl", "straatNaam": "Brinklaan", "straatNr": "2", "postcode": "9431 AK", "plaats": "Westerbork", "merk": "Stibat", "puntType": "inzamelbak", "materialen": ["batterijen"], "uitbetaling": [], "vrijToegankelijk": false, "gemeenteBeperking": null, "openingstijden": null, "latitude": 52.8492576, "longitude": 6.6126799, "bronId": "L031306"}}, {"type": "Feature", "geometry": {"type": "Point", "coordinates": [6.6120889, 52.8498896]}, "properties": {"type": "inleverpunt", "locatieNaam": "Kruidvat", "straatNaam": "Hoofdstraat", "straatNr": "31", "postcode": "9431 AB", "plaats": "Westerbork", "merk": "Stibat", "puntType": "inzamelbak", "materialen": ["batterijen"], "uitbetaling": [], "vrijToegankelijk": false, "gemeenteBeperking": null, "openingstijden": null, "latitude": 52.8498896, "longitude": 6.6120889, "bronId": "L037284"}}, {"type": "Feature", "geometry": {"type": "Point", "coordinates": [6.4433728, 52.9470629]}, "properties": {"type": "inleverpunt", "locatieNaam": "Aldi", "straatNaam": "Veenhoopsweg", "straatNr": "34-36", "postcode": "9422 AC", "plaats": "Smilde", "merk": "Stibat", "puntType": "inzamelbak", "materialen": ["batterijen"], "uitbetaling": [], "vrijToegankelijk": false, "gemeenteBeperking": null, "openingstijden": null, "latitude": 52.9470629, "longitude": 6.4433728, "bronId": "L041584"}}, {"type": "Feature", "geometry": {"type": "Point", "coordinates": [6.6125754, 52.8511707]}, "properties": {"type": "inleverpunt", "locatieNaam": "Kringloopwinkel De Zandhoek", "straatNaam": "Zandhoeklaan", "straatNr": "19", "postcode": "9431 BK", "plaats": "Westerbork", "merk": "Stibat", "puntType": "inzamelbak", "materialen": ["batterijen"], "uitbetaling": [], "vrijToegankelijk": false, "gemeenteBeperking": null, "openingstijden": null, "latitude": 52.8511707, "longitude": 6.6125754, "bronId": "L045378"}}, {"type": "Feature", "geometry": {"type": "Point", "coordinates": [6.4452365, 52.9478372]}, "properties": {"type": "inleverpunt", "locatieNaam": "Jumbo", "straatNaam": "Veenhoopsweg", "straatNr": "21-4", "postcode": "9422 AB", "plaats": "Smilde", "merk": "Stibat", "puntType": "inzamelbak", "materialen": ["batterijen"], "uitbetaling": [], "vrijToegankelijk": false, "gemeenteBeperking": null, "openingstijden": null, "latitude": 52.9478372, "longitude": 6.4452365, "bronId": "L032423"}}, {"type": "Feature", "geometry": {"type": "Point", "coordinates": [6.4447999, 52.9476982]}, "properties": {"type": "inleverpunt", "locatieNaam": "Kruidvat", "straatNaam": "Veenhoopsweg", "straatNr": "27", "postcode": "9422 AB", "plaats": "Smilde", "merk": "Stibat", "puntType": "inzamelbak", "materialen": ["batterijen"], "uitbetaling": [], "vrijToegankelijk": false, "gemeenteBeperking": null, "openingstijden": null, "latitude": 52.9476982, "longitude": 6.4447999, "bronId": "L030683"}}, {"type": "Feature", "geometry": {"type": "Point", "coordinates": [6.4447999, 52.9476982]}, "properties": {"type": "inleverpunt", "locatieNaam": "1256 Action", "straatNaam": "Veenhoopsweg", "straatNr": "27-1", "postcode": "9422 AB", "plaats": "Smilde", "merk": "Stibat", "puntType": "inzamelbak", "materialen": ["batterijen"], "uitbetaling": [], "vrijToegankelijk": false, "gemeenteBeperking": null, "openingstijden": null, "latitude": 52.9476982, "longitude": 6.4447999, "bronId": "L030342"}}, {"type": "Feature", "geometry": {"type": "Point", "coordinates": [6.6645276, 52.8344549]}, "properties": {"type": "inleverpunt", "locatieNaam": "Landal Orveltermarke", "straatNaam": "Mr. J.B. Kanweg", "straatNr": "3", "postcode": "9439 TD", "plaats": "Witteveen", "merk": "Stibat", "puntType": "inzamelbak", "materialen": ["batterijen"], "uitbetaling": [], "vrijToegankelijk": false, "gemeenteBeperking": null, "openingstijden": null, "latitude": 52.8344549, "longitude": 6.6645276, "bronId": "L029604"}}, {"type": "Feature", "geometry": {"type": "Point", "coordinates": [6.6168923, 52.8690845]}, "properties": {"type": "inleverpunt", "locatieNaam": "Vakantiepark het Timmerholt", "straatNaam": "Gagelmaat", "straatNr": "4", "postcode": "9431 KT", "plaats": "Westerbork", "merk": "Stibat", "puntType": "inzamelbak", "materialen": ["batterijen"], "uitbetaling": [], "vrijToegankelijk": false, "gemeenteBeperking": null, "openingstijden": null, "latitude": 52.8690845, "longitude": 6.6168923, "bronId": "L009099"}}, {"type": "Feature", "geometry": {"type": "Point", "coordinates": [6.6575369, 52.8438441]}, "properties": {"type": "inleverpunt", "locatieNaam": "Groepsacc. \"De Borckerhof\"", "straatNaam": "Flintenweg", "straatNr": "4-6", "postcode": "9441 PC", "plaats": "Orvelte", "merk": "Stibat", "puntType": "inzamelbak", "materialen": ["batterijen"], "uitbetaling": [], "vrijToegankelijk": false, "gemeenteBeperking": null, "openingstijden": null, "latitude": 52.8438441, "longitude": 6.6575369, "bronId": "L011675"}}, {"type": "Feature", "geometry": {"type": "Point", "coordinates": [6.6125973, 52.8758692]}, "properties": {"type": "inleverpunt", "locatieNaam": "Camping Midden Drenthe", "straatNaam": "Elperweg", "straatNr": "5", "postcode": "9433 TJ", "plaats": "Zwiggelte", "merk": "Stibat", "puntType": "inzamelbak", "materialen": ["batterijen"], "uitbetaling": [], "vrijToegankelijk": false, "gemeenteBeperking": null, "openingstijden": null, "latitude": 52.8758692, "longitude": 6.6125973, "bronId": "L011452"}}, {"type": "Feature", "geometry": {"type": "Point", "coordinates": [6.5421455, 52.9203488]}, "properties": {"type": "inleverpunt", "locatieNaam": "Schreur Tweewielercentrum", "straatNaam": "Hoofdstraat", "straatNr": "12", "postcode": "9414 AC", "plaats": "Hooghalen", "merk": "Stibat", "puntType": "inzamelbak", "materialen": ["batterijen"], "uitbetaling": [], "vrijToegankelijk": false, "gemeenteBeperking": null, "openingstijden": null, "latitude": 52.9203488, "longitude": 6.5421455, "bronId": "L034248"}}, {"type": "Feature", "geometry": {"type": "Point", "coordinates": [6.6052079, 52.8846854]}, "properties": {"type": "inleverpunt", "locatieNaam": "Bungalowpark het Hart van Drent", "straatNaam": "Oranjekanaal NZ", "straatNr": "18", "postcode": "9433 TH", "plaats": "Zwiggelte", "merk": "Stibat", "puntType": "inzamelbak", "materialen": ["batterijen"], "uitbetaling": [], "vrijToegankelijk": false, "gemeenteBeperking": null, "openingstijden": null, "latitude": 52.8846854, "longitude": 6.6052079, "bronId": "L003494"}}, {"type": "Feature", "geometry": {"type": "Point", "coordinates": [6.5520037, 52.9221713]}, "properties": {"type": "inleverpunt", "locatieNaam": "Landgoed het grote zand", "straatNaam": "Hof van Halenweg", "straatNr": "2", "postcode": "9414 AG", "plaats": "Hooghalen", "merk": "Stibat", "puntType": "inzamelbak", "materialen": ["batterijen"], "uitbetaling": [], "vrijToegankelijk": false, "gemeenteBeperking": null, "openingstijden": null, "latitude": 52.9221713, "longitude": 6.5520037, "bronId": "L005018"}}, {"type": "Feature", "geometry": {"type": "Point", "coordinates": [6.4796565, 52.9791453]}, "properties": {"type": "inleverpunt", "locatieNaam": "Poiesz", "straatNaam": "Schoolstraat", "straatNr": "10", "postcode": "9421 SM", "plaats": "Bovensmilde", "merk": "Stibat", "puntType": "inzamelbak", "materialen": ["batterijen"], "uitbetaling": [], "vrijToegankelijk": false, "gemeenteBeperking": null, "openingstijden": null, "latitude": 52.9791453, "longitude": 6.4796565, "bronId": "L027770"}}, {"type": "Feature", "geometry": {"type": "Polygon", "coordinates": [[[6.587467002924007, 52.73569000431049], [6.61615400295261, 52.76291700432422], [6.660879002997051, 52.801233004343196], [6.667748003003761, 52.79970200434207], [6.675143003010978, 52.79712600434029], [6.678074003013877, 52.79912200434127], [6.675614003011486, 52.80032100434205], [6.677573003013437, 52.80267000434321], [6.679037003014875, 52.80277600434324], [6.680248003016111, 52.806559004345246], [6.681183003017044, 52.80773200434582], [6.689739003025461, 52.81005100434672], [6.690532003026238, 52.81015600434671], [6.691604003027284, 52.8097790043465], [6.691955003027632, 52.81000000434658], [6.692465003028145, 52.810929004347074], [6.691583003027284, 52.81138000434736], [6.693238003028944, 52.814099004348755], [6.694017003029712, 52.81450200434893], [6.690211003026089, 52.82267200435358], [6.688965003024872, 52.82296700435378], [6.689834003025741, 52.8240060043543], [6.69000200302593, 52.82596300435536], [6.6909720030268796, 52.825903004355276], [6.694035003029907, 52.827834004356205], [6.696025003031836, 52.82661600435542], [6.707598003043299, 52.83639200436019], [6.7063470030421515, 52.842429004363524], [6.704053003039965, 52.84697800436612], [6.71967300305528, 52.84883000436638], [6.7286290030641105, 52.853966004368765], [6.7262440030618045, 52.85647600437024], [6.7259850030615596, 52.85729300437066], [6.719858003055618, 52.86148900437321], [6.721861003057637, 52.86631700437569], [6.686374003023027, 52.875331004382254], [6.674986003012271, 52.90501700439871], [6.666734003004257, 52.90944900440147], [6.641706002979806, 52.91200100440395], [6.625450002963909, 52.912811004405135], [6.61482500295359, 52.91832700440857], [6.585828002925225, 52.91945200441045], [6.575262002915062, 52.93170700441743], [6.565071002905283, 52.94498100442495], [6.542997002883835, 52.955338004431376], [6.539478002880252, 52.94620000442671], [6.539335002880108, 52.94589700442657], [6.538876002879659, 52.94596800442658], [6.537941002878712, 52.94396100442558], [6.538910002879655, 52.94369700442541], [6.535915002876552, 52.93259100441963], [6.534603002875267, 52.93251500441962], [6.53443600287512, 52.933575004420184], [6.533160002873866, 52.933499004420185], [6.53307200287379, 52.934090004420504], [6.530398002871168, 52.933864004420556], [6.5309070028716985, 52.93587200442158], [6.527630002868484, 52.935582004421555], [6.517622002858751, 52.9397630044242], [6.519577002860715, 52.94295600442586], [6.496972002838718, 52.95156600443134], [6.4931280028348946, 52.94799600442962], [6.490587002832419, 52.94901300443027], [6.489538002831375, 52.94805900442979], [6.48394800282594, 52.95017300443116], [6.485822002827803, 52.95189800443203], [6.48626100282823, 52.95172400443189], [6.493831002835759, 52.95874700443529], [6.487558002829657, 52.96120500443686], [6.495743002837797, 52.96899100444067], [6.485502002827839, 52.97298500444321], [6.496595002838865, 52.983239004448144], [6.493913002836255, 52.984266004448806], [6.4933770028357225, 52.983765004448536], [6.492244002834622, 52.98420100444886], [6.499004002841334, 52.99021600445173], [6.4936590028361385, 52.99232400445309], [6.496041002838486, 52.993318004453485], [6.498061002840468, 52.99378100445365], [6.4925860028351, 52.99305900445351], [6.488212002831021, 53.00540500446017], [6.413280002757327, 52.985523004452766], [6.427615002771128, 52.971815004444935], [6.393436002736913, 52.93284300442557], [6.3690260027127605, 52.921976004420735], [6.385550002728854, 52.915547004416666], [6.3841730027274775, 52.91425000441602], [6.385590002728858, 52.91367600441565], [6.383439002726705, 52.91165100441464], [6.381432002724755, 52.91242400441515], [6.380992002724312, 52.91215100441501], [6.377702002721023, 52.90873700441331], [6.379399002722674, 52.90821700441296], [6.377881002721162, 52.9068650044123], [6.376441002719754, 52.90722700441253], [6.3748470027181625, 52.90584200441186], [6.3745540027178755, 52.90593400441195], [6.371311002714659, 52.90402000441102], [6.370496002713843, 52.90322700441062], [6.369018002712398, 52.90368400441094], [6.368513002711896, 52.903176004410696], [6.367221002710629, 52.903395004410854], [6.359557002702932, 52.89453000440636], [6.373266002716315, 52.890274004403565], [6.366554002709552, 52.881664004399155], [6.368833002711697, 52.87671800439645], [6.372636002715418, 52.875907004395835], [6.372085002714981, 52.88136400439882], [6.374111002717002, 52.88287700439955], [6.376770002719673, 52.886136004401195], [6.378919002721806, 52.887187004401696], [6.381472002724355, 52.889596004402875], [6.419993002762038, 52.88232200439746], [6.4202030027622365, 52.881718004397115], [6.419640002761677, 52.881475004397046], [6.42226300276423, 52.88031400439629], [6.420206002762164, 52.87791500439505], [6.427698002769421, 52.872532004391836], [6.429297002771002, 52.873114004392114], [6.429724002771399, 52.87181300439141], [6.430779002772434, 52.87186200439136], [6.431448002773056, 52.86994600439034], [6.4321440027737005, 52.86776800438911], [6.431021002772596, 52.867659004389104], [6.434345002775664, 52.85699300438317], [6.42921100277061, 52.8564400043831], [6.429579002770938, 52.85447600438204], [6.43019100277153, 52.85400100438171], [6.430163002771463, 52.85181300438055], [6.43088800277215, 52.85038500437979], [6.435521002776711, 52.85114600437997], [6.4412000027822645, 52.84991800437908], [6.451273002792159, 52.85001500437874], [6.453650002794506, 52.85049100437891], [6.457254002798072, 52.85210300437965], [6.460716002801486, 52.853066004379976], [6.463150002803805, 52.84889200437764], [6.461893002802566, 52.84847600437749], [6.4620890028027205, 52.84655800437642], [6.461153002801774, 52.84510400437568], [6.462966002803448, 52.839086004372334], [6.462667002803149, 52.83867700437216], [6.46752500280791, 52.838253004371715], [6.46989100281024, 52.83855700437177], [6.476125002816352, 52.8381610043713], [6.4800260028201615, 52.836944004370494], [6.475110002815237, 52.83138800436766], [6.467342002807435, 52.82146000436259], [6.461339002801427, 52.81534600435949], [6.460446002800566, 52.81616100435998], [6.459383002799507, 52.81542000435959], [6.459908002799997, 52.81386400435875], [6.458101002798083, 52.806275004354696], [6.455451002795371, 52.80055600435164], [6.491805002830969, 52.7931230043461], [6.496164002835131, 52.78622500434214], [6.490669002829462, 52.77088500433396], [6.493156002831907, 52.7709380043339], [6.503234002841788, 52.7693900043326], [6.505437002843931, 52.76801300433178], [6.507609002846083, 52.769103004332294], [6.512729002850996, 52.762084004328194], [6.535367002873342, 52.76810400433053], [6.537521002875412, 52.7652340043289], [6.566385002903778, 52.76557900432787], [6.557400002894619, 52.74536500431707], [6.559661002896833, 52.74506500431683], [6.573160002910017, 52.73987000431341], [6.5740360029108915, 52.74052300431373], [6.586301002922864, 52.73575400431052], [6.586593002923155, 52.73603400431066], [6.587467002924007, 52.73569000431049]]]}, "properties": {"type": "boundary", "gemeente": "Midden-Drenthe"}}]}