{"type": "FeatureCollection", "metadata": {"gemeente": "Middelburg", "slug": "middelburg", "generated_at": "2026-07-28T09:25:50.134599Z", "total_points": 109, "merken": ["StatiegeldNederland", "Stibat", "StichtingOPEN"], "bounds": [3.5943938, 51.4796078, 3.7093732, 51.5223414]}, "features": [{"type": "Feature", "geometry": {"type": "Point", "coordinates": [3.6265565, 51.5071188]}, "properties": {"type": "inleverpunt", "locatieNaam": "Albert Heijn", "straatNaam": "Fazantenhof", "straatNr": "18", "postcode": "4332 XT", "plaats": "Middelburg", "merk": "StatiegeldNederland", "puntType": "automaat", "materialen": ["pet-groot", "pet-klein", "blik", "glas", "krat"], "uitbetaling": ["bonnetje", "donatie"], "vrijToegankelijk": true, "gemeenteBeperking": null, "openingstijden": {"ma": "08:00–21:00", "di": "08:00–21:00", "wo": "08:00–21:00", "do": "08:00–21:00", "vr": "08:00–21:00", "za": "08:00–21:00", "zo": "09:00–20:00"}, "latitude": 51.5071188, "longitude": 3.6265565, "bronId": "252221"}}, {"type": "Feature", "geometry": {"type": "Point", "coordinates": [3.6073474, 51.4961527]}, "properties": {"type": "inleverpunt", "locatieNaam": "Albert Heijn", "straatNaam": "Pottenbakkerssingel", "straatNr": "2", "postcode": "4331 NA", "plaats": "Middelburg", "merk": "StatiegeldNederland", "puntType": "automaat", "materialen": ["pet-groot", "pet-klein", "blik", "glas", "krat"], "uitbetaling": ["bonnetje", "donatie"], "vrijToegankelijk": true, "gemeenteBeperking": null, "openingstijden": {"ma": "08:00–21:00", "di": "08:00–21:00", "wo": "08:00–21:00", "do": "08:00–21:00", "vr": "08:00–21:00", "za": "08:00–21:00", "zo": "08:00–21:00"}, "latitude": 51.4961527, "longitude": 3.6073474, "bronId": "252641"}}, {"type": "Feature", "geometry": {"type": "Point", "coordinates": [3.5969749, 51.5039858]}, "properties": {"type": "inleverpunt", "locatieNaam": "Aldi", "straatNaam": "Euromarkt", "straatNr": "8", "postcode": "4334 ER", "plaats": "Middelburg", "merk": "StatiegeldNederland", "puntType": "automaat", "materialen": ["pet-groot", "pet-klein", "blik", "glas", "krat"], "uitbetaling": ["bonnetje"], "vrijToegankelijk": true, "gemeenteBeperking": null, "openingstijden": {"ma": "08:00–19:00", "di": "08:00–19:00", "wo": "08:00–19:00", "do": "08:00–19:00", "vr": "08:00–19:00", "za": "08:00–19:00", "zo": "11:00–17:00"}, "latitude": 51.5039858, "longitude": 3.5969749, "bronId": "253101"}}, {"type": "Feature", "geometry": {"type": "Point", "coordinates": [3.6221462, 51.4926425]}, "properties": {"type": "inleverpunt", "locatieNaam": "Aldi", "straatNaam": "Vrijlandstraat", "straatNr": "65", "postcode": "4337 EC", "plaats": "Middelburg", "merk": "StatiegeldNederland", "puntType": "automaat", "materialen": ["pet-groot", "pet-klein", "blik", "glas", "krat"], "uitbetaling": ["bonnetje"], "vrijToegankelijk": true, "gemeenteBeperking": null, "openingstijden": {"ma": "08:00–20:00", "di": "08:00–20:00", "wo": "08:00–20:00", "do": "08:00–20:00", "vr": "08:00–20:00", "za": "08:00–20:00", "zo": "10:00–17:00"}, "latitude": 51.4926425, "longitude": 3.6221462, "bronId": "253426"}}, {"type": "Feature", "geometry": {"type": "Point", "coordinates": [3.602929, 51.489124]}, "properties": {"type": "inleverpunt", "locatieNaam": "Aldi", "straatNaam": "Westerscheldestraat", "straatNr": "50", "postcode": "4335 NH", "plaats": "Middelburg", "merk": "StatiegeldNederland", "puntType": "automaat", "materialen": ["pet-groot", "pet-klein", "blik", "glas", "krat"], "uitbetaling": ["bonnetje"], "vrijToegankelijk": true, "gemeenteBeperking": null, "openingstijden": {"ma": "08:00–20:00", "di": "08:00–20:00", "wo": "08:00–20:00", "do": "08:00–20:00", "vr": "08:00–20:00", "za": "08:00–20:00", "zo": "09:00–17:00"}, "latitude": 51.489124, "longitude": 3.602929, "bronId": "253438"}}, {"type": "Feature", "geometry": {"type": "Point", "coordinates": [3.6233074, 51.4970476]}, "properties": {"type": "inleverpunt", "locatieNaam": "Appel 2347 - Gemeente Middelburg", "straatNaam": "Kanaalweg", "straatNr": "3", "postcode": "4337 PA", "plaats": "Middelburg", "merk": "StatiegeldNederland", "puntType": "balie", "materialen": ["pet-groot", "pet-klein", "blik"], "uitbetaling": [], "vrijToegankelijk": true, "gemeenteBeperking": null, "openingstijden": {"ma": "08:30–16:30", "di": "08:30–16:30", "wo": "08:30–16:30", "do": "08:30–20:00", "vr": "08:30–16:30", "za": "Gesloten", "zo": "Gesloten"}, "latitude": 51.4970476, "longitude": 3.6233074, "bronId": "253538"}}, {"type": "Feature", "geometry": {"type": "Point", "coordinates": [3.6207039, 51.4963568]}, "properties": {"type": "inleverpunt", "locatieNaam": "Appel 2349-watersch.middelb.", "straatNaam": "Kanaalweg", "straatNr": "1", "postcode": "4337 PA", "plaats": "Middelburg", "merk": "StatiegeldNederland", "puntType": "balie", "materialen": ["pet-groot", "pet-klein", "blik"], "uitbetaling": [], "vrijToegankelijk": true, "gemeenteBeperking": null, "openingstijden": {"ma": "08:00–17:00", "di": "08:00–17:00", "wo": "08:00–17:00", "do": "08:00–17:00", "vr": "08:00–16:30", "za": "Gesloten", "zo": "Gesloten"}, "latitude": 51.4963568, "longitude": 3.6207039, "bronId": "253539"}}, {"type": "Feature", "geometry": {"type": "Point", "coordinates": [3.6767474, 51.500123]}, "properties": {"type": "inleverpunt", "locatieNaam": "Jumbo", "straatNaam": "Clasinastraat", "straatNr": "5", "postcode": "4341 ER", "plaats": "Arnemuiden", "merk": "StatiegeldNederland", "puntType": "automaat", "materialen": ["pet-groot", "pet-klein", "blik", "glas", "krat"], "uitbetaling": ["bonnetje"], "vrijToegankelijk": true, "gemeenteBeperking": null, "openingstijden": {"ma": "08:00–20:00", "di": "08:00–20:00", "wo": "08:00–20:00", "do": "08:00–20:00", "vr": "08:00–20:00", "za": "08:00–18:00", "zo": "Gesloten"}, "latitude": 51.500123, "longitude": 3.6767474, "bronId": "255272"}}, {"type": "Feature", "geometry": {"type": "Point", "coordinates": [3.617729, 51.486257]}, "properties": {"type": "inleverpunt", "locatieNaam": "Jumbo", "straatNaam": "Johan Van Reigersbergstraat", "straatNr": "11", "postcode": "4336 XA", "plaats": "Middelburg", "merk": "StatiegeldNederland", "puntType": "automaat", "materialen": ["pet-groot", "pet-klein", "blik", "glas", "krat"], "uitbetaling": ["bonnetje"], "vrijToegankelijk": true, "gemeenteBeperking": null, "openingstijden": {"ma": "08:00–21:00", "di": "08:00–21:00", "wo": "08:00–21:00", "do": "08:00–21:00", "vr": "08:00–21:00", "za": "08:00–21:00", "zo": "10:00–18:00"}, "latitude": 51.486257, "longitude": 3.617729, "bronId": "255456"}}, {"type": "Feature", "geometry": {"type": "Point", "coordinates": [3.612508, 51.509157]}, "properties": {"type": "inleverpunt", "locatieNaam": "Jumbo", "straatNaam": "Sir Winston Churchilllaan", "straatNr": "49", "postcode": "4333 BB", "plaats": "Middelburg", "merk": "StatiegeldNederland", "puntType": "automaat", "materialen": ["pet-groot", "pet-klein", "blik", "glas", "krat"], "uitbetaling": ["bonnetje", "donatie"], "vrijToegankelijk": true, "gemeenteBeperking": null, "openingstijden": {"ma": "08:00–21:00", "di": "08:00–21:00", "wo": "08:00–21:00", "do": "08:00–21:00", "vr": "08:00–21:00", "za": "08:00–21:00", "zo": "10:00–18:00"}, "latitude": 51.509157, "longitude": 3.612508, "bronId": "255749"}}, {"type": "Feature", "geometry": {"type": "Point", "coordinates": [3.621671, 51.49271]}, "properties": {"type": "inleverpunt", "locatieNaam": "Jumbo", "straatNaam": "Vrijlandstraat", "straatNr": "51", "postcode": "4337 EB", "plaats": "Middelburg", "merk": "StatiegeldNederland", "puntType": "automaat", "materialen": ["pet-groot", "pet-klein", "blik", "glas", "krat"], "uitbetaling": ["bonnetje", "donatie"], "vrijToegankelijk": true, "gemeenteBeperking": null, "openingstijden": {"ma": "08:00–21:00", "di": "08:00–21:00", "wo": "08:00–21:00", "do": "08:00–21:00", "vr": "08:00–21:00", "za": "08:00–21:00", "zo": "10:00–18:00"}, "latitude": 51.49271, "longitude": 3.621671, "bronId": "255838"}}, {"type": "Feature", "geometry": {"type": "Point", "coordinates": [3.5946546, 51.4974969]}, "properties": {"type": "inleverpunt", "locatieNaam": "Korfbalvereniging Swift", "straatNaam": "De Aanloop", "straatNr": "5", "postcode": "4335 AS", "plaats": "Middelburg", "merk": "StatiegeldNederland", "puntType": "balie", "materialen": ["pet-groot", "pet-klein", "blik"], "uitbetaling": [], "vrijToegankelijk": false, "gemeenteBeperking": null, "openingstijden": null, "latitude": 51.4974969, "longitude": 3.5946546, "bronId": "255947"}}, {"type": "Feature", "geometry": {"type": "Point", "coordinates": [3.6051524, 51.5223414]}, "properties": {"type": "inleverpunt", "locatieNaam": "Kv Ondo", "straatNaam": "Leliëndaalseweg", "straatNr": "10", "postcode": "4333 RC", "plaats": "Middelburg", "merk": "StatiegeldNederland", "puntType": "balie", "materialen": ["pet-groot", "pet-klein", "blik"], "uitbetaling": [], "vrijToegankelijk": false, "gemeenteBeperking": null, "openingstijden": null, "latitude": 51.5223414, "longitude": 3.6051524, "bronId": "255977"}}, {"type": "Feature", "geometry": {"type": "Point", "coordinates": [3.61828, 51.48584]}, "properties": {"type": "inleverpunt", "locatieNaam": "Lidl", "straatNaam": "Johan Van Reigersbergstraat", "straatNr": "3", "postcode": "4336 XA", "plaats": "Middelburg", "merk": "StatiegeldNederland", "puntType": "automaat", "materialen": ["pet-groot", "pet-klein", "blik", "glas", "krat"], "uitbetaling": ["bonnetje", "donatie"], "vrijToegankelijk": true, "gemeenteBeperking": null, "openingstijden": {"ma": "08:00–21:00", "di": "08:00–21:00", "wo": "08:00–21:00", "do": "08:00–21:00", "vr": "08:00–21:00", "za": "08:00–21:00", "zo": "09:00–19:00"}, "latitude": 51.48584, "longitude": 3.61828, "bronId": "256215"}}, {"type": "Feature", "geometry": {"type": "Point", "coordinates": [3.6343116, 51.4798944]}, "properties": {"type": "inleverpunt", "locatieNaam": "Markies 6921 Scalda Podium M", "straatNaam": "Podium", "straatNr": "15", "postcode": "4337 WV", "plaats": "Middelburg", "merk": "StatiegeldNederland", "puntType": "balie", "materialen": ["pet-groot", "pet-klein", "blik"], "uitbetaling": [], "vrijToegankelijk": true, "gemeenteBeperking": null, "openingstijden": {"ma": "07:30–18:00", "di": "07:30–18:00", "wo": "07:30–23:00", "do": "07:30–23:00", "vr": "07:30–18:00", "za": "Gesloten", "zo": "Gesloten"}, "latitude": 51.4798944, "longitude": 3.6343116, "bronId": "256604"}}, {"type": "Feature", "geometry": {"type": "Point", "coordinates": [3.6216258, 51.5156763]}, "properties": {"type": "inleverpunt", "locatieNaam": "Mzvc", "straatNaam": "Johan Lesagestraat", "straatNr": "9", "postcode": "4336 AG", "plaats": "Middelburg", "merk": "StatiegeldNederland", "puntType": "balie", "materialen": ["pet-groot", "pet-klein", "blik"], "uitbetaling": [], "vrijToegankelijk": false, "gemeenteBeperking": null, "openingstijden": {"ma": "Gesloten", "di": "19:00–22:00", "wo": "Gesloten", "do": "19:00–22:00", "vr": "Gesloten", "za": "11:00–20:00", "zo": "Gesloten"}, "latitude": 51.5156763, "longitude": 3.6216258, "bronId": "256826"}}, {"type": "Feature", "geometry": {"type": "Point", "coordinates": [3.5943938, 51.4962348]}, "properties": {"type": "inleverpunt", "locatieNaam": "Optisport Sportcomplex De Sprong", "straatNaam": "De Aanloop", "straatNr": "1B", "postcode": "4335 AS", "plaats": "Middelburg", "merk": "StatiegeldNederland", "puntType": "balie", "materialen": ["pet-groot", "pet-klein", "blik"], "uitbetaling": [], "vrijToegankelijk": false, "gemeenteBeperking": null, "openingstijden": null, "latitude": 51.4962348, "longitude": 3.5943938, "bronId": "257040"}}, {"type": "Feature", "geometry": {"type": "Point", "coordinates": [3.677841, 51.5066854]}, "properties": {"type": "inleverpunt", "locatieNaam": "Optisport Sporthal De Blikken", "straatNaam": "De Pereboomweie", "straatNr": "2", "postcode": "4341 LV", "plaats": "Arnemuiden", "merk": "StatiegeldNederland", "puntType": "balie", "materialen": ["pet-groot", "pet-klein", "blik"], "uitbetaling": [], "vrijToegankelijk": false, "gemeenteBeperking": null, "openingstijden": null, "latitude": 51.5066854, "longitude": 3.677841, "bronId": "257043"}}, {"type": "Feature", "geometry": {"type": "Point", "coordinates": [3.6027046, 51.4891676]}, "properties": {"type": "inleverpunt", "locatieNaam": "Spar", "straatNaam": "Westerscheldeplein", "straatNr": "6", "postcode": "4335 NL", "plaats": "Middelburg", "merk": "StatiegeldNederland", "puntType": "automaat", "materialen": ["pet-groot", "pet-klein", "blik", "glas", "krat"], "uitbetaling": ["bonnetje", "donatie"], "vrijToegankelijk": true, "gemeenteBeperking": null, "openingstijden": {"ma": "08:00–20:00", "di": "08:00–20:00", "wo": "08:00–20:00", "do": "08:00–20:00", "vr": "08:00–20:00", "za": "08:00–20:00", "zo": "09:00–17:00"}, "latitude": 51.4891676, "longitude": 3.6027046, "bronId": "258489"}}, {"type": "Feature", "geometry": {"type": "Point", "coordinates": [3.6156656, 51.4982475]}, "properties": {"type": "inleverpunt", "locatieNaam": "Spar City", "straatNaam": "SEGEERSSTRAAT", "straatNr": "15-17", "postcode": "4331 JM", "plaats": "Middelburg", "merk": "StatiegeldNederland", "puntType": "balie", "materialen": ["pet-groot", "pet-klein", "blik"], "uitbetaling": [], "vrijToegankelijk": true, "gemeenteBeperking": null, "openingstijden": {"ma": "07:00–22:00", "di": "07:00–22:00", "wo": "07:00–22:00", "do": "07:00–22:00", "vr": "07:00–22:00", "za": "07:00–22:00", "zo": "13:00–18:00"}, "latitude": 51.4982475, "longitude": 3.6156656, "bronId": "258517"}}, {"type": "Feature", "geometry": {"type": "Point", "coordinates": [3.5962903, 51.4952964]}, "properties": {"type": "inleverpunt", "locatieNaam": "Ttc Middelburg", "straatNaam": "De aanloop", "straatNr": "4", "postcode": "4335 AP", "plaats": "Middelburg", "merk": "StatiegeldNederland", "puntType": "balie", "materialen": ["pet-groot", "pet-klein", "blik"], "uitbetaling": [], "vrijToegankelijk": false, "gemeenteBeperking": null, "openingstijden": null, "latitude": 51.4952964, "longitude": 3.5962903, "bronId": "259040"}}, {"type": "Feature", "geometry": {"type": "Point", "coordinates": [3.6705216, 51.5005217]}, "properties": {"type": "inleverpunt", "locatieNaam": "ViaTim", "straatNaam": "Westwal", "straatNr": "38", "postcode": "4341 CE", "plaats": "Arnemuiden", "merk": "StatiegeldNederland", "puntType": "balie", "materialen": ["pet-groot", "pet-klein", "blik"], "uitbetaling": ["tikkie"], "vrijToegankelijk": true, "gemeenteBeperking": null, "openingstijden": {"ma": "10:00–21:00", "di": "10:00–21:00", "wo": "16:00–21:00", "do": "10:00–21:00", "vr": "10:00–21:00", "za": "10:00–12:00", "zo": "Gesloten"}, "latitude": 51.5005217, "longitude": 3.6705216, "bronId": "259531"}}, {"type": "Feature", "geometry": {"type": "Point", "coordinates": [3.6793477, 51.5055172]}, "properties": {"type": "inleverpunt", "locatieNaam": "Vv Arnemuiden", "straatNaam": "Oostgatplein", "straatNr": "6", "postcode": "4341 LP", "plaats": "Arnemuiden", "merk": "StatiegeldNederland", "puntType": "balie", "materialen": ["pet-groot", "pet-klein", "blik"], "uitbetaling": [], "vrijToegankelijk": false, "gemeenteBeperking": null, "openingstijden": null, "latitude": 51.5055172, "longitude": 3.6793477, "bronId": "259754"}}, {"type": "Feature", "geometry": {"type": "Point", "coordinates": [3.6222725, 51.5159335]}, "properties": {"type": "inleverpunt", "locatieNaam": "Zeelandia Middelburg", "straatNaam": "M.H. Boassonlaan", "straatNr": "6", "postcode": "4333 MH", "plaats": "Middelburg", "merk": "StatiegeldNederland", "puntType": "balie", "materialen": ["pet-groot", "pet-klein", "blik"], "uitbetaling": [], "vrijToegankelijk": false, "gemeenteBeperking": null, "openingstijden": {"ma": "08:30–12:00", "di": "Gesloten", "wo": "20:00–23:00", "do": "08:30–12:30, 20:00–23:00", "vr": "08:30–12:30", "za": "08:00–18:00", "zo": "09:00–13:00"}, "latitude": 51.5159335, "longitude": 3.6222725, "bronId": "259887"}}, {"type": "Feature", "geometry": {"type": "Point", "coordinates": [3.67664, 51.50021]}, "properties": {"type": "inleverpunt", "locatieNaam": "Jumbo Tilburg", "straatNaam": "Clasinastraat", "straatNr": "5", "postcode": "4341 ER", "plaats": "Arnemuiden", "merk": "StichtingOPEN", "puntType": "balie", "materialen": ["batterijen", "elektro-klein", "lampen"], "uitbetaling": [], "vrijToegankelijk": false, "gemeenteBeperking": null, "openingstijden": null, "latitude": 51.50021, "longitude": 3.67664, "bronId": "SP00030206"}}, {"type": "Feature", "geometry": {"type": "Point", "coordinates": [3.62641, 51.50693]}, "properties": {"type": "inleverpunt", "locatieNaam": "Kruidvat Middelburg", "straatNaam": "Fazantenhof", "straatNr": "16", "postcode": "4332 XT", "plaats": "Middelburg", "merk": "StichtingOPEN", "puntType": "balie", "materialen": ["batterijen", "lampen"], "uitbetaling": [], "vrijToegankelijk": false, "gemeenteBeperking": null, "openingstijden": null, "latitude": 51.50693, "longitude": 3.62641, "bronId": "SP00029659"}}, {"type": "Feature", "geometry": {"type": "Point", "coordinates": [3.625506, 51.507266]}, "properties": {"type": "inleverpunt", "locatieNaam": "1646 Albert Heijn Middelburg", "straatNaam": "Fazantenhof", "straatNr": "18", "postcode": "4332 XT", "plaats": "Middelburg", "merk": "StichtingOPEN", "puntType": "balie", "materialen": ["batterijen", "elektro-klein", "lampen"], "uitbetaling": [], "vrijToegankelijk": false, "gemeenteBeperking": null, "openingstijden": null, "latitude": 51.507266, "longitude": 3.625506, "bronId": "SP00022581"}}, {"type": "Feature", "geometry": {"type": "Point", "coordinates": [3.612304, 51.509131]}, "properties": {"type": "inleverpunt", "locatieNaam": "Jumbo Middelburg", "straatNaam": "Sir Winston Churchill-laan", "straatNr": "49", "postcode": "4333 BB", "plaats": "Middelburg", "merk": "StichtingOPEN", "puntType": "balie", "materialen": ["batterijen", "lampen"], "uitbetaling": [], "vrijToegankelijk": false, "gemeenteBeperking": null, "openingstijden": null, "latitude": 51.509131, "longitude": 3.612304, "bronId": "SP00025012"}}, {"type": "Feature", "geometry": {"type": "Point", "coordinates": [3.616837, 51.498027]}, "properties": {"type": "inleverpunt", "locatieNaam": "Minet Electronic Partner", "straatNaam": "Londensekaai", "straatNr": "17", "postcode": "4331 JG", "plaats": "Middelburg", "merk": "StichtingOPEN", "puntType": "balie", "materialen": ["elektro-klein", "elektro-middel"], "uitbetaling": [], "vrijToegankelijk": false, "gemeenteBeperking": null, "openingstijden": null, "latitude": 51.498027, "longitude": 3.616837, "bronId": "SP00002348"}}, {"type": "Feature", "geometry": {"type": "Point", "coordinates": [3.62212, 51.49247]}, "properties": {"type": "inleverpunt", "locatieNaam": "Jumbo Eindhoven", "straatNaam": "Vrijlandstraat", "straatNr": "51", "postcode": "4337 EB", "plaats": "Middelburg", "merk": "StichtingOPEN", "puntType": "balie", "materialen": ["batterijen", "elektro-klein", "lampen"], "uitbetaling": [], "vrijToegankelijk": false, "gemeenteBeperking": null, "openingstijden": null, "latitude": 51.49247, "longitude": 3.62212, "bronId": "SP00030205"}}, {"type": "Feature", "geometry": {"type": "Point", "coordinates": [3.61548, 51.49864]}, "properties": {"type": "inleverpunt", "locatieNaam": "Kruidvat Middelburg", "straatNaam": "Lange Delft", "straatNr": "60-62", "postcode": "4331 AR", "plaats": "Middelburg", "merk": "StichtingOPEN", "puntType": "balie", "materialen": ["batterijen", "lampen"], "uitbetaling": [], "vrijToegankelijk": false, "gemeenteBeperking": null, "openingstijden": null, "latitude": 51.49864, "longitude": 3.61548, "bronId": "SP00029747"}}, {"type": "Feature", "geometry": {"type": "Point", "coordinates": [3.615448, 51.498659]}, "properties": {"type": "inleverpunt", "locatieNaam": "Kruidvat Middelburg", "straatNaam": "Lange Delft", "straatNr": "6062", "postcode": "4331 AS", "plaats": "Middelburg", "merk": "StichtingOPEN", "puntType": "balie", "materialen": ["batterijen", "lampen"], "uitbetaling": [], "vrijToegankelijk": false, "gemeenteBeperking": null, "openingstijden": null, "latitude": 51.498659, "longitude": 3.615448, "bronId": "SP00024888"}}, {"type": "Feature", "geometry": {"type": "Point", "coordinates": [3.615665, 51.498247]}, "properties": {"type": "inleverpunt", "locatieNaam": "Spar Middelburg City", "straatNaam": "Segeersstraat", "straatNr": "1517", "postcode": "4331 JM", "plaats": "Middelburg", "merk": "StichtingOPEN", "puntType": "balie", "materialen": ["batterijen", "lampen"], "uitbetaling": [], "vrijToegankelijk": false, "gemeenteBeperking": null, "openingstijden": null, "latitude": 51.498247, "longitude": 3.615665, "bronId": "SP00031450"}}, {"type": "Feature", "geometry": {"type": "Point", "coordinates": [3.620711, 51.487885]}, "properties": {"type": "inleverpunt", "locatieNaam": "Kinderboerderij de Klepperhoeve", "straatNaam": "Meiveldpad", "straatNr": "55", "postcode": "4336 XW", "plaats": "Middelburg", "merk": "StichtingOPEN", "puntType": "balie", "materialen": ["elektro-middel"], "uitbetaling": [], "vrijToegankelijk": false, "gemeenteBeperking": null, "openingstijden": null, "latitude": 51.487885, "longitude": 3.620711, "bronId": "SP00004947"}}, {"type": "Feature", "geometry": {"type": "Point", "coordinates": [3.608877, 51.496677]}, "properties": {"type": "inleverpunt", "locatieNaam": "Kruidvat Middelburg", "straatNaam": "Lange Geere", "straatNr": "151", "postcode": "4331 MG", "plaats": "Middelburg", "merk": "StichtingOPEN", "puntType": "balie", "materialen": ["batterijen", "lampen"], "uitbetaling": [], "vrijToegankelijk": false, "gemeenteBeperking": null, "openingstijden": null, "latitude": 51.496677, "longitude": 3.608877, "bronId": "SP00024495"}}, {"type": "Feature", "geometry": {"type": "Point", "coordinates": [3.624908, 51.479692]}, "properties": {"type": "inleverpunt", "locatieNaam": "Groenrijk Middelburg", "straatNaam": "Mortiereboulevard", "straatNr": "2", "postcode": "4336 RA", "plaats": "Middelburg", "merk": "StichtingOPEN", "puntType": "balie", "materialen": ["elektro-klein", "lampen"], "uitbetaling": [], "vrijToegankelijk": false, "gemeenteBeperking": null, "openingstijden": null, "latitude": 51.479692, "longitude": 3.624908, "bronId": "SP00020405"}}, {"type": "Feature", "geometry": {"type": "Point", "coordinates": [3.6181, 51.486061]}, "properties": {"type": "inleverpunt", "locatieNaam": "Kruidvat Middelburg", "straatNaam": "Johan van Reigersbergstraat", "straatNr": "9", "postcode": "4336 XA", "plaats": "Middelburg", "merk": "StichtingOPEN", "puntType": "balie", "materialen": ["batterijen", "lampen"], "uitbetaling": [], "vrijToegankelijk": false, "gemeenteBeperking": null, "openingstijden": null, "latitude": 51.486061, "longitude": 3.6181, "bronId": "SP00024491"}}, {"type": "Feature", "geometry": {"type": "Point", "coordinates": [3.623054, 51.480707]}, "properties": {"type": "inleverpunt", "locatieNaam": "KARWEI Middelburg", "straatNaam": "Mortiereboulevard", "straatNr": "8", "postcode": "4336 RA", "plaats": "Middelburg", "merk": "StichtingOPEN", "puntType": "balie", "materialen": ["elektro-middel", "lampen", "tl-buizen"], "uitbetaling": [], "vrijToegankelijk": false, "gemeenteBeperking": null, "openingstijden": null, "latitude": 51.480707, "longitude": 3.623054, "bronId": "SP00003640"}}, {"type": "Feature", "geometry": {"type": "Point", "coordinates": [3.623817, 51.479855]}, "properties": {"type": "inleverpunt", "locatieNaam": "Media Markt Middelburg, p/a Mortiereboulevard 4", "straatNaam": "Mortiereboulevard", "straatNr": "4", "postcode": "4336 RA", "plaats": "Middelburg", "merk": "StichtingOPEN", "puntType": "balie", "materialen": ["elektro-middel", "lampen"], "uitbetaling": [], "vrijToegankelijk": false, "gemeenteBeperking": null, "openingstijden": null, "latitude": 51.479855, "longitude": 3.623817, "bronId": "SP00004206"}}, {"type": "Feature", "geometry": {"type": "Point", "coordinates": [3.623184, 51.480356]}, "properties": {"type": "inleverpunt", "locatieNaam": "Praxis Middelburg - 2043", "straatNaam": "Mortiereboulevard", "straatNr": "6", "postcode": "4336 RA", "plaats": "Middelburg", "merk": "StichtingOPEN", "puntType": "balie", "materialen": ["elektro-middel", "lampen", "tl-buizen"], "uitbetaling": [], "vrijToegankelijk": false, "gemeenteBeperking": null, "openingstijden": null, "latitude": 51.480356, "longitude": 3.623184, "bronId": "SP00004594"}}, {"type": "Feature", "geometry": {"type": "Point", "coordinates": [3.61758, 51.48604]}, "properties": {"type": "inleverpunt", "locatieNaam": "Jumbo Valkenswaard", "straatNaam": "Johan van Reigersbergstraat", "straatNr": "11", "postcode": "4336 XA", "plaats": "Middelburg", "merk": "StichtingOPEN", "puntType": "balie", "materialen": ["batterijen", "elektro-klein", "lampen"], "uitbetaling": [], "vrijToegankelijk": false, "gemeenteBeperking": null, "openingstijden": null, "latitude": 51.48604, "longitude": 3.61758, "bronId": "SP00030204"}}, {"type": "Feature", "geometry": {"type": "Point", "coordinates": [3.607852, 51.495979]}, "properties": {"type": "inleverpunt", "locatieNaam": "1620 Albert Heijn XL Middelburg", "straatNaam": "Pottenbakkerssingel", "straatNr": "2", "postcode": "4331 NA", "plaats": "Middelburg", "merk": "StichtingOPEN", "puntType": "balie", "materialen": ["batterijen", "elektro-klein", "lampen"], "uitbetaling": [], "vrijToegankelijk": false, "gemeenteBeperking": null, "openingstijden": null, "latitude": 51.495979, "longitude": 3.607852, "bronId": "SP00022576"}}, {"type": "Feature", "geometry": {"type": "Point", "coordinates": [3.607769, 51.495853]}, "properties": {"type": "inleverpunt", "locatieNaam": "Action Middelburg 1266", "straatNaam": "Pottenbakkerssingel", "straatNr": "4", "postcode": "4331 NA", "plaats": "Middelburg", "merk": "StichtingOPEN", "puntType": "balie", "materialen": ["batterijen", "lampen"], "uitbetaling": [], "vrijToegankelijk": false, "gemeenteBeperking": null, "openingstijden": null, "latitude": 51.495853, "longitude": 3.607769, "bronId": "SP00007840"}}, {"type": "Feature", "geometry": {"type": "Point", "coordinates": [3.606878, 51.496703]}, "properties": {"type": "inleverpunt", "locatieNaam": "Onderdelenhuis Ytsma", "straatNaam": "Achter de houttuinen", "straatNr": "46", "postcode": "4331 NJ", "plaats": "Middelburg", "merk": "StichtingOPEN", "puntType": "balie", "materialen": ["batterijen", "elektro-klein", "lampen", "tl-buizen"], "uitbetaling": [], "vrijToegankelijk": false, "gemeenteBeperking": null, "openingstijden": null, "latitude": 51.496703, "longitude": 3.606878, "bronId": "SP00032408"}}, {"type": "Feature", "geometry": {"type": "Point", "coordinates": [3.596974, 51.503985]}, "properties": {"type": "inleverpunt", "locatieNaam": "Aldi Middelburg", "straatNaam": "Euromarkt", "straatNr": "8", "postcode": "4334 ER", "plaats": "Middelburg", "merk": "StichtingOPEN", "puntType": "balie", "materialen": ["batterijen", "elektro-klein", "lampen"], "uitbetaling": [], "vrijToegankelijk": false, "gemeenteBeperking": null, "openingstijden": null, "latitude": 51.503985, "longitude": 3.596974, "bronId": "SP00027143"}}, {"type": "Feature", "geometry": {"type": "Point", "coordinates": [3.602929, 51.489124]}, "properties": {"type": "inleverpunt", "locatieNaam": "Aldi Middelburg", "straatNaam": "Westerscheldeplein", "straatNr": "2", "postcode": "4335 NL", "plaats": "Middelburg", "merk": "StichtingOPEN", "puntType": "balie", "materialen": ["batterijen", "elektro-klein", "lampen"], "uitbetaling": [], "vrijToegankelijk": false, "gemeenteBeperking": null, "openingstijden": null, "latitude": 51.489124, "longitude": 3.602929, "bronId": "SP00027121"}}, {"type": "Feature", "geometry": {"type": "Point", "coordinates": [3.602839, 51.488954]}, "properties": {"type": "inleverpunt", "locatieNaam": "Spar Middelburg", "straatNaam": "Westerscheldeplein", "straatNr": "6", "postcode": "4335 NL", "plaats": "Middelburg", "merk": "StichtingOPEN", "puntType": "balie", "materialen": ["batterijen", "lampen"], "uitbetaling": [], "vrijToegankelijk": false, "gemeenteBeperking": null, "openingstijden": null, "latitude": 51.488954, "longitude": 3.602839, "bronId": "SP00022374"}}, {"type": "Feature", "geometry": {"type": "Point", "coordinates": [3.644062, 51.497425]}, "properties": {"type": "inleverpunt", "locatieNaam": "ZRD - Milieustraat Middelburg", "straatNaam": "Waldammeweg", "straatNr": "9", "postcode": "4338 PM", "plaats": "Middelburg", "merk": "StichtingOPEN", "puntType": "milieustraat", "materialen": ["batterijen", "elektro-groot", "elektro-klein", "elektro-middel", "lampen", "tl-buizen"], "uitbetaling": [], "vrijToegankelijk": false, "gemeenteBeperking": ["Middelburg", "Borsele", "Goes", "Kapelle", "Reimerswaal", "Veere", "Vlissingen", "Noord-Beveland"], "openingstijden": null, "latitude": 51.497425, "longitude": 3.644062, "bronId": "SP00001522"}}, {"type": "Feature", "geometry": {"type": "Point", "coordinates": [3.7093732, 51.5106314]}, "properties": {"type": "inleverpunt", "locatieNaam": "Waterpark Veerse Meer Beheer", "straatNaam": "Muidenweg", "straatNr": "3", "postcode": "4341 PX", "plaats": "ARNEMUIDEN", "merk": "Stibat", "puntType": "inzamelbak", "materialen": ["batterijen"], "uitbetaling": [], "vrijToegankelijk": false, "gemeenteBeperking": null, "openingstijden": null, "latitude": 51.5106314, "longitude": 3.7093732, "bronId": "L002994"}}, {"type": "Feature", "geometry": {"type": "Point", "coordinates": [3.6774699, 51.5004956]}, "properties": {"type": "inleverpunt", "locatieNaam": "Jumbo", "straatNaam": "Clasinastraat", "straatNr": "5", "postcode": "4341 ER", "plaats": "ARNEMUIDEN", "merk": "Stibat", "puntType": "inzamelbak", "materialen": ["batterijen"], "uitbetaling": [], "vrijToegankelijk": false, "gemeenteBeperking": null, "openingstijden": null, "latitude": 51.5004956, "longitude": 3.6774699, "bronId": "L040474"}}, {"type": "Feature", "geometry": {"type": "Point", "coordinates": [3.6758696, 51.5001844]}, "properties": {"type": "inleverpunt", "locatieNaam": "Primera", "straatNaam": "Nieuwlandseweg", "straatNr": "2-4", "postcode": "4341 CP", "plaats": "ARNEMUIDEN", "merk": "Stibat", "puntType": "inzamelbak", "materialen": ["batterijen"], "uitbetaling": [], "vrijToegankelijk": false, "gemeenteBeperking": null, "openingstijden": null, "latitude": 51.5001844, "longitude": 3.6758696, "bronId": "L038423"}}, {"type": "Feature", "geometry": {"type": "Point", "coordinates": [3.6528922, 51.4961062]}, "properties": {"type": "inleverpunt", "locatieNaam": "De Rijdende Fietsenmaker", "straatNaam": "Anodeweg", "straatNr": "12", "postcode": "4338 RA", "plaats": "MIDDELBURG", "merk": "Stibat", "puntType": "inzamelbak", "materialen": ["batterijen"], "uitbetaling": [], "vrijToegankelijk": false, "gemeenteBeperking": null, "openingstijden": null, "latitude": 51.4961062, "longitude": 3.6528922, "bronId": "L036820"}}, {"type": "Feature", "geometry": {"type": "Point", "coordinates": [3.6539628, 51.4946185]}, "properties": {"type": "inleverpunt", "locatieNaam": "De Klerk Elektro", "straatNaam": "Ampereweg", "straatNr": "26 L", "postcode": "4338 PT", "plaats": "MIDDELBURG", "merk": "Stibat", "puntType": "inzamelbak", "materialen": ["batterijen"], "uitbetaling": [], "vrijToegankelijk": false, "gemeenteBeperking": null, "openingstijden": null, "latitude": 51.4946185, "longitude": 3.6539628, "bronId": "L026936"}}, {"type": "Feature", "geometry": {"type": "Point", "coordinates": [3.6446012, 51.4971873]}, "properties": {"type": "inleverpunt", "locatieNaam": "Milieustraat Middelburg", "straatNaam": "Waldammeweg", "straatNr": "9", "postcode": "4338 PM", "plaats": "MIDDELBURG", "merk": "Stibat", "puntType": "inzamelbak", "materialen": ["batterijen"], "uitbetaling": [], "vrijToegankelijk": false, "gemeenteBeperking": null, "openingstijden": null, "latitude": 51.4971873, "longitude": 3.6446012, "bronId": "L035717"}}, {"type": "Feature", "geometry": {"type": "Point", "coordinates": [3.6416639, 51.4955514]}, "properties": {"type": "inleverpunt", "locatieNaam": "Van der Peijl", "straatNaam": "Herculesweg", "straatNr": "21", "postcode": "4338 PL", "plaats": "MIDDELBURG", "merk": "Stibat", "puntType": "inzamelbak", "materialen": ["batterijen"], "uitbetaling": [], "vrijToegankelijk": false, "gemeenteBeperking": null, "openingstijden": null, "latitude": 51.4955514, "longitude": 3.6416639, "bronId": "L042140"}}, {"type": "Feature", "geometry": {"type": "Point", "coordinates": [3.6406612, 51.4936261]}, "properties": {"type": "inleverpunt", "locatieNaam": "Raab Karcher", "straatNaam": "Waldammeweg", "straatNr": "2", "postcode": "4338 PJ", "plaats": "MIDDELBURG", "merk": "Stibat", "puntType": "inzamelbak", "materialen": ["batterijen"], "uitbetaling": [], "vrijToegankelijk": false, "gemeenteBeperking": null, "openingstijden": null, "latitude": 51.4936261, "longitude": 3.6406612, "bronId": "L043779"}}, {"type": "Feature", "geometry": {"type": "Point", "coordinates": [3.6264076, 51.5070542]}, "properties": {"type": "inleverpunt", "locatieNaam": "1646 Albert Heijn", "straatNaam": "Fazantenhof", "straatNr": "18", "postcode": "4332 XT", "plaats": "MIDDELBURG", "merk": "Stibat", "puntType": "inzamelbak", "materialen": ["batterijen"], "uitbetaling": [], "vrijToegankelijk": false, "gemeenteBeperking": null, "openingstijden": null, "latitude": 51.5070542, "longitude": 3.6264076, "bronId": "L024673"}}, {"type": "Feature", "geometry": {"type": "Point", "coordinates": [3.6264122, 51.5069357]}, "properties": {"type": "inleverpunt", "locatieNaam": "Kruidvat", "straatNaam": "Fazantenhof", "straatNr": "16", "postcode": "4332 XT", "plaats": "MIDDELBURG", "merk": "Stibat", "puntType": "inzamelbak", "materialen": ["batterijen"], "uitbetaling": [], "vrijToegankelijk": false, "gemeenteBeperking": null, "openingstijden": null, "latitude": 51.5069357, "longitude": 3.6264122, "bronId": "L026609"}}, {"type": "Feature", "geometry": {"type": "Point", "coordinates": [3.612511, 51.5091599]}, "properties": {"type": "inleverpunt", "locatieNaam": "Jumbo", "straatNaam": "Sir W. Churchilllaan", "straatNr": "49", "postcode": "4333 BB", "plaats": "MIDDELBURG", "merk": "Stibat", "puntType": "inzamelbak", "materialen": ["batterijen"], "uitbetaling": [], "vrijToegankelijk": false, "gemeenteBeperking": null, "openingstijden": null, "latitude": 51.5091599, "longitude": 3.612511, "bronId": "L006303"}}, {"type": "Feature", "geometry": {"type": "Point", "coordinates": [3.6161232, 51.4991215]}, "properties": {"type": "inleverpunt", "locatieNaam": "KPN winkel", "straatNaam": "Lange Delft", "straatNr": "86", "postcode": "4331 AS", "plaats": "MIDDELBURG", "merk": "Stibat", "puntType": "inzamelbak", "materialen": ["batterijen"], "uitbetaling": [], "vrijToegankelijk": false, "gemeenteBeperking": null, "openingstijden": null, "latitude": 51.4991215, "longitude": 3.6161232, "bronId": "L006541"}}, {"type": "Feature", "geometry": {"type": "Point", "coordinates": [3.622648, 51.4923076]}, "properties": {"type": "inleverpunt", "locatieNaam": "Primera", "straatNaam": "Vrijlandstraat", "straatNr": "79", "postcode": "4337 EC", "plaats": "MIDDELBURG", "merk": "Stibat", "puntType": "inzamelbak", "materialen": ["batterijen"], "uitbetaling": [], "vrijToegankelijk": false, "gemeenteBeperking": null, "openingstijden": null, "latitude": 51.4923076, "longitude": 3.622648, "bronId": "L022571"}}, {"type": "Feature", "geometry": {"type": "Point", "coordinates": [3.6221462, 51.4926425]}, "properties": {"type": "inleverpunt", "locatieNaam": "Aldi", "straatNaam": "Vrijlandstraat", "straatNr": "65", "postcode": "4337 EC", "plaats": "MIDDELBURG", "merk": "Stibat", "puntType": "inzamelbak", "materialen": ["batterijen"], "uitbetaling": [], "vrijToegankelijk": false, "gemeenteBeperking": null, "openingstijden": null, "latitude": 51.4926425, "longitude": 3.6221462, "bronId": "L046495"}}, {"type": "Feature", "geometry": {"type": "Point", "coordinates": [3.6158844, 51.4988973]}, "properties": {"type": "inleverpunt", "locatieNaam": "Zeeman", "straatNaam": "Lange Delft", "straatNr": "76", "postcode": "4331 AS", "plaats": "Middelburg", "merk": "Stibat", "puntType": "inzamelbak", "materialen": ["batterijen"], "uitbetaling": [], "vrijToegankelijk": false, "gemeenteBeperking": null, "openingstijden": null, "latitude": 51.4988973, "longitude": 3.6158844, "bronId": "L021353"}}, {"type": "Feature", "geometry": {"type": "Point", "coordinates": [3.6216543, 51.4926792]}, "properties": {"type": "inleverpunt", "locatieNaam": "Jumbo", "straatNaam": "Vrijlandstraat", "straatNr": "51", "postcode": "4337 EB", "plaats": "MIDDELBURG", "merk": "Stibat", "puntType": "inzamelbak", "materialen": ["batterijen"], "uitbetaling": [], "vrijToegankelijk": false, "gemeenteBeperking": null, "openingstijden": null, "latitude": 51.4926792, "longitude": 3.6216543, "bronId": "L040429"}}, {"type": "Feature", "geometry": {"type": "Point", "coordinates": [3.6219879, 51.4922159]}, "properties": {"type": "inleverpunt", "locatieNaam": "Fietsmobielnet", "straatNaam": "Vrijlandstraat", "straatNr": "55", "postcode": "4347 EB", "plaats": "Middelburg", "merk": "Stibat", "puntType": "inzamelbak", "materialen": ["batterijen"], "uitbetaling": [], "vrijToegankelijk": false, "gemeenteBeperking": null, "openingstijden": null, "latitude": 51.4922159, "longitude": 3.6219879, "bronId": "L049486"}}, {"type": "Feature", "geometry": {"type": "Point", "coordinates": [3.6331533, 51.4807252]}, "properties": {"type": "inleverpunt", "locatieNaam": "Toys XL", "straatNaam": "Podium", "straatNr": "1", "postcode": "4337 WV", "plaats": "MIDDELBURG", "merk": "Stibat", "puntType": "inzamelbak", "materialen": ["batterijen"], "uitbetaling": [], "vrijToegankelijk": false, "gemeenteBeperking": null, "openingstijden": null, "latitude": 51.4807252, "longitude": 3.6331533, "bronId": "L028435"}}, {"type": "Feature", "geometry": {"type": "Point", "coordinates": [3.62179, 51.4921725]}, "properties": {"type": "inleverpunt", "locatieNaam": "Zeeman", "straatNaam": "Vrijlandstraat", "straatNr": "53", "postcode": "4337 EB", "plaats": "Middelburg", "merk": "Stibat", "puntType": "inzamelbak", "materialen": ["batterijen"], "uitbetaling": [], "vrijToegankelijk": false, "gemeenteBeperking": null, "openingstijden": null, "latitude": 51.4921725, "longitude": 3.62179, "bronId": "L019343"}}, {"type": "Feature", "geometry": {"type": "Point", "coordinates": [3.6154306, 51.4986445]}, "properties": {"type": "inleverpunt", "locatieNaam": "Kruidvat", "straatNaam": "Lange Delft", "straatNr": "60-62", "postcode": "4331 AR", "plaats": "MIDDELBURG", "merk": "Stibat", "puntType": "inzamelbak", "materialen": ["batterijen"], "uitbetaling": [], "vrijToegankelijk": false, "gemeenteBeperking": null, "openingstijden": null, "latitude": 51.4986445, "longitude": 3.6154306, "bronId": "L015045"}}, {"type": "Feature", "geometry": {"type": "Point", "coordinates": [3.6170536, 51.496153]}, "properties": {"type": "inleverpunt", "locatieNaam": "Fietsspecialist Piet Voskamp", "straatNaam": "Stationsstraat", "straatNr": "52", "postcode": "4331 JB", "plaats": "MIDDELBURG", "merk": "Stibat", "puntType": "inzamelbak", "materialen": ["batterijen"], "uitbetaling": [], "vrijToegankelijk": false, "gemeenteBeperking": null, "openingstijden": null, "latitude": 51.496153, "longitude": 3.6170536, "bronId": "L033345"}}, {"type": "Feature", "geometry": {"type": "Point", "coordinates": [3.6147013, 51.4985075]}, "properties": {"type": "inleverpunt", "locatieNaam": "DOUGLAS", "straatNaam": "Lange Delft", "straatNr": "45", "postcode": "4331 AL", "plaats": "MIDDELBURG", "merk": "Stibat", "puntType": "inzamelbak", "materialen": ["batterijen"], "uitbetaling": [], "vrijToegankelijk": false, "gemeenteBeperking": null, "openingstijden": null, "latitude": 51.4985075, "longitude": 3.6147013, "bronId": "L049192"}}, {"type": "Feature", "geometry": {"type": "Point", "coordinates": [3.6110313, 51.50236]}, "properties": {"type": "inleverpunt", "locatieNaam": "Petiet Tweewielers", "straatNaam": "Korte Noordstraat", "straatNr": "53-55", "postcode": "4331 CH", "plaats": "MIDDELBURG", "merk": "Stibat", "puntType": "inzamelbak", "materialen": ["batterijen"], "uitbetaling": [], "vrijToegankelijk": false, "gemeenteBeperking": null, "openingstijden": null, "latitude": 51.50236, "longitude": 3.6110313, "bronId": "L033344"}}, {"type": "Feature", "geometry": {"type": "Point", "coordinates": [3.6138472, 51.4991731]}, "properties": {"type": "inleverpunt", "locatieNaam": "ANWB", "straatNaam": "Nieuwe Burg", "straatNr": "40", "postcode": "4331 AH", "plaats": "MIDDELBURG", "merk": "Stibat", "puntType": "inzamelbak", "materialen": ["batterijen"], "uitbetaling": [], "vrijToegankelijk": false, "gemeenteBeperking": null, "openingstijden": null, "latitude": 51.4991731, "longitude": 3.6138472, "bronId": "L044621"}}, {"type": "Feature", "geometry": {"type": "Point", "coordinates": [3.6136437, 51.499117]}, "properties": {"type": "inleverpunt", "locatieNaam": "Beter Horen", "straatNaam": "Nieuwe Burg", "straatNr": "34", "postcode": "4331 AH", "plaats": "MIDDELBURG", "merk": "Stibat", "puntType": "inzamelbak", "materialen": ["batterijen"], "uitbetaling": [], "vrijToegankelijk": false, "gemeenteBeperking": null, "openingstijden": null, "latitude": 51.499117, "longitude": 3.6136437, "bronId": "L029492"}}, {"type": "Feature", "geometry": {"type": "Point", "coordinates": [3.613555, 51.4990925]}, "properties": {"type": "inleverpunt", "locatieNaam": "Intertoys", "straatNaam": "Nieuwe Burg", "straatNr": "32", "postcode": "4331 AH", "plaats": "MIDDELBURG", "merk": "Stibat", "puntType": "inzamelbak", "materialen": ["batterijen"], "uitbetaling": [], "vrijToegankelijk": false, "gemeenteBeperking": null, "openingstijden": null, "latitude": 51.4990925, "longitude": 3.613555, "bronId": "L006051"}}, {"type": "Feature", "geometry": {"type": "Point", "coordinates": [3.6141027, 51.4983456]}, "properties": {"type": "inleverpunt", "locatieNaam": "Xenos", "straatNaam": "Lange Delft", "straatNr": "31a", "postcode": "4331 AK", "plaats": "MIDDELBURG", "merk": "Stibat", "puntType": "inzamelbak", "materialen": ["batterijen"], "uitbetaling": [], "vrijToegankelijk": false, "gemeenteBeperking": null, "openingstijden": null, "latitude": 51.4983456, "longitude": 3.6141027, "bronId": "L036934"}}, {"type": "Feature", "geometry": {"type": "Point", "coordinates": [3.6142111, 51.4981495]}, "properties": {"type": "inleverpunt", "locatieNaam": "SoLow (kadobar)", "straatNaam": "Lange Delft", "straatNr": "30", "postcode": "4331 AP", "plaats": "MIDDELBURG", "merk": "Stibat", "puntType": "inzamelbak", "materialen": ["batterijen"], "uitbetaling": [], "vrijToegankelijk": false, "gemeenteBeperking": null, "openingstijden": null, "latitude": 51.4981495, "longitude": 3.6142111, "bronId": "L044109"}}, {"type": "Feature", "geometry": {"type": "Point", "coordinates": [3.6138666, 51.4983429]}, "properties": {"type": "inleverpunt", "locatieNaam": "HEMA Lange Delft", "straatNaam": "Lange Delft", "straatNr": "31-B", "postcode": "4331 AK", "plaats": "MIDDELBURG", "merk": "Stibat", "puntType": "inzamelbak", "materialen": ["batterijen"], "uitbetaling": [], "vrijToegankelijk": false, "gemeenteBeperking": null, "openingstijden": null, "latitude": 51.4983429, "longitude": 3.6138666, "bronId": "L008162"}}, {"type": "Feature", "geometry": {"type": "Point", "coordinates": [3.6137986, 51.4983401]}, "properties": {"type": "inleverpunt", "locatieNaam": "Primera", "straatNaam": "Lange Delft", "straatNr": "29", "postcode": "4331 AK", "plaats": "MIDDELBURG", "merk": "Stibat", "puntType": "inzamelbak", "materialen": ["batterijen"], "uitbetaling": [], "vrijToegankelijk": false, "gemeenteBeperking": null, "openingstijden": null, "latitude": 51.4983401, "longitude": 3.6137986, "bronId": "L022542"}}, {"type": "Feature", "geometry": {"type": "Point", "coordinates": [3.6138229, 51.4981062]}, "properties": {"type": "inleverpunt", "locatieNaam": "7376 Etos", "straatNaam": "Lange Delft", "straatNr": "22", "postcode": "4331 AN", "plaats": "MIDDELBURG", "merk": "Stibat", "puntType": "inzamelbak", "materialen": ["batterijen"], "uitbetaling": [], "vrijToegankelijk": false, "gemeenteBeperking": null, "openingstijden": null, "latitude": 51.4981062, "longitude": 3.6138229, "bronId": "L023138"}}, {"type": "Feature", "geometry": {"type": "Point", "coordinates": [3.6134678, 51.4982787]}, "properties": {"type": "inleverpunt", "locatieNaam": "Specsavers", "straatNaam": "Lange Delft", "straatNr": "17", "postcode": "4331 AJ", "plaats": "Middelburg", "merk": "Stibat", "puntType": "inzamelbak", "materialen": ["batterijen"], "uitbetaling": [], "vrijToegankelijk": false, "gemeenteBeperking": null, "openingstijden": null, "latitude": 51.4982787, "longitude": 3.6134678, "bronId": "L045057"}}, {"type": "Feature", "geometry": {"type": "Point", "coordinates": [3.6284498, 51.48277]}, "properties": {"type": "inleverpunt", "locatieNaam": "Hulpmiddelencentrum (Beenhakker)", "straatNaam": "Klarinetweg", "straatNr": "2D", "postcode": "4337 RA", "plaats": "MIDDELBURG", "merk": "Stibat", "puntType": "inzamelbak", "materialen": ["batterijen"], "uitbetaling": [], "vrijToegankelijk": false, "gemeenteBeperking": null, "openingstijden": null, "latitude": 51.48277, "longitude": 3.6284498, "bronId": "L029175"}}, {"type": "Feature", "geometry": {"type": "Point", "coordinates": [3.6133188, 51.4980777]}, "properties": {"type": "inleverpunt", "locatieNaam": "SoLow", "straatNaam": "Lange Delft", "straatNr": "12", "postcode": "4331 AN", "plaats": "MIDDELBURG", "merk": "Stibat", "puntType": "inzamelbak", "materialen": ["batterijen"], "uitbetaling": [], "vrijToegankelijk": false, "gemeenteBeperking": null, "openingstijden": null, "latitude": 51.4980777, "longitude": 3.6133188, "bronId": "L044111"}}, {"type": "Feature", "geometry": {"type": "Point", "coordinates": [3.6112608, 51.4981767]}, "properties": {"type": "inleverpunt", "locatieNaam": "iZone/Apple Store", "straatNaam": "Markt", "straatNr": "61", "postcode": "4331 LK", "plaats": "MIDDELBURG", "merk": "Stibat", "puntType": "inzamelbak", "materialen": ["batterijen"], "uitbetaling": [], "vrijToegankelijk": false, "gemeenteBeperking": null, "openingstijden": null, "latitude": 51.4981767, "longitude": 3.6112608, "bronId": "L028475"}}, {"type": "Feature", "geometry": {"type": "Point", "coordinates": [3.6111904, 51.4981875]}, "properties": {"type": "inleverpunt", "locatieNaam": "Ritel", "straatNaam": "Markt", "straatNr": "63a", "postcode": "4331 LK", "plaats": "MIDDELBURG", "merk": "Stibat", "puntType": "inzamelbak", "materialen": ["batterijen"], "uitbetaling": [], "vrijToegankelijk": false, "gemeenteBeperking": null, "openingstijden": null, "latitude": 51.4981875, "longitude": 3.6111904, "bronId": "L028414"}}, {"type": "Feature", "geometry": {"type": "Point", "coordinates": [3.6117291, 51.4971588]}, "properties": {"type": "inleverpunt", "locatieNaam": "Bike Totaal van den Driest BV", "straatNaam": "Zusterstraat", "straatNr": "24", "postcode": "4331 KK", "plaats": "MIDDELBURG", "merk": "Stibat", "puntType": "inzamelbak", "materialen": ["batterijen"], "uitbetaling": [], "vrijToegankelijk": false, "gemeenteBeperking": null, "openingstijden": null, "latitude": 51.4971588, "longitude": 3.6117291, "bronId": "L049264"}}, {"type": "Feature", "geometry": {"type": "Point", "coordinates": [3.6117126, 51.4971713]}, "properties": {"type": "inleverpunt", "locatieNaam": "Bike Totaal Van den Driest", "straatNaam": "Zusterstraat", "straatNr": "22-24", "postcode": "4331 KK", "plaats": "MIDDELBURG", "merk": "Stibat", "puntType": "inzamelbak", "materialen": ["batterijen"], "uitbetaling": [], "vrijToegankelijk": false, "gemeenteBeperking": null, "openingstijden": null, "latitude": 51.4971713, "longitude": 3.6117126, "bronId": "L047864"}}, {"type": "Feature", "geometry": {"type": "Point", "coordinates": [3.6099197, 51.4975759]}, "properties": {"type": "inleverpunt", "locatieNaam": "Schoonenberg Hoorcomfort", "straatNaam": "Korte Geere", "straatNr": "8", "postcode": "4331 LE", "plaats": "MIDDELBURG", "merk": "Stibat", "puntType": "inzamelbak", "materialen": ["batterijen"], "uitbetaling": [], "vrijToegankelijk": false, "gemeenteBeperking": null, "openingstijden": null, "latitude": 51.4975759, "longitude": 3.6099197, "bronId": "L020076"}}, {"type": "Feature", "geometry": {"type": "Point", "coordinates": [3.6247245, 51.4818884]}, "properties": {"type": "inleverpunt", "locatieNaam": "Perry", "straatNaam": "Mortiereboulevard", "straatNr": "22", "postcode": "4336 RA", "plaats": "MIDDELBURG", "merk": "Stibat", "puntType": "inzamelbak", "materialen": ["batterijen"], "uitbetaling": [], "vrijToegankelijk": false, "gemeenteBeperking": null, "openingstijden": null, "latitude": 51.4818884, "longitude": 3.6247245, "bronId": "L024656"}}, {"type": "Feature", "geometry": {"type": "Point", "coordinates": [3.6090787, 51.4979904]}, "properties": {"type": "inleverpunt", "locatieNaam": "Wibra", "straatNaam": "Langeviele", "straatNr": "16", "postcode": "4331 LT", "plaats": "Middelburg", "merk": "Stibat", "puntType": "inzamelbak", "materialen": ["batterijen"], "uitbetaling": [], "vrijToegankelijk": false, "gemeenteBeperking": null, "openingstijden": null, "latitude": 51.4979904, "longitude": 3.6090787, "bronId": "L023281"}}, {"type": "Feature", "geometry": {"type": "Point", "coordinates": [3.6003919, 51.5057944]}, "properties": {"type": "inleverpunt", "locatieNaam": "De Haan", "straatNaam": "Laan der Verenigde Naties", "straatNr": "1A", "postcode": "4334 ES", "plaats": "Middelburg", "merk": "Stibat", "puntType": "inzamelbak", "materialen": ["batterijen"], "uitbetaling": [], "vrijToegankelijk": false, "gemeenteBeperking": null, "openingstijden": null, "latitude": 51.5057944, "longitude": 3.6003919, "bronId": "L044828"}}, {"type": "Feature", "geometry": {"type": "Point", "coordinates": [3.608089, 51.497489]}, "properties": {"type": "inleverpunt", "locatieNaam": "Hans Anders", "straatNaam": "Langeviele", "straatNr": "59", "postcode": "4331 LS", "plaats": "MIDDELBURG", "merk": "Stibat", "puntType": "inzamelbak", "materialen": ["batterijen"], "uitbetaling": [], "vrijToegankelijk": false, "gemeenteBeperking": null, "openingstijden": null, "latitude": 51.497489, "longitude": 3.608089, "bronId": "L037878"}}, {"type": "Feature", "geometry": {"type": "Point", "coordinates": [3.60044, 51.5055108]}, "properties": {"type": "inleverpunt", "locatieNaam": "Cube Store Zeeland", "straatNaam": "Laan der Verenigde Naties", "straatNr": "1c", "postcode": "4334 ES", "plaats": "MIDDELBURG", "merk": "Stibat", "puntType": "inzamelbak", "materialen": ["batterijen"], "uitbetaling": [], "vrijToegankelijk": false, "gemeenteBeperking": null, "openingstijden": null, "latitude": 51.5055108, "longitude": 3.60044, "bronId": "L049487"}}, {"type": "Feature", "geometry": {"type": "Point", "coordinates": [3.6087887, 51.4966308]}, "properties": {"type": "inleverpunt", "locatieNaam": "Kruidvat", "straatNaam": "Lange Geere", "straatNr": "151", "postcode": "4331 MG", "plaats": "MIDDELBURG", "merk": "Stibat", "puntType": "inzamelbak", "materialen": ["batterijen"], "uitbetaling": [], "vrijToegankelijk": false, "gemeenteBeperking": null, "openingstijden": null, "latitude": 51.4966308, "longitude": 3.6087887, "bronId": "L015614"}}, {"type": "Feature", "geometry": {"type": "Point", "coordinates": [3.623467, 51.4814065]}, "properties": {"type": "inleverpunt", "locatieNaam": "Leen Bakker", "straatNaam": "Mortiereboulevard", "straatNr": "14", "postcode": "4336 RA", "plaats": "MIDDELBURG", "merk": "Stibat", "puntType": "inzamelbak", "materialen": ["batterijen"], "uitbetaling": [], "vrijToegankelijk": false, "gemeenteBeperking": null, "openingstijden": null, "latitude": 51.4814065, "longitude": 3.623467, "bronId": "L019206"}}, {"type": "Feature", "geometry": {"type": "Point", "coordinates": [3.6248826, 51.4796078]}, "properties": {"type": "inleverpunt", "locatieNaam": "GroenRijk", "straatNaam": "Mortiereboulevard", "straatNr": "2", "postcode": "4336 RA", "plaats": "MIDDELBURG", "merk": "Stibat", "puntType": "inzamelbak", "materialen": ["batterijen"], "uitbetaling": [], "vrijToegankelijk": false, "gemeenteBeperking": null, "openingstijden": null, "latitude": 51.4796078, "longitude": 3.6248826, "bronId": "L025171"}}, {"type": "Feature", "geometry": {"type": "Point", "coordinates": [3.6187854, 51.4857131]}, "properties": {"type": "inleverpunt", "locatieNaam": "Lidl", "straatNaam": "Joh. Van Reigersbergstraat", "straatNr": "3", "postcode": "4336 XA", "plaats": "Middelburg", "merk": "Stibat", "puntType": "inzamelbak", "materialen": ["batterijen"], "uitbetaling": [], "vrijToegankelijk": false, "gemeenteBeperking": null, "openingstijden": null, "latitude": 51.4857131, "longitude": 3.6187854, "bronId": "L018482"}}, {"type": "Feature", "geometry": {"type": "Point", "coordinates": [3.6240887, 51.4800341]}, "properties": {"type": "inleverpunt", "locatieNaam": "MediaMarkt", "straatNaam": "Mortiereboulevard", "straatNr": "4", "postcode": "4336 RA", "plaats": "MIDDELBURG", "merk": "Stibat", "puntType": "inzamelbak", "materialen": ["batterijen"], "uitbetaling": [], "vrijToegankelijk": false, "gemeenteBeperking": null, "openingstijden": null, "latitude": 51.4800341, "longitude": 3.6240887, "bronId": "L016247"}}, {"type": "Feature", "geometry": {"type": "Point", "coordinates": [3.6180864, 51.4861086]}, "properties": {"type": "inleverpunt", "locatieNaam": "Kruidvat", "straatNaam": "Johan van Reigersbergstraat", "straatNr": "9", "postcode": "4336 XA", "plaats": "MIDDELBURG", "merk": "Stibat", "puntType": "inzamelbak", "materialen": ["batterijen"], "uitbetaling": [], "vrijToegankelijk": false, "gemeenteBeperking": null, "openingstijden": null, "latitude": 51.4861086, "longitude": 3.6180864, "bronId": "L016190"}}, {"type": "Feature", "geometry": {"type": "Point", "coordinates": [3.6177662, 51.4863719]}, "properties": {"type": "inleverpunt", "locatieNaam": "Jumbo", "straatNaam": "Johan van Reigersbergstraat", "straatNr": "11", "postcode": "4336 XA", "plaats": "MIDDELBURG", "merk": "Stibat", "puntType": "inzamelbak", "materialen": ["batterijen"], "uitbetaling": [], "vrijToegankelijk": false, "gemeenteBeperking": null, "openingstijden": null, "latitude": 51.4863719, "longitude": 3.6177662, "bronId": "L040619"}}, {"type": "Feature", "geometry": {"type": "Point", "coordinates": [3.6236136, 51.4803921]}, "properties": {"type": "inleverpunt", "locatieNaam": "Praxis 2043", "straatNaam": "Mortiereboulevard", "straatNr": "6", "postcode": "4336 RA", "plaats": "MIDDELBURG", "merk": "Stibat", "puntType": "inzamelbak", "materialen": ["batterijen"], "uitbetaling": [], "vrijToegankelijk": false, "gemeenteBeperking": null, "openingstijden": null, "latitude": 51.4803921, "longitude": 3.6236136, "bronId": "L014192"}}, {"type": "Feature", "geometry": {"type": "Point", "coordinates": [3.622847, 51.481092]}, "properties": {"type": "inleverpunt", "locatieNaam": "Kwantum", "straatNaam": "Mortiereboulevard", "straatNr": "10", "postcode": "4336 RA", "plaats": "MIDDELBURG", "merk": "Stibat", "puntType": "inzamelbak", "materialen": ["batterijen"], "uitbetaling": [], "vrijToegankelijk": false, "gemeenteBeperking": null, "openingstijden": null, "latitude": 51.481092, "longitude": 3.622847, "bronId": "L018568"}}, {"type": "Feature", "geometry": {"type": "Point", "coordinates": [3.599599, 51.5052925]}, "properties": {"type": "inleverpunt", "locatieNaam": "Leys", "straatNaam": "Laan der Verenigde Naties", "straatNr": "1g", "postcode": "4334 ES", "plaats": "MIDDELBURG", "merk": "Stibat", "puntType": "inzamelbak", "materialen": ["batterijen"], "uitbetaling": [], "vrijToegankelijk": false, "gemeenteBeperking": null, "openingstijden": null, "latitude": 51.5052925, "longitude": 3.599599, "bronId": "L044242"}}, {"type": "Feature", "geometry": {"type": "Point", "coordinates": [3.6081981, 51.4961071]}, "properties": {"type": "inleverpunt", "locatieNaam": "1620 Albert Heijn XL", "straatNaam": "Pottenbakkerssingel", "straatNr": "2", "postcode": "4331 NA", "plaats": "MIDDELBURG", "merk": "Stibat", "puntType": "inzamelbak", "materialen": ["batterijen"], "uitbetaling": [], "vrijToegankelijk": false, "gemeenteBeperking": null, "openingstijden": null, "latitude": 51.4961071, "longitude": 3.6081981, "bronId": "L018249"}}, {"type": "Feature", "geometry": {"type": "Point", "coordinates": [3.6226049, 51.4807357]}, "properties": {"type": "inleverpunt", "locatieNaam": "Karwei", "straatNaam": "Mortiereboulevard", "straatNr": "8", "postcode": "4336 RA", "plaats": "MIDDELBURG", "merk": "Stibat", "puntType": "inzamelbak", "materialen": ["batterijen"], "uitbetaling": [], "vrijToegankelijk": false, "gemeenteBeperking": null, "openingstijden": null, "latitude": 51.4807357, "longitude": 3.6226049, "bronId": "L007391"}}, {"type": "Feature", "geometry": {"type": "Point", "coordinates": [3.6080625, 51.4957343]}, "properties": {"type": "inleverpunt", "locatieNaam": "1266 Action", "straatNaam": "Pottenbakkerssingel", "straatNr": "4", "postcode": "4331 NA", "plaats": "MIDDELBURG", "merk": "Stibat", "puntType": "inzamelbak", "materialen": ["batterijen"], "uitbetaling": [], "vrijToegankelijk": false, "gemeenteBeperking": null, "openingstijden": null, "latitude": 51.4957343, "longitude": 3.6080625, "bronId": "L030529"}}, {"type": "Feature", "geometry": {"type": "Point", "coordinates": [3.6077698, 51.4958533]}, "properties": {"type": "inleverpunt", "locatieNaam": "7485 Etos", "straatNaam": "Pottenbakkerssingel", "straatNr": "4", "postcode": "4331 NA", "plaats": "MIDDELBURG", "merk": "Stibat", "puntType": "inzamelbak", "materialen": ["batterijen"], "uitbetaling": [], "vrijToegankelijk": false, "gemeenteBeperking": null, "openingstijden": null, "latitude": 51.4958533, "longitude": 3.6077698, "bronId": "L023407"}}, {"type": "Feature", "geometry": {"type": "Point", "coordinates": [3.5969749, 51.5039858]}, "properties": {"type": "inleverpunt", "locatieNaam": "Aldi", "straatNaam": "Euromarkt", "straatNr": "8", "postcode": "4334 ER", "plaats": "Middelburg", "merk": "Stibat", "puntType": "inzamelbak", "materialen": ["batterijen"], "uitbetaling": [], "vrijToegankelijk": false, "gemeenteBeperking": null, "openingstijden": null, "latitude": 51.5039858, "longitude": 3.5969749, "bronId": "L041273"}}, {"type": "Feature", "geometry": {"type": "Point", "coordinates": [3.602929, 51.489124]}, "properties": {"type": "inleverpunt", "locatieNaam": "Aldi", "straatNaam": "Westerscheldeplein", "straatNr": "2", "postcode": "4335 NL", "plaats": "Middelburg", "merk": "Stibat", "puntType": "inzamelbak", "materialen": ["batterijen"], "uitbetaling": [], "vrijToegankelijk": false, "gemeenteBeperking": null, "openingstijden": null, "latitude": 51.489124, "longitude": 3.602929, "bronId": "L041274"}}, {"type": "Feature", "geometry": {"type": "Point", "coordinates": [3.6027005, 51.4891873]}, "properties": {"type": "inleverpunt", "locatieNaam": "Spar", "straatNaam": "Westerscheldeplein", "straatNr": "6", "postcode": "4335 NL", "plaats": "MIDDELBURG", "merk": "Stibat", "puntType": "inzamelbak", "materialen": ["batterijen"], "uitbetaling": [], "vrijToegankelijk": false, "gemeenteBeperking": null, "openingstijden": null, "latitude": 51.4891873, "longitude": 3.6027005, "bronId": "L008816"}}, {"type": "Feature", "geometry": {"type": "Polygon", "coordinates": [[[3.6618229999452203, 51.468382003558254], [3.667500999951017, 51.469823003559384], [3.6761409999599453, 51.47383500356226], [3.6821139999660653, 51.47573100356366], [3.6919989999762355, 51.479572003566446], [3.6920269999762794, 51.47980900356661], [3.6982669999826667, 51.48165800356801], [3.703647999988113, 51.48227000356851], [3.7020979999865933, 51.482899003568946], [3.700090999984592, 51.48319500356904], [3.700360999985033, 51.486025003570965], [3.699049999984096, 51.49234100357514], [3.7049769999906204, 51.50175900358156], [3.705389999991036, 51.50174600358157], [3.7056089999913677, 51.50364200358285], [3.7108539999966323, 51.50347000358282], [3.7111029999970784, 51.506721003585035], [3.7452450000317565, 51.51247200358965], [3.7469430000337267, 51.516852003592604], [3.74340200003025, 51.51828600359344], [3.7408130000276625, 51.51854400359356], [3.7389400000258717, 51.52009100359455], [3.727491000014637, 51.52473400359736], [3.727270000014388, 51.52428500359707], [3.7259140000130553, 51.52477700359738], [3.7250950000122867, 51.52570700359796], [3.711878999999323, 51.531067003601194], [3.7097979999970385, 51.52784900359904], [3.705671999992686, 51.52448600359668], [3.702545999989452, 51.522931003595595], [3.7003859999872435, 51.52235200359516], [3.698604999985504, 51.523150003595624], [3.69783499998478, 51.523989003596185], [3.6953379999826628, 51.53046300360045], [3.695384999982819, 51.53224500360159], [3.696381999983995, 51.53518400360357], [3.6808359999683615, 51.53495800360305], [3.658839999945305, 51.519261003592085], [3.6565059999431395, 51.52217300359396], [3.6516899999382284, 51.52101800359306], [3.6514549999380117, 51.52130900359327], [3.6469279999334017, 51.520288003592476], [3.6415969999280087, 51.519693003591925], [3.639526999925982, 51.52055100359244], [3.639245999925679, 51.520237003592214], [3.6345439999209743, 51.52054200359235], [3.63492699992151, 51.52301000359398], [3.6339389999207006, 51.52599100359592], [3.6221279999088254, 51.525790003595496], [3.6171349999037803, 51.525257003595065], [3.6144299999014504, 51.531564003599144], [3.6140199999011786, 51.53382700360065], [3.6131069999002703, 51.53397900360072], [3.6131579999003933, 51.53514200360151], [3.6109569998981907, 51.535303003601534], [3.6109199998981305, 51.5348850036013], [3.6035449998906675, 51.53395700360045], [3.6026699998898493, 51.53491700360107], [3.5929579998799275, 51.532167003598985], [3.5897789998767156, 51.53181100359866], [3.5906749998775, 51.529992003597506], [3.5937829998805375, 51.52864000359668], [3.5966349998830207, 51.52245200359263], [3.5876799998739224, 51.520735003591255], [3.587716999873939, 51.520395003591034], [3.583683999869841, 51.51962700359042], [3.584172999870164, 51.516865003588606], [3.582376999868347, 51.516682003588436], [3.5828649998686397, 51.51349900358631], [3.581103999866872, 51.513487003586256], [3.578837999864531, 51.51242500358555], [3.583422999868903, 51.50866100358312], [3.58260099986805, 51.5082250035828], [3.575295999860616, 51.50662400358158], [3.5762599998615032, 51.50530300358071], [3.5780639998632777, 51.50474200358036], [3.5781979998632654, 51.50234000357878], [3.5797079998647248, 51.50141200357821], [3.58005899986503, 51.500632003577714], [3.581629999866592, 51.500397003577575], [3.5849199998695207, 51.494315003573625], [3.585029999869423, 51.490908003571334], [3.5815609998659017, 51.490320003570844], [3.5814079998656982, 51.489513003570345], [3.5796299998638945, 51.48921600357007], [3.5832019998670788, 51.4826800035658], [3.5847619998686597, 51.482892003565986], [3.586980999870667, 51.47925000356362], [3.589375999873108, 51.47986300356406], [3.5908379998744846, 51.4783500035631], [3.592960999876564, 51.4774780035626], [3.597007999880607, 51.47709600356245], [3.5968669998804237, 51.47643900356201], [3.5977399998812913, 51.47630000356192], [3.5984269998819363, 51.47554900356148], [3.5996589998831587, 51.47529500356132], [3.601760999885518, 51.479326003564054], [3.6049649998886717, 51.478260003563406], [3.6089059998924657, 51.475525003561685], [3.617728999901466, 51.4777550035634], [3.6216559999052755, 51.475485003561985], [3.629214999913202, 51.480914003565815], [3.634655999918497, 51.47807900356404], [3.6420689999256566, 51.473268003561046], [3.6483499999317646, 51.469845003558895], [3.6517199999350924, 51.46887200355833], [3.6555849999389407, 51.46826600355802], [3.658977999942346, 51.46814900355804], [3.6618229999452203, 51.468382003558254]]]}, "properties": {"type": "boundary", "gemeente": "Middelburg"}}]}