{"type": "FeatureCollection", "metadata": {"gemeente": "Midden-Delfland", "slug": "midden-delfland", "generated_at": "2026-09-14T07:32:33.064092Z", "total_points": 25, "merken": ["StatiegeldNederland", "Stibat", "StichtingOPEN"], "bounds": [4.2691646, 51.93389, 4.3316119, 52.0137869]}, "features": [{"type": "Feature", "geometry": {"type": "Point", "coordinates": [4.2693032, 51.9339405]}, "properties": {"type": "inleverpunt", "locatieNaam": "Albert Heijn", "straatNaam": "Huis Te Veldelaan", "straatNr": "2", "postcode": "3155 SE", "plaats": "Maasland", "merk": "StatiegeldNederland", "puntType": "automaat", "materialen": ["pet-groot", "pet-klein", "blik", "glas", "krat"], "uitbetaling": ["bonnetje"], "vrijToegankelijk": true, "gemeenteBeperking": null, "openingstijden": {"ma": "08:00–21:00", "di": "08:00–21:00", "wo": "08:00–21:00", "do": "08:00–21:00", "vr": "08:00–21:00", "za": "08:00–21:00", "zo": "10:00–18:00"}, "latitude": 51.9339405, "longitude": 4.2693032, "bronId": "335905"}}, {"type": "Feature", "geometry": {"type": "Point", "coordinates": [4.3175182, 51.9762573]}, "properties": {"type": "inleverpunt", "locatieNaam": "Albert Heijn", "straatNaam": "Keenenburgweg", "straatNr": "15", "postcode": "2636 GK", "plaats": "Schipluiden", "merk": "StatiegeldNederland", "puntType": "automaat", "materialen": ["pet-groot", "pet-klein", "blik", "glas", "krat"], "uitbetaling": ["bonnetje", "donatie"], "vrijToegankelijk": true, "gemeenteBeperking": null, "openingstijden": {"ma": "07:00–21:00", "di": "07:00–21:00", "wo": "07:00–21:00", "do": "07:00–21:00", "vr": "07:00–21:00", "za": "07:00–21:00", "zo": "09:00–20:00"}, "latitude": 51.9762573, "longitude": 4.3175182, "bronId": "335946"}}, {"type": "Feature", "geometry": {"type": "Point", "coordinates": [4.2817501, 51.9354095]}, "properties": {"type": "inleverpunt", "locatieNaam": "Korfbalvereniging Odo Maasland", "straatNaam": "Baanderheer", "straatNr": "20", "postcode": "3155 NA", "plaats": "Maasland", "merk": "StatiegeldNederland", "puntType": "balie", "materialen": ["pet-groot", "pet-klein", "blik"], "uitbetaling": [], "vrijToegankelijk": false, "gemeenteBeperking": null, "openingstijden": {"ma": "Gesloten", "di": "18:00–23:00", "wo": "Gesloten", "do": "18:00–23:00", "vr": "Gesloten", "za": "09:00–18:00", "zo": "Gesloten"}, "latitude": 51.9354095, "longitude": 4.2817501, "bronId": "339593"}}, {"type": "Feature", "geometry": {"type": "Point", "coordinates": [4.2750873, 51.9396015]}, "properties": {"type": "inleverpunt", "locatieNaam": "Lentiz VMBO MBO Maasland", "straatNaam": "Commandeurskade", "straatNr": "22", "postcode": "3155 AD", "plaats": "Maasland", "merk": "StatiegeldNederland", "puntType": "automaat", "materialen": ["pet-klein", "blik"], "uitbetaling": ["donatie"], "vrijToegankelijk": false, "gemeenteBeperking": null, "openingstijden": {"ma": "07:30–17:00", "di": "07:30–17:00", "wo": "07:30–17:00", "do": "07:30–17:00", "vr": "07:30–17:00", "za": "Gesloten", "zo": "Gesloten"}, "latitude": 51.9396015, "longitude": 4.2750873, "bronId": "339703"}}, {"type": "Feature", "geometry": {"type": "Point", "coordinates": [4.3193778, 52.0124925]}, "properties": {"type": "inleverpunt", "locatieNaam": "Loogman Carwash Den Hoorn B.V.", "straatNaam": "Sionsdreef", "straatNr": "1", "postcode": "2635 BS", "plaats": "Den Hoorn", "merk": "StatiegeldNederland", "puntType": "automaat", "materialen": ["pet-groot", "pet-klein", "blik"], "uitbetaling": ["bonnetje", "donatie", "tikkie"], "vrijToegankelijk": true, "gemeenteBeperking": null, "openingstijden": {"ma": "08:00–20:00", "di": "08:00–20:00", "wo": "08:00–20:00", "do": "08:00–20:00", "vr": "08:00–20:00", "za": "08:00–18:00", "zo": "10:00–18:00"}, "latitude": 52.0124925, "longitude": 4.3193778, "bronId": "340161"}}, {"type": "Feature", "geometry": {"type": "Point", "coordinates": [4.3316119, 52.0004827]}, "properties": {"type": "inleverpunt", "locatieNaam": "Optisport De Hoornbloem", "straatNaam": "Koningin Julianaplein", "straatNr": "1-3", "postcode": "2635 HD", "plaats": "Den Hoorn Zh", "merk": "StatiegeldNederland", "puntType": "balie", "materialen": ["pet-groot", "pet-klein", "blik"], "uitbetaling": [], "vrijToegankelijk": false, "gemeenteBeperking": null, "openingstijden": {"ma": "09:00–00:00", "di": "19:30–23:00", "wo": "13:00–16:30", "do": "11:00–16:00", "vr": "Gesloten", "za": "Gesloten", "zo": "Gesloten"}, "latitude": 52.0004827, "longitude": 4.3316119, "bronId": "340715"}}, {"type": "Feature", "geometry": {"type": "Point", "coordinates": [4.3304238, 52.0009122]}, "properties": {"type": "inleverpunt", "locatieNaam": "Plus", "straatNaam": "Leeuwenberg", "straatNr": "1", "postcode": "2635 GD", "plaats": "Den Hoorn", "merk": "StatiegeldNederland", "puntType": "automaat", "materialen": ["pet-groot", "pet-klein", "blik", "glas", "krat"], "uitbetaling": ["bonnetje", "donatie"], "vrijToegankelijk": true, "gemeenteBeperking": null, "openingstijden": {"ma": "07:30–20:00", "di": "07:30–20:00", "wo": "07:30–20:00", "do": "07:30–20:00", "vr": "07:30–20:00", "za": "07:30–20:00", "zo": "12:00–17:00"}, "latitude": 52.0009122, "longitude": 4.3304238, "bronId": "341126"}}, {"type": "Feature", "geometry": {"type": "Point", "coordinates": [4.3119644, 51.9763635]}, "properties": {"type": "inleverpunt", "locatieNaam": "Scoutingschipluiden", "straatNaam": "Westlander", "straatNr": "1A", "postcode": "2636 DL", "plaats": "Schipluiden", "merk": "StatiegeldNederland", "puntType": "balie", "materialen": ["pet-groot", "pet-klein", "blik"], "uitbetaling": [], "vrijToegankelijk": false, "gemeenteBeperking": null, "openingstijden": {"ma": "18:30–20:30", "di": "18:30–20:30", "wo": "Gesloten", "do": "Gesloten", "vr": "19:30–00:00", "za": "10:00–11:30", "zo": "Gesloten"}, "latitude": 51.9763635, "longitude": 4.3119644, "bronId": "341811"}}, {"type": "Feature", "geometry": {"type": "Point", "coordinates": [4.311451, 52.009005]}, "properties": {"type": "inleverpunt", "locatieNaam": "Shell", "straatNaam": "Rijksstraatweg A4", "straatNr": "1", "postcode": "2635 BW", "plaats": "Den Hoorn", "merk": "StatiegeldNederland", "puntType": "balie", "materialen": ["pet-groot", "pet-klein", "blik"], "uitbetaling": [], "vrijToegankelijk": true, "gemeenteBeperking": null, "openingstijden": {"ma": "24 uur geopend", "di": "24 uur geopend", "wo": "24 uur geopend", "do": "24 uur geopend", "vr": "24 uur geopend", "za": "24 uur geopend", "zo": "24 uur geopend"}, "latitude": 52.009005, "longitude": 4.311451, "bronId": "341961"}}, {"type": "Feature", "geometry": {"type": "Point", "coordinates": [4.312644, 52.0137869]}, "properties": {"type": "inleverpunt", "locatieNaam": "Spar Express", "straatNaam": "RIJKSWEG A4 NR", "straatNr": "2", "postcode": "2635 GA", "plaats": "Den Hoorn", "merk": "StatiegeldNederland", "puntType": "balie", "materialen": ["pet-groot", "pet-klein", "blik"], "uitbetaling": [], "vrijToegankelijk": true, "gemeenteBeperking": null, "openingstijden": {"ma": "24 uur geopend", "di": "24 uur geopend", "wo": "24 uur geopend", "do": "24 uur geopend", "vr": "24 uur geopend", "za": "24 uur geopend", "zo": "24 uur geopend"}, "latitude": 52.0137869, "longitude": 4.312644, "bronId": "342378"}}, {"type": "Feature", "geometry": {"type": "Point", "coordinates": [4.330591, 52.000191]}, "properties": {"type": "inleverpunt", "locatieNaam": "EP:Corona", "straatNaam": "Dijkshoornseweg", "straatNr": "10", "postcode": "2635 EP", "plaats": "Den Hoorn", "merk": "StichtingOPEN", "puntType": "balie", "materialen": ["elektro-klein", "elektro-middel"], "uitbetaling": [], "vrijToegankelijk": false, "gemeenteBeperking": null, "openingstijden": null, "latitude": 52.000191, "longitude": 4.330591, "bronId": "SP00027561"}}, {"type": "Feature", "geometry": {"type": "Point", "coordinates": [4.330376, 52.000924]}, "properties": {"type": "inleverpunt", "locatieNaam": "PLUS Den Hoorn", "straatNaam": "Leeuwenberg", "straatNr": "1", "postcode": "2635 GD", "plaats": "Den Hoorn", "merk": "StichtingOPEN", "puntType": "balie", "materialen": ["batterijen", "lampen"], "uitbetaling": [], "vrijToegankelijk": false, "gemeenteBeperking": null, "openingstijden": null, "latitude": 52.000924, "longitude": 4.330376, "bronId": "SP00024098"}}, {"type": "Feature", "geometry": {"type": "Point", "coordinates": [4.317162, 51.976851]}, "properties": {"type": "inleverpunt", "locatieNaam": "8522 Albert Heijn Schipluiden", "straatNaam": "Keenenburgweg", "straatNr": "15", "postcode": "2636 GK", "plaats": "Schipluiden", "merk": "StichtingOPEN", "puntType": "balie", "materialen": ["batterijen", "elektro-klein", "lampen"], "uitbetaling": [], "vrijToegankelijk": false, "gemeenteBeperking": null, "openingstijden": null, "latitude": 51.976851, "longitude": 4.317162, "bronId": "SP00022777"}}, {"type": "Feature", "geometry": {"type": "Point", "coordinates": [4.269578, 51.93389]}, "properties": {"type": "inleverpunt", "locatieNaam": "8730 Albert Heijn Maasland", "straatNaam": "Huis te Veldelaan", "straatNr": "2", "postcode": "3155 SE", "plaats": "Maasland", "merk": "StichtingOPEN", "puntType": "balie", "materialen": ["batterijen", "elektro-klein", "lampen"], "uitbetaling": [], "vrijToegankelijk": false, "gemeenteBeperking": null, "openingstijden": null, "latitude": 51.93389, "longitude": 4.269578, "bronId": "SP00022747"}}, {"type": "Feature", "geometry": {"type": "Point", "coordinates": [4.3307182, 52.0000711]}, "properties": {"type": "inleverpunt", "locatieNaam": "D.I.O.", "straatNaam": "Dijkshoornseweg", "straatNr": "6", "postcode": "2635 EP", "plaats": "Den Hoorn Zh", "merk": "Stibat", "puntType": "inzamelbak", "materialen": ["batterijen"], "uitbetaling": [], "vrijToegankelijk": false, "gemeenteBeperking": null, "openingstijden": null, "latitude": 52.0000711, "longitude": 4.3307182, "bronId": "L025487"}}, {"type": "Feature", "geometry": {"type": "Point", "coordinates": [4.3303869, 52.0009631]}, "properties": {"type": "inleverpunt", "locatieNaam": "PLUS", "straatNaam": "Leeuwenberg", "straatNr": "1", "postcode": "2635 GD", "plaats": "Den Hoorn Zh", "merk": "Stibat", "puntType": "inzamelbak", "materialen": ["batterijen"], "uitbetaling": [], "vrijToegankelijk": false, "gemeenteBeperking": null, "openingstijden": null, "latitude": 52.0009631, "longitude": 4.3303869, "bronId": "L016869"}}, {"type": "Feature", "geometry": {"type": "Point", "coordinates": [4.3305914, 52.0001914]}, "properties": {"type": "inleverpunt", "locatieNaam": "EP:", "straatNaam": "Dijkshoornseweg", "straatNr": "10", "postcode": "2635 EP", "plaats": "Den Hoorn Zh", "merk": "Stibat", "puntType": "inzamelbak", "materialen": ["batterijen"], "uitbetaling": [], "vrijToegankelijk": false, "gemeenteBeperking": null, "openingstijden": null, "latitude": 52.0001914, "longitude": 4.3305914, "bronId": "L042442"}}, {"type": "Feature", "geometry": {"type": "Point", "coordinates": [4.3301878, 52.0005719]}, "properties": {"type": "inleverpunt", "locatieNaam": "Primera", "straatNaam": "Dijkshoornseweg", "straatNr": "31", "postcode": "2635 EJ", "plaats": "Den Hoorn", "merk": "Stibat", "puntType": "inzamelbak", "materialen": ["batterijen"], "uitbetaling": [], "vrijToegankelijk": false, "gemeenteBeperking": null, "openingstijden": null, "latitude": 52.0005719, "longitude": 4.3301878, "bronId": "L022744"}}, {"type": "Feature", "geometry": {"type": "Point", "coordinates": [4.3297711, 51.9996164]}, "properties": {"type": "inleverpunt", "locatieNaam": "Bike Totaal Paul Willemsen", "straatNaam": "Woudseweg", "straatNr": "6", "postcode": "2635 CC", "plaats": "Den Hoorn", "merk": "Stibat", "puntType": "inzamelbak", "materialen": ["batterijen"], "uitbetaling": [], "vrijToegankelijk": false, "gemeenteBeperking": null, "openingstijden": null, "latitude": 51.9996164, "longitude": 4.3297711, "bronId": "L033005"}}, {"type": "Feature", "geometry": {"type": "Point", "coordinates": [4.3196526, 52.0120716]}, "properties": {"type": "inleverpunt", "locatieNaam": "Bauhaus", "straatNaam": "Sionsdreef", "straatNr": "2", "postcode": "2635 BS", "plaats": "Den Hoorn", "merk": "Stibat", "puntType": "inzamelbak", "materialen": ["batterijen"], "uitbetaling": [], "vrijToegankelijk": false, "gemeenteBeperking": null, "openingstijden": null, "latitude": 52.0120716, "longitude": 4.3196526, "bronId": "L043301"}}, {"type": "Feature", "geometry": {"type": "Point", "coordinates": [4.3173155, 51.9762603]}, "properties": {"type": "inleverpunt", "locatieNaam": "8522 Albert Heijn", "straatNaam": "Keenburgweg", "straatNr": "15", "postcode": "2636 GK", "plaats": "Schipluiden", "merk": "Stibat", "puntType": "inzamelbak", "materialen": ["batterijen"], "uitbetaling": [], "vrijToegankelijk": false, "gemeenteBeperking": null, "openingstijden": null, "latitude": 51.9762603, "longitude": 4.3173155, "bronId": "L006032"}}, {"type": "Feature", "geometry": {"type": "Point", "coordinates": [4.3167685, 51.977666]}, "properties": {"type": "inleverpunt", "locatieNaam": "Rijwielhandel van den Bosch", "straatNaam": "Dorpsstraat", "straatNr": "11", "postcode": "2636 CC", "plaats": "Schipluiden", "merk": "Stibat", "puntType": "inzamelbak", "materialen": ["batterijen"], "uitbetaling": [], "vrijToegankelijk": false, "gemeenteBeperking": null, "openingstijden": null, "latitude": 51.977666, "longitude": 4.3167685, "bronId": "L033006"}}, {"type": "Feature", "geometry": {"type": "Point", "coordinates": [4.2728618, 51.9350968]}, "properties": {"type": "inleverpunt", "locatieNaam": "Kruidvat", "straatNaam": "Veldesteijn", "straatNr": "21-23", "postcode": "3155 SR", "plaats": "Maasland", "merk": "Stibat", "puntType": "inzamelbak", "materialen": ["batterijen"], "uitbetaling": [], "vrijToegankelijk": false, "gemeenteBeperking": null, "openingstijden": null, "latitude": 51.9350968, "longitude": 4.2728618, "bronId": "L039003"}}, {"type": "Feature", "geometry": {"type": "Point", "coordinates": [4.2701509, 51.9342614]}, "properties": {"type": "inleverpunt", "locatieNaam": "Rob's Bikecenter", "straatNaam": "'s-Herenstraat", "straatNr": "3A", "postcode": "3155 SH", "plaats": "Maasland", "merk": "Stibat", "puntType": "inzamelbak", "materialen": ["batterijen"], "uitbetaling": [], "vrijToegankelijk": false, "gemeenteBeperking": null, "openingstijden": null, "latitude": 51.9342614, "longitude": 4.2701509, "bronId": "L033096"}}, {"type": "Feature", "geometry": {"type": "Point", "coordinates": [4.2691646, 51.9340597]}, "properties": {"type": "inleverpunt", "locatieNaam": "8730 Albert Heijn", "straatNaam": "Huis Te Veldelaan", "straatNr": "2", "postcode": "3155 SE", "plaats": "Maasland", "merk": "Stibat", "puntType": "inzamelbak", "materialen": ["batterijen"], "uitbetaling": [], "vrijToegankelijk": false, "gemeenteBeperking": null, "openingstijden": null, "latitude": 51.9340597, "longitude": 4.2691646, "bronId": "L006127"}}, {"type": "Feature", "geometry": {"type": "Polygon", "coordinates": [[[4.257822000571055, 51.92881000386817], [4.261049000574174, 51.9266820038669], [4.262441000575568, 51.92661200386687], [4.263729000576832, 51.92608900386656], [4.2642840005773515, 51.92545200386614], [4.265093000578181, 51.92569100386634], [4.270960000583948, 51.92347700386499], [4.273440000586441, 51.92356000386502], [4.27873800059173, 51.92302200386483], [4.292611000605559, 51.92123600386384], [4.313693000627482, 51.934890003872646], [4.315573000629522, 51.93761800387438], [4.3179270006319594, 51.93897600387526], [4.3228930006371495, 51.94271200387766], [4.323873000638076, 51.941640003876984], [4.335388000649874, 51.94596400387979], [4.336460000650976, 51.94643400388014], [4.335530000650073, 51.946994003880455], [4.338620000653235, 51.94807100388119], [4.352980000667875, 51.95215400388388], [4.36707100068219, 51.95522000388596], [4.363510000678923, 51.96087100388945], [4.389779000705525, 51.96512600389237], [4.389917000705636, 51.964597003892024], [4.3917520007074975, 51.96492100389225], [4.3935640007091825, 51.962472003890724], [4.40303800071891, 51.96645000389333], [4.399121000715223, 51.970975003896086], [4.397723000713999, 51.97433400389819], [4.3967460007130095, 51.97418100389811], [4.396174000712539, 51.97608000389929], [4.3952370007115915, 51.97596800389923], [4.39508800071147, 51.976439003899486], [4.39416800071054, 51.97632100389941], [4.393810000710243, 51.977503003900146], [4.383622000699924, 51.975816003899006], [4.386303000702421, 51.97221400389678], [4.369175000685045, 51.968870003894544], [4.368174000684188, 51.97158200389622], [4.359540000675443, 51.97013500389524], [4.358721000674738, 51.97226100389658], [4.359881000675912, 51.97245700389668], [4.359701000675753, 51.97287300389695], [4.358556000674596, 51.97267500389683], [4.3583750006744335, 51.97309100389707], [4.359479000675555, 51.97328000389719], [4.359368000675455, 51.97355000389736], [4.358200000674282, 51.97350300389733], [4.357647000673799, 51.97482400389816], [4.3588320006749965, 51.975020003898265], [4.358572000674771, 51.97565800389867], [4.357392000673576, 51.97546400389851], [4.356626000672909, 51.977296003899674], [4.344980000661115, 51.9753640038984], [4.343134000659281, 51.975675003898544], [4.338227000654274, 51.97417800389757], [4.332724000649095, 51.98045700390143], [4.332538000649035, 51.9827740039029], [4.331855000648446, 51.98449000390395], [4.330889000647471, 51.98436600390388], [4.328488000645133, 51.985702003904656], [4.324112000640972, 51.98985900390723], [4.325732000642712, 51.99195100390855], [4.333110000650185, 51.99317200390935], [4.333071000650253, 51.995088003910574], [4.331525000648851, 51.997852003912286], [4.333245000650591, 51.99811500391252], [4.333348000650685, 51.99792100391234], [4.337717000655117, 51.99880200391293], [4.3358340006533505, 52.001055003914345], [4.341143000658769, 52.00271000391543], [4.338453000656236, 52.005691003917256], [4.336371000654096, 52.00475300391663], [4.332656000650541, 52.00788300391858], [4.328267000646032, 52.00591300391731], [4.327708000645498, 52.00643200391762], [4.32576000064352, 52.00601700391732], [4.326346000644069, 52.00529300391687], [4.323244000640903, 52.00433600391625], [4.320218000638076, 52.00806500391858], [4.321490000639373, 52.00846300391882], [4.320636000638564, 52.00932200391934], [4.3254710006435, 52.01086900392035], [4.325315000643368, 52.011330003920655], [4.325995000644065, 52.01162100392083], [4.325322000643425, 52.01219900392119], [4.326059000644181, 52.01250000392138], [4.319389000637901, 52.019917003925926], [4.265245000582257, 51.995836003910306], [4.267252000584146, 51.99358400390894], [4.266912000583788, 51.99331500390878], [4.267545000584412, 51.99309100390863], [4.26805600058494, 51.99338800390882], [4.269320000586163, 51.99257400390835], [4.269723000586582, 51.99290000390855], [4.271117000587947, 51.99224700390811], [4.2718940005887625, 51.9928920039086], [4.27391500059074, 51.99202000390804], [4.280322000597073, 51.99034700390707], [4.280355000597005, 51.98854000390591], [4.280903000597556, 51.988543003905974], [4.282304000598892, 51.9873470039052], [4.282519000599065, 51.986564003904775], [4.28409000060059, 51.985641003904185], [4.287537000604235, 51.98901600390633], [4.2886840006053735, 51.9888250039062], [4.290193000606809, 51.987397003905336], [4.291914000608289, 51.9829700039026], [4.295629000612051, 51.983597003903], [4.29632500061265, 51.981765003901856], [4.298766000615115, 51.982107003902115], [4.299271000615568, 51.981114003901524], [4.300032000616319, 51.98093200390141], [4.301816000618125, 51.98120000390159], [4.303143000619383, 51.97990000390077], [4.298253000614343, 51.9774640038992], [4.295981000612065, 51.97753300389923], [4.287553000603378, 51.97335500389652], [4.289351000605097, 51.9718710038956], [4.285092000600714, 51.96989000389433], [4.284127000599787, 51.970627003894755], [4.282317000597925, 51.96978800389422], [4.280315000596009, 51.97145100389527], [4.278161000593793, 51.970433003894584], [4.274686000590469, 51.97339600389638], [4.273225000589021, 51.973643003896534], [4.271949000587624, 51.97161400389525], [4.272465000588067, 51.970256003894384], [4.2714560005870315, 51.96986000389417], [4.276537000591863, 51.965054003891176], [4.26344900057845, 51.96009400388792], [4.262310000577317, 51.960227003887994], [4.25826800057319, 51.95896500388716], [4.25362900056853, 51.95886700388706], [4.237249000551835, 51.95423600388396], [4.237329000551896, 51.95394500388375], [4.236541000551108, 51.95400000388378], [4.2338530005483666, 51.953171003883234], [4.233583000548068, 51.95268900388292], [4.234099000548417, 51.949735003881045], [4.2368450005510025, 51.94668500387919], [4.240409000554418, 51.94382600387742], [4.241270000555276, 51.94370800387736], [4.241070000555037, 51.94303400387691], [4.240317000554271, 51.942872003876836], [4.257822000571055, 51.92881000386817]]]}, "properties": {"type": "boundary", "gemeente": "Midden-Delfland"}}]}