{"type": "FeatureCollection", "metadata": {"gemeente": "Montfoort", "slug": "montfoort", "generated_at": "2026-09-14T07:32:33.064092Z", "total_points": 28, "merken": ["StatiegeldNederland", "Stibat", "StichtingOPEN"], "bounds": [4.90978, 52.0371369, 4.9540802, 52.0635066]}, "features": [{"type": "Feature", "geometry": {"type": "Point", "coordinates": [4.9515732, 52.0472798]}, "properties": {"type": "inleverpunt", "locatieNaam": "Albert Heijn", "straatNaam": "Boslaan", "straatNr": "40", "postcode": "3417 AB", "plaats": "Montfoort", "merk": "StatiegeldNederland", "puntType": "automaat", "materialen": ["pet-groot", "pet-klein", "blik", "glas", "krat"], "uitbetaling": ["bonnetje", "donatie"], "vrijToegankelijk": true, "gemeenteBeperking": null, "openingstijden": {"ma": "08:00–21:00", "di": "08:00–21:00", "wo": "08:00–21:00", "do": "08:00–21:00", "vr": "08:00–21:00", "za": "08:00–21:00", "zo": "09:00–21:00"}, "latitude": 52.0472798, "longitude": 4.9515732, "bronId": "335611"}}, {"type": "Feature", "geometry": {"type": "Point", "coordinates": [4.9170336, 52.0633381]}, "properties": {"type": "inleverpunt", "locatieNaam": "Boon‘s Markt", "straatNaam": "Laan Van Rapijnen", "straatNr": "27", "postcode": "3461 GH", "plaats": "Linschoten", "merk": "StatiegeldNederland", "puntType": "automaat", "materialen": ["pet-groot", "pet-klein", "blik", "glas", "krat"], "uitbetaling": ["bonnetje"], "vrijToegankelijk": true, "gemeenteBeperking": null, "openingstijden": {"ma": "08:00–20:00", "di": "08:00–20:00", "wo": "08:00–20:00", "do": "08:00–20:00", "vr": "08:00–20:00", "za": "08:00–20:00", "zo": "Gesloten"}, "latitude": 52.0633381, "longitude": 4.9170336, "bronId": "337446"}}, {"type": "Feature", "geometry": {"type": "Point", "coordinates": [4.9251328, 52.0635066]}, "properties": {"type": "inleverpunt", "locatieNaam": "Honk- En Softbal Ver. Greenhearts", "straatNaam": "Oostwijk", "straatNr": "22A", "postcode": "2234 GP", "plaats": "Linschoten", "merk": "StatiegeldNederland", "puntType": "balie", "materialen": ["pet-groot", "pet-klein", "blik"], "uitbetaling": [], "vrijToegankelijk": false, "gemeenteBeperking": null, "openingstijden": {"ma": "Gesloten", "di": "Gesloten", "wo": "Gesloten", "do": "Gesloten", "vr": "Gesloten", "za": "08:00–19:00", "zo": "08:00–19:00"}, "latitude": 52.0635066, "longitude": 4.9251328, "bronId": "338634"}}, {"type": "Feature", "geometry": {"type": "Point", "coordinates": [4.946187, 52.042989]}, "properties": {"type": "inleverpunt", "locatieNaam": "Jumbo", "straatNaam": "Julianalaan", "straatNr": "2", "postcode": "3417 GK", "plaats": "Montfoort", "merk": "StatiegeldNederland", "puntType": "automaat", "materialen": ["pet-groot", "pet-klein", "blik", "glas", "krat"], "uitbetaling": ["bonnetje", "donatie"], "vrijToegankelijk": true, "gemeenteBeperking": null, "openingstijden": {"ma": "08:00–21:00", "di": "08:00–21:00", "wo": "08:00–21:00", "do": "08:00–21:00", "vr": "08:00–21:00", "za": "08:00–21:00", "zo": "Gesloten"}, "latitude": 52.042989, "longitude": 4.946187, "bronId": "339097"}}, {"type": "Feature", "geometry": {"type": "Point", "coordinates": [4.9540802, 52.0440642]}, "properties": {"type": "inleverpunt", "locatieNaam": "Tennis Vereniging Montfoort", "straatNaam": "Bovenkerkweg", "straatNr": "4", "postcode": "3417 HC", "plaats": "Montfoort", "merk": "StatiegeldNederland", "puntType": "balie", "materialen": ["pet-groot", "pet-klein", "blik"], "uitbetaling": [], "vrijToegankelijk": false, "gemeenteBeperking": null, "openingstijden": {"ma": "09:00–23:00", "di": "09:00–23:00", "wo": "09:00–23:00", "do": "09:00–23:00", "vr": "09:00–23:00", "za": "09:00–23:00", "zo": "09:00–23:00"}, "latitude": 52.0440642, "longitude": 4.9540802, "bronId": "342776"}}, {"type": "Feature", "geometry": {"type": "Point", "coordinates": [4.9524355, 52.0497569]}, "properties": {"type": "inleverpunt", "locatieNaam": "ViaTim", "straatNaam": "Lambertus Hortensiusstraat", "straatNr": "15", "postcode": "3417 AS", "plaats": "Montfoort", "merk": "StatiegeldNederland", "puntType": "balie", "materialen": ["pet-groot", "pet-klein", "blik"], "uitbetaling": ["tikkie"], "vrijToegankelijk": true, "gemeenteBeperking": null, "openingstijden": {"ma": "15:00–21:00", "di": "15:00–21:00", "wo": "15:00–21:00", "do": "15:00–21:00", "vr": "15:00–21:00", "za": "Gesloten", "zo": "Gesloten"}, "latitude": 52.0497569, "longitude": 4.9524355, "bronId": "343396"}}, {"type": "Feature", "geometry": {"type": "Point", "coordinates": [4.951274, 52.047297]}, "properties": {"type": "inleverpunt", "locatieNaam": "8783 Albert Heijn Montfoort", "straatNaam": "Boslaan", "straatNr": "40", "postcode": "3417 AB", "plaats": "Montfoort", "merk": "StichtingOPEN", "puntType": "balie", "materialen": ["batterijen", "elektro-klein", "lampen"], "uitbetaling": [], "vrijToegankelijk": false, "gemeenteBeperking": null, "openingstijden": null, "latitude": 52.047297, "longitude": 4.951274, "bronId": "SP00022824"}}, {"type": "Feature", "geometry": {"type": "Point", "coordinates": [4.949557, 52.046072]}, "properties": {"type": "inleverpunt", "locatieNaam": "Van der Wijngaard Electronics", "straatNaam": "Hoogstraat", "straatNr": "1", "postcode": "3417 HA", "plaats": "Montfoort", "merk": "StichtingOPEN", "puntType": "balie", "materialen": ["elektro-middel", "lampen"], "uitbetaling": [], "vrijToegankelijk": false, "gemeenteBeperking": null, "openingstijden": null, "latitude": 52.046072, "longitude": 4.949557, "bronId": "SP00002276"}}, {"type": "Feature", "geometry": {"type": "Point", "coordinates": [4.94801, 52.04533]}, "properties": {"type": "inleverpunt", "locatieNaam": "Kruidvat Montfoort", "straatNaam": "Hoogstraat", "straatNr": "37", "postcode": "3417 HA", "plaats": "Montfoort", "merk": "StichtingOPEN", "puntType": "balie", "materialen": ["batterijen", "lampen"], "uitbetaling": [], "vrijToegankelijk": false, "gemeenteBeperking": null, "openingstijden": null, "latitude": 52.04533, "longitude": 4.94801, "bronId": "SP00029570"}}, {"type": "Feature", "geometry": {"type": "Point", "coordinates": [4.946194, 52.042952]}, "properties": {"type": "inleverpunt", "locatieNaam": "Jumbo Montfoort", "straatNaam": "Julianalaan", "straatNr": "2", "postcode": "3417 GK", "plaats": "Montfoort", "merk": "StichtingOPEN", "puntType": "balie", "materialen": ["batterijen", "lampen"], "uitbetaling": [], "vrijToegankelijk": false, "gemeenteBeperking": null, "openingstijden": null, "latitude": 52.042952, "longitude": 4.946194, "bronId": "SP00023567"}}, {"type": "Feature", "geometry": {"type": "Point", "coordinates": [4.931348, 52.045565]}, "properties": {"type": "inleverpunt", "locatieNaam": "Hubo Montfoort", "straatNaam": "Tasveld", "straatNr": "30", "postcode": "3417 XS", "plaats": "Montfoort", "merk": "StichtingOPEN", "puntType": "balie", "materialen": ["lampen", "tl-buizen"], "uitbetaling": [], "vrijToegankelijk": false, "gemeenteBeperking": null, "openingstijden": null, "latitude": 52.045565, "longitude": 4.931348, "bronId": "SP00003459"}}, {"type": "Feature", "geometry": {"type": "Point", "coordinates": [4.919534, 52.060877]}, "properties": {"type": "inleverpunt", "locatieNaam": "Boon's Markt Linschoten", "straatNaam": "Laan van Rapijnen", "straatNr": "27", "postcode": "3461 GH", "plaats": "Linschoten", "merk": "StichtingOPEN", "puntType": "balie", "materialen": ["batterijen", "lampen"], "uitbetaling": [], "vrijToegankelijk": false, "gemeenteBeperking": null, "openingstijden": null, "latitude": 52.060877, "longitude": 4.919534, "bronId": "SP00023394"}}, {"type": "Feature", "geometry": {"type": "Point", "coordinates": [4.90978, 52.063426]}, "properties": {"type": "inleverpunt", "locatieNaam": "Remmerswaal RTV", "straatNaam": "Strick van Linschotenstraat", "straatNr": "86", "postcode": "3461 EJ", "plaats": "Linschoten", "merk": "StichtingOPEN", "puntType": "balie", "materialen": ["elektro-groot", "elektro-klein", "elektro-middel"], "uitbetaling": [], "vrijToegankelijk": false, "gemeenteBeperking": null, "openingstijden": null, "latitude": 52.063426, "longitude": 4.90978, "bronId": "SP00002288"}}, {"type": "Feature", "geometry": {"type": "Point", "coordinates": [4.941609, 52.047355]}, "properties": {"type": "inleverpunt", "locatieNaam": "Gemeentewerf Montfoort", "straatNaam": "IJsselveld", "straatNr": "18a", "postcode": "3417 XH", "plaats": "Montfoort", "merk": "StichtingOPEN", "puntType": "milieustraat", "materialen": ["batterijen", "elektro-groot", "elektro-klein", "elektro-middel", "lampen", "tl-buizen"], "uitbetaling": [], "vrijToegankelijk": false, "gemeenteBeperking": ["Montfoort"], "openingstijden": null, "latitude": 52.047355, "longitude": 4.941609, "bronId": "SP00004283"}}, {"type": "Feature", "geometry": {"type": "Point", "coordinates": [4.9513701, 52.0472289]}, "properties": {"type": "inleverpunt", "locatieNaam": "8783 Albert Heijn", "straatNaam": "Boslaan", "straatNr": "40", "postcode": "3417 AB", "plaats": "Montfoort", "merk": "Stibat", "puntType": "inzamelbak", "materialen": ["batterijen"], "uitbetaling": [], "vrijToegankelijk": false, "gemeenteBeperking": null, "openingstijden": null, "latitude": 52.0472289, "longitude": 4.9513701, "bronId": "L006163"}}, {"type": "Feature", "geometry": {"type": "Point", "coordinates": [4.9501237, 52.0464706]}, "properties": {"type": "inleverpunt", "locatieNaam": "HEMA Montfoort", "straatNaam": "Waterpoort", "straatNr": "2a", "postcode": "3417 BL", "plaats": "Montfoort", "merk": "Stibat", "puntType": "inzamelbak", "materialen": ["batterijen"], "uitbetaling": [], "vrijToegankelijk": false, "gemeenteBeperking": null, "openingstijden": null, "latitude": 52.0464706, "longitude": 4.9501237, "bronId": "L046885"}}, {"type": "Feature", "geometry": {"type": "Point", "coordinates": [4.9499517, 52.0460204]}, "properties": {"type": "inleverpunt", "locatieNaam": "DA", "straatNaam": "Keizerstraat", "straatNr": "9", "postcode": "3417 EA", "plaats": "Montfoort", "merk": "Stibat", "puntType": "inzamelbak", "materialen": ["batterijen"], "uitbetaling": [], "vrijToegankelijk": false, "gemeenteBeperking": null, "openingstijden": null, "latitude": 52.0460204, "longitude": 4.9499517, "bronId": "L023050"}}, {"type": "Feature", "geometry": {"type": "Point", "coordinates": [4.9499081, 52.0457896]}, "properties": {"type": "inleverpunt", "locatieNaam": "Optie1 Montfoort", "straatNaam": "Keizerstraat", "straatNr": "10B", "postcode": "3417 EB", "plaats": "Montfoort", "merk": "Stibat", "puntType": "inzamelbak", "materialen": ["batterijen"], "uitbetaling": [], "vrijToegankelijk": false, "gemeenteBeperking": null, "openingstijden": null, "latitude": 52.0457896, "longitude": 4.9499081, "bronId": "L048118"}}, {"type": "Feature", "geometry": {"type": "Point", "coordinates": [4.9495573, 52.0460721]}, "properties": {"type": "inleverpunt", "locatieNaam": "Van der Wijngaard Electronics", "straatNaam": "Hoogstraat", "straatNr": "1", "postcode": "3417 HA", "plaats": "Montfoort", "merk": "Stibat", "puntType": "inzamelbak", "materialen": ["batterijen"], "uitbetaling": [], "vrijToegankelijk": false, "gemeenteBeperking": null, "openingstijden": null, "latitude": 52.0460721, "longitude": 4.9495573, "bronId": "L048770"}}, {"type": "Feature", "geometry": {"type": "Point", "coordinates": [4.9484112, 52.0455252]}, "properties": {"type": "inleverpunt", "locatieNaam": "Profile Olaf Selderbeek", "straatNaam": "Hoogstraat", "straatNr": "27", "postcode": "3417 HA", "plaats": "Montfoort", "merk": "Stibat", "puntType": "inzamelbak", "materialen": ["batterijen"], "uitbetaling": [], "vrijToegankelijk": false, "gemeenteBeperking": null, "openingstijden": null, "latitude": 52.0455252, "longitude": 4.9484112, "bronId": "L033158"}}, {"type": "Feature", "geometry": {"type": "Point", "coordinates": [4.9479886, 52.0453857]}, "properties": {"type": "inleverpunt", "locatieNaam": "Kruidvat", "straatNaam": "Hoogstraat", "straatNr": "37", "postcode": "3417 HA", "plaats": "Montfoort", "merk": "Stibat", "puntType": "inzamelbak", "materialen": ["batterijen"], "uitbetaling": [], "vrijToegankelijk": false, "gemeenteBeperking": null, "openingstijden": null, "latitude": 52.0453857, "longitude": 4.9479886, "bronId": "L016813"}}, {"type": "Feature", "geometry": {"type": "Point", "coordinates": [4.946194, 52.0429522]}, "properties": {"type": "inleverpunt", "locatieNaam": "Jumbo", "straatNaam": "Julianalaan", "straatNr": "2", "postcode": "3417 GK", "plaats": "Montfoort", "merk": "Stibat", "puntType": "inzamelbak", "materialen": ["batterijen"], "uitbetaling": [], "vrijToegankelijk": false, "gemeenteBeperking": null, "openingstijden": null, "latitude": 52.0429522, "longitude": 4.946194, "bronId": "L040570"}}, {"type": "Feature", "geometry": {"type": "Point", "coordinates": [4.937192, 52.0456783]}, "properties": {"type": "inleverpunt", "locatieNaam": "Gemeentewerf IJsselveld", "straatNaam": "IJsselveld", "straatNr": "18a", "postcode": "3417 XH", "plaats": "Montfoort", "merk": "Stibat", "puntType": "inzamelbak", "materialen": ["batterijen"], "uitbetaling": [], "vrijToegankelijk": false, "gemeenteBeperking": null, "openingstijden": null, "latitude": 52.0456783, "longitude": 4.937192, "bronId": "L035674"}}, {"type": "Feature", "geometry": {"type": "Point", "coordinates": [4.9373876, 52.0371369]}, "properties": {"type": "inleverpunt", "locatieNaam": "Groenrijk", "straatNaam": "Willeskop", "straatNr": "68A", "postcode": "3417 ME", "plaats": "Montfoort", "merk": "Stibat", "puntType": "inzamelbak", "materialen": ["batterijen"], "uitbetaling": [], "vrijToegankelijk": false, "gemeenteBeperking": null, "openingstijden": null, "latitude": 52.0371369, "longitude": 4.9373876, "bronId": "L040825"}}, {"type": "Feature", "geometry": {"type": "Point", "coordinates": [4.9334488, 52.0447079]}, "properties": {"type": "inleverpunt", "locatieNaam": "Staro ICT BV", "straatNaam": "Tasveld", "straatNr": "9a", "postcode": "3417 XS", "plaats": "Montfoort", "merk": "Stibat", "puntType": "inzamelbak", "materialen": ["batterijen"], "uitbetaling": [], "vrijToegankelijk": false, "gemeenteBeperking": null, "openingstijden": null, "latitude": 52.0447079, "longitude": 4.9334488, "bronId": "L035363"}}, {"type": "Feature", "geometry": {"type": "Point", "coordinates": [4.9313488, 52.0455659]}, "properties": {"type": "inleverpunt", "locatieNaam": "Hubo", "straatNaam": "Tasveld", "straatNr": "30", "postcode": "3417 XS", "plaats": "Montfoort", "merk": "Stibat", "puntType": "inzamelbak", "materialen": ["batterijen"], "uitbetaling": [], "vrijToegankelijk": false, "gemeenteBeperking": null, "openingstijden": null, "latitude": 52.0455659, "longitude": 4.9313488, "bronId": "L040325"}}, {"type": "Feature", "geometry": {"type": "Point", "coordinates": [4.9169207, 52.0632651]}, "properties": {"type": "inleverpunt", "locatieNaam": "Boon's Markt", "straatNaam": "Laan van Rapijnen", "straatNr": "27", "postcode": "3461 GH", "plaats": "Linschoten", "merk": "Stibat", "puntType": "inzamelbak", "materialen": ["batterijen"], "uitbetaling": [], "vrijToegankelijk": false, "gemeenteBeperking": null, "openingstijden": null, "latitude": 52.0632651, "longitude": 4.9169207, "bronId": "L031301"}}, {"type": "Feature", "geometry": {"type": "Point", "coordinates": [4.91528, 52.0611133]}, "properties": {"type": "inleverpunt", "locatieNaam": "Baars Tweewielers", "straatNaam": "Dorpstraat", "straatNr": "47", "postcode": "3461 CP", "plaats": "Linschoten", "merk": "Stibat", "puntType": "inzamelbak", "materialen": ["batterijen"], "uitbetaling": [], "vrijToegankelijk": false, "gemeenteBeperking": null, "openingstijden": null, "latitude": 52.0611133, "longitude": 4.91528, "bronId": "L033173"}}, {"type": "Feature", "geometry": {"type": "Polygon", "coordinates": [[[4.924159001245336, 52.02659500393209], [4.920059001241171, 52.02555800393148], [4.914028001235096, 52.02524700393132], [4.910378001231445, 52.02555400393151], [4.904975001226062, 52.0264780039321], [4.917748001238277, 52.013217003923835], [4.91663900123717, 52.01341300392394], [4.9200450012404335, 52.010014003921796], [4.954918001275807, 52.01734700392625], [4.959001001279922, 52.0176150039264], [4.966235001287248, 52.01894200392717], [4.971826001292904, 52.019724003927664], [4.972101001293166, 52.0194630039275], [4.976061001297184, 52.02036100392803], [4.980715001301883, 52.02088500392831], [4.986261001307467, 52.02115400392847], [4.99216200131339, 52.02103200392837], [4.995199001316463, 52.02150300392866], [4.994046001315674, 52.02974000393377], [4.9831390013046315, 52.02778500393263], [4.978379001300392, 52.03972300394008], [4.983277001305335, 52.04023700394031], [4.990110001312739, 52.05219900394773], [4.99100700131367, 52.05288400394814], [4.993569001316225, 52.052517003947905], [4.996331001319011, 52.052783003948065], [5.000269001323009, 52.053719003948636], [5.003846001326673, 52.05536900394962], [5.004934001327775, 52.055559003949746], [5.006161001328999, 52.05541700394963], [5.010284001333065, 52.05374100394858], [5.018011001341201, 52.062219003953764], [5.000053001323345, 52.0659680039562], [4.996099001319437, 52.067343003957085], [4.982610001305789, 52.06495000395566], [4.970501001293752, 52.06756000395729], [4.956773001279895, 52.06593300395638], [4.956333001279654, 52.070299003959086], [4.945273001268805, 52.075758003962505], [4.9387910012624125, 52.07818900396402], [4.936143001259834, 52.0799200039651], [4.930847001254489, 52.079285003964706], [4.926857001250407, 52.077592003963716], [4.926609001250168, 52.077818003963834], [4.924661001248202, 52.0775910039637], [4.917797001241179, 52.07468500396195], [4.9160340012393995, 52.07447200396181], [4.907966001231178, 52.0718120039602], [4.906322001229462, 52.07044400395936], [4.9050830012282, 52.07001500395909], [4.904855001227983, 52.07024600395925], [4.9033270012264385, 52.07003500395914], [4.903040001226176, 52.07061500395944], [4.902082001225199, 52.07029800395927], [4.8889850012119895, 52.06890800395844], [4.875335001198288, 52.06888500395848], [4.874516001197432, 52.06819100395805], [4.873200001196137, 52.06874500395839], [4.868225001190893, 52.06344600395515], [4.871458001193939, 52.05922500395252], [4.874040001196582, 52.060310003953205], [4.875506001198114, 52.06158000395397], [4.895411001217472, 52.048234003945666], [4.8956380012177965, 52.05027900394693], [4.896120001218302, 52.050730003947216], [4.898057001220261, 52.0510720039474], [4.902052001224342, 52.05252500394829], [4.906505001228858, 52.053476003948894], [4.9068750012292135, 52.05318100394868], [4.917118001239062, 52.043791003942836], [4.91139800123315, 52.04018200394059], [4.926681001248025, 52.02998700393423], [4.9261180012473735, 52.02808800393308], [4.924159001245336, 52.02659500393209]]]}, "properties": {"type": "boundary", "gemeente": "Montfoort"}}]}