{"type": "FeatureCollection", "metadata": {"gemeente": "Neder-Betuwe", "slug": "neder-betuwe", "generated_at": "2026-08-24T03:11:25.039479Z", "total_points": 49, "merken": ["StatiegeldNederland", "Stibat", "StichtingOPEN"], "bounds": [5.4948712, 51.9059945, 5.6557417, 51.9391807]}, "features": [{"type": "Feature", "geometry": {"type": "Point", "coordinates": [5.6275167, 51.934227]}, "properties": {"type": "inleverpunt", "locatieNaam": "Albert Heijn", "straatNaam": "Swaenenstate", "straatNr": "4", "postcode": "4043 KE", "plaats": "Opheusden", "merk": "StatiegeldNederland", "puntType": "automaat", "materialen": ["pet-groot", "pet-klein", "blik", "glas", "krat"], "uitbetaling": ["bonnetje", "donatie"], "vrijToegankelijk": true, "gemeenteBeperking": null, "openingstijden": {"ma": "08:00–20:00", "di": "08:00–20:00", "wo": "08:00–20:00", "do": "08:00–21:00", "vr": "08:00–21:00", "za": "08:00–20:00", "zo": "Gesloten"}, "latitude": 51.934227, "longitude": 5.6275167, "bronId": "294007"}}, {"type": "Feature", "geometry": {"type": "Point", "coordinates": [5.565786, 51.9062899]}, "properties": {"type": "inleverpunt", "locatieNaam": "Aldi", "straatNaam": "Dokter M. Van Drielplein", "straatNr": "3", "postcode": "4051 AX", "plaats": "Ochten", "merk": "StatiegeldNederland", "puntType": "automaat", "materialen": ["pet-groot", "pet-klein", "blik", "glas", "krat"], "uitbetaling": ["bonnetje"], "vrijToegankelijk": true, "gemeenteBeperking": null, "openingstijden": {"ma": "08:00–20:00", "di": "08:00–20:00", "wo": "08:00–20:00", "do": "08:00–20:00", "vr": "08:00–20:00", "za": "08:00–20:00", "zo": "Gesloten"}, "latitude": 51.9062899, "longitude": 5.565786, "bronId": "294293"}}, {"type": "Feature", "geometry": {"type": "Point", "coordinates": [5.6256084, 51.9339945]}, "properties": {"type": "inleverpunt", "locatieNaam": "Aldi", "straatNaam": "Hamsestraat", "straatNr": "16", "postcode": "4043 LH", "plaats": "Opheusden", "merk": "StatiegeldNederland", "puntType": "automaat", "materialen": ["pet-groot", "pet-klein", "blik", "glas", "krat"], "uitbetaling": ["bonnetje"], "vrijToegankelijk": true, "gemeenteBeperking": null, "openingstijden": {"ma": "08:00–20:00", "di": "08:00–20:00", "wo": "08:00–20:00", "do": "08:00–20:00", "vr": "08:00–20:00", "za": "08:00–20:00", "zo": "Gesloten"}, "latitude": 51.9339945, "longitude": 5.6256084, "bronId": "294349"}}, {"type": "Feature", "geometry": {"type": "Point", "coordinates": [5.596703, 51.9391807]}, "properties": {"type": "inleverpunt", "locatieNaam": "De Markplas B.V.", "straatNaam": "Markstraat", "straatNr": "1a", "postcode": "4043 JX", "plaats": "Opheusden", "merk": "StatiegeldNederland", "puntType": "automaat", "materialen": ["pet-groot", "pet-klein", "blik"], "uitbetaling": ["bonnetje", "donatie", "tikkie"], "vrijToegankelijk": true, "gemeenteBeperking": null, "openingstijden": null, "latitude": 51.9391807, "longitude": 5.596703, "bronId": "295712"}}, {"type": "Feature", "geometry": {"type": "Point", "coordinates": [5.5426319, 51.9102334]}, "properties": {"type": "inleverpunt", "locatieNaam": "Le Cartouche", "straatNaam": "Keizerstraat", "straatNr": "104", "postcode": "4051 CH", "plaats": "Ijzendoorn", "merk": "StatiegeldNederland", "puntType": "balie", "materialen": ["pet-groot", "pet-klein", "blik"], "uitbetaling": [], "vrijToegankelijk": false, "gemeenteBeperking": null, "openingstijden": null, "latitude": 51.9102334, "longitude": 5.5426319, "bronId": "297483"}}, {"type": "Feature", "geometry": {"type": "Point", "coordinates": [5.5922187, 51.9326189]}, "properties": {"type": "inleverpunt", "locatieNaam": "Markies 60059 Yuverta Kester", "straatNaam": "Industrieweg", "straatNr": "4", "postcode": "4041 CR", "plaats": "Kesteren", "merk": "StatiegeldNederland", "puntType": "balie", "materialen": ["pet-groot", "pet-klein", "blik"], "uitbetaling": [], "vrijToegankelijk": true, "gemeenteBeperking": null, "openingstijden": {"ma": "08:00–17:00", "di": "08:00–17:00", "wo": "08:00–17:00", "do": "08:00–17:00", "vr": "08:00–17:00", "za": "Gesloten", "zo": "Gesloten"}, "latitude": 51.9326189, "longitude": 5.5922187, "bronId": "298113"}}, {"type": "Feature", "geometry": {"type": "Point", "coordinates": [5.5652754, 51.9060693]}, "properties": {"type": "inleverpunt", "locatieNaam": "MCD", "straatNaam": "Dr. M. Van Drielplein", "straatNr": "1", "postcode": "4051 AX", "plaats": "Ochten", "merk": "StatiegeldNederland", "puntType": "automaat", "materialen": ["pet-groot", "pet-klein", "blik", "glas", "krat"], "uitbetaling": ["bonnetje", "donatie"], "vrijToegankelijk": true, "gemeenteBeperking": null, "openingstijden": {"ma": "08:00–20:00", "di": "08:00–20:00", "wo": "08:00–20:00", "do": "08:00–20:00", "vr": "08:00–20:00", "za": "08:00–20:00", "zo": "Gesloten"}, "latitude": 51.9060693, "longitude": 5.5652754, "bronId": "298159"}}, {"type": "Feature", "geometry": {"type": "Point", "coordinates": [5.655739, 51.9097775]}, "properties": {"type": "inleverpunt", "locatieNaam": "Plus", "straatNaam": "Molenpad", "straatNr": "1", "postcode": "6669 BP", "plaats": "Dodewaard", "merk": "StatiegeldNederland", "puntType": "automaat", "materialen": ["pet-groot", "pet-klein", "blik", "glas", "krat"], "uitbetaling": ["bonnetje"], "vrijToegankelijk": true, "gemeenteBeperking": null, "openingstijden": {"ma": "08:00–20:00", "di": "08:00–20:00", "wo": "08:00–20:00", "do": "08:00–20:00", "vr": "08:00–20:00", "za": "08:00–20:00", "zo": "Gesloten"}, "latitude": 51.9097775, "longitude": 5.655739, "bronId": "298914"}}, {"type": "Feature", "geometry": {"type": "Point", "coordinates": [5.5740366, 51.9350551]}, "properties": {"type": "inleverpunt", "locatieNaam": "Plus", "straatNaam": "Stationsstraat", "straatNr": "1", "postcode": "4041 CH", "plaats": "Kesteren", "merk": "StatiegeldNederland", "puntType": "automaat", "materialen": ["pet-groot", "pet-klein", "blik", "glas", "krat"], "uitbetaling": ["bonnetje", "donatie"], "vrijToegankelijk": true, "gemeenteBeperking": null, "openingstijden": {"ma": "08:00–20:00", "di": "08:00–20:00", "wo": "08:00–20:00", "do": "08:00–20:00", "vr": "08:00–21:00", "za": "08:00–20:00", "zo": "Gesloten"}, "latitude": 51.9350551, "longitude": 5.5740366, "bronId": "299018"}}, {"type": "Feature", "geometry": {"type": "Point", "coordinates": [5.607206, 51.923633]}, "properties": {"type": "inleverpunt", "locatieNaam": "Shell", "straatNaam": "Rijksweg A15/E1 NZ", "straatNr": "", "postcode": "4041 AS", "plaats": "Kesteren", "merk": "StatiegeldNederland", "puntType": "balie", "materialen": ["pet-groot", "pet-klein", "blik"], "uitbetaling": [], "vrijToegankelijk": true, "gemeenteBeperking": null, "openingstijden": {"ma": "24 uur geopend", "di": "24 uur geopend", "wo": "24 uur geopend", "do": "24 uur geopend", "vr": "24 uur geopend", "za": "24 uur geopend", "zo": "24 uur geopend"}, "latitude": 51.923633, "longitude": 5.607206, "bronId": "299673"}}, {"type": "Feature", "geometry": {"type": "Point", "coordinates": [5.6302062, 51.933985]}, "properties": {"type": "inleverpunt", "locatieNaam": "Slijterij Gerrit Arends", "straatNaam": "Burgemeester Lodderstraat", "straatNr": "11", "postcode": "4043 KL", "plaats": "Opheusden", "merk": "StatiegeldNederland", "puntType": "balie", "materialen": ["pet-groot", "pet-klein", "blik"], "uitbetaling": [], "vrijToegankelijk": true, "gemeenteBeperking": null, "openingstijden": {"ma": "Gesloten", "di": "09:00–17:30", "wo": "09:00–17:30", "do": "09:00–17:30", "vr": "08:30–20:00", "za": "08:30–17:00", "zo": "Gesloten"}, "latitude": 51.933985, "longitude": 5.6302062, "bronId": "299766"}}, {"type": "Feature", "geometry": {"type": "Point", "coordinates": [5.601726, 51.9218931]}, "properties": {"type": "inleverpunt", "locatieNaam": "Spar Express", "straatNaam": "RIJKSWEG A15", "straatNr": "", "postcode": "4051 CZ", "plaats": "Ochten", "merk": "StatiegeldNederland", "puntType": "balie", "materialen": ["pet-groot", "pet-klein", "blik"], "uitbetaling": [], "vrijToegankelijk": true, "gemeenteBeperking": null, "openingstijden": {"ma": "24 uur geopend", "di": "24 uur geopend", "wo": "24 uur geopend", "do": "24 uur geopend", "vr": "24 uur geopend", "za": "24 uur geopend", "zo": "24 uur geopend"}, "latitude": 51.9218931, "longitude": 5.601726, "bronId": "300067"}}, {"type": "Feature", "geometry": {"type": "Point", "coordinates": [5.4948712, 51.907887]}, "properties": {"type": "inleverpunt", "locatieNaam": "Voetbalvereniging Echteld", "straatNaam": "Ooisestraat", "straatNr": "14", "postcode": "4054 MN", "plaats": "Echteld", "merk": "StatiegeldNederland", "puntType": "balie", "materialen": ["pet-groot", "pet-klein", "blik"], "uitbetaling": [], "vrijToegankelijk": false, "gemeenteBeperking": null, "openingstijden": null, "latitude": 51.907887, "longitude": 5.4948712, "bronId": "301170"}}, {"type": "Feature", "geometry": {"type": "Point", "coordinates": [5.568374, 51.932962]}, "properties": {"type": "inleverpunt", "locatieNaam": "63060 Hubo Kesteren", "straatNaam": "Nedereindsestraat", "straatNr": "30a", "postcode": "4041 XG", "plaats": "Kesteren", "merk": "StichtingOPEN", "puntType": "balie", "materialen": ["elektro-middel", "lampen", "tl-buizen"], "uitbetaling": [], "vrijToegankelijk": false, "gemeenteBeperking": null, "openingstijden": null, "latitude": 51.932962, "longitude": 5.568374, "bronId": "SP00001391"}}, {"type": "Feature", "geometry": {"type": "Point", "coordinates": [5.574112, 51.935129]}, "properties": {"type": "inleverpunt", "locatieNaam": "PLUS Kesteren", "straatNaam": "Stationsstraat", "straatNr": "1", "postcode": "4041 CH", "plaats": "Kesteren", "merk": "StichtingOPEN", "puntType": "balie", "materialen": ["batterijen", "lampen"], "uitbetaling": [], "vrijToegankelijk": false, "gemeenteBeperking": null, "openingstijden": null, "latitude": 51.935129, "longitude": 5.574112, "bronId": "SP00024186"}}, {"type": "Feature", "geometry": {"type": "Point", "coordinates": [5.590248, 51.93215]}, "properties": {"type": "inleverpunt", "locatieNaam": "Kluswijs Kesteren", "straatNaam": "Industrieweg", "straatNr": "2d", "postcode": "4041 CR", "plaats": "Kesteren", "merk": "StichtingOPEN", "puntType": "balie", "materialen": ["elektro-middel", "lampen", "tl-buizen"], "uitbetaling": [], "vrijToegankelijk": false, "gemeenteBeperking": null, "openingstijden": null, "latitude": 51.93215, "longitude": 5.590248, "bronId": "SP00004885"}}, {"type": "Feature", "geometry": {"type": "Point", "coordinates": [5.565786, 51.906289]}, "properties": {"type": "inleverpunt", "locatieNaam": "Aldi Ochten", "straatNaam": "Dokter M. van Drielplein", "straatNr": "3", "postcode": "4051 AX", "plaats": "Ochten", "merk": "StichtingOPEN", "puntType": "balie", "materialen": ["batterijen", "elektro-klein", "lampen"], "uitbetaling": [], "vrijToegankelijk": false, "gemeenteBeperking": null, "openingstijden": null, "latitude": 51.906289, "longitude": 5.565786, "bronId": "SP00026812"}}, {"type": "Feature", "geometry": {"type": "Point", "coordinates": [5.626, 51.933471]}, "properties": {"type": "inleverpunt", "locatieNaam": "Aldi Opheusden", "straatNaam": "Hamsestraat", "straatNr": "16", "postcode": "4043 LH", "plaats": "Opheusden", "merk": "StichtingOPEN", "puntType": "balie", "materialen": ["batterijen", "elektro-klein", "lampen"], "uitbetaling": [], "vrijToegankelijk": false, "gemeenteBeperking": null, "openingstijden": null, "latitude": 51.933471, "longitude": 5.626, "bronId": "SP00026813"}}, {"type": "Feature", "geometry": {"type": "Point", "coordinates": [5.627538, 51.934348]}, "properties": {"type": "inleverpunt", "locatieNaam": "4061 Albert Heijn Opheusden", "straatNaam": "Swaenenstate", "straatNr": "4", "postcode": "4043 KE", "plaats": "Opheusden", "merk": "StichtingOPEN", "puntType": "balie", "materialen": ["batterijen", "elektro-klein", "lampen"], "uitbetaling": [], "vrijToegankelijk": false, "gemeenteBeperking": null, "openingstijden": null, "latitude": 51.934348, "longitude": 5.627538, "bronId": "SP00022748"}}, {"type": "Feature", "geometry": {"type": "Point", "coordinates": [5.632191, 51.933045]}, "properties": {"type": "inleverpunt", "locatieNaam": "Dorcas Opheusden", "straatNaam": "Rozenstraat", "straatNr": "2A", "postcode": "4043 KN", "plaats": "Opheusden", "merk": "StichtingOPEN", "puntType": "balie", "materialen": ["elektro-groot", "elektro-klein", "elektro-middel", "lampen", "tl-buizen"], "uitbetaling": [], "vrijToegankelijk": false, "gemeenteBeperking": null, "openingstijden": null, "latitude": 51.933045, "longitude": 5.632191, "bronId": "SP00021112"}}, {"type": "Feature", "geometry": {"type": "Point", "coordinates": [5.63391, 51.93391]}, "properties": {"type": "inleverpunt", "locatieNaam": "Kringloopwinkel Oude Molen", "straatNaam": "Kerklaan", "straatNr": "2A", "postcode": "4043 ME", "plaats": "Opheusden", "merk": "StichtingOPEN", "puntType": "balie", "materialen": ["elektro-groot", "elektro-klein", "elektro-middel"], "uitbetaling": [], "vrijToegankelijk": false, "gemeenteBeperking": null, "openingstijden": null, "latitude": 51.93391, "longitude": 5.63391, "bronId": "SP00028501"}}, {"type": "Feature", "geometry": {"type": "Point", "coordinates": [5.634455, 51.932653]}, "properties": {"type": "inleverpunt", "locatieNaam": "Van der Garde Warenhuis", "straatNaam": "Dalwagenseweg", "straatNr": "17", "postcode": "4043 MS", "plaats": "Opheusden", "merk": "StichtingOPEN", "puntType": "balie", "materialen": ["elektro-klein", "elektro-middel"], "uitbetaling": [], "vrijToegankelijk": false, "gemeenteBeperking": null, "openingstijden": null, "latitude": 51.932653, "longitude": 5.634455, "bronId": "SP00007919"}}, {"type": "Feature", "geometry": {"type": "Point", "coordinates": [5.649139, 51.914547]}, "properties": {"type": "inleverpunt", "locatieNaam": "KlusWijs Dodewaard", "straatNaam": "Matensestraat", "straatNr": "62B", "postcode": "6669 CJ", "plaats": "Dodewaard", "merk": "StichtingOPEN", "puntType": "balie", "materialen": ["elektro-middel", "lampen"], "uitbetaling": [], "vrijToegankelijk": false, "gemeenteBeperking": null, "openingstijden": null, "latitude": 51.914547, "longitude": 5.649139, "bronId": "SP00005835"}}, {"type": "Feature", "geometry": {"type": "Point", "coordinates": [5.655727, 51.910328]}, "properties": {"type": "inleverpunt", "locatieNaam": "Action Dodewaard 1244", "straatNaam": "Dorpsplein", "straatNr": "16", "postcode": "6669 BN", "plaats": "Dodewaard", "merk": "StichtingOPEN", "puntType": "balie", "materialen": ["batterijen", "lampen"], "uitbetaling": [], "vrijToegankelijk": false, "gemeenteBeperking": null, "openingstijden": null, "latitude": 51.910328, "longitude": 5.655727, "bronId": "SP00007820"}}, {"type": "Feature", "geometry": {"type": "Point", "coordinates": [5.655699, 51.909781]}, "properties": {"type": "inleverpunt", "locatieNaam": "PLUS Dodewaard", "straatNaam": "Molenpad", "straatNr": "1", "postcode": "6669 BP", "plaats": "Dodewaard", "merk": "StichtingOPEN", "puntType": "balie", "materialen": ["batterijen", "lampen"], "uitbetaling": [], "vrijToegankelijk": false, "gemeenteBeperking": null, "openingstijden": null, "latitude": 51.909781, "longitude": 5.655699, "bronId": "SP00039795"}}, {"type": "Feature", "geometry": {"type": "Point", "coordinates": [5.5465463, 51.9390992]}, "properties": {"type": "inleverpunt", "locatieNaam": "Camping Lede en Oudewaard", "straatNaam": "Hogedijkseweg", "straatNr": "40", "postcode": "4041 AW", "plaats": "Kesteren", "merk": "Stibat", "puntType": "inzamelbak", "materialen": ["batterijen"], "uitbetaling": [], "vrijToegankelijk": false, "gemeenteBeperking": null, "openingstijden": null, "latitude": 51.9390992, "longitude": 5.5465463, "bronId": "L010947"}}, {"type": "Feature", "geometry": {"type": "Point", "coordinates": [5.5702556, 51.9372737]}, "properties": {"type": "inleverpunt", "locatieNaam": "Arkelen Tweewielers", "straatNaam": "Achterdorp", "straatNr": "6", "postcode": "4041 GK", "plaats": "Kesteren", "merk": "Stibat", "puntType": "inzamelbak", "materialen": ["batterijen"], "uitbetaling": [], "vrijToegankelijk": false, "gemeenteBeperking": null, "openingstijden": null, "latitude": 51.9372737, "longitude": 5.5702556, "bronId": "L033297"}}, {"type": "Feature", "geometry": {"type": "Point", "coordinates": [5.568433, 51.9328944]}, "properties": {"type": "inleverpunt", "locatieNaam": "Hubo", "straatNaam": "Nedereindsestraat", "straatNr": "30a", "postcode": "4041 XG", "plaats": "Kesteren", "merk": "Stibat", "puntType": "inzamelbak", "materialen": ["batterijen"], "uitbetaling": [], "vrijToegankelijk": false, "gemeenteBeperking": null, "openingstijden": null, "latitude": 51.9328944, "longitude": 5.568433, "bronId": "L010891"}}, {"type": "Feature", "geometry": {"type": "Point", "coordinates": [5.5734445, 51.9348095]}, "properties": {"type": "inleverpunt", "locatieNaam": "Novy", "straatNaam": "Hoofdstraat", "straatNr": "23", "postcode": "4041 AD", "plaats": "Kesteren", "merk": "Stibat", "puntType": "inzamelbak", "materialen": ["batterijen"], "uitbetaling": [], "vrijToegankelijk": false, "gemeenteBeperking": null, "openingstijden": null, "latitude": 51.9348095, "longitude": 5.5734445, "bronId": "L023550"}}, {"type": "Feature", "geometry": {"type": "Point", "coordinates": [5.5741121, 51.9351299]}, "properties": {"type": "inleverpunt", "locatieNaam": "PLUS", "straatNaam": "Stationsstraat", "straatNr": "1", "postcode": "4041 CH", "plaats": "Kesteren", "merk": "Stibat", "puntType": "inzamelbak", "materialen": ["batterijen"], "uitbetaling": [], "vrijToegankelijk": false, "gemeenteBeperking": null, "openingstijden": null, "latitude": 51.9351299, "longitude": 5.5741121, "bronId": "L039852"}}, {"type": "Feature", "geometry": {"type": "Point", "coordinates": [5.5731971, 51.9327809]}, "properties": {"type": "inleverpunt", "locatieNaam": "D.I.O.", "straatNaam": "Nedereindsestraat", "straatNr": "11a", "postcode": "4041 XE", "plaats": "Kesteren", "merk": "Stibat", "puntType": "inzamelbak", "materialen": ["batterijen"], "uitbetaling": [], "vrijToegankelijk": false, "gemeenteBeperking": null, "openingstijden": null, "latitude": 51.9327809, "longitude": 5.5731971, "bronId": "L025334"}}, {"type": "Feature", "geometry": {"type": "Point", "coordinates": [5.5474194, 51.9117072]}, "properties": {"type": "inleverpunt", "locatieNaam": "Thuiskantoor", "straatNaam": "Heuningstraat", "straatNr": "33", "postcode": "4051 CA", "plaats": "Ochten", "merk": "Stibat", "puntType": "inzamelbak", "materialen": ["batterijen"], "uitbetaling": [], "vrijToegankelijk": false, "gemeenteBeperking": null, "openingstijden": null, "latitude": 51.9117072, "longitude": 5.5474194, "bronId": "L030127"}}, {"type": "Feature", "geometry": {"type": "Point", "coordinates": [5.5896236, 51.9346578]}, "properties": {"type": "inleverpunt", "locatieNaam": "Telefonade", "straatNaam": "Nijverheidsweg", "straatNr": "9", "postcode": "4041 CK", "plaats": "Kesteren", "merk": "Stibat", "puntType": "inzamelbak", "materialen": ["batterijen"], "uitbetaling": [], "vrijToegankelijk": false, "gemeenteBeperking": null, "openingstijden": null, "latitude": 51.9346578, "longitude": 5.5896236, "bronId": "L041888"}}, {"type": "Feature", "geometry": {"type": "Point", "coordinates": [5.58849, 51.92072]}, "properties": {"type": "inleverpunt", "locatieNaam": "Esso", "straatNaam": "Rijksweg A15", "straatNr": "1", "postcode": "4051 CZ", "plaats": "Ochten", "merk": "Stibat", "puntType": "inzamelbak", "materialen": ["batterijen"], "uitbetaling": [], "vrijToegankelijk": false, "gemeenteBeperking": null, "openingstijden": null, "latitude": 51.92072, "longitude": 5.58849, "bronId": "L026712"}}, {"type": "Feature", "geometry": {"type": "Point", "coordinates": [5.5663141, 51.9079457]}, "properties": {"type": "inleverpunt", "locatieNaam": "Berg", "straatNaam": "Molendam", "straatNr": "15", "postcode": "4051 BG", "plaats": "Ochten", "merk": "Stibat", "puntType": "inzamelbak", "materialen": ["batterijen"], "uitbetaling": [], "vrijToegankelijk": false, "gemeenteBeperking": null, "openingstijden": null, "latitude": 51.9079457, "longitude": 5.5663141, "bronId": "L033299"}}, {"type": "Feature", "geometry": {"type": "Point", "coordinates": [5.6157068, 51.937218]}, "properties": {"type": "inleverpunt", "locatieNaam": "Rijwielhal de Wit", "straatNaam": "Tielsestraat", "straatNr": "2", "postcode": "4043 JS", "plaats": "Opheusden", "merk": "Stibat", "puntType": "inzamelbak", "materialen": ["batterijen"], "uitbetaling": [], "vrijToegankelijk": false, "gemeenteBeperking": null, "openingstijden": null, "latitude": 51.937218, "longitude": 5.6157068, "bronId": "L049379"}}, {"type": "Feature", "geometry": {"type": "Point", "coordinates": [5.565786, 51.9062899]}, "properties": {"type": "inleverpunt", "locatieNaam": "Aldi", "straatNaam": "Dokter M. van Drielplein", "straatNr": "3", "postcode": "4051 AX", "plaats": "Ochten", "merk": "Stibat", "puntType": "inzamelbak", "materialen": ["batterijen"], "uitbetaling": [], "vrijToegankelijk": false, "gemeenteBeperking": null, "openingstijden": null, "latitude": 51.9062899, "longitude": 5.565786, "bronId": "L041263"}}, {"type": "Feature", "geometry": {"type": "Point", "coordinates": [5.5652449, 51.9059945]}, "properties": {"type": "inleverpunt", "locatieNaam": "MCD", "straatNaam": "Dokter M van Drielplein", "straatNr": "1", "postcode": "4051 AX", "plaats": "Ochten", "merk": "Stibat", "puntType": "inzamelbak", "materialen": ["batterijen"], "uitbetaling": [], "vrijToegankelijk": false, "gemeenteBeperking": null, "openingstijden": null, "latitude": 51.9059945, "longitude": 5.5652449, "bronId": "L029487"}}, {"type": "Feature", "geometry": {"type": "Point", "coordinates": [5.626, 51.9334719]}, "properties": {"type": "inleverpunt", "locatieNaam": "Aldi", "straatNaam": "Hamsestraat", "straatNr": "16", "postcode": "4043 LH", "plaats": "Opheusden", "merk": "Stibat", "puntType": "inzamelbak", "materialen": ["batterijen"], "uitbetaling": [], "vrijToegankelijk": false, "gemeenteBeperking": null, "openingstijden": null, "latitude": 51.9334719, "longitude": 5.626, "bronId": "L041262"}}, {"type": "Feature", "geometry": {"type": "Point", "coordinates": [5.627895, 51.9343399]}, "properties": {"type": "inleverpunt", "locatieNaam": "2327 Albert Heijn", "straatNaam": "Swaenenstate", "straatNr": "4", "postcode": "4043 KE", "plaats": "Opheusden", "merk": "Stibat", "puntType": "inzamelbak", "materialen": ["batterijen"], "uitbetaling": [], "vrijToegankelijk": false, "gemeenteBeperking": null, "openingstijden": null, "latitude": 51.9343399, "longitude": 5.627895, "bronId": "L034761"}}, {"type": "Feature", "geometry": {"type": "Point", "coordinates": [5.6286583, 51.9343606]}, "properties": {"type": "inleverpunt", "locatieNaam": "Kruidvat", "straatNaam": "Dorpsstraat", "straatNr": "4", "postcode": "4043 KK", "plaats": "Opheusden", "merk": "Stibat", "puntType": "inzamelbak", "materialen": ["batterijen"], "uitbetaling": [], "vrijToegankelijk": false, "gemeenteBeperking": null, "openingstijden": null, "latitude": 51.9343606, "longitude": 5.6286583, "bronId": "L040193"}}, {"type": "Feature", "geometry": {"type": "Point", "coordinates": [5.6287678, 51.9340696]}, "properties": {"type": "inleverpunt", "locatieNaam": "8496 Etos", "straatNaam": "Dorpsstraat", "straatNr": "2", "postcode": "4043 KK", "plaats": "Opheusden", "merk": "Stibat", "puntType": "inzamelbak", "materialen": ["batterijen"], "uitbetaling": [], "vrijToegankelijk": false, "gemeenteBeperking": null, "openingstijden": null, "latitude": 51.9340696, "longitude": 5.6287678, "bronId": "L027315"}}, {"type": "Feature", "geometry": {"type": "Point", "coordinates": [5.628798, 51.9339744]}, "properties": {"type": "inleverpunt", "locatieNaam": "Uw Groene Vakwinkel", "straatNaam": "Dorpsstraat", "straatNr": "2a", "postcode": "4043 KK", "plaats": "Opheusden", "merk": "Stibat", "puntType": "inzamelbak", "materialen": ["batterijen"], "uitbetaling": [], "vrijToegankelijk": false, "gemeenteBeperking": null, "openingstijden": null, "latitude": 51.9339744, "longitude": 5.628798, "bronId": "L020306"}}, {"type": "Feature", "geometry": {"type": "Point", "coordinates": [5.6341327, 51.9338706]}, "properties": {"type": "inleverpunt", "locatieNaam": "Dikkenberg Tweewielers", "straatNaam": "Kerklaan", "straatNr": "2", "postcode": "4043 ME", "plaats": "Opheusden", "merk": "Stibat", "puntType": "inzamelbak", "materialen": ["batterijen"], "uitbetaling": [], "vrijToegankelijk": false, "gemeenteBeperking": null, "openingstijden": null, "latitude": 51.9338706, "longitude": 5.6341327, "bronId": "L033298"}}, {"type": "Feature", "geometry": {"type": "Point", "coordinates": [5.6346642, 51.9326382]}, "properties": {"type": "inleverpunt", "locatieNaam": "Top1Toys", "straatNaam": "Dalwagenseweg", "straatNr": "17", "postcode": "4043 MS", "plaats": "Opheusden", "merk": "Stibat", "puntType": "inzamelbak", "materialen": ["batterijen"], "uitbetaling": [], "vrijToegankelijk": false, "gemeenteBeperking": null, "openingstijden": null, "latitude": 51.9326382, "longitude": 5.6346642, "bronId": "L014901"}}, {"type": "Feature", "geometry": {"type": "Point", "coordinates": [5.6491425, 51.9145494]}, "properties": {"type": "inleverpunt", "locatieNaam": "KlusWijs", "straatNaam": "Matensestraat", "straatNr": "62b", "postcode": "6669 CJ", "plaats": "Dodewaard", "merk": "Stibat", "puntType": "inzamelbak", "materialen": ["batterijen"], "uitbetaling": [], "vrijToegankelijk": false, "gemeenteBeperking": null, "openingstijden": null, "latitude": 51.9145494, "longitude": 5.6491425, "bronId": "L028006"}}, {"type": "Feature", "geometry": {"type": "Point", "coordinates": [5.6541471, 51.9180207]}, "properties": {"type": "inleverpunt", "locatieNaam": "HEINO VAN OMMEREN TWEEWIELERS", "straatNaam": "Bonegraafseweg", "straatNr": "6", "postcode": "6669 MH", "plaats": "Dodewaard", "merk": "Stibat", "puntType": "inzamelbak", "materialen": ["batterijen"], "uitbetaling": [], "vrijToegankelijk": false, "gemeenteBeperking": null, "openingstijden": null, "latitude": 51.9180207, "longitude": 5.6541471, "bronId": "L033784"}}, {"type": "Feature", "geometry": {"type": "Point", "coordinates": [5.6554423, 51.9107554]}, "properties": {"type": "inleverpunt", "locatieNaam": "1244 Action", "straatNaam": "Dorpsplein", "straatNr": "16", "postcode": "6669 BN", "plaats": "Dodewaard", "merk": "Stibat", "puntType": "inzamelbak", "materialen": ["batterijen"], "uitbetaling": [], "vrijToegankelijk": false, "gemeenteBeperking": null, "openingstijden": null, "latitude": 51.9107554, "longitude": 5.6554423, "bronId": "L032419"}}, {"type": "Feature", "geometry": {"type": "Point", "coordinates": [5.6557417, 51.9097796]}, "properties": {"type": "inleverpunt", "locatieNaam": "PLUS", "straatNaam": "Molenpad", "straatNr": "1", "postcode": "6669 BP", "plaats": "Dodewaard", "merk": "Stibat", "puntType": "inzamelbak", "materialen": ["batterijen"], "uitbetaling": [], "vrijToegankelijk": false, "gemeenteBeperking": null, "openingstijden": null, "latitude": 51.9097796, "longitude": 5.6557417, "bronId": "L030005"}}, {"type": "Feature", "geometry": {"type": "Polygon", "coordinates": [[[5.688785002008428, 51.89564300384064], [5.697949002017611, 51.89495200384001], [5.7066590020263055, 51.89329200383875], [5.711022002030799, 51.896590003840785], [5.70980700202962, 51.89778000384155], [5.708297002028113, 51.89797600384171], [5.706638002026435, 51.89767100384156], [5.706358002026164, 51.89798900384177], [5.706438002026277, 51.89890900384232], [5.708143002028069, 51.90124900384378], [5.707597002027576, 51.902851003844795], [5.706568002026572, 51.90369700384536], [5.705318002025328, 51.90403600384559], [5.706411002026503, 51.90633700384703], [5.705938002026095, 51.90822300384823], [5.699790002020126, 51.914254003852164], [5.696845002017205, 51.91528500385288], [5.695205002015622, 51.91713800385409], [5.692195002012642, 51.91839500385494], [5.696278002016828, 51.92085200385637], [5.694854002015414, 51.92137300385676], [5.692803002013334, 51.92071100385639], [5.684808002005256, 51.919332003855665], [5.681211002001609, 51.91832000385513], [5.677482001997949, 51.9207380038567], [5.676009001996481, 51.92111500385699], [5.677092001997591, 51.92175400385737], [5.677068001997582, 51.92220600385767], [5.675767001996313, 51.923295003858414], [5.67763100199822, 51.924288003858955], [5.6758100019964575, 51.926153003860165], [5.678376001999096, 51.928010003861246], [5.678504001999265, 51.92914600386199], [5.682187002002967, 51.929282003862], [5.684454002005262, 51.92980000386227], [5.689811002010734, 51.932492003863864], [5.694580002015483, 51.93135000386308], [5.696276002017187, 51.931376003863015], [5.693031002014043, 51.93464800386517], [5.6920980020131005, 51.93450200386509], [5.688778002009791, 51.93514100386555], [5.670932001991713, 51.93054500386305], [5.664218001984955, 51.93021200386298], [5.660351001981052, 51.92961200386266], [5.659948001980787, 51.93358300386516], [5.660482001981333, 51.93388300386537], [5.659619001980578, 51.937082003867374], [5.667759001988815, 51.93889200386834], [5.665723001986861, 51.941405003869995], [5.663138001984239, 51.94071200386959], [5.661144001982338, 51.943607003871456], [5.654345001975432, 51.9414110038702], [5.653183001974326, 51.94302600387125], [5.6527280019738555, 51.94268400387104], [5.650616001971721, 51.94226200387081], [5.647023001968045, 51.94032800386969], [5.646323001967369, 51.94109100387017], [5.647607001968782, 51.94462400387234], [5.648284001969457, 51.94446900387225], [5.650419001971706, 51.947453003874095], [5.651716001973026, 51.94803000387441], [5.654801001976073, 51.946544003873434], [5.657348001978691, 51.94832600387448], [5.665989001987522, 51.95279900387716], [5.662191001983706, 51.95264300387713], [5.653761001975288, 51.95391000387808], [5.6489230019704335, 51.95400100387822], [5.646382001967857, 51.95333000387786], [5.6442590019656915, 51.952349003877245], [5.644039001965466, 51.9522140038772], [5.646220001967598, 51.950585003876114], [5.649622001970993, 51.9500210038757], [5.64790900196925, 51.94939600387534], [5.646487001967759, 51.947549003874244], [5.645304001966542, 51.94668100387371], [5.645007001966156, 51.944238003872194], [5.641384001962389, 51.940539003869915], [5.639912001960839, 51.93850200386867], [5.637264001958125, 51.936997003867816], [5.634169001954996, 51.93641100386746], [5.630289001951101, 51.93640900386754], [5.62891600194973, 51.936673003867725], [5.6227420019436405, 51.93977600386983], [5.619768001940663, 51.94006800387002], [5.619042001939948, 51.94046100387029], [5.619061001939998, 51.94132500387084], [5.610118001931051, 51.94223400387159], [5.605782001926727, 51.94316000387227], [5.6020050019229854, 51.94462300387327], [5.596662001917724, 51.94748300387515], [5.592737001913842, 51.949183003876286], [5.586617001907755, 51.95082900387745], [5.58430800190533, 51.947886003875624], [5.584561001905566, 51.94740300387531], [5.579115001900027, 51.945443003874196], [5.575944001896738, 51.942590003872475], [5.571872001892607, 51.94153700387185], [5.570441001891182, 51.941839003872104], [5.568225001888939, 51.941415003871846], [5.566578001887295, 51.941668003872046], [5.56355100188431, 51.94320300387307], [5.560696001881473, 51.94405700387364], [5.556687001877435, 51.94374400387353], [5.549445001870108, 51.94230200387275], [5.547464001868116, 51.94230100387281], [5.542834001863506, 51.943384003873526], [5.540203001860872, 51.9436520038738], [5.533881001854516, 51.943482003873804], [5.533454001854075, 51.94323600387362], [5.536970001857466, 51.939354003871124], [5.539959001860384, 51.93706500386964], [5.548441001868805, 51.93425300386772], [5.554139001874529, 51.93427300386761], [5.553877001873851, 51.92295900386051], [5.554571001874551, 51.92304900386055], [5.556837001876689, 51.91920800385808], [5.555709001875553, 51.919149003858024], [5.553808001873607, 51.91816800385746], [5.551749001871524, 51.91779500385728], [5.551515001871304, 51.91822300385755], [5.550246001870047, 51.918729003857905], [5.547706001867603, 51.92164700385978], [5.523793001843573, 51.92166900386023], [5.5128040018325155, 51.92134000386021], [5.511842001831552, 51.92146100386027], [5.510497001830231, 51.92229600386084], [5.508769001828495, 51.92219800386082], [5.507973001827699, 51.92242800386096], [5.505295001825066, 51.92392600386196], [5.503632001823384, 51.92367900386179], [5.502522001822246, 51.92303300386147], [5.501010001820711, 51.92267400386119], [5.499197001818908, 51.92321800386158], [5.498383001818087, 51.923117003861584], [5.495677001815252, 51.920029003859675], [5.493557001813065, 51.91850700385874], [5.4892760018087525, 51.91829900385867], [5.4864210018059065, 51.91893500385911], [5.4868670018064325, 51.921037003860434], [5.489015001808594, 51.92101900386039], [5.487840001807483, 51.92293700386161], [5.491746001811449, 51.92406100386228], [5.490896001810622, 51.92474500386268], [5.487212001806883, 51.92381500386217], [5.48774300180739, 51.92303200386169], [5.482822001802455, 51.92339400386198], [5.481517001801111, 51.92248700386144], [5.480424001800026, 51.922795003861665], [5.4765270017960335, 51.9208700038605], [5.473980001793516, 51.92197600386123], [5.472140001791666, 51.92194400386126], [5.467387001786948, 51.92353600386234], [5.464899001784459, 51.92389500386258], [5.462723001782263, 51.92361300386244], [5.459865001779409, 51.92411600386281], [5.45799500177748, 51.92276600386201], [5.453385001772845, 51.922761003862014], [5.453922001773298, 51.920517003860645], [5.461644001781102, 51.9216210038612], [5.462382001781815, 51.92085900386071], [5.463615001783071, 51.921318003860996], [5.463627001783064, 51.92082600386064], [5.465442001784897, 51.92101200386075], [5.469730001789164, 51.91987800385998], [5.468646001788021, 51.918414003859084], [5.4697820017891505, 51.91812000385886], [5.467127001786368, 51.91515600385706], [5.467271001786495, 51.91466600385672], [5.468048001787278, 51.91475600385677], [5.47051900178964, 51.911425003854625], [5.472151001791289, 51.91171700385481], [5.472451001791453, 51.90806900385249], [5.458771001777577, 51.904893003850674], [5.4572750017760745, 51.90495300385076], [5.455526001774304, 51.90456200385054], [5.456441001775163, 51.90302500384952], [5.455541001774251, 51.90282200384943], [5.460410001778864, 51.89533700384461], [5.4615100017798675, 51.89266100384291], [5.463176001781513, 51.89188400384238], [5.463566001781886, 51.89133900384205], [5.463917001782148, 51.88900900384055], [5.4761570017944825, 51.88962500384075], [5.4972230018156445, 51.88903700384009], [5.50903100182755, 51.88984500384035], [5.517305001835915, 51.891100003841004], [5.524361001843071, 51.8926920038419], [5.531019001849834, 51.894601003842986], [5.539350001858319, 51.89755900384475], [5.547263001866348, 51.8996230038459], [5.5558030018749855, 51.901012003846624], [5.56527200188453, 51.9017680038469], [5.573602001892898, 51.901685003846715], [5.587466001906775, 51.900035003845424], [5.59908700191842, 51.89912100384463], [5.628107001947596, 51.89940500384425], [5.634861001954371, 51.89911300384393], [5.642908001962434, 51.898431003843356], [5.656885001976411, 51.89652500384185], [5.668475001988023, 51.895593003841014], [5.688785002008428, 51.89564300384064]]]}, "properties": {"type": "boundary", "gemeente": "Neder-Betuwe"}}]}