{"type": "FeatureCollection", "metadata": {"gemeente": "Nieuwkoop", "slug": "nieuwkoop", "generated_at": "2026-09-07T06:58:27.146480Z", "total_points": 56, "merken": ["StatiegeldNederland", "Stibat", "StichtingOPEN"], "bounds": [4.7067506, 52.148031, 4.829527, 52.2281323]}, "features": [{"type": "Feature", "geometry": {"type": "Point", "coordinates": [4.7789487, 52.1505772]}, "properties": {"type": "inleverpunt", "locatieNaam": "Albert Heijn", "straatNaam": "Reghthuysplein", "straatNr": "3", "postcode": "2421 BE", "plaats": "Nieuwkoop", "merk": "StatiegeldNederland", "puntType": "automaat", "materialen": ["pet-groot", "pet-klein", "blik", "glas", "krat"], "uitbetaling": ["bonnetje"], "vrijToegankelijk": true, "gemeenteBeperking": null, "openingstijden": {"ma": "08:00–21:00", "di": "08:00–21:00", "wo": "08:00–21:00", "do": "08:00–21:00", "vr": "07:30–21:00", "za": "07:30–21:00", "zo": "09:00–18:00"}, "latitude": 52.1505772, "longitude": 4.7789487, "bronId": "327686"}}, {"type": "Feature", "geometry": {"type": "Point", "coordinates": [4.7109539, 52.1684081]}, "properties": {"type": "inleverpunt", "locatieNaam": "Aldi", "straatNaam": "Westkanaalweg", "straatNr": "99-100", "postcode": "2461 EJ", "plaats": "Ter Aar", "merk": "StatiegeldNederland", "puntType": "automaat", "materialen": ["pet-groot", "pet-klein", "blik", "glas", "krat"], "uitbetaling": ["bonnetje"], "vrijToegankelijk": true, "gemeenteBeperking": null, "openingstijden": {"ma": "08:00–19:00", "di": "08:00–19:00", "wo": "08:00–20:00", "do": "08:00–20:00", "vr": "08:00–20:00", "za": "08:00–19:00", "zo": "12:00–17:00"}, "latitude": 52.1684081, "longitude": 4.7109539, "bronId": "328458"}}, {"type": "Feature", "geometry": {"type": "Point", "coordinates": [4.8294263, 52.1647876]}, "properties": {"type": "inleverpunt", "locatieNaam": "Coop z.o. 8001", "straatNaam": "Simon van Capelweg", "straatNr": "153", "postcode": "2431 AE", "plaats": "Noorden", "merk": "StatiegeldNederland", "puntType": "automaat", "materialen": ["pet-groot", "pet-klein", "blik", "glas", "krat"], "uitbetaling": ["bonnetje"], "vrijToegankelijk": true, "gemeenteBeperking": null, "openingstijden": {"ma": "08:00–20:00", "di": "08:00–20:00", "wo": "08:00–20:00", "do": "08:00–20:00", "vr": "08:00–20:00", "za": "08:00–20:00", "zo": "10:00–18:00"}, "latitude": 52.1647876, "longitude": 4.8294263, "bronId": "329161"}}, {"type": "Feature", "geometry": {"type": "Point", "coordinates": [4.7086029, 52.1667076]}, "properties": {"type": "inleverpunt", "locatieNaam": "Dirk", "straatNaam": "Essenlaan", "straatNr": "2", "postcode": "2461 DH", "plaats": "Ter Aar", "merk": "StatiegeldNederland", "puntType": "automaat", "materialen": ["pet-groot", "pet-klein", "blik", "glas", "krat"], "uitbetaling": ["bonnetje", "donatie"], "vrijToegankelijk": true, "gemeenteBeperking": null, "openingstijden": {"ma": "07:00–21:00", "di": "07:00–21:00", "wo": "07:00–21:00", "do": "07:00–21:00", "vr": "07:00–21:00", "za": "07:00–21:00", "zo": "08:00–20:00"}, "latitude": 52.1667076, "longitude": 4.7086029, "bronId": "329439"}}, {"type": "Feature", "geometry": {"type": "Point", "coordinates": [4.773509, 52.148031]}, "properties": {"type": "inleverpunt", "locatieNaam": "Jumbo", "straatNaam": "Kennedyplein", "straatNr": "1", "postcode": "2421 EN", "plaats": "Nieuwkoop", "merk": "StatiegeldNederland", "puntType": "automaat", "materialen": ["pet-groot", "pet-klein", "blik", "glas", "krat"], "uitbetaling": ["bonnetje", "donatie"], "vrijToegankelijk": true, "gemeenteBeperking": null, "openingstijden": {"ma": "07:00–22:00", "di": "07:00–22:00", "wo": "07:00–22:00", "do": "07:00–22:00", "vr": "07:00–22:00", "za": "07:00–22:00", "zo": "08:00–21:00"}, "latitude": 52.148031, "longitude": 4.773509, "bronId": "330558"}}, {"type": "Feature", "geometry": {"type": "Point", "coordinates": [4.7801448, 52.1828548]}, "properties": {"type": "inleverpunt", "locatieNaam": "KEDI Dorpsmarkt", "straatNaam": "Albrechtshof", "straatNr": "3", "postcode": "2435 WZ", "plaats": "Zevenhoven", "merk": "StatiegeldNederland", "puntType": "automaat", "materialen": ["pet-groot", "pet-klein", "blik"], "uitbetaling": ["bonnetje", "donatie"], "vrijToegankelijk": true, "gemeenteBeperking": null, "openingstijden": {"ma": "10:00–19:00", "di": "10:00–19:00", "wo": "10:00–19:00", "do": "10:00–19:00", "vr": "10:00–19:00", "za": "10:00–17:00", "zo": "Gesloten"}, "latitude": 52.1828548, "longitude": 4.7801448, "bronId": "330992"}}, {"type": "Feature", "geometry": {"type": "Point", "coordinates": [4.7569532, 52.198157]}, "properties": {"type": "inleverpunt", "locatieNaam": "Plus", "straatNaam": "Dorpsstraat", "straatNr": "9", "postcode": "2441 CE", "plaats": "Nieuwveen", "merk": "StatiegeldNederland", "puntType": "automaat", "materialen": ["pet-groot", "pet-klein", "glas", "krat"], "uitbetaling": ["bonnetje"], "vrijToegankelijk": true, "gemeenteBeperking": null, "openingstijden": {"ma": "07:00–21:00", "di": "07:00–21:00", "wo": "07:00–21:00", "do": "07:00–21:00", "vr": "07:00–21:00", "za": "07:00–21:00", "zo": "09:00–18:00"}, "latitude": 52.198157, "longitude": 4.7569532, "bronId": "332436"}}, {"type": "Feature", "geometry": {"type": "Point", "coordinates": [4.71303, 52.1923642]}, "properties": {"type": "inleverpunt", "locatieNaam": "Supermarkt Van Der Horst", "straatNaam": "DE STROOPLIKKER", "straatNr": "19", "postcode": "2461 CW", "plaats": "Langeraar", "merk": "StatiegeldNederland", "puntType": "balie", "materialen": ["pet-groot", "pet-klein", "blik"], "uitbetaling": [], "vrijToegankelijk": true, "gemeenteBeperking": null, "openingstijden": null, "latitude": 52.1923642, "longitude": 4.71303, "bronId": "334054"}}, {"type": "Feature", "geometry": {"type": "Point", "coordinates": [4.7070763, 52.1621238]}, "properties": {"type": "inleverpunt", "locatieNaam": "Tavv", "straatNaam": "Argonnestraat", "straatNr": "51", "postcode": "2461 XE", "plaats": "Ter Aar", "merk": "StatiegeldNederland", "puntType": "balie", "materialen": ["pet-groot", "pet-klein", "blik"], "uitbetaling": [], "vrijToegankelijk": false, "gemeenteBeperking": null, "openingstijden": null, "latitude": 52.1621238, "longitude": 4.7070763, "bronId": "334180"}}, {"type": "Feature", "geometry": {"type": "Point", "coordinates": [4.7737005, 52.1497883]}, "properties": {"type": "inleverpunt", "locatieNaam": "ViaTim", "straatNaam": "Lindelaan", "straatNr": "13", "postcode": "2421 VR", "plaats": "Nieuwkoop", "merk": "StatiegeldNederland", "puntType": "balie", "materialen": ["pet-groot", "pet-klein", "blik"], "uitbetaling": ["tikkie"], "vrijToegankelijk": true, "gemeenteBeperking": null, "openingstijden": {"ma": "16:00–21:00", "di": "16:00–21:00", "wo": "16:00–21:00", "do": "16:00–21:00", "vr": "16:00–21:00", "za": "Gesloten", "zo": "Gesloten"}, "latitude": 52.1497883, "longitude": 4.7737005, "bronId": "334823"}}, {"type": "Feature", "geometry": {"type": "Point", "coordinates": [4.7163149, 52.1638477]}, "properties": {"type": "inleverpunt", "locatieNaam": "Vomar", "straatNaam": "Kerkweg", "straatNr": "28", "postcode": "2461 GD", "plaats": "Ter Aar", "merk": "StatiegeldNederland", "puntType": "automaat", "materialen": ["pet-groot", "pet-klein", "blik", "glas", "krat"], "uitbetaling": ["bonnetje", "donatie"], "vrijToegankelijk": true, "gemeenteBeperking": null, "openingstijden": {"ma": "07:00–22:00", "di": "07:00–22:00", "wo": "07:00–22:00", "do": "07:00–22:00", "vr": "07:00–22:00", "za": "07:00–22:00", "zo": "07:00–22:00"}, "latitude": 52.1638477, "longitude": 4.7163149, "bronId": "335200"}}, {"type": "Feature", "geometry": {"type": "Point", "coordinates": [4.829527, 52.164623]}, "properties": {"type": "inleverpunt", "locatieNaam": "Coop Noorden", "straatNaam": "Simon van Capelweg", "straatNr": "153", "postcode": "2431 AE", "plaats": "Noorden", "merk": "StichtingOPEN", "puntType": "balie", "materialen": ["batterijen", "lampen"], "uitbetaling": [], "vrijToegankelijk": false, "gemeenteBeperking": null, "openingstijden": null, "latitude": 52.164623, "longitude": 4.829527, "bronId": "SP00024328"}}, {"type": "Feature", "geometry": {"type": "Point", "coordinates": [4.778949, 52.150577]}, "properties": {"type": "inleverpunt", "locatieNaam": "8607 Albert Heijn Nieuwkoop", "straatNaam": "Reghthuysplein", "straatNr": "3", "postcode": "2421 BE", "plaats": "Nieuwkoop", "merk": "StichtingOPEN", "puntType": "balie", "materialen": ["batterijen", "elektro-klein", "lampen"], "uitbetaling": [], "vrijToegankelijk": false, "gemeenteBeperking": null, "openingstijden": null, "latitude": 52.150577, "longitude": 4.778949, "bronId": "SP00022909"}}, {"type": "Feature", "geometry": {"type": "Point", "coordinates": [4.7782, 52.15013]}, "properties": {"type": "inleverpunt", "locatieNaam": "Kruidvat Nieuwkoop", "straatNaam": "Kolfbaan", "straatNr": "60", "postcode": "2421 BD", "plaats": "Nieuwkoop", "merk": "StichtingOPEN", "puntType": "balie", "materialen": ["batterijen", "lampen"], "uitbetaling": [], "vrijToegankelijk": false, "gemeenteBeperking": null, "openingstijden": null, "latitude": 52.15013, "longitude": 4.7782, "bronId": "SP00029566"}}, {"type": "Feature", "geometry": {"type": "Point", "coordinates": [4.773615, 52.148044]}, "properties": {"type": "inleverpunt", "locatieNaam": "Jumbo Nieuwkoop", "straatNaam": "Kennedyplein", "straatNr": "1", "postcode": "2421 EN", "plaats": "Nieuwkoop", "merk": "StichtingOPEN", "puntType": "balie", "materialen": ["batterijen", "lampen"], "uitbetaling": [], "vrijToegankelijk": false, "gemeenteBeperking": null, "openingstijden": null, "latitude": 52.148044, "longitude": 4.773615, "bronId": "SP00025241"}}, {"type": "Feature", "geometry": {"type": "Point", "coordinates": [4.773192, 52.148184]}, "properties": {"type": "inleverpunt", "locatieNaam": "Dorpsboerderij Nieuwkoop", "straatNaam": "Kennedyplein", "straatNr": "2", "postcode": "2421 EN", "plaats": "Nieuwkoop", "merk": "StichtingOPEN", "puntType": "balie", "materialen": ["elektro-klein", "elektro-middel"], "uitbetaling": [], "vrijToegankelijk": false, "gemeenteBeperking": null, "openingstijden": null, "latitude": 52.148184, "longitude": 4.773192, "bronId": "SP00030837"}}, {"type": "Feature", "geometry": {"type": "Point", "coordinates": [4.71607, 52.16478]}, "properties": {"type": "inleverpunt", "locatieNaam": "Vomar Ter Aar", "straatNaam": "Kerkweg", "straatNr": "28b", "postcode": "2461 GD", "plaats": "Ter Aar", "merk": "StichtingOPEN", "puntType": "balie", "materialen": ["batterijen", "lampen"], "uitbetaling": [], "vrijToegankelijk": false, "gemeenteBeperking": null, "openingstijden": null, "latitude": 52.16478, "longitude": 4.71607, "bronId": "SP00030121"}}, {"type": "Feature", "geometry": {"type": "Point", "coordinates": [4.715419, 52.165002]}, "properties": {"type": "inleverpunt", "locatieNaam": "Intratuin Ter Aar", "straatNaam": "Kerkweg", "straatNr": "28", "postcode": "2461 GD", "plaats": "Ter Aar", "merk": "StichtingOPEN", "puntType": "balie", "materialen": ["elektro-middel", "lampen"], "uitbetaling": [], "vrijToegankelijk": false, "gemeenteBeperking": null, "openingstijden": null, "latitude": 52.165002, "longitude": 4.715419, "bronId": "SP00005567"}}, {"type": "Feature", "geometry": {"type": "Point", "coordinates": [4.710964, 52.168434]}, "properties": {"type": "inleverpunt", "locatieNaam": "Aldi Ter Aar", "straatNaam": "Westkanaalweg", "straatNr": "100", "postcode": "2461 EJ", "plaats": "Ter Aar", "merk": "StichtingOPEN", "puntType": "balie", "materialen": ["batterijen", "elektro-klein", "lampen"], "uitbetaling": [], "vrijToegankelijk": false, "gemeenteBeperking": null, "openingstijden": null, "latitude": 52.168434, "longitude": 4.710964, "bronId": "SP00027242"}}, {"type": "Feature", "geometry": {"type": "Point", "coordinates": [4.709966, 52.166339]}, "properties": {"type": "inleverpunt", "locatieNaam": "Kruidvat Ter Aar", "straatNaam": "Westkanaalweg", "straatNr": "113", "postcode": "2461 EK", "plaats": "Ter Aar", "merk": "StichtingOPEN", "puntType": "balie", "materialen": ["batterijen", "lampen"], "uitbetaling": [], "vrijToegankelijk": false, "gemeenteBeperking": null, "openingstijden": null, "latitude": 52.166339, "longitude": 4.709966, "bronId": "SP00024690"}}, {"type": "Feature", "geometry": {"type": "Point", "coordinates": [4.708399, 52.166612]}, "properties": {"type": "inleverpunt", "locatieNaam": "Dirk Ter Aar", "straatNaam": "Essenlaan", "straatNr": "2", "postcode": "2461 DH", "plaats": "Ter Aar", "merk": "StichtingOPEN", "puntType": "balie", "materialen": ["batterijen", "lampen"], "uitbetaling": [], "vrijToegankelijk": false, "gemeenteBeperking": null, "openingstijden": null, "latitude": 52.166612, "longitude": 4.708399, "bronId": "SP00023453"}}, {"type": "Feature", "geometry": {"type": "Point", "coordinates": [4.71581, 52.195091]}, "properties": {"type": "inleverpunt", "locatieNaam": "Radio Zwirs", "straatNaam": "de Kamp", "straatNr": "20", "postcode": "2461 PZ", "plaats": "Ter Aar", "merk": "StichtingOPEN", "puntType": "balie", "materialen": ["elektro-klein", "elektro-middel"], "uitbetaling": [], "vrijToegankelijk": false, "gemeenteBeperking": null, "openingstijden": null, "latitude": 52.195091, "longitude": 4.71581, "bronId": "SP00030536"}}, {"type": "Feature", "geometry": {"type": "Point", "coordinates": [4.71291, 52.19252]}, "properties": {"type": "inleverpunt", "locatieNaam": "Spar Ter Aar", "straatNaam": "De Strooplikker", "straatNr": "19", "postcode": "2461 CW", "plaats": "Ter Aar", "merk": "StichtingOPEN", "puntType": "balie", "materialen": ["batterijen", "lampen"], "uitbetaling": [], "vrijToegankelijk": false, "gemeenteBeperking": null, "openingstijden": null, "latitude": 52.19252, "longitude": 4.71291, "bronId": "SP00030046"}}, {"type": "Feature", "geometry": {"type": "Point", "coordinates": [4.712213, 52.192789]}, "properties": {"type": "inleverpunt", "locatieNaam": "Radio Zwirs", "straatNaam": "De Strooplikker", "straatNr": "5", "postcode": "2461 CW", "plaats": "Ter Aar", "merk": "StichtingOPEN", "puntType": "balie", "materialen": ["elektro-klein", "elektro-middel"], "uitbetaling": [], "vrijToegankelijk": false, "gemeenteBeperking": null, "openingstijden": null, "latitude": 52.192789, "longitude": 4.712213, "bronId": "SP00002227"}}, {"type": "Feature", "geometry": {"type": "Point", "coordinates": [4.754427, 52.185042]}, "properties": {"type": "inleverpunt", "locatieNaam": "Milieustraat Nieuwveen", "straatNaam": "Ampèrestraat", "straatNr": "4", "postcode": "2441 LP", "plaats": "Nieuwveen", "merk": "StichtingOPEN", "puntType": "milieustraat", "materialen": ["batterijen", "elektro-groot", "elektro-klein", "elektro-middel", "lampen", "tl-buizen"], "uitbetaling": [], "vrijToegankelijk": false, "gemeenteBeperking": ["Nieuwkoop"], "openingstijden": null, "latitude": 52.185042, "longitude": 4.754427, "bronId": "SP00009095"}}, {"type": "Feature", "geometry": {"type": "Point", "coordinates": [4.8294263, 52.1647876]}, "properties": {"type": "inleverpunt", "locatieNaam": "Plus", "straatNaam": "Simon van Capelweg", "straatNr": "153", "postcode": "2431 AE", "plaats": "Noorden", "merk": "Stibat", "puntType": "inzamelbak", "materialen": ["batterijen"], "uitbetaling": [], "vrijToegankelijk": false, "gemeenteBeperking": null, "openingstijden": null, "latitude": 52.1647876, "longitude": 4.8294263, "bronId": "L045742"}}, {"type": "Feature", "geometry": {"type": "Point", "coordinates": [4.8188699, 52.1647625]}, "properties": {"type": "inleverpunt", "locatieNaam": "Fa. Kampeerhoeve Koole", "straatNaam": "Hogedijk", "straatNr": "6", "postcode": "2431 AA", "plaats": "Noorden", "merk": "Stibat", "puntType": "inzamelbak", "materialen": ["batterijen"], "uitbetaling": [], "vrijToegankelijk": false, "gemeenteBeperking": null, "openingstijden": null, "latitude": 52.1647625, "longitude": 4.8188699, "bronId": "L013525"}}, {"type": "Feature", "geometry": {"type": "Point", "coordinates": [4.7824474, 52.1599488]}, "properties": {"type": "inleverpunt", "locatieNaam": "KlusWijs", "straatNaam": "Industrieweg", "straatNr": "29", "postcode": "2421 LK", "plaats": "Nieuwkoop", "merk": "Stibat", "puntType": "inzamelbak", "materialen": ["batterijen"], "uitbetaling": [], "vrijToegankelijk": false, "gemeenteBeperking": null, "openingstijden": null, "latitude": 52.1599488, "longitude": 4.7824474, "bronId": "L040288"}}, {"type": "Feature", "geometry": {"type": "Point", "coordinates": [4.7829047, 52.162299]}, "properties": {"type": "inleverpunt", "locatieNaam": "Bike Shop Reefo's", "straatNaam": "Bedrijfsweg", "straatNr": "6a", "postcode": "2421 LE", "plaats": "Nieuwkoop", "merk": "Stibat", "puntType": "inzamelbak", "materialen": ["batterijen"], "uitbetaling": [], "vrijToegankelijk": false, "gemeenteBeperking": null, "openingstijden": null, "latitude": 52.162299, "longitude": 4.7829047, "bronId": "L049282"}}, {"type": "Feature", "geometry": {"type": "Point", "coordinates": [4.7812363, 52.1570253]}, "properties": {"type": "inleverpunt", "locatieNaam": "Bike Totaal Borst", "straatNaam": "Nieuwveenseweg", "straatNr": "21", "postcode": "2421 LA", "plaats": "Nieuwkoop", "merk": "Stibat", "puntType": "inzamelbak", "materialen": ["batterijen"], "uitbetaling": [], "vrijToegankelijk": false, "gemeenteBeperking": null, "openingstijden": null, "latitude": 52.1570253, "longitude": 4.7812363, "bronId": "L017278"}}, {"type": "Feature", "geometry": {"type": "Point", "coordinates": [4.7790166, 52.1505377]}, "properties": {"type": "inleverpunt", "locatieNaam": "8607 Albert Heijn", "straatNaam": "Reghthuisplein", "straatNr": "3", "postcode": "2421 BE", "plaats": "Nieuwkoop", "merk": "Stibat", "puntType": "inzamelbak", "materialen": ["batterijen"], "uitbetaling": [], "vrijToegankelijk": false, "gemeenteBeperking": null, "openingstijden": null, "latitude": 52.1505377, "longitude": 4.7790166, "bronId": "L006685"}}, {"type": "Feature", "geometry": {"type": "Point", "coordinates": [4.7783459, 52.1500388]}, "properties": {"type": "inleverpunt", "locatieNaam": "HEMA Nieuwkoop", "straatNaam": "Kolfbaan", "straatNr": "8", "postcode": "2421 BD", "plaats": "Nieuwkoop", "merk": "Stibat", "puntType": "inzamelbak", "materialen": ["batterijen"], "uitbetaling": [], "vrijToegankelijk": false, "gemeenteBeperking": null, "openingstijden": null, "latitude": 52.1500388, "longitude": 4.7783459, "bronId": "L046964"}}, {"type": "Feature", "geometry": {"type": "Point", "coordinates": [4.7782029, 52.1501312]}, "properties": {"type": "inleverpunt", "locatieNaam": "Kruidvat", "straatNaam": "Kolfbaan", "straatNr": "60", "postcode": "2421 BD", "plaats": "Nieuwkoop", "merk": "Stibat", "puntType": "inzamelbak", "materialen": ["batterijen"], "uitbetaling": [], "vrijToegankelijk": false, "gemeenteBeperking": null, "openingstijden": null, "latitude": 52.1501312, "longitude": 4.7782029, "bronId": "L016233"}}, {"type": "Feature", "geometry": {"type": "Point", "coordinates": [4.7738292, 52.1481765]}, "properties": {"type": "inleverpunt", "locatieNaam": "7917 Etos", "straatNaam": "Kennedyplein", "straatNr": "11", "postcode": "2421 EN", "plaats": "Nieuwkoop", "merk": "Stibat", "puntType": "inzamelbak", "materialen": ["batterijen"], "uitbetaling": [], "vrijToegankelijk": false, "gemeenteBeperking": null, "openingstijden": null, "latitude": 52.1481765, "longitude": 4.7738292, "bronId": "L022283"}}, {"type": "Feature", "geometry": {"type": "Point", "coordinates": [4.7737792, 52.148343]}, "properties": {"type": "inleverpunt", "locatieNaam": "Primera", "straatNaam": "Kennedyplein", "straatNr": "13", "postcode": "2421 EN", "plaats": "Nieuwkoop", "merk": "Stibat", "puntType": "inzamelbak", "materialen": ["batterijen"], "uitbetaling": [], "vrijToegankelijk": false, "gemeenteBeperking": null, "openingstijden": null, "latitude": 52.148343, "longitude": 4.7737792, "bronId": "L024088"}}, {"type": "Feature", "geometry": {"type": "Point", "coordinates": [4.7735124, 52.1480331]}, "properties": {"type": "inleverpunt", "locatieNaam": "Jumbo", "straatNaam": "Kennedyplein", "straatNr": "1", "postcode": "2421 EN", "plaats": "Nieuwkoop", "merk": "Stibat", "puntType": "inzamelbak", "materialen": ["batterijen"], "uitbetaling": [], "vrijToegankelijk": false, "gemeenteBeperking": null, "openingstijden": null, "latitude": 52.1480331, "longitude": 4.7735124, "bronId": "L027600"}}, {"type": "Feature", "geometry": {"type": "Point", "coordinates": [4.7801542, 52.1828606]}, "properties": {"type": "inleverpunt", "locatieNaam": "Dagwinkel", "straatNaam": "Albrechtshof", "straatNr": "3", "postcode": "2435 WZ", "plaats": "Zevenhoven", "merk": "Stibat", "puntType": "inzamelbak", "materialen": ["batterijen"], "uitbetaling": [], "vrijToegankelijk": false, "gemeenteBeperking": null, "openingstijden": null, "latitude": 52.1828606, "longitude": 4.7801542, "bronId": "L019087"}}, {"type": "Feature", "geometry": {"type": "Point", "coordinates": [4.7843599, 52.2281323]}, "properties": {"type": "inleverpunt", "locatieNaam": "Bike Totaal van Rijn Fietsen", "straatNaam": "Vrouwenakker", "straatNr": "7a", "postcode": "1428 RX", "plaats": "Vrouwenakker", "merk": "Stibat", "puntType": "inzamelbak", "materialen": ["batterijen"], "uitbetaling": [], "vrijToegankelijk": false, "gemeenteBeperking": null, "openingstijden": null, "latitude": 52.2281323, "longitude": 4.7843599, "bronId": "L018554"}}, {"type": "Feature", "geometry": {"type": "Point", "coordinates": [4.7572463, 52.1978564]}, "properties": {"type": "inleverpunt", "locatieNaam": "Feel Good Hifi", "straatNaam": "Dorpsstraat", "straatNr": "12", "postcode": "2441 CH", "plaats": "Nieuwveen", "merk": "Stibat", "puntType": "inzamelbak", "materialen": ["batterijen"], "uitbetaling": [], "vrijToegankelijk": false, "gemeenteBeperking": null, "openingstijden": null, "latitude": 52.1978564, "longitude": 4.7572463, "bronId": "L040031"}}, {"type": "Feature", "geometry": {"type": "Point", "coordinates": [4.7569532, 52.198157]}, "properties": {"type": "inleverpunt", "locatieNaam": "Plus", "straatNaam": "Dorpsstraat", "straatNr": "9", "postcode": "2441 CE", "plaats": "Nieuwveen", "merk": "Stibat", "puntType": "inzamelbak", "materialen": ["batterijen"], "uitbetaling": [], "vrijToegankelijk": false, "gemeenteBeperking": null, "openingstijden": null, "latitude": 52.198157, "longitude": 4.7569532, "bronId": "L049403"}}, {"type": "Feature", "geometry": {"type": "Point", "coordinates": [4.7264069, 52.1609101]}, "properties": {"type": "inleverpunt", "locatieNaam": "M. den Bleker en Zn BV", "straatNaam": "Korteraarseweg", "straatNr": "150-152", "postcode": "2461 GP", "plaats": "Ter Aar", "merk": "Stibat", "puntType": "inzamelbak", "materialen": ["batterijen"], "uitbetaling": [], "vrijToegankelijk": false, "gemeenteBeperking": null, "openingstijden": null, "latitude": 52.1609101, "longitude": 4.7264069, "bronId": "L038614"}}, {"type": "Feature", "geometry": {"type": "Point", "coordinates": [4.7169022, 52.1652883]}, "properties": {"type": "inleverpunt", "locatieNaam": "Vomar", "straatNaam": "Kerkweg", "straatNr": "28B", "postcode": "2461 GD", "plaats": "Ter Aar", "merk": "Stibat", "puntType": "inzamelbak", "materialen": ["batterijen"], "uitbetaling": [], "vrijToegankelijk": false, "gemeenteBeperking": null, "openingstijden": null, "latitude": 52.1652883, "longitude": 4.7169022, "bronId": "L041945"}}, {"type": "Feature", "geometry": {"type": "Point", "coordinates": [4.7160721, 52.1647839]}, "properties": {"type": "inleverpunt", "locatieNaam": "Intratuin", "straatNaam": "Kerkweg", "straatNr": "28", "postcode": "2461 GD", "plaats": "Ter Aar", "merk": "Stibat", "puntType": "inzamelbak", "materialen": ["batterijen"], "uitbetaling": [], "vrijToegankelijk": false, "gemeenteBeperking": null, "openingstijden": null, "latitude": 52.1647839, "longitude": 4.7160721, "bronId": "L021409"}}, {"type": "Feature", "geometry": {"type": "Point", "coordinates": [4.7205092, 52.18004]}, "properties": {"type": "inleverpunt", "locatieNaam": "J.W. Kroon Tweewielers", "straatNaam": "Westkanaalweg", "straatNr": "54", "postcode": "2461 EG", "plaats": "Ter Aar", "merk": "Stibat", "puntType": "inzamelbak", "materialen": ["batterijen"], "uitbetaling": [], "vrijToegankelijk": false, "gemeenteBeperking": null, "openingstijden": null, "latitude": 52.18004, "longitude": 4.7205092, "bronId": "L032973"}}, {"type": "Feature", "geometry": {"type": "Point", "coordinates": [4.7109646, 52.1684344]}, "properties": {"type": "inleverpunt", "locatieNaam": "Aldi", "straatNaam": "Westkanaalweg", "straatNr": "100", "postcode": "2461 EJ", "plaats": "Ter Aar", "merk": "Stibat", "puntType": "inzamelbak", "materialen": ["batterijen"], "uitbetaling": [], "vrijToegankelijk": false, "gemeenteBeperking": null, "openingstijden": null, "latitude": 52.1684344, "longitude": 4.7109646, "bronId": "L041183"}}, {"type": "Feature", "geometry": {"type": "Point", "coordinates": [4.7104973, 52.1672738]}, "properties": {"type": "inleverpunt", "locatieNaam": "Van Eijk Ter Aar de Fietsspecialist", "straatNaam": "Westkanaalweg", "straatNr": "107", "postcode": "2461 EK", "plaats": "Ter Aar", "merk": "Stibat", "puntType": "inzamelbak", "materialen": ["batterijen"], "uitbetaling": [], "vrijToegankelijk": false, "gemeenteBeperking": null, "openingstijden": null, "latitude": 52.1672738, "longitude": 4.7104973, "bronId": "L010927"}}, {"type": "Feature", "geometry": {"type": "Point", "coordinates": [4.7100144, 52.1663452]}, "properties": {"type": "inleverpunt", "locatieNaam": "Kruidvat", "straatNaam": "Westkanaalweg", "straatNr": "113", "postcode": "2461 EK", "plaats": "Ter Aar", "merk": "Stibat", "puntType": "inzamelbak", "materialen": ["batterijen"], "uitbetaling": [], "vrijToegankelijk": false, "gemeenteBeperking": null, "openingstijden": null, "latitude": 52.1663452, "longitude": 4.7100144, "bronId": "L031544"}}, {"type": "Feature", "geometry": {"type": "Point", "coordinates": [4.7096941, 52.1665527]}, "properties": {"type": "inleverpunt", "locatieNaam": "HEMA Ter Aar", "straatNaam": "Westkanaalweg", "straatNr": "113b", "postcode": "2461 EK", "plaats": "Ter Aar", "merk": "Stibat", "puntType": "inzamelbak", "materialen": ["batterijen"], "uitbetaling": [], "vrijToegankelijk": false, "gemeenteBeperking": null, "openingstijden": null, "latitude": 52.1665527, "longitude": 4.7096941, "bronId": "L046880"}}, {"type": "Feature", "geometry": {"type": "Point", "coordinates": [4.7097143, 52.1682528]}, "properties": {"type": "inleverpunt", "locatieNaam": "DA", "straatNaam": "Lindenplein", "straatNr": "9", "postcode": "2461 JC", "plaats": "Ter Aar", "merk": "Stibat", "puntType": "inzamelbak", "materialen": ["batterijen"], "uitbetaling": [], "vrijToegankelijk": false, "gemeenteBeperking": null, "openingstijden": null, "latitude": 52.1682528, "longitude": 4.7097143, "bronId": "L024970"}}, {"type": "Feature", "geometry": {"type": "Point", "coordinates": [4.7094118, 52.1673302]}, "properties": {"type": "inleverpunt", "locatieNaam": "Oorwerk", "straatNaam": "Essenlaan", "straatNr": "26", "postcode": "2462 DH", "plaats": "Ter Aar", "merk": "Stibat", "puntType": "inzamelbak", "materialen": ["batterijen"], "uitbetaling": [], "vrijToegankelijk": false, "gemeenteBeperking": null, "openingstijden": null, "latitude": 52.1673302, "longitude": 4.7094118, "bronId": "L048272"}}, {"type": "Feature", "geometry": {"type": "Point", "coordinates": [4.7091397, 52.1671581]}, "properties": {"type": "inleverpunt", "locatieNaam": "Primera", "straatNaam": "Essenlaan", "straatNr": "12", "postcode": "2461 DH", "plaats": "Ter Aar", "merk": "Stibat", "puntType": "inzamelbak", "materialen": ["batterijen"], "uitbetaling": [], "vrijToegankelijk": false, "gemeenteBeperking": null, "openingstijden": null, "latitude": 52.1671581, "longitude": 4.7091397, "bronId": "L029233"}}, {"type": "Feature", "geometry": {"type": "Point", "coordinates": [4.7084025, 52.1666146]}, "properties": {"type": "inleverpunt", "locatieNaam": "Dirk", "straatNaam": "Essenlaan", "straatNr": "2", "postcode": "2461 DH", "plaats": "Ter Aar", "merk": "Stibat", "puntType": "inzamelbak", "materialen": ["batterijen"], "uitbetaling": [], "vrijToegankelijk": false, "gemeenteBeperking": null, "openingstijden": null, "latitude": 52.1666146, "longitude": 4.7084025, "bronId": "L012672"}}, {"type": "Feature", "geometry": {"type": "Point", "coordinates": [4.7116879, 52.1793877]}, "properties": {"type": "inleverpunt", "locatieNaam": "Welkoop", "straatNaam": "Hertog van Beijerenstraat", "straatNr": "14", "postcode": "2461 EM", "plaats": "Ter Aar", "merk": "Stibat", "puntType": "inzamelbak", "materialen": ["batterijen"], "uitbetaling": [], "vrijToegankelijk": false, "gemeenteBeperking": null, "openingstijden": null, "latitude": 52.1793877, "longitude": 4.7116879, "bronId": "L017062"}}, {"type": "Feature", "geometry": {"type": "Point", "coordinates": [4.7067506, 52.1664502]}, "properties": {"type": "inleverpunt", "locatieNaam": "Bakfietsenwinkel", "straatNaam": "Vosholplein", "straatNr": "14", "postcode": "2461 AA", "plaats": "Ter Aar", "merk": "Stibat", "puntType": "inzamelbak", "materialen": ["batterijen"], "uitbetaling": [], "vrijToegankelijk": false, "gemeenteBeperking": null, "openingstijden": null, "latitude": 52.1664502, "longitude": 4.7067506, "bronId": "L048850"}}, {"type": "Feature", "geometry": {"type": "Point", "coordinates": [4.7100734, 52.1771796]}, "properties": {"type": "inleverpunt", "locatieNaam": "Afvalbrengstation Rijnstreek", "straatNaam": "Harsweg", "straatNr": "5", "postcode": "2461 EZ", "plaats": "Ter Aar", "merk": "Stibat", "puntType": "inzamelbak", "materialen": ["batterijen"], "uitbetaling": [], "vrijToegankelijk": false, "gemeenteBeperking": null, "openingstijden": null, "latitude": 52.1771796, "longitude": 4.7100734, "bronId": "L035627"}}, {"type": "Feature", "geometry": {"type": "Point", "coordinates": [4.7122161, 52.192792]}, "properties": {"type": "inleverpunt", "locatieNaam": "EP:", "straatNaam": "De Strooplikker", "straatNr": "5", "postcode": "2461 CW", "plaats": "Langeraar", "merk": "Stibat", "puntType": "inzamelbak", "materialen": ["batterijen"], "uitbetaling": [], "vrijToegankelijk": false, "gemeenteBeperking": null, "openingstijden": null, "latitude": 52.192792, "longitude": 4.7122161, "bronId": "L016648"}}, {"type": "Feature", "geometry": {"type": "Polygon", "coordinates": [[[4.75322600107768, 52.10851300398301], [4.738857001063169, 52.10650700398175], [4.751775001076735, 52.11891100398938], [4.753240001078231, 52.119442003989725], [4.756641001081855, 52.123790003992404], [4.756746001082022, 52.12506800399315], [4.760076001085654, 52.13101700399685], [4.759025001084803, 52.135143003999346], [4.743298001070286, 52.160362004014765], [4.741839001068938, 52.16267300401616], [4.726811001053697, 52.158995004013924], [4.726167001053002, 52.15797900401328], [4.72605400105281, 52.15639700401229], [4.72418700105093, 52.15621600401221], [4.704998001031124, 52.14476000400517], [4.703801001029922, 52.144620004005105], [4.704213001030378, 52.14551400400565], [4.704165001030457, 52.1480970040072], [4.705929001032407, 52.15168200400939], [4.705371001031861, 52.1520130040096], [4.705673001032173, 52.152157004009716], [4.698218001025021, 52.15852800401358], [4.694775001021643, 52.159940004014416], [4.681209001008434, 52.16750400401903], [4.6889410010174135, 52.191931004033876], [4.690831001019293, 52.1916740040337], [4.6953160010236585, 52.189154004032204], [4.707501001036617, 52.20420800404136], [4.707666001036827, 52.20505200404186], [4.720774001049762, 52.2012770040396], [4.723592001053101, 52.21161600404586], [4.723890001053366, 52.21093600404546], [4.724530001053999, 52.21080100404537], [4.725334001054839, 52.21151000404579], [4.726469001055955, 52.21102000404549], [4.728951001058373, 52.209746004044746], [4.732834001062122, 52.20697200404305], [4.734339001063607, 52.206516004042776], [4.7356170010649254, 52.207314004043276], [4.738016001067461, 52.20994800404484], [4.741335001070906, 52.21240900404635], [4.743630001073322, 52.21479300404779], [4.747972001077673, 52.214868004047844], [4.750669001080415, 52.215721004048355], [4.753299001083135, 52.21746800404944], [4.759848001089697, 52.217586004049494], [4.7620740010919524, 52.218130004049826], [4.767308001097342, 52.221154004051655], [4.772078001102211, 52.223023004052784], [4.774603001104811, 52.22454700405373], [4.776505001106861, 52.227426004055424], [4.780986001111409, 52.22874100405624], [4.784936001115358, 52.22862600405613], [4.786785001117175, 52.227900004055705], [4.789313001119704, 52.2278900040557], [4.794576001124917, 52.22673100405502], [4.794430001124609, 52.223423004053], [4.795888001126069, 52.22348500405305], [4.797003001127033, 52.220348004051175], [4.802143001132047, 52.2176480040495], [4.801622001131391, 52.21491000404786], [4.80158800113084, 52.20432200404146], [4.80292500113202, 52.201028004039465], [4.813594001142745, 52.20184700403996], [4.813107001142226, 52.201173004039546], [4.81440000114343, 52.199309004038405], [4.822209001151097, 52.19612500403649], [4.823554001152355, 52.19430300403536], [4.823475001152225, 52.19324300403471], [4.824914001153634, 52.19260800403434], [4.826323001154983, 52.19126200403349], [4.827583001156229, 52.19093200403333], [4.8293360011579045, 52.18929000403231], [4.833462001161954, 52.18756100403127], [4.83402900116248, 52.18667300403074], [4.835350001163777, 52.18610900403037], [4.836520001164864, 52.18435800402927], [4.842368001170574, 52.18131000402744], [4.843921001172076, 52.1801220040267], [4.849978001178109, 52.179423004026276], [4.8514450011795605, 52.17902200402605], [4.8523810011805075, 52.179184004026155], [4.855582001183702, 52.17891700402596], [4.892273001219648, 52.1615930040153], [4.887574001214858, 52.15995800401438], [4.873623001200694, 52.15608300401203], [4.874518001200775, 52.13883100400149], [4.871315001197563, 52.13883800400149], [4.8703420011965575, 52.13820700400111], [4.8649150011910764, 52.13739100400064], [4.855239001181367, 52.137210004000536], [4.853845001179981, 52.137549004000725], [4.85260800117878, 52.13826900400119], [4.852152001178376, 52.13939200400186], [4.8514790011777125, 52.13967400400201], [4.849534001175761, 52.13957800400199], [4.8475280011737185, 52.138939004001635], [4.846251001172467, 52.139545004001974], [4.8428720011690745, 52.13946000400194], [4.842186001168404, 52.13981900400215], [4.841740001168009, 52.14089700400283], [4.840276001166575, 52.14156100400326], [4.837946001164191, 52.140617004002635], [4.837366001163614, 52.14065000400268], [4.836705001163054, 52.14288000400401], [4.83412800116047, 52.142876004004044], [4.834135001160505, 52.143431004004384], [4.832858001159291, 52.14476200400519], [4.830144001156502, 52.143308004004275], [4.826472001152767, 52.142176004003645], [4.823377001149663, 52.14222800400369], [4.821577001147845, 52.14190800400346], [4.820534001146813, 52.14222900400366], [4.817916001144118, 52.14075500400275], [4.816914001143052, 52.139468004001984], [4.81611900114225, 52.13939200400194], [4.81485400114101, 52.13998500400229], [4.813261001139424, 52.14022700400244], [4.809093001135122, 52.13764200400087], [4.808664001134664, 52.13714900400055], [4.808967001134908, 52.13584300399979], [4.807481001133377, 52.13499500399925], [4.808882001134632, 52.13188800399735], [4.8083520011340815, 52.131526003997124], [4.807790001133438, 52.129858003996084], [4.808065001133669, 52.128948003995475], [4.805824001131333, 52.127078003994406], [4.803474001128944, 52.12640400399397], [4.802601001128002, 52.12506000399317], [4.801151001126538, 52.124853003993046], [4.7983420011237445, 52.125299003993334], [4.79699300112236, 52.12466100399294], [4.793113001118428, 52.123825003992394], [4.7922120011174805, 52.12293200399186], [4.7921970011173745, 52.12104100399071], [4.791510001116651, 52.12034300399029], [4.787461001112575, 52.11997100399009], [4.785372001110512, 52.120662003990496], [4.784029001109173, 52.120756003990536], [4.782979001108074, 52.11985800399], [4.7844420011094515, 52.11805600398888], [4.7839690011089475, 52.1174370039885], [4.783163001108132, 52.117316003988414], [4.780501001105492, 52.11789200398877], [4.77960900110459, 52.11770700398868], [4.779233001104148, 52.11641700398786], [4.778507001103396, 52.115892003987526], [4.776436001101322, 52.11598500398762], [4.774929001099756, 52.11484300398688], [4.7705890010954155, 52.115096003987034], [4.769853001094654, 52.114589003986794], [4.769219001093955, 52.113312003985975], [4.76632100109104, 52.1131620039859], [4.762533001087268, 52.113712003986215], [4.761057001085739, 52.112727003985604], [4.75904100108359, 52.110182003984065], [4.75322600107768, 52.10851300398301]]]}, "properties": {"type": "boundary", "gemeente": "Nieuwkoop"}}]}