{"type": "FeatureCollection", "metadata": {"gemeente": "Noordwijk", "slug": "noordwijk", "generated_at": "2026-07-28T09:25:50.134599Z", "total_points": 104, "merken": ["StatiegeldNederland", "Stibat", "StichtingOPEN"], "bounds": [4.420977, 52.208689, 4.5515468, 52.3042599]}, "features": [{"type": "Feature", "geometry": {"type": "Point", "coordinates": [4.4916886, 52.2618303]}, "properties": {"type": "inleverpunt", "locatieNaam": "Abc Noordwijkerhout B.v.", "straatNaam": "Dorpsstraat", "straatNr": "3A", "postcode": "2211 GA", "plaats": "Noordwijkerhout", "merk": "StatiegeldNederland", "puntType": "balie", "materialen": ["pet-groot", "pet-klein", "blik"], "uitbetaling": [], "vrijToegankelijk": true, "gemeenteBeperking": null, "openingstijden": {"ma": "08:00–21:00", "di": "08:00–21:00", "wo": "08:00–21:00", "do": "08:00–21:00", "vr": "08:00–22:00", "za": "08:00–22:00", "zo": "12:00–19:00"}, "latitude": 52.2618303, "longitude": 4.4916886, "bronId": "251928"}}, {"type": "Feature", "geometry": {"type": "Point", "coordinates": [4.4938269, 52.2632834]}, "properties": {"type": "inleverpunt", "locatieNaam": "ABC Supermarkt Noordwijkerhout", "straatNaam": "Dorpsstraat", "straatNr": "3a", "postcode": "2211 GA", "plaats": "Noordwijkerhout", "merk": "StatiegeldNederland", "puntType": "automaat", "materialen": ["pet-groot", "pet-klein", "blik"], "uitbetaling": ["bonnetje", "donatie"], "vrijToegankelijk": true, "gemeenteBeperking": null, "openingstijden": null, "latitude": 52.2632834, "longitude": 4.4938269, "bronId": "251933"}}, {"type": "Feature", "geometry": {"type": "Point", "coordinates": [4.4409395, 52.229949]}, "properties": {"type": "inleverpunt", "locatieNaam": "Albert Heijn", "straatNaam": "Bonnikeplein", "straatNr": "2", "postcode": "2201 XA", "plaats": "Noordwijk", "merk": "StatiegeldNederland", "puntType": "automaat", "materialen": ["pet-groot", "pet-klein", "blik", "glas", "krat"], "uitbetaling": ["bonnetje", "donatie"], "vrijToegankelijk": true, "gemeenteBeperking": null, "openingstijden": {"ma": "08:00–22:00", "di": "08:00–22:00", "wo": "08:00–22:00", "do": "08:00–22:00", "vr": "08:00–22:00", "za": "08:00–22:00", "zo": "12:00–19:00"}, "latitude": 52.229949, "longitude": 4.4409395, "bronId": "252040"}}, {"type": "Feature", "geometry": {"type": "Point", "coordinates": [4.4912646, 52.2629129]}, "properties": {"type": "inleverpunt", "locatieNaam": "Albert Heijn", "straatNaam": "Zeestraat", "straatNr": "14A", "postcode": "2211 XA", "plaats": "Noordwijkerhout", "merk": "StatiegeldNederland", "puntType": "automaat", "materialen": ["pet-groot", "pet-klein", "blik", "glas", "krat"], "uitbetaling": ["bonnetje", "donatie"], "vrijToegankelijk": true, "gemeenteBeperking": null, "openingstijden": {"ma": "08:00–22:00", "di": "08:00–22:00", "wo": "08:00–22:00", "do": "08:00–22:00", "vr": "08:00–22:00", "za": "07:00–22:00", "zo": "12:00–19:00"}, "latitude": 52.2629129, "longitude": 4.4912646, "bronId": "252947"}}, {"type": "Feature", "geometry": {"type": "Point", "coordinates": [4.4947222, 52.2613889]}, "properties": {"type": "inleverpunt", "locatieNaam": "Biedronki Supermarkt", "straatNaam": "Marktplein", "straatNr": "3", "postcode": "2211 EK", "plaats": "Noordwijkerhout", "merk": "StatiegeldNederland", "puntType": "automaat", "materialen": ["pet-groot", "pet-klein", "blik"], "uitbetaling": ["bonnetje", "donatie", "tikkie"], "vrijToegankelijk": true, "gemeenteBeperking": null, "openingstijden": null, "latitude": 52.2613889, "longitude": 4.4947222, "bronId": "253826"}}, {"type": "Feature", "geometry": {"type": "Point", "coordinates": [4.5401641, 52.3042599]}, "properties": {"type": "inleverpunt", "locatieNaam": "Boon‘s Markt", "straatNaam": "Vogelenveld", "straatNr": "1", "postcode": "2191 XT", "plaats": "De Zilk", "merk": "StatiegeldNederland", "puntType": "automaat", "materialen": ["pet-groot", "pet-klein", "blik", "glas", "krat"], "uitbetaling": ["bonnetje", "donatie"], "vrijToegankelijk": true, "gemeenteBeperking": null, "openingstijden": {"ma": "08:00–19:00", "di": "08:00–19:00", "wo": "08:00–19:00", "do": "08:00–19:00", "vr": "08:00–19:00", "za": "08:00–19:00", "zo": "12:00–17:00"}, "latitude": 52.3042599, "longitude": 4.5401641, "bronId": "253879"}}, {"type": "Feature", "geometry": {"type": "Point", "coordinates": [4.4408338, 52.2420689]}, "properties": {"type": "inleverpunt", "locatieNaam": "Chr. Korfbalvereniging Fluks", "straatNaam": "Nieuwe Zeeweg", "straatNr": "50", "postcode": "2202 HB", "plaats": "Noordwijk", "merk": "StatiegeldNederland", "puntType": "balie", "materialen": ["pet-groot", "pet-klein", "blik"], "uitbetaling": [], "vrijToegankelijk": false, "gemeenteBeperking": null, "openingstijden": null, "latitude": 52.2420689, "longitude": 4.4408338, "bronId": "254116"}}, {"type": "Feature", "geometry": {"type": "Point", "coordinates": [4.4937019, 52.2626851]}, "properties": {"type": "inleverpunt", "locatieNaam": "Dirk", "straatNaam": "Dorpsringweg", "straatNr": "2", "postcode": "2211 ED", "plaats": "Noordwijkerhout", "merk": "StatiegeldNederland", "puntType": "automaat", "materialen": ["pet-groot", "pet-klein", "blik", "glas", "krat"], "uitbetaling": ["bonnetje", "donatie"], "vrijToegankelijk": true, "gemeenteBeperking": null, "openingstijden": {"ma": "08:00–20:00", "di": "08:00–20:00", "wo": "08:00–20:00", "do": "08:00–20:00", "vr": "08:00–20:00", "za": "08:00–20:00", "zo": "12:00–19:00"}, "latitude": 52.2626851, "longitude": 4.4937019, "bronId": "254464"}}, {"type": "Feature", "geometry": {"type": "Point", "coordinates": [4.4473534, 52.2349188]}, "properties": {"type": "inleverpunt", "locatieNaam": "Dirk", "straatNaam": "Raadhuisstraat", "straatNr": "9", "postcode": "2201 MB", "plaats": "Noordwijk", "merk": "StatiegeldNederland", "puntType": "automaat", "materialen": ["pet-groot", "pet-klein", "blik", "glas", "krat"], "uitbetaling": ["bonnetje", "donatie"], "vrijToegankelijk": true, "gemeenteBeperking": null, "openingstijden": {"ma": "07:00–21:00", "di": "07:00–21:00", "wo": "07:00–21:00", "do": "07:00–21:00", "vr": "07:00–21:00", "za": "07:00–21:00", "zo": "12:00–19:00"}, "latitude": 52.2349188, "longitude": 4.4473534, "bronId": "254532"}}, {"type": "Feature", "geometry": {"type": "Point", "coordinates": [4.420977, 52.235605]}, "properties": {"type": "inleverpunt", "locatieNaam": "Kustsurfvereniging Noordwijk", "straatNaam": "Koningin astridboulevard", "straatNr": "103", "postcode": "2202 BD", "plaats": "Noordwijk", "merk": "StatiegeldNederland", "puntType": "balie", "materialen": ["pet-groot", "pet-klein", "blik"], "uitbetaling": [], "vrijToegankelijk": false, "gemeenteBeperking": null, "openingstijden": {"ma": "10:00–20:00", "di": "10:00–20:00", "wo": "10:00–20:00", "do": "10:00–20:00", "vr": "10:00–20:00", "za": "10:00–20:00", "zo": "10:00–20:00"}, "latitude": 52.235605, "longitude": 4.420977, "bronId": "255964"}}, {"type": "Feature", "geometry": {"type": "Point", "coordinates": [4.49298, 52.26346]}, "properties": {"type": "inleverpunt", "locatieNaam": "Lidl", "straatNaam": "Dorpstraat", "straatNr": "4", "postcode": "2211 GC", "plaats": "Noordwijkerhout", "merk": "StatiegeldNederland", "puntType": "automaat", "materialen": ["pet-groot", "pet-klein", "blik", "glas", "krat"], "uitbetaling": ["bonnetje", "donatie"], "vrijToegankelijk": true, "gemeenteBeperking": null, "openingstijden": {"ma": "08:00–21:00", "di": "08:00–21:00", "wo": "08:00–21:00", "do": "08:00–21:00", "vr": "08:00–21:00", "za": "07:00–21:00", "zo": "12:00–19:00"}, "latitude": 52.26346, "longitude": 4.49298, "bronId": "256133"}}, {"type": "Feature", "geometry": {"type": "Point", "coordinates": [4.45107, 52.2418]}, "properties": {"type": "inleverpunt", "locatieNaam": "Lidl", "straatNaam": "Rederijkersplein", "straatNr": "8-10", "postcode": "2203 GB", "plaats": "Noordwijk", "merk": "StatiegeldNederland", "puntType": "automaat", "materialen": ["pet-groot", "pet-klein", "blik", "glas", "krat"], "uitbetaling": ["bonnetje", "donatie"], "vrijToegankelijk": true, "gemeenteBeperking": null, "openingstijden": {"ma": "08:00–21:00", "di": "08:00–21:00", "wo": "08:00–21:00", "do": "08:00–21:00", "vr": "08:00–21:00", "za": "08:00–21:00", "zo": "12:00–19:00"}, "latitude": 52.2418, "longitude": 4.45107, "bronId": "256356"}}, {"type": "Feature", "geometry": {"type": "Point", "coordinates": [4.4352257, 52.2125768]}, "properties": {"type": "inleverpunt", "locatieNaam": "Peut Abswoude - ’s-Gravendijckseweg", "straatNaam": "’s-gravendijckseweg", "straatNr": "61-91", "postcode": "2201 DH", "plaats": "Noordwijk", "merk": "StatiegeldNederland", "puntType": "automaat", "materialen": ["pet-groot", "pet-klein", "blik", "krat"], "uitbetaling": ["donatie", "tikkie"], "vrijToegankelijk": true, "gemeenteBeperking": null, "openingstijden": {"ma": "07:00–23:00", "di": "07:00–23:00", "wo": "07:00–23:00", "do": "07:00–23:00", "vr": "07:00–23:00", "za": "08:00–23:00", "zo": "09:00–23:00"}, "latitude": 52.2125768, "longitude": 4.4352257, "bronId": "257160"}}, {"type": "Feature", "geometry": {"type": "Point", "coordinates": [4.451502, 52.234292]}, "properties": {"type": "inleverpunt", "locatieNaam": "Peut Abswoude - Nieuwe Offemweg", "straatNaam": "Nieuwe Offemweg", "straatNr": "6", "postcode": "2201 AP", "plaats": "Noordwijk", "merk": "StatiegeldNederland", "puntType": "automaat", "materialen": ["pet-groot", "pet-klein", "blik", "krat"], "uitbetaling": ["donatie", "tikkie"], "vrijToegankelijk": true, "gemeenteBeperking": null, "openingstijden": {"ma": "07:30–17:00", "di": "07:30–17:00", "wo": "07:30–17:00", "do": "07:30–17:00", "vr": "07:30–17:00", "za": "Gesloten", "zo": "Gesloten"}, "latitude": 52.234292, "longitude": 4.451502, "bronId": "257161"}}, {"type": "Feature", "geometry": {"type": "Point", "coordinates": [4.446738, 52.24113]}, "properties": {"type": "inleverpunt", "locatieNaam": "Shell", "straatNaam": "Van de Mortelstraat", "straatNr": "254", "postcode": "2203 JM", "plaats": "Noordwijk Zh", "merk": "StatiegeldNederland", "puntType": "balie", "materialen": ["pet-groot", "pet-klein", "blik"], "uitbetaling": [], "vrijToegankelijk": true, "gemeenteBeperking": null, "openingstijden": {"ma": "24 uur geopend", "di": "24 uur geopend", "wo": "24 uur geopend", "do": "24 uur geopend", "vr": "24 uur geopend", "za": "24 uur geopend", "zo": "24 uur geopend"}, "latitude": 52.24113, "longitude": 4.446738, "bronId": "258236"}}, {"type": "Feature", "geometry": {"type": "Point", "coordinates": [4.5464677, 52.3035694]}, "properties": {"type": "inleverpunt", "locatieNaam": "Spar", "straatNaam": "BREELAND", "straatNr": "2A", "postcode": "2191 XB", "plaats": "De Zilk", "merk": "StatiegeldNederland", "puntType": "balie", "materialen": ["pet-groot", "pet-klein", "blik"], "uitbetaling": [], "vrijToegankelijk": true, "gemeenteBeperking": null, "openingstijden": null, "latitude": 52.3035694, "longitude": 4.5464677, "bronId": "258308"}}, {"type": "Feature", "geometry": {"type": "Point", "coordinates": [4.4477383, 52.2431665]}, "properties": {"type": "inleverpunt", "locatieNaam": "Stapfoods Northgo college Noordwijk", "straatNaam": "Duinwetering", "straatNr": "107", "postcode": "2203 HM", "plaats": "Noordwijk", "merk": "StatiegeldNederland", "puntType": "automaat", "materialen": ["pet-klein", "blik"], "uitbetaling": ["donatie", "tikkie"], "vrijToegankelijk": false, "gemeenteBeperking": null, "openingstijden": null, "latitude": 52.2431665, "longitude": 4.4477383, "bronId": "258678"}}, {"type": "Feature", "geometry": {"type": "Point", "coordinates": [4.4260721, 52.221343]}, "properties": {"type": "inleverpunt", "locatieNaam": "Vd Bergh Leefgemeenschap", "straatNaam": "WINTERTUINLAAN", "straatNr": "6", "postcode": "2201 ZS", "plaats": "Noordwijk", "merk": "StatiegeldNederland", "puntType": "balie", "materialen": ["pet-groot", "pet-klein", "blik"], "uitbetaling": [], "vrijToegankelijk": true, "gemeenteBeperking": null, "openingstijden": null, "latitude": 52.221343, "longitude": 4.4260721, "bronId": "259186"}}, {"type": "Feature", "geometry": {"type": "Point", "coordinates": [4.4800492, 52.2630103]}, "properties": {"type": "inleverpunt", "locatieNaam": "ViaTim", "straatNaam": "Westerhout", "straatNr": "71", "postcode": "2211 TN", "plaats": "Noordwijkerhout", "merk": "StatiegeldNederland", "puntType": "balie", "materialen": ["pet-groot", "pet-klein", "blik"], "uitbetaling": ["tikkie"], "vrijToegankelijk": true, "gemeenteBeperking": null, "openingstijden": null, "latitude": 52.2630103, "longitude": 4.4800492, "bronId": "259529"}}, {"type": "Feature", "geometry": {"type": "Point", "coordinates": [4.4325328, 52.2437016]}, "properties": {"type": "inleverpunt", "locatieNaam": "Vomar", "straatNaam": "Bomstraat", "straatNr": "19", "postcode": "2202 GH", "plaats": "Noordwijk", "merk": "StatiegeldNederland", "puntType": "automaat", "materialen": ["pet-groot", "pet-klein", "blik", "glas", "krat"], "uitbetaling": ["bonnetje", "donatie"], "vrijToegankelijk": true, "gemeenteBeperking": null, "openingstijden": {"ma": "07:30–22:00", "di": "07:30–22:00", "wo": "07:30–22:00", "do": "07:30–22:00", "vr": "07:30–22:00", "za": "07:30–22:00", "zo": "12:00–19:00"}, "latitude": 52.2437016, "longitude": 4.4325328, "bronId": "259644"}}, {"type": "Feature", "geometry": {"type": "Point", "coordinates": [4.4941421, 52.2547187]}, "properties": {"type": "inleverpunt", "locatieNaam": "Vomar", "straatNaam": "Kornoeljelaan", "straatNr": "2", "postcode": "2211 NT", "plaats": "Noordwijkerhout", "merk": "StatiegeldNederland", "puntType": "automaat", "materialen": ["pet-groot", "pet-klein", "blik", "glas", "krat"], "uitbetaling": ["bonnetje", "donatie"], "vrijToegankelijk": true, "gemeenteBeperking": null, "openingstijden": {"ma": "07:30–22:00", "di": "07:30–22:00", "wo": "07:30–22:00", "do": "07:30–22:00", "vr": "07:30–22:00", "za": "07:30–22:00", "zo": "12:00–19:00"}, "latitude": 52.2547187, "longitude": 4.4941421, "bronId": "259681"}}, {"type": "Feature", "geometry": {"type": "Point", "coordinates": [4.545411, 52.303741]}, "properties": {"type": "inleverpunt", "locatieNaam": "Spar De Zilk", "straatNaam": "Breeland", "straatNr": "2a", "postcode": "2191 XB", "plaats": "De Zilk", "merk": "StichtingOPEN", "puntType": "balie", "materialen": ["batterijen", "elektro-klein", "lampen"], "uitbetaling": [], "vrijToegankelijk": false, "gemeenteBeperking": null, "openingstijden": null, "latitude": 52.303741, "longitude": 4.545411, "bronId": "SP00022438"}}, {"type": "Feature", "geometry": {"type": "Point", "coordinates": [4.543124, 52.302634]}, "properties": {"type": "inleverpunt", "locatieNaam": "Blipvert P.J. Warmerdamstraat", "straatNaam": "P J Warmerdamstraat", "straatNr": "42", "postcode": "2191 BV", "plaats": "De Zilk", "merk": "StichtingOPEN", "puntType": "balie", "materialen": ["elektro-klein"], "uitbetaling": [], "vrijToegankelijk": false, "gemeenteBeperking": null, "openingstijden": null, "latitude": 52.302634, "longitude": 4.543124, "bronId": "SP00032601"}}, {"type": "Feature", "geometry": {"type": "Point", "coordinates": [4.492995, 52.248047]}, "properties": {"type": "inleverpunt", "locatieNaam": "Karwei Noordwijkerhout", "straatNaam": "Walserij", "straatNr": "101", "postcode": "2211 SL", "plaats": "Noordwijkerhout", "merk": "StichtingOPEN", "puntType": "balie", "materialen": ["elektro-middel", "lampen", "tl-buizen"], "uitbetaling": [], "vrijToegankelijk": false, "gemeenteBeperking": null, "openingstijden": null, "latitude": 52.248047, "longitude": 4.492995, "bronId": "SP00005308"}}, {"type": "Feature", "geometry": {"type": "Point", "coordinates": [4.494679, 52.255162]}, "properties": {"type": "inleverpunt", "locatieNaam": "Blipvert Pilarenlaan", "straatNaam": "Pilarenlaan", "straatNr": "33", "postcode": "2211 LH", "plaats": "Noordwijkerhout", "merk": "StichtingOPEN", "puntType": "balie", "materialen": ["elektro-klein"], "uitbetaling": [], "vrijToegankelijk": false, "gemeenteBeperking": null, "openingstijden": null, "latitude": 52.255162, "longitude": 4.494679, "bronId": "SP00032598"}}, {"type": "Feature", "geometry": {"type": "Point", "coordinates": [4.494244, 52.254634]}, "properties": {"type": "inleverpunt", "locatieNaam": "Vomar Noordwijkerhout", "straatNaam": "Kornoeljelaan", "straatNr": "2", "postcode": "2211 NT", "plaats": "Noordwijkerhout", "merk": "StichtingOPEN", "puntType": "balie", "materialen": ["batterijen", "lampen"], "uitbetaling": [], "vrijToegankelijk": false, "gemeenteBeperking": null, "openingstijden": null, "latitude": 52.254634, "longitude": 4.494244, "bronId": "SP00025769"}}, {"type": "Feature", "geometry": {"type": "Point", "coordinates": [4.497354, 52.265004]}, "properties": {"type": "inleverpunt", "locatieNaam": "Blipvert Parkeerplaats", "straatNaam": "Parkeerplaats", "straatNr": "0", "postcode": "2211 BK", "plaats": "Noordwijkerhout", "merk": "StichtingOPEN", "puntType": "balie", "materialen": ["elektro-klein"], "uitbetaling": [], "vrijToegankelijk": false, "gemeenteBeperking": null, "openingstijden": null, "latitude": 52.265004, "longitude": 4.497354, "bronId": "SP00032600"}}, {"type": "Feature", "geometry": {"type": "Point", "coordinates": [4.49417, 52.261711]}, "properties": {"type": "inleverpunt", "locatieNaam": "Kringloopwinkel Noordwijkerhout", "straatNaam": "Marktplein", "straatNr": "8", "postcode": "2211 EK", "plaats": "Noordwijkerhout", "merk": "StichtingOPEN", "puntType": "balie", "materialen": ["batterijen", "elektro-groot", "elektro-klein", "elektro-middel", "lampen", "tl-buizen"], "uitbetaling": [], "vrijToegankelijk": false, "gemeenteBeperking": null, "openingstijden": null, "latitude": 52.261711, "longitude": 4.49417, "bronId": "SP00032401"}}, {"type": "Feature", "geometry": {"type": "Point", "coordinates": [4.493859, 52.262755]}, "properties": {"type": "inleverpunt", "locatieNaam": "Dirk Noordwijkerhout", "straatNaam": "Dorpsringweg", "straatNr": "2", "postcode": "2211 ED", "plaats": "Noordwijkerhout", "merk": "StichtingOPEN", "puntType": "balie", "materialen": ["batterijen", "lampen"], "uitbetaling": [], "vrijToegankelijk": false, "gemeenteBeperking": null, "openingstijden": null, "latitude": 52.262755, "longitude": 4.493859, "bronId": "SP00023466"}}, {"type": "Feature", "geometry": {"type": "Point", "coordinates": [4.492567, 52.260438]}, "properties": {"type": "inleverpunt", "locatieNaam": "Blipvert Viaductweg", "straatNaam": "Viaductweg", "straatNr": "38", "postcode": "2211 GT", "plaats": "Noordwijkerhout", "merk": "StichtingOPEN", "puntType": "balie", "materialen": ["elektro-klein"], "uitbetaling": [], "vrijToegankelijk": false, "gemeenteBeperking": null, "openingstijden": null, "latitude": 52.260438, "longitude": 4.492567, "bronId": "SP00032599"}}, {"type": "Feature", "geometry": {"type": "Point", "coordinates": [4.49317, 52.26326]}, "properties": {"type": "inleverpunt", "locatieNaam": "Kruidvat Noordwijkerhout", "straatNaam": "Dorpsstraat", "straatNr": "6a", "postcode": "2211 GC", "plaats": "Noordwijkerhout", "merk": "StichtingOPEN", "puntType": "balie", "materialen": ["batterijen", "lampen"], "uitbetaling": [], "vrijToegankelijk": false, "gemeenteBeperking": null, "openingstijden": null, "latitude": 52.26326, "longitude": 4.49317, "bronId": "SP00029482"}}, {"type": "Feature", "geometry": {"type": "Point", "coordinates": [4.491264, 52.262912]}, "properties": {"type": "inleverpunt", "locatieNaam": "1637 Albert Heijn Noordwijkerhout", "straatNaam": "Zeestraat", "straatNr": "14a", "postcode": "2211 XG", "plaats": "Noordwijkerhout", "merk": "StichtingOPEN", "puntType": "balie", "materialen": ["batterijen", "elektro-klein", "lampen"], "uitbetaling": [], "vrijToegankelijk": false, "gemeenteBeperking": null, "openingstijden": null, "latitude": 52.262912, "longitude": 4.491264, "bronId": "SP00023284"}}, {"type": "Feature", "geometry": {"type": "Point", "coordinates": [4.48816, 52.267484]}, "properties": {"type": "inleverpunt", "locatieNaam": "Zorg- en Kinderboerderij De Dierenhoeve", "straatNaam": "Sint Marielaan", "straatNr": "10", "postcode": "2212 TJ", "plaats": "Noordwijkerhout", "merk": "StichtingOPEN", "puntType": "balie", "materialen": ["elektro-middel"], "uitbetaling": [], "vrijToegankelijk": false, "gemeenteBeperking": null, "openingstijden": null, "latitude": 52.267484, "longitude": 4.48816, "bronId": "SP00041517"}}, {"type": "Feature", "geometry": {"type": "Point", "coordinates": [4.45747, 52.234382]}, "properties": {"type": "inleverpunt", "locatieNaam": "Blipvert Boechrsthof", "straatNaam": "Boechorsthof", "straatNr": "0", "postcode": "2201 GS", "plaats": "Noordwijk", "merk": "StichtingOPEN", "puntType": "balie", "materialen": ["elektro-klein"], "uitbetaling": [], "vrijToegankelijk": false, "gemeenteBeperking": null, "openingstijden": null, "latitude": 52.234382, "longitude": 4.45747, "bronId": "SP00032584"}}, {"type": "Feature", "geometry": {"type": "Point", "coordinates": [4.451174, 52.24164]}, "properties": {"type": "inleverpunt", "locatieNaam": "Blipvert Rederijkersplein", "straatNaam": "Rederijkersplein", "straatNr": "21", "postcode": "2203 GC", "plaats": "Noordwijk", "merk": "StichtingOPEN", "puntType": "balie", "materialen": ["elektro-klein"], "uitbetaling": [], "vrijToegankelijk": false, "gemeenteBeperking": null, "openingstijden": null, "latitude": 52.24164, "longitude": 4.451174, "bronId": "SP00032597"}}, {"type": "Feature", "geometry": {"type": "Point", "coordinates": [4.44722, 52.235125]}, "properties": {"type": "inleverpunt", "locatieNaam": "Dirk Noordwijk", "straatNaam": "Raadhuisstraat", "straatNr": "9", "postcode": "2201 MA", "plaats": "Noordwijk", "merk": "StichtingOPEN", "puntType": "balie", "materialen": ["batterijen", "lampen"], "uitbetaling": [], "vrijToegankelijk": false, "gemeenteBeperking": null, "openingstijden": null, "latitude": 52.235125, "longitude": 4.44722, "bronId": "SP00023460"}}, {"type": "Feature", "geometry": {"type": "Point", "coordinates": [4.446838, 52.235356]}, "properties": {"type": "inleverpunt", "locatieNaam": "Blipvert Raadhuisstraat", "straatNaam": "Raadhuisstraat", "straatNr": "0", "postcode": "2201 KM", "plaats": "Noordwijk", "merk": "StichtingOPEN", "puntType": "balie", "materialen": ["elektro-klein"], "uitbetaling": [], "vrijToegankelijk": false, "gemeenteBeperking": null, "openingstijden": null, "latitude": 52.235356, "longitude": 4.446838, "bronId": "SP00032585"}}, {"type": "Feature", "geometry": {"type": "Point", "coordinates": [4.446541, 52.23511]}, "properties": {"type": "inleverpunt", "locatieNaam": "Action Noordwijk 1245", "straatNaam": "De Keuvel", "straatNr": "6-10", "postcode": "2201 MB", "plaats": "Noordwijk", "merk": "StichtingOPEN", "puntType": "balie", "materialen": ["batterijen", "lampen"], "uitbetaling": [], "vrijToegankelijk": false, "gemeenteBeperking": null, "openingstijden": null, "latitude": 52.23511, "longitude": 4.446541, "bronId": "SP00007821"}}, {"type": "Feature", "geometry": {"type": "Point", "coordinates": [4.446305, 52.237045]}, "properties": {"type": "inleverpunt", "locatieNaam": "Hubo Noordwijk", "straatNaam": "Molenstraat", "straatNr": "45", "postcode": "2201 KX", "plaats": "Noordwijk", "merk": "StichtingOPEN", "puntType": "balie", "materialen": ["lampen", "tl-buizen"], "uitbetaling": [], "vrijToegankelijk": false, "gemeenteBeperking": null, "openingstijden": null, "latitude": 52.237045, "longitude": 4.446305, "bronId": "SP00004762"}}, {"type": "Feature", "geometry": {"type": "Point", "coordinates": [4.440939, 52.229949]}, "properties": {"type": "inleverpunt", "locatieNaam": "Blipvert Bonnikeplein", "straatNaam": "Bonnikeplein", "straatNr": "2", "postcode": "2201 XA", "plaats": "Noordwijk", "merk": "StichtingOPEN", "puntType": "balie", "materialen": ["elektro-klein"], "uitbetaling": [], "vrijToegankelijk": false, "gemeenteBeperking": null, "openingstijden": null, "latitude": 52.229949, "longitude": 4.440939, "bronId": "SP00032586"}}, {"type": "Feature", "geometry": {"type": "Point", "coordinates": [4.440923, 52.229955]}, "properties": {"type": "inleverpunt", "locatieNaam": "1539 Albert Heijn Noordwijk", "straatNaam": "Bonnikeplein", "straatNr": "2", "postcode": "2201 XA", "plaats": "Noordwijk", "merk": "StichtingOPEN", "puntType": "balie", "materialen": ["batterijen", "elektro-klein", "lampen"], "uitbetaling": [], "vrijToegankelijk": false, "gemeenteBeperking": null, "openingstijden": null, "latitude": 52.229955, "longitude": 4.440923, "bronId": "SP00022956"}}, {"type": "Feature", "geometry": {"type": "Point", "coordinates": [4.433778, 52.215623]}, "properties": {"type": "inleverpunt", "locatieNaam": "Praxis Noordwijk - 2432", "straatNaam": "Keyserswey", "straatNr": "34", "postcode": "2201 CW", "plaats": "Noordwijk", "merk": "StichtingOPEN", "puntType": "balie", "materialen": ["elektro-middel", "lampen", "tl-buizen"], "uitbetaling": [], "vrijToegankelijk": false, "gemeenteBeperking": null, "openingstijden": null, "latitude": 52.215623, "longitude": 4.433778, "bronId": "SP00005977"}}, {"type": "Feature", "geometry": {"type": "Point", "coordinates": [4.437254, 52.235694]}, "properties": {"type": "inleverpunt", "locatieNaam": "Kinderboerderij 's Schaapsherdertje", "straatNaam": "Oude Zeeweg", "straatNr": "3", "postcode": "2201 TA", "plaats": "Noordwijk", "merk": "StichtingOPEN", "puntType": "balie", "materialen": ["elektro-middel"], "uitbetaling": [], "vrijToegankelijk": false, "gemeenteBeperking": null, "openingstijden": null, "latitude": 52.235694, "longitude": 4.437254, "bronId": "SP00008903"}}, {"type": "Feature", "geometry": {"type": "Point", "coordinates": [4.437132, 52.245096]}, "properties": {"type": "inleverpunt", "locatieNaam": "Blipvert Prins Bernhardstraat", "straatNaam": "Prins Bernhardstraat", "straatNr": "47", "postcode": "2202 LG", "plaats": "Noordwijk", "merk": "StichtingOPEN", "puntType": "balie", "materialen": ["elektro-klein"], "uitbetaling": [], "vrijToegankelijk": false, "gemeenteBeperking": null, "openingstijden": null, "latitude": 52.245096, "longitude": 4.437132, "bronId": "SP00032595"}}, {"type": "Feature", "geometry": {"type": "Point", "coordinates": [4.436994, 52.249363]}, "properties": {"type": "inleverpunt", "locatieNaam": "Blipvert Wantveld", "straatNaam": "Wantveld", "straatNr": "2", "postcode": "2202 NS", "plaats": "Noordwijk", "merk": "StichtingOPEN", "puntType": "balie", "materialen": ["elektro-klein"], "uitbetaling": [], "vrijToegankelijk": false, "gemeenteBeperking": null, "openingstijden": null, "latitude": 52.249363, "longitude": 4.436994, "bronId": "SP00032596"}}, {"type": "Feature", "geometry": {"type": "Point", "coordinates": [4.43279, 52.243833]}, "properties": {"type": "inleverpunt", "locatieNaam": "Vomar Noordwijk", "straatNaam": "Bomstraat", "straatNr": "19", "postcode": "2202 GH", "plaats": "Noordwijk", "merk": "StichtingOPEN", "puntType": "balie", "materialen": ["batterijen", "lampen"], "uitbetaling": [], "vrijToegankelijk": false, "gemeenteBeperking": null, "openingstijden": null, "latitude": 52.243833, "longitude": 4.43279, "bronId": "SP00025755"}}, {"type": "Feature", "geometry": {"type": "Point", "coordinates": [4.43232, 52.24278]}, "properties": {"type": "inleverpunt", "locatieNaam": "Kruidvat Noordwijk", "straatNaam": "Gasthuissteeg", "straatNr": "60", "postcode": "2202 GB", "plaats": "Noordwijk", "merk": "StichtingOPEN", "puntType": "balie", "materialen": ["batterijen", "lampen"], "uitbetaling": [], "vrijToegankelijk": false, "gemeenteBeperking": null, "openingstijden": null, "latitude": 52.24278, "longitude": 4.43232, "bronId": "SP00029626"}}, {"type": "Feature", "geometry": {"type": "Point", "coordinates": [4.431277, 52.244306]}, "properties": {"type": "inleverpunt", "locatieNaam": "Blipvert Jan Kroonsplein", "straatNaam": "Jan Kroonsplein", "straatNr": "0", "postcode": "2202 HG", "plaats": "Noordwijk", "merk": "StichtingOPEN", "puntType": "balie", "materialen": ["elektro-klein"], "uitbetaling": [], "vrijToegankelijk": false, "gemeenteBeperking": null, "openingstijden": null, "latitude": 52.244306, "longitude": 4.431277, "bronId": "SP00032587"}}, {"type": "Feature", "geometry": {"type": "Point", "coordinates": [4.512016, 52.25706]}, "properties": {"type": "inleverpunt", "locatieNaam": "Milieustraat Meerlanden (bedrijventerrein Gravendam)", "straatNaam": "Schippersvaartweg", "straatNr": "85", "postcode": "2211 TK", "plaats": "Noordwijkerhout", "merk": "StichtingOPEN", "puntType": "milieustraat", "materialen": ["batterijen", "elektro-groot", "elektro-klein", "elektro-middel", "lampen", "tl-buizen"], "uitbetaling": [], "vrijToegankelijk": false, "gemeenteBeperking": ["Noordwijk"], "openingstijden": null, "latitude": 52.25706, "longitude": 4.512016, "bronId": "SP00008371"}}, {"type": "Feature", "geometry": {"type": "Point", "coordinates": [4.447837, 52.220077]}, "properties": {"type": "inleverpunt", "locatieNaam": "Milieustraat Noordwijk", "straatNaam": "Achterweg", "straatNr": "11a", "postcode": "2201 AH", "plaats": "Noordwijk", "merk": "StichtingOPEN", "puntType": "milieustraat", "materialen": ["batterijen", "elektro-groot", "elektro-klein", "elektro-middel", "lampen", "tl-buizen"], "uitbetaling": [], "vrijToegankelijk": false, "gemeenteBeperking": ["Noordwijk"], "openingstijden": null, "latitude": 52.220077, "longitude": 4.447837, "bronId": "SP00004280"}}, {"type": "Feature", "geometry": {"type": "Point", "coordinates": [4.5515468, 52.2991888]}, "properties": {"type": "inleverpunt", "locatieNaam": "De Jong Kampeer &amp; Recreatie", "straatNaam": "Beeklaan", "straatNr": "18a", "postcode": "2191 AB", "plaats": "DE ZILK", "merk": "Stibat", "puntType": "inzamelbak", "materialen": ["batterijen"], "uitbetaling": [], "vrijToegankelijk": false, "gemeenteBeperking": null, "openingstijden": null, "latitude": 52.2991888, "longitude": 4.5515468, "bronId": "L038873"}}, {"type": "Feature", "geometry": {"type": "Point", "coordinates": [4.5401641, 52.3042599]}, "properties": {"type": "inleverpunt", "locatieNaam": "Boons Dagmarkt", "straatNaam": "Vogelenveld", "straatNr": "1", "postcode": "2191 XT", "plaats": "DE ZILK", "merk": "Stibat", "puntType": "inzamelbak", "materialen": ["batterijen"], "uitbetaling": [], "vrijToegankelijk": false, "gemeenteBeperking": null, "openingstijden": null, "latitude": 52.3042599, "longitude": 4.5401641, "bronId": "L029361"}}, {"type": "Feature", "geometry": {"type": "Point", "coordinates": [4.4947798, 52.2504954]}, "properties": {"type": "inleverpunt", "locatieNaam": "Kruyt", "straatNaam": "Gieterij", "straatNr": "96", "postcode": "2211 ZD", "plaats": "NOORDWIJKERHOUT", "merk": "Stibat", "puntType": "inzamelbak", "materialen": ["batterijen"], "uitbetaling": [], "vrijToegankelijk": false, "gemeenteBeperking": null, "openingstijden": null, "latitude": 52.2504954, "longitude": 4.4947798, "bronId": "L045247"}}, {"type": "Feature", "geometry": {"type": "Point", "coordinates": [4.4933605, 52.248764]}, "properties": {"type": "inleverpunt", "locatieNaam": "PWA Computers", "straatNaam": "Pletterij", "straatNr": "1f", "postcode": "2211 JT", "plaats": "NOORDWIJKERHOUT", "merk": "Stibat", "puntType": "inzamelbak", "materialen": ["batterijen"], "uitbetaling": [], "vrijToegankelijk": false, "gemeenteBeperking": null, "openingstijden": null, "latitude": 52.248764, "longitude": 4.4933605, "bronId": "L029442"}}, {"type": "Feature", "geometry": {"type": "Point", "coordinates": [4.4929954, 52.2480475]}, "properties": {"type": "inleverpunt", "locatieNaam": "Karwei", "straatNaam": "Walserij", "straatNr": "101", "postcode": "2211 SL", "plaats": "NOORDWIJKERHOUT", "merk": "Stibat", "puntType": "inzamelbak", "materialen": ["batterijen"], "uitbetaling": [], "vrijToegankelijk": false, "gemeenteBeperking": null, "openingstijden": null, "latitude": 52.2480475, "longitude": 4.4929954, "bronId": "L027827"}}, {"type": "Feature", "geometry": {"type": "Point", "coordinates": [4.4927805, 52.2499619]}, "properties": {"type": "inleverpunt", "locatieNaam": "Timmers Verpakkingen", "straatNaam": "Gieterij", "straatNr": "31", "postcode": "2211 WC", "plaats": "NOORDWIJKERHOUT", "merk": "Stibat", "puntType": "inzamelbak", "materialen": ["batterijen"], "uitbetaling": [], "vrijToegankelijk": false, "gemeenteBeperking": null, "openingstijden": null, "latitude": 52.2499619, "longitude": 4.4927805, "bronId": "L035136"}}, {"type": "Feature", "geometry": {"type": "Point", "coordinates": [4.4915047, 52.247397]}, "properties": {"type": "inleverpunt", "locatieNaam": "De Haan", "straatNaam": "'s-Gravendamseweg", "straatNr": "14", "postcode": "2211 WJ", "plaats": "Noordwijkerhout", "merk": "Stibat", "puntType": "inzamelbak", "materialen": ["batterijen"], "uitbetaling": [], "vrijToegankelijk": false, "gemeenteBeperking": null, "openingstijden": null, "latitude": 52.247397, "longitude": 4.4915047, "bronId": "L044795"}}, {"type": "Feature", "geometry": {"type": "Point", "coordinates": [4.4914876, 52.2473926]}, "properties": {"type": "inleverpunt", "locatieNaam": "Esso", "straatNaam": "'s-Gravendamseweg", "straatNr": "14", "postcode": "2211 WJ", "plaats": "NOORDWIJKERHOUT", "merk": "Stibat", "puntType": "inzamelbak", "materialen": ["batterijen"], "uitbetaling": [], "vrijToegankelijk": false, "gemeenteBeperking": null, "openingstijden": null, "latitude": 52.2473926, "longitude": 4.4914876, "bronId": "L025493"}}, {"type": "Feature", "geometry": {"type": "Point", "coordinates": [4.4925495, 52.2497984]}, "properties": {"type": "inleverpunt", "locatieNaam": "Bemelman Bikesport", "straatNaam": "Gieterij", "straatNr": "27", "postcode": "2211 WC", "plaats": "NOORDWIJKERHOUT", "merk": "Stibat", "puntType": "inzamelbak", "materialen": ["batterijen"], "uitbetaling": [], "vrijToegankelijk": false, "gemeenteBeperking": null, "openingstijden": null, "latitude": 52.2497984, "longitude": 4.4925495, "bronId": "L046659"}}, {"type": "Feature", "geometry": {"type": "Point", "coordinates": [4.4981271, 52.261024]}, "properties": {"type": "inleverpunt", "locatieNaam": "milieustraat bij Meeuwenoord", "straatNaam": "Schippersvaartweg", "straatNr": "1", "postcode": "2211 TJ", "plaats": "NOORDWIJKERHOUT", "merk": "Stibat", "puntType": "inzamelbak", "materialen": ["batterijen"], "uitbetaling": [], "vrijToegankelijk": false, "gemeenteBeperking": null, "openingstijden": null, "latitude": 52.261024, "longitude": 4.4981271, "bronId": "L035616"}}, {"type": "Feature", "geometry": {"type": "Point", "coordinates": [4.494505, 52.254651]}, "properties": {"type": "inleverpunt", "locatieNaam": "Vomar", "straatNaam": "Kornoeljelaan", "straatNr": "2", "postcode": "2211 NT", "plaats": "NOORDWIJKERHOUT", "merk": "Stibat", "puntType": "inzamelbak", "materialen": ["batterijen"], "uitbetaling": [], "vrijToegankelijk": false, "gemeenteBeperking": null, "openingstijden": null, "latitude": 52.254651, "longitude": 4.494505, "bronId": "L021645"}}, {"type": "Feature", "geometry": {"type": "Point", "coordinates": [4.4955849, 52.2614273]}, "properties": {"type": "inleverpunt", "locatieNaam": "Looijestijn Tweewielerspecialist", "straatNaam": "Havenstraat", "straatNr": "50", "postcode": "2211 EJ", "plaats": "NOORDWIJKERHOUT", "merk": "Stibat", "puntType": "inzamelbak", "materialen": ["batterijen"], "uitbetaling": [], "vrijToegankelijk": false, "gemeenteBeperking": null, "openingstijden": null, "latitude": 52.2614273, "longitude": 4.4955849, "bronId": "L032919"}}, {"type": "Feature", "geometry": {"type": "Point", "coordinates": [4.4949252, 52.2618205]}, "properties": {"type": "inleverpunt", "locatieNaam": "Vink Multimedia", "straatNaam": "Havenstraat", "straatNr": "9a", "postcode": "2211 EE", "plaats": "NOORDWIJKERHOUT", "merk": "Stibat", "puntType": "inzamelbak", "materialen": ["batterijen"], "uitbetaling": [], "vrijToegankelijk": false, "gemeenteBeperking": null, "openingstijden": null, "latitude": 52.2618205, "longitude": 4.4949252, "bronId": "L040729"}}, {"type": "Feature", "geometry": {"type": "Point", "coordinates": [4.4943128, 52.2618503]}, "properties": {"type": "inleverpunt", "locatieNaam": "Primera", "straatNaam": "Havenstraat", "straatNr": "34 - 36", "postcode": "2211 EH", "plaats": "NOORDWIJKERHOUT", "merk": "Stibat", "puntType": "inzamelbak", "materialen": ["batterijen"], "uitbetaling": [], "vrijToegankelijk": false, "gemeenteBeperking": null, "openingstijden": null, "latitude": 52.2618503, "longitude": 4.4943128, "bronId": "L042827"}}, {"type": "Feature", "geometry": {"type": "Point", "coordinates": [4.4941703, 52.2617111]}, "properties": {"type": "inleverpunt", "locatieNaam": "Kringloopwinkel Noordwijkerhout", "straatNaam": "Marktplein", "straatNr": "8", "postcode": "2211 EK", "plaats": "NOORDWIJKERHOUT", "merk": "Stibat", "puntType": "inzamelbak", "materialen": ["batterijen"], "uitbetaling": [], "vrijToegankelijk": false, "gemeenteBeperking": null, "openingstijden": null, "latitude": 52.2617111, "longitude": 4.4941703, "bronId": "L043939"}}, {"type": "Feature", "geometry": {"type": "Point", "coordinates": [4.4940916, 52.2621171]}, "properties": {"type": "inleverpunt", "locatieNaam": "DA", "straatNaam": "Havenstraat", "straatNr": "3", "postcode": "2211 EE", "plaats": "Noordwijkerhout", "merk": "Stibat", "puntType": "inzamelbak", "materialen": ["batterijen"], "uitbetaling": [], "vrijToegankelijk": false, "gemeenteBeperking": null, "openingstijden": null, "latitude": 52.2621171, "longitude": 4.4940916, "bronId": "L026886"}}, {"type": "Feature", "geometry": {"type": "Point", "coordinates": [4.4936386, 52.2620597]}, "properties": {"type": "inleverpunt", "locatieNaam": "Rent-a-Bike van Dam", "straatNaam": "Havenstraat", "straatNr": "22", "postcode": "2211 EH", "plaats": "NOORDWIJKERHOUT", "merk": "Stibat", "puntType": "inzamelbak", "materialen": ["batterijen"], "uitbetaling": [], "vrijToegankelijk": false, "gemeenteBeperking": null, "openingstijden": null, "latitude": 52.2620597, "longitude": 4.4936386, "bronId": "L032918"}}, {"type": "Feature", "geometry": {"type": "Point", "coordinates": [4.4939168, 52.2627989]}, "properties": {"type": "inleverpunt", "locatieNaam": "Dirk", "straatNaam": "Dorpsringweg", "straatNr": "2", "postcode": "2211 ED", "plaats": "NOORDWIJKERHOUT", "merk": "Stibat", "puntType": "inzamelbak", "materialen": ["batterijen"], "uitbetaling": [], "vrijToegankelijk": false, "gemeenteBeperking": null, "openingstijden": null, "latitude": 52.2627989, "longitude": 4.4939168, "bronId": "L011923"}}, {"type": "Feature", "geometry": {"type": "Point", "coordinates": [4.493175, 52.2632606]}, "properties": {"type": "inleverpunt", "locatieNaam": "Kruidvat", "straatNaam": "Dorpsstraat", "straatNr": "6a", "postcode": "2211 GC", "plaats": "NOORDWIJKERHOUT", "merk": "Stibat", "puntType": "inzamelbak", "materialen": ["batterijen"], "uitbetaling": [], "vrijToegankelijk": false, "gemeenteBeperking": null, "openingstijden": null, "latitude": 52.2632606, "longitude": 4.493175, "bronId": "L013992"}}, {"type": "Feature", "geometry": {"type": "Point", "coordinates": [4.4931866, 52.2634135]}, "properties": {"type": "inleverpunt", "locatieNaam": "Lidl", "straatNaam": "Dorpsstraat", "straatNr": "4", "postcode": "2211 GC", "plaats": "NOORDWIJKERHOUT", "merk": "Stibat", "puntType": "inzamelbak", "materialen": ["batterijen"], "uitbetaling": [], "vrijToegankelijk": false, "gemeenteBeperking": null, "openingstijden": null, "latitude": 52.2634135, "longitude": 4.4931866, "bronId": "L021205"}}, {"type": "Feature", "geometry": {"type": "Point", "coordinates": [4.4917397, 52.2625203]}, "properties": {"type": "inleverpunt", "locatieNaam": "HEMA Noordwijkerhout", "straatNaam": "Zeestraat", "straatNr": "5a", "postcode": "2211 XA", "plaats": "Noordwijkerhout", "merk": "Stibat", "puntType": "inzamelbak", "materialen": ["batterijen"], "uitbetaling": [], "vrijToegankelijk": false, "gemeenteBeperking": null, "openingstijden": null, "latitude": 52.2625203, "longitude": 4.4917397, "bronId": "L046961"}}, {"type": "Feature", "geometry": {"type": "Point", "coordinates": [4.4917088, 52.2624654]}, "properties": {"type": "inleverpunt", "locatieNaam": "6305 Etos", "straatNaam": "Zeestraat", "straatNr": "5B", "postcode": "2211 XA", "plaats": "NOORDWIJKERHOUT", "merk": "Stibat", "puntType": "inzamelbak", "materialen": ["batterijen"], "uitbetaling": [], "vrijToegankelijk": false, "gemeenteBeperking": null, "openingstijden": null, "latitude": 52.2624654, "longitude": 4.4917088, "bronId": "L022192"}}, {"type": "Feature", "geometry": {"type": "Point", "coordinates": [4.4913245, 52.2627703]}, "properties": {"type": "inleverpunt", "locatieNaam": "1637 Albert Heijn", "straatNaam": "Zeestraat", "straatNr": "14a", "postcode": "2211 XG", "plaats": "NOORDWIJKERHOUT", "merk": "Stibat", "puntType": "inzamelbak", "materialen": ["batterijen"], "uitbetaling": [], "vrijToegankelijk": false, "gemeenteBeperking": null, "openingstijden": null, "latitude": 52.2627703, "longitude": 4.4913245, "bronId": "L021757"}}, {"type": "Feature", "geometry": {"type": "Point", "coordinates": [4.4896706, 52.2603917]}, "properties": {"type": "inleverpunt", "locatieNaam": "Henk Zwaan Tweewielers", "straatNaam": "Dorpsstraat", "straatNr": "73-75", "postcode": "2211 GB", "plaats": "NOORDWIJKERHOUT", "merk": "Stibat", "puntType": "inzamelbak", "materialen": ["batterijen"], "uitbetaling": [], "vrijToegankelijk": false, "gemeenteBeperking": null, "openingstijden": null, "latitude": 52.2603917, "longitude": 4.4896706, "bronId": "L032920"}}, {"type": "Feature", "geometry": {"type": "Point", "coordinates": [4.4668956, 52.2291515]}, "properties": {"type": "inleverpunt", "locatieNaam": "De Bosrand Noordwijk", "straatNaam": "van Berckelweg", "straatNr": "51", "postcode": "2203 LA", "plaats": "NOORDWYK ZH", "merk": "Stibat", "puntType": "inzamelbak", "materialen": ["batterijen"], "uitbetaling": [], "vrijToegankelijk": false, "gemeenteBeperking": null, "openingstijden": null, "latitude": 52.2291515, "longitude": 4.4668956, "bronId": "L049389"}}, {"type": "Feature", "geometry": {"type": "Point", "coordinates": [4.4730194, 52.2525093]}, "properties": {"type": "inleverpunt", "locatieNaam": "NH Conference Centre Leeuwenhorst", "straatNaam": "Langelaan", "straatNr": "3", "postcode": "2211 XT", "plaats": "NOORDWIJKERHOUT", "merk": "Stibat", "puntType": "inzamelbak", "materialen": ["batterijen"], "uitbetaling": [], "vrijToegankelijk": false, "gemeenteBeperking": null, "openingstijden": null, "latitude": 52.2525093, "longitude": 4.4730194, "bronId": "L028287"}}, {"type": "Feature", "geometry": {"type": "Point", "coordinates": [4.4752625, 52.2702605]}, "properties": {"type": "inleverpunt", "locatieNaam": "Camping Club Soleil B.V.", "straatNaam": "Kraaierslaan", "straatNr": "7", "postcode": "2204 AN", "plaats": "NOORDWIJK ZH", "merk": "Stibat", "puntType": "inzamelbak", "materialen": ["batterijen"], "uitbetaling": [], "vrijToegankelijk": false, "gemeenteBeperking": null, "openingstijden": null, "latitude": 52.2702605, "longitude": 4.4752625, "bronId": "L003394"}}, {"type": "Feature", "geometry": {"type": "Point", "coordinates": [4.4635154, 52.2489389]}, "properties": {"type": "inleverpunt", "locatieNaam": "Op Hoop van Zegen", "straatNaam": "Westeinde", "straatNr": "76", "postcode": "2211 XR", "plaats": "NOORDWIJKERHOUT", "merk": "Stibat", "puntType": "inzamelbak", "materialen": ["batterijen"], "uitbetaling": [], "vrijToegankelijk": false, "gemeenteBeperking": null, "openingstijden": null, "latitude": 52.2489389, "longitude": 4.4635154, "bronId": "L003332"}}, {"type": "Feature", "geometry": {"type": "Point", "coordinates": [4.4410546, 52.208689]}, "properties": {"type": "inleverpunt", "locatieNaam": "SumioShop / Mobiele Reparateur", "straatNaam": "De Hooge Krocht", "straatNr": "42", "postcode": "2201 TX", "plaats": "NOORDWYK ZH", "merk": "Stibat", "puntType": "inzamelbak", "materialen": ["batterijen"], "uitbetaling": [], "vrijToegankelijk": false, "gemeenteBeperking": null, "openingstijden": null, "latitude": 52.208689, "longitude": 4.4410546, "bronId": "L041621"}}, {"type": "Feature", "geometry": {"type": "Point", "coordinates": [4.4513224, 52.2415783]}, "properties": {"type": "inleverpunt", "locatieNaam": "Lidl", "straatNaam": "Rederijkersplein", "straatNr": "7", "postcode": "2203 GB", "plaats": "Noordwijk", "merk": "Stibat", "puntType": "inzamelbak", "materialen": ["batterijen"], "uitbetaling": [], "vrijToegankelijk": false, "gemeenteBeperking": null, "openingstijden": null, "latitude": 52.2415783, "longitude": 4.4513224, "bronId": "L016729"}}, {"type": "Feature", "geometry": {"type": "Point", "coordinates": [4.4473188, 52.2348658]}, "properties": {"type": "inleverpunt", "locatieNaam": "Dirk", "straatNaam": "Raadhuisstraat", "straatNr": "9", "postcode": "2201 MA", "plaats": "NOORDWYK ZH", "merk": "Stibat", "puntType": "inzamelbak", "materialen": ["batterijen"], "uitbetaling": [], "vrijToegankelijk": false, "gemeenteBeperking": null, "openingstijden": null, "latitude": 52.2348658, "longitude": 4.4473188, "bronId": "L011916"}}, {"type": "Feature", "geometry": {"type": "Point", "coordinates": [4.4464813, 52.2352529]}, "properties": {"type": "inleverpunt", "locatieNaam": "Foto van Kampen", "straatNaam": "De Keuvel", "straatNr": "2", "postcode": "2201 MB", "plaats": "NOORDWYK ZH", "merk": "Stibat", "puntType": "inzamelbak", "materialen": ["batterijen"], "uitbetaling": [], "vrijToegankelijk": false, "gemeenteBeperking": null, "openingstijden": null, "latitude": 52.2352529, "longitude": 4.4464813, "bronId": "L029431"}}, {"type": "Feature", "geometry": {"type": "Point", "coordinates": [4.4461539, 52.2345771]}, "properties": {"type": "inleverpunt", "locatieNaam": "Bruna", "straatNaam": "Kerkstraat", "straatNr": "23", "postcode": "2201 KK", "plaats": "NOORDWIJK", "merk": "Stibat", "puntType": "inzamelbak", "materialen": ["batterijen"], "uitbetaling": [], "vrijToegankelijk": false, "gemeenteBeperking": null, "openingstijden": null, "latitude": 52.2345771, "longitude": 4.4461539, "bronId": "L023180"}}, {"type": "Feature", "geometry": {"type": "Point", "coordinates": [4.446351, 52.2351876]}, "properties": {"type": "inleverpunt", "locatieNaam": "1245 Action", "straatNaam": "De Keuvel", "straatNr": "6-10", "postcode": "2201 MB", "plaats": "NOORDWYK ZH", "merk": "Stibat", "puntType": "inzamelbak", "materialen": ["batterijen"], "uitbetaling": [], "vrijToegankelijk": false, "gemeenteBeperking": null, "openingstijden": null, "latitude": 52.2351876, "longitude": 4.446351, "bronId": "L030487"}}, {"type": "Feature", "geometry": {"type": "Point", "coordinates": [4.4588072, 52.2633372]}, "properties": {"type": "inleverpunt", "locatieNaam": "Bungalowpark De Gouden Spar", "straatNaam": "Duinweg", "straatNr": "102", "postcode": "2204 AW", "plaats": "NOORDWIJK ZH", "merk": "Stibat", "puntType": "inzamelbak", "materialen": ["batterijen"], "uitbetaling": [], "vrijToegankelijk": false, "gemeenteBeperking": null, "openingstijden": null, "latitude": 52.2633372, "longitude": 4.4588072, "bronId": "L005502"}}, {"type": "Feature", "geometry": {"type": "Point", "coordinates": [4.4465345, 52.2369294]}, "properties": {"type": "inleverpunt", "locatieNaam": "Hubo", "straatNaam": "Molenstraat", "straatNr": "45", "postcode": "2201 KX", "plaats": "NOORDWIJK ZH", "merk": "Stibat", "puntType": "inzamelbak", "materialen": ["batterijen"], "uitbetaling": [], "vrijToegankelijk": false, "gemeenteBeperking": null, "openingstijden": null, "latitude": 52.2369294, "longitude": 4.4465345, "bronId": "L039155"}}, {"type": "Feature", "geometry": {"type": "Point", "coordinates": [4.4456216, 52.2362838]}, "properties": {"type": "inleverpunt", "locatieNaam": "Steenvoorden Tweewielers", "straatNaam": "Molenstraat", "straatNr": "5", "postcode": "2201 KX", "plaats": "NOORDWIJK ZH", "merk": "Stibat", "puntType": "inzamelbak", "materialen": ["batterijen"], "uitbetaling": [], "vrijToegankelijk": false, "gemeenteBeperking": null, "openingstijden": null, "latitude": 52.2362838, "longitude": 4.4456216, "bronId": "L032915"}}, {"type": "Feature", "geometry": {"type": "Point", "coordinates": [4.4421085, 52.2290942]}, "properties": {"type": "inleverpunt", "locatieNaam": "De Haan", "straatNaam": "Beeklaan", "straatNr": "5", "postcode": "2201 BA", "plaats": "Noordwijk", "merk": "Stibat", "puntType": "inzamelbak", "materialen": ["batterijen"], "uitbetaling": [], "vrijToegankelijk": false, "gemeenteBeperking": null, "openingstijden": null, "latitude": 52.2290942, "longitude": 4.4421085, "bronId": "L044813"}}, {"type": "Feature", "geometry": {"type": "Point", "coordinates": [4.441019, 52.2297866]}, "properties": {"type": "inleverpunt", "locatieNaam": "1539 Albert Heijn", "straatNaam": "Bonnikeplein", "straatNr": "2", "postcode": "2201 XA", "plaats": "NOORDWIJK ZH", "merk": "Stibat", "puntType": "inzamelbak", "materialen": ["batterijen"], "uitbetaling": [], "vrijToegankelijk": false, "gemeenteBeperking": null, "openingstijden": null, "latitude": 52.2297866, "longitude": 4.441019, "bronId": "L005818"}}, {"type": "Feature", "geometry": {"type": "Point", "coordinates": [4.4416594, 52.233405]}, "properties": {"type": "inleverpunt", "locatieNaam": "Theo's Tweewielershop", "straatNaam": "Losplaatsweg", "straatNr": "6", "postcode": "2201 CV", "plaats": "NOORDWIJK ZH", "merk": "Stibat", "puntType": "inzamelbak", "materialen": ["batterijen"], "uitbetaling": [], "vrijToegankelijk": false, "gemeenteBeperking": null, "openingstijden": null, "latitude": 52.233405, "longitude": 4.4416594, "bronId": "L032914"}}, {"type": "Feature", "geometry": {"type": "Point", "coordinates": [4.4339829, 52.2157599]}, "properties": {"type": "inleverpunt", "locatieNaam": "Praxis 2432", "straatNaam": "Keyserswey", "straatNr": "34", "postcode": "2201 CW", "plaats": "NOORDWIJK ZH", "merk": "Stibat", "puntType": "inzamelbak", "materialen": ["batterijen"], "uitbetaling": [], "vrijToegankelijk": false, "gemeenteBeperking": null, "openingstijden": null, "latitude": 52.2157599, "longitude": 4.4339829, "bronId": "L034443"}}, {"type": "Feature", "geometry": {"type": "Point", "coordinates": [4.4288831, 52.221872]}, "properties": {"type": "inleverpunt", "locatieNaam": "Spar Noordwijk", "straatNaam": "Wintertuinlaan", "straatNr": "6", "postcode": "2201 ZS", "plaats": "NOORDWIJK ZH", "merk": "Stibat", "puntType": "inzamelbak", "materialen": ["batterijen"], "uitbetaling": [], "vrijToegankelijk": false, "gemeenteBeperking": null, "openingstijden": null, "latitude": 52.221872, "longitude": 4.4288831, "bronId": "L036100"}}, {"type": "Feature", "geometry": {"type": "Point", "coordinates": [4.4372708, 52.2446427]}, "properties": {"type": "inleverpunt", "locatieNaam": "Joop Faase bv", "straatNaam": "Prins Bernhardstraat", "straatNr": "90", "postcode": "2202 LR", "plaats": "NOORDWIJK ZH", "merk": "Stibat", "puntType": "inzamelbak", "materialen": ["batterijen"], "uitbetaling": [], "vrijToegankelijk": false, "gemeenteBeperking": null, "openingstijden": null, "latitude": 52.2446427, "longitude": 4.4372708, "bronId": "L027935"}}, {"type": "Feature", "geometry": {"type": "Point", "coordinates": [4.4355401, 52.2430003]}, "properties": {"type": "inleverpunt", "locatieNaam": "Zeeman", "straatNaam": "Hoofdstraat", "straatNr": "20 b", "postcode": "2202 GD", "plaats": "Noordwijk", "merk": "Stibat", "puntType": "inzamelbak", "materialen": ["batterijen"], "uitbetaling": [], "vrijToegankelijk": false, "gemeenteBeperking": null, "openingstijden": null, "latitude": 52.2430003, "longitude": 4.4355401, "bronId": "L020340"}}, {"type": "Feature", "geometry": {"type": "Point", "coordinates": [4.4337358, 52.243249]}, "properties": {"type": "inleverpunt", "locatieNaam": "HEMA Hoofdstraat", "straatNaam": "Hoofdstraat", "straatNr": "41", "postcode": "2202 ET", "plaats": "NOORDWIJK ZH", "merk": "Stibat", "puntType": "inzamelbak", "materialen": ["batterijen"], "uitbetaling": [], "vrijToegankelijk": false, "gemeenteBeperking": null, "openingstijden": null, "latitude": 52.243249, "longitude": 4.4337358, "bronId": "L006476"}}, {"type": "Feature", "geometry": {"type": "Point", "coordinates": [4.4332479, 52.2434539]}, "properties": {"type": "inleverpunt", "locatieNaam": "Kees Fietsshop", "straatNaam": "Van Speijkstraat", "straatNr": "4", "postcode": "2202 GK", "plaats": "NOORDWYK ZH", "merk": "Stibat", "puntType": "inzamelbak", "materialen": ["batterijen"], "uitbetaling": [], "vrijToegankelijk": false, "gemeenteBeperking": null, "openingstijden": null, "latitude": 52.2434539, "longitude": 4.4332479, "bronId": "L032916"}}, {"type": "Feature", "geometry": {"type": "Point", "coordinates": [4.4326042, 52.2437568]}, "properties": {"type": "inleverpunt", "locatieNaam": "Vomar", "straatNaam": "Bomstraat", "straatNr": "19", "postcode": "2202 GH", "plaats": "NOORDWIJK ZH", "merk": "Stibat", "puntType": "inzamelbak", "materialen": ["batterijen"], "uitbetaling": [], "vrijToegankelijk": false, "gemeenteBeperking": null, "openingstijden": null, "latitude": 52.2437568, "longitude": 4.4326042, "bronId": "L006528"}}, {"type": "Feature", "geometry": {"type": "Point", "coordinates": [4.4318465, 52.2431773]}, "properties": {"type": "inleverpunt", "locatieNaam": "Kruidvat", "straatNaam": "Hoofdstraat", "straatNr": "60", "postcode": "2202 GB", "plaats": "NOORDWIJK", "merk": "Stibat", "puntType": "inzamelbak", "materialen": ["batterijen"], "uitbetaling": [], "vrijToegankelijk": false, "gemeenteBeperking": null, "openingstijden": null, "latitude": 52.2431773, "longitude": 4.4318465, "bronId": "L016386"}}, {"type": "Feature", "geometry": {"type": "Point", "coordinates": [4.4312573, 52.2429933]}, "properties": {"type": "inleverpunt", "locatieNaam": "Welcom Noordwijk/Repair-Clinic", "straatNaam": "Maarten Kruytstraat", "straatNr": "30", "postcode": "2202 GX", "plaats": "NOORDWIJK ZH", "merk": "Stibat", "puntType": "inzamelbak", "materialen": ["batterijen"], "uitbetaling": [], "vrijToegankelijk": false, "gemeenteBeperking": null, "openingstijden": null, "latitude": 52.2429933, "longitude": 4.4312573, "bronId": "L040967"}}, {"type": "Feature", "geometry": {"type": "Point", "coordinates": [4.4312305, 52.2432262]}, "properties": {"type": "inleverpunt", "locatieNaam": "7716 Etos", "straatNaam": "Hoofdstraat", "straatNr": "72", "postcode": "2202 GA", "plaats": "NOORDWIJK", "merk": "Stibat", "puntType": "inzamelbak", "materialen": ["batterijen"], "uitbetaling": [], "vrijToegankelijk": false, "gemeenteBeperking": null, "openingstijden": null, "latitude": 52.2432262, "longitude": 4.4312305, "bronId": "L023030"}}, {"type": "Feature", "geometry": {"type": "Point", "coordinates": [4.4312561, 52.2433972]}, "properties": {"type": "inleverpunt", "locatieNaam": "Bruna", "straatNaam": "Hoofdstraat", "straatNr": "99", "postcode": "2202 EW", "plaats": "NOORDWIJK", "merk": "Stibat", "puntType": "inzamelbak", "materialen": ["batterijen"], "uitbetaling": [], "vrijToegankelijk": false, "gemeenteBeperking": null, "openingstijden": null, "latitude": 52.2433972, "longitude": 4.4312561, "bronId": "L022408"}}, {"type": "Feature", "geometry": {"type": "Point", "coordinates": [4.4305673, 52.2432996]}, "properties": {"type": "inleverpunt", "locatieNaam": "Xenos", "straatNaam": "Hoofdstraat", "straatNr": "94", "postcode": "2202 GA", "plaats": "NOORDWIJK ZH", "merk": "Stibat", "puntType": "inzamelbak", "materialen": ["batterijen"], "uitbetaling": [], "vrijToegankelijk": false, "gemeenteBeperking": null, "openingstijden": null, "latitude": 52.2432996, "longitude": 4.4305673, "bronId": "L037021"}}, {"type": "Feature", "geometry": {"type": "Point", "coordinates": [4.4296207, 52.2431862]}, "properties": {"type": "inleverpunt", "locatieNaam": "Intertoys", "straatNaam": "Palaceplein", "straatNr": "11", "postcode": "2202 ER", "plaats": "NOORDWIJK ZH", "merk": "Stibat", "puntType": "inzamelbak", "materialen": ["batterijen"], "uitbetaling": [], "vrijToegankelijk": false, "gemeenteBeperking": null, "openingstijden": null, "latitude": 52.2431862, "longitude": 4.4296207, "bronId": "L005806"}}, {"type": "Feature", "geometry": {"type": "Point", "coordinates": [4.4278859, 52.2414137]}, "properties": {"type": "inleverpunt", "locatieNaam": "Grand Hotel Huis ter Duin", "straatNaam": "Koningin Astrid Boulevard", "straatNr": "5", "postcode": "2202 BK", "plaats": "NOORDWIJK ZH", "merk": "Stibat", "puntType": "inzamelbak", "materialen": ["batterijen"], "uitbetaling": [], "vrijToegankelijk": false, "gemeenteBeperking": null, "openingstijden": null, "latitude": 52.2414137, "longitude": 4.4278859, "bronId": "L028205"}}, {"type": "Feature", "geometry": {"type": "Polygon", "coordinates": [[[4.440265000769317, 52.20749600404213], [4.441653000770761, 52.208503004042754], [4.444452000773618, 52.20951000404338], [4.4483780007777085, 52.21251700404524], [4.450377000779664, 52.211721004044776], [4.451273000780558, 52.21167900404475], [4.452041000781369, 52.21243600404521], [4.456116000785537, 52.21411300404623], [4.459617000789096, 52.21516600404695], [4.464082000793607, 52.21596400404742], [4.465932000795509, 52.21691900404801], [4.464929000794545, 52.21763300404845], [4.46611400079575, 52.21802500404873], [4.466341000795966, 52.21781700404858], [4.4701690007998955, 52.21965100404972], [4.4703580008000925, 52.21981300404983], [4.469107000798883, 52.220546004050256], [4.470704000800547, 52.22176300405098], [4.466985000796933, 52.22378600405219], [4.467156000797123, 52.22406600405234], [4.46606600079608, 52.22500300405293], [4.466213000796243, 52.22522900405305], [4.46894400079905, 52.226685004053955], [4.502990000834337, 52.249582004067996], [4.513523000845165, 52.25500600407129], [4.520780000852717, 52.26055000407469], [4.532872000865479, 52.273096004082284], [4.530178000862843, 52.27414700408285], [4.535460000868389, 52.27915000408588], [4.535990000868866, 52.278156004085304], [4.536443000869331, 52.27835900408543], [4.536634000869586, 52.27954600408618], [4.541128000874354, 52.28474600408929], [4.542550000875878, 52.28664400409043], [4.542319000875687, 52.28737800409087], [4.545165000878707, 52.290733004092885], [4.548733000882394, 52.292949004094226], [4.5496200008834, 52.29520500409557], [4.554460000888459, 52.299412004098116], [4.555376000889363, 52.29914400409794], [4.563707000898227, 52.30929800410405], [4.5473220008821045, 52.31399700410677], [4.477649000813525, 52.332511004117364], [4.46333400079814, 52.31258100410541], [4.436154000769037, 52.27717700408407], [4.420524000752363, 52.258085004072505], [4.390976000721002, 52.22524400405247], [4.419446000748869, 52.21433900404613], [4.4216300007510805, 52.214816004046426], [4.422547000751976, 52.2144460040462], [4.423249000752732, 52.21540500404679], [4.425696000755226, 52.21628900404733], [4.429422000758732, 52.21226400404494], [4.433277000762656, 52.213504004045724], [4.4354640007646875, 52.21060300404397], [4.437138000766391, 52.21119900404435], [4.43793200076706, 52.20885800404293], [4.438749000767834, 52.20809800404247], [4.440265000769317, 52.20749600404213]]]}, "properties": {"type": "boundary", "gemeente": "Noordwijk"}}]}