{"type": "FeatureCollection", "metadata": {"gemeente": "Oirschot", "slug": "oirschot", "generated_at": "2026-07-28T09:25:50.134599Z", "total_points": 34, "merken": ["StatiegeldNederland", "Stibat", "StichtingOPEN"], "bounds": [5.2497484, 51.4494564, 5.3632852, 51.5179546]}, "features": [{"type": "Feature", "geometry": {"type": "Point", "coordinates": [5.3131, 51.5048232]}, "properties": {"type": "inleverpunt", "locatieNaam": "Albert Heijn", "straatNaam": "De Loop", "straatNr": "55", "postcode": "5688 EW", "plaats": "Oirschot", "merk": "StatiegeldNederland", "puntType": "automaat", "materialen": ["pet-groot", "pet-klein", "blik", "glas", "krat"], "uitbetaling": ["bonnetje", "donatie"], "vrijToegankelijk": true, "gemeenteBeperking": null, "openingstijden": {"ma": "08:00–21:00", "di": "08:00–21:00", "wo": "08:00–21:00", "do": "08:00–21:00", "vr": "08:00–21:00", "za": "08:00–21:00", "zo": "08:00–21:00"}, "latitude": 51.5048232, "longitude": 5.3131, "bronId": "252131"}}, {"type": "Feature", "geometry": {"type": "Point", "coordinates": [5.250701, 51.468029]}, "properties": {"type": "inleverpunt", "locatieNaam": "Jumbo", "straatNaam": "‘t Ven", "straatNr": "1A", "postcode": "5091 CB", "plaats": "Middelbeers", "merk": "StatiegeldNederland", "puntType": "automaat", "materialen": ["pet-groot", "pet-klein", "blik", "glas", "krat"], "uitbetaling": ["bonnetje"], "vrijToegankelijk": true, "gemeenteBeperking": null, "openingstijden": {"ma": "08:00–20:00", "di": "08:00–20:00", "wo": "08:00–20:00", "do": "08:00–20:00", "vr": "08:00–20:00", "za": "08:00–20:00", "zo": "10:00–17:00"}, "latitude": 51.468029, "longitude": 5.250701, "bronId": "255199"}}, {"type": "Feature", "geometry": {"type": "Point", "coordinates": [5.31341, 51.504259]}, "properties": {"type": "inleverpunt", "locatieNaam": "Jumbo", "straatNaam": "De Loop", "straatNr": "28", "postcode": "3688 PW", "plaats": "Oirschot", "merk": "StatiegeldNederland", "puntType": "automaat", "materialen": ["pet-groot", "pet-klein", "blik", "glas", "krat"], "uitbetaling": ["bonnetje", "donatie"], "vrijToegankelijk": true, "gemeenteBeperking": null, "openingstijden": {"ma": "08:00–21:00", "di": "08:00–21:00", "wo": "08:00–21:00", "do": "08:00–21:00", "vr": "08:00–21:00", "za": "08:00–21:00", "zo": "08:00–21:00"}, "latitude": 51.504259, "longitude": 5.31341, "bronId": "255296"}}, {"type": "Feature", "geometry": {"type": "Point", "coordinates": [5.31439, 51.50341]}, "properties": {"type": "inleverpunt", "locatieNaam": "Lidl", "straatNaam": "Rijkesluisstraat", "straatNr": "67", "postcode": "5688 EL", "plaats": "Oirschot", "merk": "StatiegeldNederland", "puntType": "automaat", "materialen": ["pet-groot", "pet-klein", "blik", "glas", "krat"], "uitbetaling": ["bonnetje", "donatie"], "vrijToegankelijk": true, "gemeenteBeperking": null, "openingstijden": {"ma": "08:00–20:00", "di": "08:00–20:00", "wo": "08:00–20:00", "do": "08:00–20:00", "vr": "08:00–20:00", "za": "08:00–20:00", "zo": "09:00–18:00"}, "latitude": 51.50341, "longitude": 5.31439, "bronId": "256360"}}, {"type": "Feature", "geometry": {"type": "Point", "coordinates": [5.322323, 51.50369]}, "properties": {"type": "inleverpunt", "locatieNaam": "Shell", "straatNaam": "Rijksweg A58/E312 ZZ", "straatNr": "", "postcode": "5688 PZ", "plaats": "Oirschot", "merk": "StatiegeldNederland", "puntType": "balie", "materialen": ["pet-groot", "pet-klein", "blik"], "uitbetaling": [], "vrijToegankelijk": true, "gemeenteBeperking": null, "openingstijden": {"ma": "24 uur geopend", "di": "24 uur geopend", "wo": "24 uur geopend", "do": "24 uur geopend", "vr": "24 uur geopend", "za": "24 uur geopend", "zo": "24 uur geopend"}, "latitude": 51.50369, "longitude": 5.322323, "bronId": "258204"}}, {"type": "Feature", "geometry": {"type": "Point", "coordinates": [5.3632852, 51.4915727]}, "properties": {"type": "inleverpunt", "locatieNaam": "Spar Express", "straatNaam": "RIJKSWEG A58 NR.", "straatNr": "1A", "postcode": "5688 PZ", "plaats": "Oirschot", "merk": "StatiegeldNederland", "puntType": "balie", "materialen": ["pet-groot", "pet-klein", "blik"], "uitbetaling": [], "vrijToegankelijk": true, "gemeenteBeperking": null, "openingstijden": {"ma": "24 uur geopend", "di": "24 uur geopend", "wo": "24 uur geopend", "do": "24 uur geopend", "vr": "24 uur geopend", "za": "24 uur geopend", "zo": "24 uur geopend"}, "latitude": 51.4915727, "longitude": 5.3632852, "bronId": "258594"}}, {"type": "Feature", "geometry": {"type": "Point", "coordinates": [5.31314, 51.504787]}, "properties": {"type": "inleverpunt", "locatieNaam": "1862 Albert Heijn Oirschot", "straatNaam": "de Loop", "straatNr": "55", "postcode": "5688 EW", "plaats": "Oirschot", "merk": "StichtingOPEN", "puntType": "balie", "materialen": ["batterijen", "elektro-klein", "lampen"], "uitbetaling": [], "vrijToegankelijk": false, "gemeenteBeperking": null, "openingstijden": null, "latitude": 51.504787, "longitude": 5.31314, "bronId": "SP00022580"}}, {"type": "Feature", "geometry": {"type": "Point", "coordinates": [5.342637, 51.505289]}, "properties": {"type": "inleverpunt", "locatieNaam": "Coppelmans Oirschot", "straatNaam": "Bestseweg", "straatNr": "53", "postcode": "5688 NP", "plaats": "Oirschot", "merk": "StichtingOPEN", "puntType": "balie", "materialen": ["elektro-middel", "lampen"], "uitbetaling": [], "vrijToegankelijk": false, "gemeenteBeperking": null, "openingstijden": null, "latitude": 51.505289, "longitude": 5.342637, "bronId": "SP00006381"}}, {"type": "Feature", "geometry": {"type": "Point", "coordinates": [5.313163, 51.504573]}, "properties": {"type": "inleverpunt", "locatieNaam": "Kruidvat Oirschot", "straatNaam": "de Loop", "straatNr": "51", "postcode": "5688 EW", "plaats": "Oirschot", "merk": "StichtingOPEN", "puntType": "balie", "materialen": ["batterijen", "lampen"], "uitbetaling": [], "vrijToegankelijk": false, "gemeenteBeperking": null, "openingstijden": null, "latitude": 51.504573, "longitude": 5.313163, "bronId": "SP00029542"}}, {"type": "Feature", "geometry": {"type": "Point", "coordinates": [5.313271, 51.503953]}, "properties": {"type": "inleverpunt", "locatieNaam": "Jumbo Oirschot", "straatNaam": "de Loop", "straatNr": "28", "postcode": "5688 EW", "plaats": "Oirschot", "merk": "StichtingOPEN", "puntType": "balie", "materialen": ["batterijen", "lampen"], "uitbetaling": [], "vrijToegankelijk": false, "gemeenteBeperking": null, "openingstijden": null, "latitude": 51.503953, "longitude": 5.313271, "bronId": "SP00025011"}}, {"type": "Feature", "geometry": {"type": "Point", "coordinates": [5.320166, 51.50224]}, "properties": {"type": "inleverpunt", "locatieNaam": "66230 Hubo Oirschot", "straatNaam": "Haven", "straatNr": "5", "postcode": "5688 DR", "plaats": "Oirschot", "merk": "StichtingOPEN", "puntType": "balie", "materialen": ["elektro-middel", "lampen", "tl-buizen"], "uitbetaling": [], "vrijToegankelijk": false, "gemeenteBeperking": null, "openingstijden": null, "latitude": 51.50224, "longitude": 5.320166, "bronId": "SP00003500"}}, {"type": "Feature", "geometry": {"type": "Point", "coordinates": [5.310193, 51.501353]}, "properties": {"type": "inleverpunt", "locatieNaam": "Action Oirschot 1202", "straatNaam": "Standaardplein", "straatNr": "2", "postcode": "5688 BK", "plaats": "Oirschot", "merk": "StichtingOPEN", "puntType": "balie", "materialen": ["batterijen", "lampen"], "uitbetaling": [], "vrijToegankelijk": false, "gemeenteBeperking": null, "openingstijden": null, "latitude": 51.501353, "longitude": 5.310193, "bronId": "SP00007780"}}, {"type": "Feature", "geometry": {"type": "Point", "coordinates": [5.25043, 51.468484]}, "properties": {"type": "inleverpunt", "locatieNaam": "Jumbo Oost West en Middelbeers", "straatNaam": "\"t Ven", "straatNr": "1", "postcode": "5091 BN", "plaats": "Oost West en Middelbeers", "merk": "StichtingOPEN", "puntType": "balie", "materialen": ["batterijen", "lampen"], "uitbetaling": [], "vrijToegankelijk": false, "gemeenteBeperking": null, "openingstijden": null, "latitude": 51.468484, "longitude": 5.25043, "bronId": "SP00024999"}}, {"type": "Feature", "geometry": {"type": "Point", "coordinates": [5.250441, 51.468462]}, "properties": {"type": "inleverpunt", "locatieNaam": "Welkoop Middelbeers", "straatNaam": "'t Ven", "straatNr": "1", "postcode": "5091 BN", "plaats": "Oost West en Middelbeers", "merk": "StichtingOPEN", "puntType": "balie", "materialen": ["lampen"], "uitbetaling": [], "vrijToegankelijk": false, "gemeenteBeperking": null, "openingstijden": null, "latitude": 51.468462, "longitude": 5.250441, "bronId": "SP00021803"}}, {"type": "Feature", "geometry": {"type": "Point", "coordinates": [5.303224, 51.492396]}, "properties": {"type": "inleverpunt", "locatieNaam": "Milieustraat oirschot", "straatNaam": "Herder Pasmansdreef", "straatNr": "12", "postcode": "5688 HW", "plaats": "Oirschot", "merk": "StichtingOPEN", "puntType": "milieustraat", "materialen": ["batterijen", "elektro-groot", "elektro-klein", "elektro-middel", "lampen", "tl-buizen"], "uitbetaling": [], "vrijToegankelijk": false, "gemeenteBeperking": ["Oirschot"], "openingstijden": null, "latitude": 51.492396, "longitude": 5.303224, "bronId": "SP00020066"}}, {"type": "Feature", "geometry": {"type": "Point", "coordinates": [5.2730722, 51.5179546]}, "properties": {"type": "inleverpunt", "locatieNaam": "OVERDIJK TWEEWIELERS", "straatNaam": "Spoordonkseweg", "straatNr": "91", "postcode": "5688 KC", "plaats": "OIRSCHOT", "merk": "Stibat", "puntType": "inzamelbak", "materialen": ["batterijen"], "uitbetaling": [], "vrijToegankelijk": false, "gemeenteBeperking": null, "openingstijden": null, "latitude": 51.5179546, "longitude": 5.2730722, "bronId": "L033611"}}, {"type": "Feature", "geometry": {"type": "Point", "coordinates": [5.3016825, 51.5085926]}, "properties": {"type": "inleverpunt", "locatieNaam": "Kroes", "straatNaam": "Spoordonkseweg", "straatNr": "28B", "postcode": "5688 KD", "plaats": "OIRSCHOT", "merk": "Stibat", "puntType": "inzamelbak", "materialen": ["batterijen"], "uitbetaling": [], "vrijToegankelijk": false, "gemeenteBeperking": null, "openingstijden": null, "latitude": 51.5085926, "longitude": 5.3016825, "bronId": "L033612"}}, {"type": "Feature", "geometry": {"type": "Point", "coordinates": [5.313143, 51.5047898]}, "properties": {"type": "inleverpunt", "locatieNaam": "1862 Albert Heijn", "straatNaam": "de Loop", "straatNr": "55", "postcode": "5688 EW", "plaats": "OIRSCHOT", "merk": "Stibat", "puntType": "inzamelbak", "materialen": ["batterijen"], "uitbetaling": [], "vrijToegankelijk": false, "gemeenteBeperking": null, "openingstijden": null, "latitude": 51.5047898, "longitude": 5.313143, "bronId": "L031753"}}, {"type": "Feature", "geometry": {"type": "Point", "coordinates": [5.3426373, 51.5052896]}, "properties": {"type": "inleverpunt", "locatieNaam": "Tuincentrum Coppelmans", "straatNaam": "Bestseweg", "straatNr": "53", "postcode": "5688 NP", "plaats": "OIRSCHOT", "merk": "Stibat", "puntType": "inzamelbak", "materialen": ["batterijen"], "uitbetaling": [], "vrijToegankelijk": false, "gemeenteBeperking": null, "openingstijden": null, "latitude": 51.5052896, "longitude": 5.3426373, "bronId": "L036515"}}, {"type": "Feature", "geometry": {"type": "Point", "coordinates": [5.3131658, 51.5045758]}, "properties": {"type": "inleverpunt", "locatieNaam": "Kruidvat", "straatNaam": "De Loop", "straatNr": "51", "postcode": "5688 EW", "plaats": "OIRSCHOT", "merk": "Stibat", "puntType": "inzamelbak", "materialen": ["batterijen"], "uitbetaling": [], "vrijToegankelijk": false, "gemeenteBeperking": null, "openingstijden": null, "latitude": 51.5045758, "longitude": 5.3131658, "bronId": "L014963"}}, {"type": "Feature", "geometry": {"type": "Point", "coordinates": [5.3134127, 51.504262]}, "properties": {"type": "inleverpunt", "locatieNaam": "Jumbo", "straatNaam": "de Loop", "straatNr": "28", "postcode": "5688 EW", "plaats": "OIRSCHOT", "merk": "Stibat", "puntType": "inzamelbak", "materialen": ["batterijen"], "uitbetaling": [], "vrijToegankelijk": false, "gemeenteBeperking": null, "openingstijden": null, "latitude": 51.504262, "longitude": 5.3134127, "bronId": "L023646"}}, {"type": "Feature", "geometry": {"type": "Point", "coordinates": [5.3108436, 51.5033942]}, "properties": {"type": "inleverpunt", "locatieNaam": "HEMA Oirschot", "straatNaam": "Rijkesluisstraat", "straatNr": "25", "postcode": "5688 EC", "plaats": "Oirschot", "merk": "Stibat", "puntType": "inzamelbak", "materialen": ["batterijen"], "uitbetaling": [], "vrijToegankelijk": false, "gemeenteBeperking": null, "openingstijden": null, "latitude": 51.5033942, "longitude": 5.3108436, "bronId": "L046995"}}, {"type": "Feature", "geometry": {"type": "Point", "coordinates": [5.3141974, 51.5033968]}, "properties": {"type": "inleverpunt", "locatieNaam": "Lidl", "straatNaam": "Rijkesluisstraat", "straatNr": "67", "postcode": "5688 EC", "plaats": "OIRSCHOT", "merk": "Stibat", "puntType": "inzamelbak", "materialen": ["batterijen"], "uitbetaling": [], "vrijToegankelijk": false, "gemeenteBeperking": null, "openingstijden": null, "latitude": 51.5033968, "longitude": 5.3141974, "bronId": "L018133"}}, {"type": "Feature", "geometry": {"type": "Point", "coordinates": [5.3230527, 51.502557]}, "properties": {"type": "inleverpunt", "locatieNaam": "Mastermate", "straatNaam": "Industrieweg", "straatNr": "7", "postcode": "5688 DP", "plaats": "OIRSCHOT", "merk": "Stibat", "puntType": "inzamelbak", "materialen": ["batterijen"], "uitbetaling": [], "vrijToegankelijk": false, "gemeenteBeperking": null, "openingstijden": null, "latitude": 51.502557, "longitude": 5.3230527, "bronId": "L038742"}}, {"type": "Feature", "geometry": {"type": "Point", "coordinates": [5.3201664, 51.5022408]}, "properties": {"type": "inleverpunt", "locatieNaam": "Hubo", "straatNaam": "Haven", "straatNr": "5", "postcode": "5688 DR", "plaats": "OIRSCHOT", "merk": "Stibat", "puntType": "inzamelbak", "materialen": ["batterijen"], "uitbetaling": [], "vrijToegankelijk": false, "gemeenteBeperking": null, "openingstijden": null, "latitude": 51.5022408, "longitude": 5.3201664, "bronId": "L041683"}}, {"type": "Feature", "geometry": {"type": "Point", "coordinates": [5.310029, 51.5014329]}, "properties": {"type": "inleverpunt", "locatieNaam": "1202 Action", "straatNaam": "Standaardplein", "straatNr": "2", "postcode": "5688 BK", "plaats": "OIRSCHOT", "merk": "Stibat", "puntType": "inzamelbak", "materialen": ["batterijen"], "uitbetaling": [], "vrijToegankelijk": false, "gemeenteBeperking": null, "openingstijden": null, "latitude": 51.5014329, "longitude": 5.310029, "bronId": "L027700"}}, {"type": "Feature", "geometry": {"type": "Point", "coordinates": [5.2894217, 51.5003397]}, "properties": {"type": "inleverpunt", "locatieNaam": "Stabu BV", "straatNaam": "Kanaaldijk-Noord", "straatNr": "3", "postcode": "5688 HR", "plaats": "OIRSCHOT", "merk": "Stibat", "puntType": "inzamelbak", "materialen": ["batterijen"], "uitbetaling": [], "vrijToegankelijk": false, "gemeenteBeperking": null, "openingstijden": null, "latitude": 51.5003397, "longitude": 5.2894217, "bronId": "L042839"}}, {"type": "Feature", "geometry": {"type": "Point", "coordinates": [5.3199328, 51.4964047]}, "properties": {"type": "inleverpunt", "locatieNaam": "Camping Latour", "straatNaam": "Bloemendaal", "straatNr": "7", "postcode": "5688 GP", "plaats": "OIRSCHOT", "merk": "Stibat", "puntType": "inzamelbak", "materialen": ["batterijen"], "uitbetaling": [], "vrijToegankelijk": false, "gemeenteBeperking": null, "openingstijden": null, "latitude": 51.4964047, "longitude": 5.3199328, "bronId": "L003691"}}, {"type": "Feature", "geometry": {"type": "Point", "coordinates": [5.3032404, 51.492394]}, "properties": {"type": "inleverpunt", "locatieNaam": "Milieustraat Oirschot", "straatNaam": "Herder Pasmansdreef", "straatNr": "12", "postcode": "5688 HW", "plaats": "OIRSCHOT", "merk": "Stibat", "puntType": "inzamelbak", "materialen": ["batterijen"], "uitbetaling": [], "vrijToegankelijk": false, "gemeenteBeperking": null, "openingstijden": null, "latitude": 51.492394, "longitude": 5.3032404, "bronId": "L035778"}}, {"type": "Feature", "geometry": {"type": "Point", "coordinates": [5.3628885, 51.4917616]}, "properties": {"type": "inleverpunt", "locatieNaam": "Esso", "straatNaam": "Rijksweg A58", "straatNr": "1a", "postcode": "5688 PZ", "plaats": "OIRSCHOT", "merk": "Stibat", "puntType": "inzamelbak", "materialen": ["batterijen"], "uitbetaling": [], "vrijToegankelijk": false, "gemeenteBeperking": null, "openingstijden": null, "latitude": 51.4917616, "longitude": 5.3628885, "bronId": "L026130"}}, {"type": "Feature", "geometry": {"type": "Point", "coordinates": [5.2507407, 51.4680144]}, "properties": {"type": "inleverpunt", "locatieNaam": "Jumbo", "straatNaam": "Het Ven", "straatNr": "1", "postcode": "5091 BN", "plaats": "OOST WEST EN MIDDELBEERS", "merk": "Stibat", "puntType": "inzamelbak", "materialen": ["batterijen"], "uitbetaling": [], "vrijToegankelijk": false, "gemeenteBeperking": null, "openingstijden": null, "latitude": 51.4680144, "longitude": 5.2507407, "bronId": "L035436"}}, {"type": "Feature", "geometry": {"type": "Point", "coordinates": [5.2497484, 51.4677616]}, "properties": {"type": "inleverpunt", "locatieNaam": "Louwers Fietsen", "straatNaam": "Doornboomstraat", "straatNr": "17", "postcode": "5091 CA", "plaats": "OOST WEST EN MIDDELBEERS", "merk": "Stibat", "puntType": "inzamelbak", "materialen": ["batterijen"], "uitbetaling": [], "vrijToegankelijk": false, "gemeenteBeperking": null, "openingstijden": null, "latitude": 51.4677616, "longitude": 5.2497484, "bronId": "L033477"}}, {"type": "Feature", "geometry": {"type": "Point", "coordinates": [5.2497663, 51.4658166]}, "properties": {"type": "inleverpunt", "locatieNaam": "Drogisterij Jasmijn &amp; Sweet Home", "straatNaam": "Doornboomstraat", "straatNr": "1", "postcode": "5091 CA", "plaats": "OOST WEST EN MIDDELBEERS", "merk": "Stibat", "puntType": "inzamelbak", "materialen": ["batterijen"], "uitbetaling": [], "vrijToegankelijk": false, "gemeenteBeperking": null, "openingstijden": null, "latitude": 51.4658166, "longitude": 5.2497663, "bronId": "L025485"}}, {"type": "Feature", "geometry": {"type": "Point", "coordinates": [5.2614497, 51.4494564]}, "properties": {"type": "inleverpunt", "locatieNaam": "De Kempenzoom BV", "straatNaam": "Kuikseindseweg", "straatNr": "31", "postcode": "5091 TC", "plaats": "OOST WEST EN MIDDELBEERS", "merk": "Stibat", "puntType": "inzamelbak", "materialen": ["batterijen"], "uitbetaling": [], "vrijToegankelijk": false, "gemeenteBeperking": null, "openingstijden": null, "latitude": 51.4494564, "longitude": 5.2614497, "bronId": "L003311"}}, {"type": "Feature", "geometry": {"type": "Polygon", "coordinates": [[[5.22988200152765, 51.425898003541036], [5.237705001535681, 51.42855900354276], [5.237598001535659, 51.430714003544196], [5.23917100153726, 51.4309600035443], [5.2390620015372615, 51.43367000354616], [5.2524520015509895, 51.437905003548856], [5.248820001547524, 51.44308200355237], [5.248396001547197, 51.445631003554084], [5.258874001557863, 51.44712500355498], [5.2604430015595, 51.4482350035557], [5.265090001564232, 51.44899700355615], [5.270915001570138, 51.44929400355629], [5.2710200015702355, 51.449033003556124], [5.279253001578615, 51.45021900355684], [5.285018001584609, 51.454112003559416], [5.294498001594248, 51.45528300356005], [5.297293001596991, 51.453089003558574], [5.298068001597838, 51.45462600355958], [5.303178001603167, 51.45858500356221], [5.303097001603108, 51.459149003562544], [5.314252001614459, 51.46078100356351], [5.31507800161532, 51.46137200356388], [5.318804001619094, 51.46148100356392], [5.320424001620711, 51.46086800356347], [5.32420500162461, 51.46272300356471], [5.325896001626326, 51.46287700356478], [5.325840001626307, 51.46379200356539], [5.3267980016272745, 51.46375900356537], [5.3280420016285515, 51.46422600356564], [5.330017001630544, 51.46407500356556], [5.331598001632095, 51.46283200356465], [5.334599001635136, 51.462935003564695], [5.332627001633238, 51.46542200356642], [5.334728001635383, 51.465875003566694], [5.33451500163523, 51.46748000356773], [5.333816001634567, 51.46853700356848], [5.356002001656768, 51.46231500356398], [5.358389001659366, 51.46701500356714], [5.379151001680249, 51.46384200356474], [5.384357001685657, 51.46750800356713], [5.3855120016868465, 51.46791900356741], [5.387542001688905, 51.46811800356751], [5.3871080016885085, 51.46920200356822], [5.387520001688943, 51.469641003568505], [5.388826001690277, 51.47001400356874], [5.389647001691132, 51.47063400356913], [5.390658001692153, 51.470609003569095], [5.391187001692735, 51.471756003569865], [5.390922001692719, 51.47823000357419], [5.390214001691995, 51.47803900357408], [5.3908420016926435, 51.47833700357429], [5.390519001692579, 51.485154003578835], [5.391042001693105, 51.485037003578725], [5.3910170016931, 51.48555500357907], [5.390034001692116, 51.48581400357927], [5.3899070016920545, 51.48756100358047], [5.387536001689646, 51.487317003580316], [5.386610001688681, 51.48661400357985], [5.385344001687408, 51.48680400358001], [5.366775001668788, 51.49084200358295], [5.364611001666622, 51.49144700358337], [5.3627010016647345, 51.492567003584135], [5.361296001663328, 51.492880003584375], [5.355887001657981, 51.49610700358664], [5.354693001656883, 51.49881000358843], [5.355182001657389, 51.49915900358864], [5.35333200165562, 51.50174600359043], [5.352607001655054, 51.50599200359323], [5.351318001653753, 51.506054003593306], [5.350508001653028, 51.50847500359493], [5.350927001653608, 51.51242000359751], [5.35021900165291, 51.51283700359781], [5.350456001653179, 51.51360300359833], [5.34938600165223, 51.5169980036006], [5.349576001652434, 51.51728300360078], [5.3503450016532135, 51.517329003600814], [5.35046500165336, 51.51796600360119], [5.351507001654414, 51.51800700360124], [5.352260001655263, 51.52017100360269], [5.353563001656576, 51.52010500360263], [5.354341001657379, 51.52050200360291], [5.35359200165674, 51.523508003604874], [5.353732001656984, 51.52608400360658], [5.355356001658694, 51.52786200360773], [5.355459001658839, 51.52890300360844], [5.365622001669157, 51.529980003609026], [5.36667200167023, 51.53024900360917], [5.368596001672222, 51.53149000360997], [5.368637001672279, 51.531867003610216], [5.356911001660931, 51.5447170036189], [5.353384001657377, 51.54503500361917], [5.351268001655209, 51.544275003618665], [5.346408001650295, 51.54420900361873], [5.342565001646431, 51.54477100361911], [5.337193001641067, 51.54640300362027], [5.334103001638072, 51.54960400362243], [5.334054001638063, 51.55065800362313], [5.332984001637, 51.5511390036235], [5.325444001629391, 51.55135200362369], [5.308396001611942, 51.54598000362036], [5.27327100157671, 51.552821003625304], [5.271933001575234, 51.54980700362328], [5.277487001580805, 51.54873700362252], [5.277553001580794, 51.54677800362126], [5.276884001580042, 51.54486300361999], [5.269862001572996, 51.546209003620945], [5.268621001571638, 51.54363000361925], [5.267971001570963, 51.54322500361898], [5.2633690015663515, 51.54423000361972], [5.261208001564021, 51.540641003617345], [5.257951001560733, 51.54077200361747], [5.253331001556045, 51.54033300361719], [5.24949500155181, 51.53163600361148], [5.244007001546021, 51.52575100360765], [5.234791001536917, 51.53099400361122], [5.230844001532514, 51.52093700360459], [5.224435001525873, 51.51714800360214], [5.226534001527602, 51.50747400359569], [5.232363001533557, 51.50892000359658], [5.2359430015373825, 51.51391000359987], [5.25125000155269, 51.50963100359688], [5.250073001551432, 51.508011003595755], [5.250969001552269, 51.50620900359459], [5.247892001549161, 51.50633600359468], [5.247111001548066, 51.49887900358975], [5.228444001529174, 51.49870000358979], [5.2296900015301935, 51.49284700358587], [5.2303760015308685, 51.49233700358555], [5.2303780015307915, 51.49046100358428], [5.229967001530346, 51.48972700358379], [5.225406001525697, 51.48882200358327], [5.22043500152001, 51.47288000357265], [5.2098150015089715, 51.465773003567975], [5.191025001488482, 51.4302250035443], [5.195420001492955, 51.43078300354464], [5.205020001502824, 51.43433400354696], [5.2066760015045155, 51.434696003547145], [5.209218001507164, 51.43650100354838], [5.209937001507792, 51.43417100354677], [5.215771001513701, 51.43418000354667], [5.217407001515248, 51.43150500354493], [5.217571001515371, 51.430429003544205], [5.219543001517306, 51.428919003543164], [5.223141001520908, 51.427921003542465], [5.223537001521193, 51.42508300354055], [5.229285001527026, 51.42545200354072], [5.22988200152765, 51.425898003541036]]]}, "properties": {"type": "boundary", "gemeente": "Oirschot"}}]}