{"type": "FeatureCollection", "metadata": {"gemeente": "Oldambt", "slug": "oldambt", "generated_at": "2026-07-28T19:03:25.026558Z", "total_points": 112, "merken": ["StatiegeldNederland", "Stibat", "StichtingOPEN"], "bounds": [6.932039, 53.131719, 7.2187627, 53.2440347]}, "features": [{"type": "Feature", "geometry": {"type": "Point", "coordinates": [7.0459358, 53.1441782]}, "properties": {"type": "inleverpunt", "locatieNaam": "Albert Heijn", "straatNaam": "Beersterweg 1 D", "straatNr": "", "postcode": "9672 BE", "plaats": "Winschoten", "merk": "StatiegeldNederland", "puntType": "automaat", "materialen": ["pet-groot", "pet-klein", "blik", "glas", "krat"], "uitbetaling": ["bonnetje", "donatie"], "vrijToegankelijk": true, "gemeenteBeperking": null, "openingstijden": {"ma": "08:00–22:00", "di": "08:00–22:00", "wo": "08:00–22:00", "do": "08:00–22:00", "vr": "08:00–22:00", "za": "08:00–22:00", "zo": "10:00–20:00"}, "latitude": 53.1441782, "longitude": 7.0459358, "bronId": "252003"}}, {"type": "Feature", "geometry": {"type": "Point", "coordinates": [7.0353699, 53.1476067]}, "properties": {"type": "inleverpunt", "locatieNaam": "Aldi", "straatNaam": "Heemskerkstraat", "straatNr": "55", "postcode": "9675 BN", "plaats": "Winschoten", "merk": "StatiegeldNederland", "puntType": "automaat", "materialen": ["pet-groot", "pet-klein", "blik", "glas", "krat"], "uitbetaling": ["bonnetje"], "vrijToegankelijk": true, "gemeenteBeperking": null, "openingstijden": {"ma": "08:00–20:00", "di": "08:00–20:00", "wo": "08:00–20:00", "do": "08:00–21:00", "vr": "08:00–21:00", "za": "08:00–20:00", "zo": "10:00–18:00"}, "latitude": 53.1476067, "longitude": 7.0353699, "bronId": "253141"}}, {"type": "Feature", "geometry": {"type": "Point", "coordinates": [6.972081, 53.175442]}, "properties": {"type": "inleverpunt", "locatieNaam": "Aldi", "straatNaam": "Poststraat", "straatNr": "7", "postcode": "9679 AA", "plaats": "Scheemda", "merk": "StatiegeldNederland", "puntType": "automaat", "materialen": ["pet-groot", "pet-klein", "blik", "glas", "krat"], "uitbetaling": ["bonnetje"], "vrijToegankelijk": true, "gemeenteBeperking": null, "openingstijden": {"ma": "08:00–20:00", "di": "08:00–20:00", "wo": "08:00–20:00", "do": "08:00–20:00", "vr": "08:00–20:00", "za": "08:00–20:00", "zo": "10:00–18:00"}, "latitude": 53.175442, "longitude": 6.972081, "bronId": "253329"}}, {"type": "Feature", "geometry": {"type": "Point", "coordinates": [7.0357959, 53.1423268]}, "properties": {"type": "inleverpunt", "locatieNaam": "BudgetFood", "straatNaam": "Vissersdijk", "straatNr": "86", "postcode": "9671 EK", "plaats": "Winschoten", "merk": "StatiegeldNederland", "puntType": "automaat", "materialen": ["pet-groot", "pet-klein", "blik"], "uitbetaling": ["bonnetje", "donatie"], "vrijToegankelijk": true, "gemeenteBeperking": null, "openingstijden": null, "latitude": 53.1423268, "longitude": 7.0357959, "bronId": "253934"}}, {"type": "Feature", "geometry": {"type": "Point", "coordinates": [7.0583205, 53.14922]}, "properties": {"type": "inleverpunt", "locatieNaam": "Vermeulen Steen en Hout", "straatNaam": "Lijnbaan", "straatNr": "7", "postcode": "9672 BL", "plaats": "Winschoten", "merk": "StatiegeldNederland", "puntType": "automaat", "materialen": ["pet-groot", "pet-klein", "blik", "krat"], "uitbetaling": ["donatie", "tikkie"], "vrijToegankelijk": true, "gemeenteBeperking": null, "openingstijden": null, "latitude": 53.14922, "longitude": 7.0583205, "bronId": "259191"}}, {"type": "Feature", "geometry": {"type": "Point", "coordinates": [7.040473, 53.1465994]}, "properties": {"type": "inleverpunt", "locatieNaam": "Dollard College Pontis", "straatNaam": "Dr. J.h. Hommesplein", "straatNr": "2", "postcode": "9671 CZ", "plaats": "Winschoten", "merk": "StatiegeldNederland", "puntType": "automaat", "materialen": ["pet-klein", "blik"], "uitbetaling": ["donatie"], "vrijToegankelijk": false, "gemeenteBeperking": null, "openingstijden": {"ma": "08:00–18:00", "di": "08:00–18:00", "wo": "08:00–18:00", "do": "08:00–18:00", "vr": "08:00–18:00", "za": "08:00–18:00", "zo": "08:00–17:00"}, "latitude": 53.1465994, "longitude": 7.040473, "bronId": "254584"}}, {"type": "Feature", "geometry": {"type": "Point", "coordinates": [7.03808, 53.141971]}, "properties": {"type": "inleverpunt", "locatieNaam": "Ekoplaza", "straatNaam": "VENNE", "straatNr": "7B-9", "postcode": "9671 DA", "plaats": "Winschoten", "merk": "StatiegeldNederland", "puntType": "balie", "materialen": ["pet-groot", "pet-klein", "blik"], "uitbetaling": [], "vrijToegankelijk": true, "gemeenteBeperking": null, "openingstijden": {"ma": "09:00–18:00", "di": "09:00–18:00", "wo": "09:00–18:00", "do": "09:00–18:00", "vr": "09:00–19:00", "za": "09:00–17:00", "zo": "Gesloten"}, "latitude": 53.141971, "longitude": 7.03808, "bronId": "254694"}}, {"type": "Feature", "geometry": {"type": "Point", "coordinates": [7.035612, 53.147389]}, "properties": {"type": "inleverpunt", "locatieNaam": "Jumbo", "straatNaam": "Pl. Heemskerkstraat", "straatNr": "56", "postcode": "9675 BN", "plaats": "Winschoten", "merk": "StatiegeldNederland", "puntType": "automaat", "materialen": ["pet-groot", "pet-klein", "blik", "glas", "krat"], "uitbetaling": ["bonnetje"], "vrijToegankelijk": true, "gemeenteBeperking": null, "openingstijden": {"ma": "07:00–21:00", "di": "07:00–21:00", "wo": "07:00–21:00", "do": "07:00–21:00", "vr": "07:00–21:00", "za": "07:00–21:00", "zo": "10:00–20:00"}, "latitude": 53.147389, "longitude": 7.035612, "bronId": "255675"}}, {"type": "Feature", "geometry": {"type": "Point", "coordinates": [6.969485, 53.17617]}, "properties": {"type": "inleverpunt", "locatieNaam": "Jumbo", "straatNaam": "Vredenhovenstraat", "straatNr": "3", "postcode": "9679 AL", "plaats": "Scheemda", "merk": "StatiegeldNederland", "puntType": "automaat", "materialen": ["pet-groot", "pet-klein", "blik", "glas", "krat"], "uitbetaling": ["bonnetje"], "vrijToegankelijk": true, "gemeenteBeperking": null, "openingstijden": {"ma": "08:00–20:00", "di": "08:00–20:00", "wo": "08:00–20:00", "do": "08:00–21:00", "vr": "08:00–21:00", "za": "08:00–20:00", "zo": "10:00–18:00"}, "latitude": 53.17617, "longitude": 6.969485, "bronId": "255836"}}, {"type": "Feature", "geometry": {"type": "Point", "coordinates": [7.03616, 53.143]}, "properties": {"type": "inleverpunt", "locatieNaam": "Lidl", "straatNaam": "Synagoge Passage", "straatNr": "5", "postcode": "9671 ED", "plaats": "Winschoten", "merk": "StatiegeldNederland", "puntType": "automaat", "materialen": ["pet-groot", "pet-klein", "blik", "glas", "krat"], "uitbetaling": ["bonnetje", "donatie"], "vrijToegankelijk": true, "gemeenteBeperking": null, "openingstijden": {"ma": "07:30–21:00", "di": "07:30–21:00", "wo": "07:30–21:00", "do": "07:30–21:00", "vr": "07:30–21:00", "za": "07:30–21:00", "zo": "10:00–18:00"}, "latitude": 53.143, "longitude": 7.03616, "bronId": "256408"}}, {"type": "Feature", "geometry": {"type": "Point", "coordinates": [7.0362358, 53.1352823]}, "properties": {"type": "inleverpunt", "locatieNaam": "Markies 60017 Kw1 College N.", "straatNaam": "Nelson Mandelaboulevard", "straatNr": "4", "postcode": "5342 BT", "plaats": "Oss", "merk": "StatiegeldNederland", "puntType": "balie", "materialen": ["pet-groot", "pet-klein", "blik"], "uitbetaling": [], "vrijToegankelijk": true, "gemeenteBeperking": null, "openingstijden": {"ma": "08:00–18:00", "di": "08:00–18:00", "wo": "08:00–18:00", "do": "08:00–18:00", "vr": "08:00–18:00", "za": "Gesloten", "zo": "Gesloten"}, "latitude": 53.1352823, "longitude": 7.0362358, "bronId": "256638"}}, {"type": "Feature", "geometry": {"type": "Point", "coordinates": [7.0346458, 53.1458116]}, "properties": {"type": "inleverpunt", "locatieNaam": "Medikamente Langestraat", "straatNaam": "Langestraat", "straatNr": "89", "postcode": "9671 PD", "plaats": "Winschoten", "merk": "StatiegeldNederland", "puntType": "automaat", "materialen": ["pet-groot", "pet-klein", "blik"], "uitbetaling": ["bonnetje"], "vrijToegankelijk": true, "gemeenteBeperking": null, "openingstijden": null, "latitude": 53.1458116, "longitude": 7.0346458, "bronId": "256750"}}, {"type": "Feature", "geometry": {"type": "Point", "coordinates": [7.03238, 53.155775]}, "properties": {"type": "inleverpunt", "locatieNaam": "Plus", "straatNaam": "Jachtlaan", "straatNr": "11", "postcode": "9675 JA", "plaats": "Winschoten", "merk": "StatiegeldNederland", "puntType": "automaat", "materialen": ["pet-groot", "pet-klein", "blik", "glas", "krat"], "uitbetaling": ["bonnetje", "donatie"], "vrijToegankelijk": true, "gemeenteBeperking": null, "openingstijden": {"ma": "08:00–20:00", "di": "08:00–20:00", "wo": "08:00–20:00", "do": "08:00–20:00", "vr": "08:00–20:00", "za": "08:00–20:00", "zo": "10:00–18:00"}, "latitude": 53.155775, "longitude": 7.03238, "bronId": "257366"}}, {"type": "Feature", "geometry": {"type": "Point", "coordinates": [7.2064383, 53.1825948]}, "properties": {"type": "inleverpunt", "locatieNaam": "Poiesz", "straatNaam": "Hoofdstraat", "straatNr": "41", "postcode": "9693 AE", "plaats": "Bad Nieuweschans", "merk": "StatiegeldNederland", "puntType": "automaat", "materialen": ["pet-groot", "pet-klein", "blik", "glas", "krat"], "uitbetaling": ["bonnetje", "donatie"], "vrijToegankelijk": true, "gemeenteBeperking": null, "openingstijden": {"ma": "08:00–20:00", "di": "08:00–20:00", "wo": "08:00–20:00", "do": "08:00–20:00", "vr": "08:00–20:00", "za": "08:00–20:00", "zo": "10:00–20:00"}, "latitude": 53.1825948, "longitude": 7.2064383, "bronId": "257648"}}, {"type": "Feature", "geometry": {"type": "Point", "coordinates": [7.0962808, 53.1732904]}, "properties": {"type": "inleverpunt", "locatieNaam": "Poiesz", "straatNaam": "Vredesplein", "straatNr": "1", "postcode": "9686 RT", "plaats": "Beerta", "merk": "StatiegeldNederland", "puntType": "automaat", "materialen": ["pet-groot", "pet-klein", "blik", "glas", "krat"], "uitbetaling": ["bonnetje", "donatie"], "vrijToegankelijk": true, "gemeenteBeperking": null, "openingstijden": {"ma": "08:00–20:00", "di": "08:00–20:00", "wo": "08:00–20:00", "do": "08:00–20:00", "vr": "08:00–20:00", "za": "08:00–20:00", "zo": "10:00–18:00"}, "latitude": 53.1732904, "longitude": 7.0962808, "bronId": "257696"}}, {"type": "Feature", "geometry": {"type": "Point", "coordinates": [6.9769634, 53.1807226]}, "properties": {"type": "inleverpunt", "locatieNaam": "Sc Scheemda", "straatNaam": "Oosterstraat", "straatNr": "30", "postcode": "9679 KK", "plaats": "Scheemda", "merk": "StatiegeldNederland", "puntType": "balie", "materialen": ["pet-groot", "pet-klein", "blik"], "uitbetaling": [], "vrijToegankelijk": false, "gemeenteBeperking": null, "openingstijden": {"ma": "24 uur geopend", "di": "24 uur geopend", "wo": "24 uur geopend", "do": "24 uur geopend", "vr": "24 uur geopend", "za": "24 uur geopend", "zo": "24 uur geopend"}, "latitude": 53.1807226, "longitude": 6.9769634, "bronId": "257967"}}, {"type": "Feature", "geometry": {"type": "Point", "coordinates": [7.04856, 53.149608]}, "properties": {"type": "inleverpunt", "locatieNaam": "Shell", "straatNaam": "Beertsterweg", "straatNr": "41", "postcode": "9672 BE", "plaats": "Winschoten", "merk": "StatiegeldNederland", "puntType": "balie", "materialen": ["pet-groot", "pet-klein", "blik"], "uitbetaling": [], "vrijToegankelijk": true, "gemeenteBeperking": null, "openingstijden": {"ma": "24 uur geopend", "di": "24 uur geopend", "wo": "24 uur geopend", "do": "24 uur geopend", "vr": "24 uur geopend", "za": "24 uur geopend", "zo": "24 uur geopend"}, "latitude": 53.149608, "longitude": 7.04856, "bronId": "258032"}}, {"type": "Feature", "geometry": {"type": "Point", "coordinates": [7.048797, 53.131719]}, "properties": {"type": "inleverpunt", "locatieNaam": "Shell", "straatNaam": "Blijhamsterweg", "straatNr": "102", "postcode": "9672 XA", "plaats": "Winschoten", "merk": "StatiegeldNederland", "puntType": "balie", "materialen": ["pet-groot", "pet-klein", "blik"], "uitbetaling": [], "vrijToegankelijk": true, "gemeenteBeperking": null, "openingstijden": {"ma": "24 uur geopend", "di": "24 uur geopend", "wo": "24 uur geopend", "do": "24 uur geopend", "vr": "24 uur geopend", "za": "24 uur geopend", "zo": "24 uur geopend"}, "latitude": 53.131719, "longitude": 7.048797, "bronId": "258035"}}, {"type": "Feature", "geometry": {"type": "Point", "coordinates": [6.932039, 53.1809021]}, "properties": {"type": "inleverpunt", "locatieNaam": "Shell", "straatNaam": "Rijksweg A7 ZZ nr.", "straatNr": "2", "postcode": "9679 TN", "plaats": "Scheemda", "merk": "StatiegeldNederland", "puntType": "balie", "materialen": ["pet-groot", "pet-klein", "blik"], "uitbetaling": [], "vrijToegankelijk": true, "gemeenteBeperking": null, "openingstijden": {"ma": "24 uur geopend", "di": "24 uur geopend", "wo": "24 uur geopend", "do": "24 uur geopend", "vr": "24 uur geopend", "za": "24 uur geopend", "zo": "24 uur geopend"}, "latitude": 53.1809021, "longitude": 6.932039, "bronId": "258173"}}, {"type": "Feature", "geometry": {"type": "Point", "coordinates": [7.0320631, 53.1358773]}, "properties": {"type": "inleverpunt", "locatieNaam": "Spar", "straatNaam": "Amstelstraat", "straatNr": "1", "postcode": "9673 HX", "plaats": "Winschoten", "merk": "StatiegeldNederland", "puntType": "automaat", "materialen": ["pet-groot", "pet-klein", "blik", "glas", "krat"], "uitbetaling": ["bonnetje", "donatie"], "vrijToegankelijk": true, "gemeenteBeperking": null, "openingstijden": {"ma": "08:00–20:00", "di": "08:00–20:00", "wo": "08:00–20:00", "do": "08:00–21:00", "vr": "08:00–21:00", "za": "08:00–21:00", "zo": "10:00–18:00"}, "latitude": 53.1358773, "longitude": 7.0320631, "bronId": "258297"}}, {"type": "Feature", "geometry": {"type": "Point", "coordinates": [7.083611, 53.198001]}, "properties": {"type": "inleverpunt", "locatieNaam": "Spar", "straatNaam": "Hoofdweg", "straatNr": "123", "postcode": "9684 CE", "plaats": "Finsterwolde", "merk": "StatiegeldNederland", "puntType": "automaat", "materialen": ["pet-groot", "pet-klein", "blik", "glas", "krat"], "uitbetaling": ["bonnetje", "donatie"], "vrijToegankelijk": true, "gemeenteBeperking": null, "openingstijden": {"ma": "08:00–20:00", "di": "08:00–20:00", "wo": "08:00–20:00", "do": "08:00–20:00", "vr": "08:00–20:00", "za": "08:00–18:00", "zo": "10:00–17:00"}, "latitude": 53.198001, "longitude": 7.083611, "bronId": "258379"}}, {"type": "Feature", "geometry": {"type": "Point", "coordinates": [7.2187627, 53.1788587]}, "properties": {"type": "inleverpunt", "locatieNaam": "Spar Express", "straatNaam": "RIJKSWEG A7 NR. 42 NZ", "straatNr": "", "postcode": "9693 CK", "plaats": "Nieuweschans", "merk": "StatiegeldNederland", "puntType": "balie", "materialen": ["pet-groot", "pet-klein", "blik"], "uitbetaling": [], "vrijToegankelijk": true, "gemeenteBeperking": null, "openingstijden": null, "latitude": 53.1788587, "longitude": 7.2187627, "bronId": "258571"}}, {"type": "Feature", "geometry": {"type": "Point", "coordinates": [6.9331639, 53.1820715]}, "properties": {"type": "inleverpunt", "locatieNaam": "The Bread & Coffee Stop", "straatNaam": "Rijksweg A7 Nr.", "straatNr": "1", "postcode": "9679 TN", "plaats": "Scheemda", "merk": "StatiegeldNederland", "puntType": "balie", "materialen": ["pet-groot", "pet-klein", "blik"], "uitbetaling": [], "vrijToegankelijk": true, "gemeenteBeperking": null, "openingstijden": {"ma": "06:00–20:00", "di": "06:00–20:00", "wo": "06:00–20:00", "do": "06:00–20:00", "vr": "06:00–20:00", "za": "08:00–17:00", "zo": "09:00–17:00"}, "latitude": 53.1820715, "longitude": 6.9331639, "bronId": "258961"}}, {"type": "Feature", "geometry": {"type": "Point", "coordinates": [6.9717489, 53.2415222]}, "properties": {"type": "inleverpunt", "locatieNaam": "ViaTim", "straatNaam": "Burgemeester Waalkensstraat", "straatNr": "38", "postcode": "9944 AL", "plaats": "Nieuwolda", "merk": "StatiegeldNederland", "puntType": "balie", "materialen": ["pet-groot", "pet-klein", "blik"], "uitbetaling": ["tikkie"], "vrijToegankelijk": true, "gemeenteBeperking": null, "openingstijden": {"ma": "10:00–20:00", "di": "10:00–20:00", "wo": "10:00–20:00", "do": "10:00–20:00", "vr": "10:00–20:00", "za": "Gesloten", "zo": "Gesloten"}, "latitude": 53.2415222, "longitude": 6.9717489, "bronId": "259240"}}, {"type": "Feature", "geometry": {"type": "Point", "coordinates": [6.9747993, 53.1757471]}, "properties": {"type": "inleverpunt", "locatieNaam": "ViaTim", "straatNaam": "Dollardlaan", "straatNr": "2", "postcode": "9679 CB", "plaats": "Scheemda", "merk": "StatiegeldNederland", "puntType": "balie", "materialen": ["pet-groot", "pet-klein", "blik"], "uitbetaling": ["tikkie"], "vrijToegankelijk": true, "gemeenteBeperking": null, "openingstijden": null, "latitude": 53.1757471, "longitude": 6.9747993, "bronId": "259271"}}, {"type": "Feature", "geometry": {"type": "Point", "coordinates": [7.1221946, 53.2083366]}, "properties": {"type": "inleverpunt", "locatieNaam": "ViaTim", "straatNaam": "Ganzedijk", "straatNr": "10", "postcode": "9684 ER", "plaats": "Finsterwolde", "merk": "StatiegeldNederland", "puntType": "balie", "materialen": ["pet-groot", "pet-klein", "blik"], "uitbetaling": ["tikkie"], "vrijToegankelijk": true, "gemeenteBeperking": null, "openingstijden": {"ma": "16:00–20:30", "di": "16:00–20:30", "wo": "16:00–20:30", "do": "16:00–20:30", "vr": "16:00–20:00", "za": "Gesloten", "zo": "Gesloten"}, "latitude": 53.2083366, "longitude": 7.1221946, "bronId": "259291"}}, {"type": "Feature", "geometry": {"type": "Point", "coordinates": [6.9768664, 53.1705029]}, "properties": {"type": "inleverpunt", "locatieNaam": "ViaTim", "straatNaam": "Hyacintstraat", "straatNr": "22", "postcode": "9679 EX", "plaats": "Scheemda", "merk": "StatiegeldNederland", "puntType": "balie", "materialen": ["pet-groot", "pet-klein", "blik"], "uitbetaling": ["tikkie"], "vrijToegankelijk": true, "gemeenteBeperking": null, "openingstijden": null, "latitude": 53.1705029, "longitude": 6.9768664, "bronId": "259337"}}, {"type": "Feature", "geometry": {"type": "Point", "coordinates": [7.0796463, 53.1851797]}, "properties": {"type": "inleverpunt", "locatieNaam": "ViaTim", "straatNaam": "Klinkerweg", "straatNr": "218", "postcode": "9684 AL", "plaats": "Finsterwolde", "merk": "StatiegeldNederland", "puntType": "balie", "materialen": ["pet-groot", "pet-klein", "blik"], "uitbetaling": ["tikkie"], "vrijToegankelijk": true, "gemeenteBeperking": null, "openingstijden": null, "latitude": 53.1851797, "longitude": 7.0796463, "bronId": "259374"}}, {"type": "Feature", "geometry": {"type": "Point", "coordinates": [7.0186782, 53.1371448]}, "properties": {"type": "inleverpunt", "locatieNaam": "Voetbal Vereniging Bato", "straatNaam": "St vitusholt", "straatNr": "215-217", "postcode": "9674 AL", "plaats": "Winschoten", "merk": "StatiegeldNederland", "puntType": "balie", "materialen": ["pet-groot", "pet-klein", "blik"], "uitbetaling": [], "vrijToegankelijk": false, "gemeenteBeperking": null, "openingstijden": {"ma": "18:00–22:00", "di": "18:00–22:00", "wo": "18:00–22:00", "do": "18:00–22:00", "vr": "Gesloten", "za": "07:30–19:00", "zo": "07:30–15:00"}, "latitude": 53.1371448, "longitude": 7.0186782, "bronId": "259557"}}, {"type": "Feature", "geometry": {"type": "Point", "coordinates": [7.03193, 53.13585]}, "properties": {"type": "inleverpunt", "locatieNaam": "Spar Winschoten", "straatNaam": "Amstelstraat", "straatNr": "1", "postcode": "9673 HX", "plaats": "Winschoten", "merk": "StichtingOPEN", "puntType": "balie", "materialen": ["batterijen", "lampen"], "uitbetaling": [], "vrijToegankelijk": false, "gemeenteBeperking": null, "openingstijden": null, "latitude": 53.13585, "longitude": 7.03193, "bronId": "SP00030027"}}, {"type": "Feature", "geometry": {"type": "Point", "coordinates": [6.969225, 53.176158]}, "properties": {"type": "inleverpunt", "locatieNaam": "Jumbo Scheemda", "straatNaam": "Vredenhovenstraat", "straatNr": "3", "postcode": "9679 AL", "plaats": "Scheemda", "merk": "StichtingOPEN", "puntType": "balie", "materialen": ["batterijen", "lampen"], "uitbetaling": [], "vrijToegankelijk": false, "gemeenteBeperking": null, "openingstijden": null, "latitude": 53.176158, "longitude": 6.969225, "bronId": "SP00025401"}}, {"type": "Feature", "geometry": {"type": "Point", "coordinates": [6.970027, 53.175738]}, "properties": {"type": "inleverpunt", "locatieNaam": "Kluswijs Scheemda", "straatNaam": "Hogeweg", "straatNr": "4", "postcode": "9679 AK", "plaats": "Scheemda", "merk": "StichtingOPEN", "puntType": "balie", "materialen": ["elektro-middel", "lampen"], "uitbetaling": [], "vrijToegankelijk": false, "gemeenteBeperking": null, "openingstijden": null, "latitude": 53.175738, "longitude": 6.970027, "bronId": "SP00003649"}}, {"type": "Feature", "geometry": {"type": "Point", "coordinates": [6.970917, 53.175349]}, "properties": {"type": "inleverpunt", "locatieNaam": "Installatiebureau Mein vof", "straatNaam": "Stationsstraat", "straatNr": "9", "postcode": "9679 EA", "plaats": "Scheemda", "merk": "StichtingOPEN", "puntType": "balie", "materialen": ["elektro-klein", "elektro-middel"], "uitbetaling": [], "vrijToegankelijk": false, "gemeenteBeperking": null, "openingstijden": null, "latitude": 53.175349, "longitude": 6.970917, "bronId": "SP00002692"}}, {"type": "Feature", "geometry": {"type": "Point", "coordinates": [6.97208, 53.175441]}, "properties": {"type": "inleverpunt", "locatieNaam": "Aldi Scheemda", "straatNaam": "Poststraat", "straatNr": "7", "postcode": "9679 AA", "plaats": "Scheemda", "merk": "StichtingOPEN", "puntType": "balie", "materialen": ["batterijen", "elektro-klein", "lampen"], "uitbetaling": [], "vrijToegankelijk": false, "gemeenteBeperking": null, "openingstijden": null, "latitude": 53.175441, "longitude": 6.97208, "bronId": "SP00026914"}}, {"type": "Feature", "geometry": {"type": "Point", "coordinates": [6.97051, 53.17647]}, "properties": {"type": "inleverpunt", "locatieNaam": "Kruidvat Scheemda", "straatNaam": "Diepswal", "straatNr": "13", "postcode": "9679 AM", "plaats": "Scheemda", "merk": "StichtingOPEN", "puntType": "balie", "materialen": ["batterijen", "lampen"], "uitbetaling": [], "vrijToegankelijk": false, "gemeenteBeperking": null, "openingstijden": null, "latitude": 53.17647, "longitude": 6.97051, "bronId": "SP00029702"}}, {"type": "Feature", "geometry": {"type": "Point", "coordinates": [7.036462, 53.142824]}, "properties": {"type": "inleverpunt", "locatieNaam": "Lidl Winschoten", "straatNaam": "Synagoge-passage", "straatNr": "5", "postcode": "9671 ED", "plaats": "Winschoten", "merk": "StichtingOPEN", "puntType": "balie", "materialen": ["batterijen", "lampen"], "uitbetaling": [], "vrijToegankelijk": false, "gemeenteBeperking": null, "openingstijden": null, "latitude": 53.142824, "longitude": 7.036462, "bronId": "SP00025641"}}, {"type": "Feature", "geometry": {"type": "Point", "coordinates": [7.034505, 53.144297]}, "properties": {"type": "inleverpunt", "locatieNaam": "Action Winschoten 1094", "straatNaam": "Mr. A.J. de Sitterstraat", "straatNr": "6", "postcode": "9671 GL", "plaats": "Winschoten", "merk": "StichtingOPEN", "puntType": "balie", "materialen": ["batterijen", "lampen"], "uitbetaling": [], "vrijToegankelijk": false, "gemeenteBeperking": null, "openingstijden": null, "latitude": 53.144297, "longitude": 7.034505, "bronId": "SP00007691"}}, {"type": "Feature", "geometry": {"type": "Point", "coordinates": [7.037689, 53.143704]}, "properties": {"type": "inleverpunt", "locatieNaam": "Technisch Bureau Feikens (winkel)", "straatNaam": "Langestraat", "straatNr": "16", "postcode": "9671 PG", "plaats": "Winschoten", "merk": "StichtingOPEN", "puntType": "balie", "materialen": ["elektro-klein", "elektro-middel"], "uitbetaling": [], "vrijToegankelijk": false, "gemeenteBeperking": null, "openingstijden": null, "latitude": 53.143704, "longitude": 7.037689, "bronId": "SP00027993"}}, {"type": "Feature", "geometry": {"type": "Point", "coordinates": [7.037059, 53.144528]}, "properties": {"type": "inleverpunt", "locatieNaam": "Kruidvat Winschoten", "straatNaam": "Langestraat", "straatNr": "49", "postcode": "9671 PB", "plaats": "Winschoten", "merk": "StichtingOPEN", "puntType": "balie", "materialen": ["batterijen", "lampen"], "uitbetaling": [], "vrijToegankelijk": false, "gemeenteBeperking": null, "openingstijden": null, "latitude": 53.144528, "longitude": 7.037059, "bronId": "SP00024822"}}, {"type": "Feature", "geometry": {"type": "Point", "coordinates": [7.035386, 53.147774]}, "properties": {"type": "inleverpunt", "locatieNaam": "Aldi Winschoten", "straatNaam": "Heemskerkstraat", "straatNr": "55", "postcode": "9675 BN", "plaats": "Winschoten", "merk": "StichtingOPEN", "puntType": "balie", "materialen": ["batterijen", "elektro-klein", "lampen"], "uitbetaling": [], "vrijToegankelijk": false, "gemeenteBeperking": null, "openingstijden": null, "latitude": 53.147774, "longitude": 7.035386, "bronId": "SP00026928"}}, {"type": "Feature", "geometry": {"type": "Point", "coordinates": [7.035176, 53.148337]}, "properties": {"type": "inleverpunt", "locatieNaam": "Jumbo Winschoten", "straatNaam": "Heemskerkstraat", "straatNr": "56", "postcode": "9675 BN", "plaats": "Winschoten", "merk": "StichtingOPEN", "puntType": "balie", "materialen": ["batterijen", "lampen"], "uitbetaling": [], "vrijToegankelijk": false, "gemeenteBeperking": null, "openingstijden": null, "latitude": 53.148337, "longitude": 7.035176, "bronId": "SP00025392"}}, {"type": "Feature", "geometry": {"type": "Point", "coordinates": [7.045935, 53.144178]}, "properties": {"type": "inleverpunt", "locatieNaam": "1627 Albert Heijn Winschoten", "straatNaam": "Beertsterweg", "straatNr": "1d", "postcode": "9672 BE", "plaats": "Winschoten", "merk": "StichtingOPEN", "puntType": "balie", "materialen": ["batterijen", "elektro-klein", "lampen"], "uitbetaling": [], "vrijToegankelijk": false, "gemeenteBeperking": null, "openingstijden": null, "latitude": 53.144178, "longitude": 7.045935, "bronId": "SP00023282"}}, {"type": "Feature", "geometry": {"type": "Point", "coordinates": [7.046064, 53.144677]}, "properties": {"type": "inleverpunt", "locatieNaam": "Praxis Winschoten - 2030", "straatNaam": "Beertsterweg", "straatNr": "3", "postcode": "9672 BE", "plaats": "Winschoten", "merk": "StichtingOPEN", "puntType": "balie", "materialen": ["elektro-klein", "elektro-middel", "lampen", "tl-buizen"], "uitbetaling": [], "vrijToegankelijk": false, "gemeenteBeperking": null, "openingstijden": null, "latitude": 53.144677, "longitude": 7.046064, "bronId": "SP00004502"}}, {"type": "Feature", "geometry": {"type": "Point", "coordinates": [7.03244, 53.156635]}, "properties": {"type": "inleverpunt", "locatieNaam": "PLUS Winschoten", "straatNaam": "Jachtlaan", "straatNr": "11", "postcode": "9675 JA", "plaats": "Winschoten", "merk": "StichtingOPEN", "puntType": "balie", "materialen": ["batterijen", "lampen"], "uitbetaling": [], "vrijToegankelijk": false, "gemeenteBeperking": null, "openingstijden": null, "latitude": 53.156635, "longitude": 7.03244, "bronId": "SP00024081"}}, {"type": "Feature", "geometry": {"type": "Point", "coordinates": [7.05152, 53.144924]}, "properties": {"type": "inleverpunt", "locatieNaam": "EP De Treffer", "straatNaam": "Papierbaan", "straatNr": "55", "postcode": "9672 BG", "plaats": "Winschoten", "merk": "StichtingOPEN", "puntType": "balie", "materialen": ["elektro-klein", "elektro-middel"], "uitbetaling": [], "vrijToegankelijk": false, "gemeenteBeperking": null, "openingstijden": null, "latitude": 53.144924, "longitude": 7.05152, "bronId": "SP00020541"}}, {"type": "Feature", "geometry": {"type": "Point", "coordinates": [7.062243, 53.145628]}, "properties": {"type": "inleverpunt", "locatieNaam": "PreZero Recycling B.V. (Winschoten)", "straatNaam": "Kartonbaan", "straatNr": "29", "postcode": "9672 BP", "plaats": "Winschoten", "merk": "StichtingOPEN", "puntType": "balie", "materialen": ["batterijen", "elektro-groot", "elektro-klein", "elektro-middel", "lampen", "tl-buizen"], "uitbetaling": [], "vrijToegankelijk": false, "gemeenteBeperking": null, "openingstijden": null, "latitude": 53.145628, "longitude": 7.062243, "bronId": "SP00039653"}}, {"type": "Feature", "geometry": {"type": "Point", "coordinates": [7.060248, 53.150341]}, "properties": {"type": "inleverpunt", "locatieNaam": "Intratuin Winschoten", "straatNaam": "Lijnbaan", "straatNr": "23", "postcode": "9672 BL", "plaats": "Winschoten", "merk": "StichtingOPEN", "puntType": "balie", "materialen": ["elektro-middel", "lampen"], "uitbetaling": [], "vrijToegankelijk": false, "gemeenteBeperking": null, "openingstijden": null, "latitude": 53.150341, "longitude": 7.060248, "bronId": "SP00005573"}}, {"type": "Feature", "geometry": {"type": "Point", "coordinates": [7.081953, 53.161005]}, "properties": {"type": "inleverpunt", "locatieNaam": "Kringloopwinkel de Snuffelstal", "straatNaam": "Hoofdstraat", "straatNr": "22", "postcode": "9686 VJ", "plaats": "Beerta", "merk": "StichtingOPEN", "puntType": "balie", "materialen": ["batterijen", "elektro-groot", "elektro-klein", "elektro-middel", "lampen", "tl-buizen"], "uitbetaling": [], "vrijToegankelijk": false, "gemeenteBeperking": null, "openingstijden": null, "latitude": 53.161005, "longitude": 7.081953, "bronId": "SP00005845"}}, {"type": "Feature", "geometry": {"type": "Point", "coordinates": [6.97125, 53.24403]}, "properties": {"type": "inleverpunt", "locatieNaam": "Spar Nieuwolda", "straatNaam": "Hoofdstraat", "straatNr": "6", "postcode": "9944 AE", "plaats": "Nieuwolda", "merk": "StichtingOPEN", "puntType": "balie", "materialen": ["batterijen", "lampen"], "uitbetaling": [], "vrijToegankelijk": false, "gemeenteBeperking": null, "openingstijden": null, "latitude": 53.24403, "longitude": 6.97125, "bronId": "SP00030128"}}, {"type": "Feature", "geometry": {"type": "Point", "coordinates": [7.083613, 53.198019]}, "properties": {"type": "inleverpunt", "locatieNaam": "Spar Finsterwolde", "straatNaam": "Hoofdweg", "straatNr": "123", "postcode": "9684 CE", "plaats": "Finsterwolde", "merk": "StichtingOPEN", "puntType": "balie", "materialen": ["batterijen", "lampen"], "uitbetaling": [], "vrijToegankelijk": false, "gemeenteBeperking": null, "openingstijden": null, "latitude": 53.198019, "longitude": 7.083613, "bronId": "SP00022482"}}, {"type": "Feature", "geometry": {"type": "Point", "coordinates": [7.058431, 53.135567]}, "properties": {"type": "inleverpunt", "locatieNaam": "Afvalbrengstation Oldambt", "straatNaam": "B. Haitzemastraat", "straatNr": "3", "postcode": "9672 DC", "plaats": "Winschoten", "merk": "StichtingOPEN", "puntType": "milieustraat", "materialen": ["batterijen", "elektro-groot", "elektro-klein", "elektro-middel", "lampen", "tl-buizen"], "uitbetaling": [], "vrijToegankelijk": false, "gemeenteBeperking": ["Oldambt"], "openingstijden": null, "latitude": 53.135567, "longitude": 7.058431, "bronId": "SP00030699"}}, {"type": "Feature", "geometry": {"type": "Point", "coordinates": [6.9329627, 53.1820027]}, "properties": {"type": "inleverpunt", "locatieNaam": "Esso", "straatNaam": "Rijksweg", "straatNr": "A7", "postcode": "9679 TN", "plaats": "Scheemda", "merk": "Stibat", "puntType": "inzamelbak", "materialen": ["batterijen"], "uitbetaling": [], "vrijToegankelijk": false, "gemeenteBeperking": null, "openingstijden": null, "latitude": 53.1820027, "longitude": 6.9329627, "bronId": "L026420"}}, {"type": "Feature", "geometry": {"type": "Point", "coordinates": [7.0332804, 53.1346641]}, "properties": {"type": "inleverpunt", "locatieNaam": "Spar", "straatNaam": "Amstelstraat", "straatNr": "1", "postcode": "9673 HX", "plaats": "Winschoten", "merk": "Stibat", "puntType": "inzamelbak", "materialen": ["batterijen"], "uitbetaling": [], "vrijToegankelijk": false, "gemeenteBeperking": null, "openingstijden": null, "latitude": 53.1346641, "longitude": 7.0332804, "bronId": "L036061"}}, {"type": "Feature", "geometry": {"type": "Point", "coordinates": [6.9700273, 53.1757383]}, "properties": {"type": "inleverpunt", "locatieNaam": "KlusWijs", "straatNaam": "Hogeweg", "straatNr": "4", "postcode": "9679 AK", "plaats": "Scheemda", "merk": "Stibat", "puntType": "inzamelbak", "materialen": ["batterijen"], "uitbetaling": [], "vrijToegankelijk": false, "gemeenteBeperking": null, "openingstijden": null, "latitude": 53.1757383, "longitude": 6.9700273, "bronId": "L037247"}}, {"type": "Feature", "geometry": {"type": "Point", "coordinates": [6.9694437, 53.1761414]}, "properties": {"type": "inleverpunt", "locatieNaam": "Jumbo", "straatNaam": "Vredenhovenstraat", "straatNr": "3", "postcode": "9679 AL", "plaats": "Scheemda", "merk": "Stibat", "puntType": "inzamelbak", "materialen": ["batterijen"], "uitbetaling": [], "vrijToegankelijk": false, "gemeenteBeperking": null, "openingstijden": null, "latitude": 53.1761414, "longitude": 6.9694437, "bronId": "L035403"}}, {"type": "Feature", "geometry": {"type": "Point", "coordinates": [6.9712717, 53.1754015]}, "properties": {"type": "inleverpunt", "locatieNaam": "Primera", "straatNaam": "Stationsstraat", "straatNr": "6", "postcode": "9679 ED", "plaats": "Scheemda", "merk": "Stibat", "puntType": "inzamelbak", "materialen": ["batterijen"], "uitbetaling": [], "vrijToegankelijk": false, "gemeenteBeperking": null, "openingstijden": null, "latitude": 53.1754015, "longitude": 6.9712717, "bronId": "L023778"}}, {"type": "Feature", "geometry": {"type": "Point", "coordinates": [6.9720807, 53.1754415]}, "properties": {"type": "inleverpunt", "locatieNaam": "Aldi", "straatNaam": "Poststraat", "straatNr": "7", "postcode": "9679 AA", "plaats": "Scheemda", "merk": "Stibat", "puntType": "inzamelbak", "materialen": ["batterijen"], "uitbetaling": [], "vrijToegankelijk": false, "gemeenteBeperking": null, "openingstijden": null, "latitude": 53.1754415, "longitude": 6.9720807, "bronId": "L041599"}}, {"type": "Feature", "geometry": {"type": "Point", "coordinates": [6.9705089, 53.1764756]}, "properties": {"type": "inleverpunt", "locatieNaam": "Kruidvat", "straatNaam": "Diepswal", "straatNr": "13", "postcode": "9679 AM", "plaats": "Scheemda", "merk": "Stibat", "puntType": "inzamelbak", "materialen": ["batterijen"], "uitbetaling": [], "vrijToegankelijk": false, "gemeenteBeperking": null, "openingstijden": null, "latitude": 53.1764756, "longitude": 6.9705089, "bronId": "L015231"}}, {"type": "Feature", "geometry": {"type": "Point", "coordinates": [6.9721553, 53.175845]}, "properties": {"type": "inleverpunt", "locatieNaam": "Roggeveld Fietsen", "straatNaam": "Poststraat", "straatNr": "6", "postcode": "9679 AA", "plaats": "Scheemda", "merk": "Stibat", "puntType": "inzamelbak", "materialen": ["batterijen"], "uitbetaling": [], "vrijToegankelijk": false, "gemeenteBeperking": null, "openingstijden": null, "latitude": 53.175845, "longitude": 6.9721553, "bronId": "L034279"}}, {"type": "Feature", "geometry": {"type": "Point", "coordinates": [7.0469894, 53.1339418]}, "properties": {"type": "inleverpunt", "locatieNaam": "InterOffice", "straatNaam": "M J van Olmstraat", "straatNr": "13", "postcode": "9672 AE", "plaats": "Winschoten", "merk": "Stibat", "puntType": "inzamelbak", "materialen": ["batterijen"], "uitbetaling": [], "vrijToegankelijk": false, "gemeenteBeperking": null, "openingstijden": null, "latitude": 53.1339418, "longitude": 7.0469894, "bronId": "L020069"}}, {"type": "Feature", "geometry": {"type": "Point", "coordinates": [7.0329106, 53.1428272]}, "properties": {"type": "inleverpunt", "locatieNaam": "Spar", "straatNaam": "Hoogstraat", "straatNr": "1", "postcode": "9671 GR", "plaats": "Winschoten", "merk": "Stibat", "puntType": "inzamelbak", "materialen": ["batterijen"], "uitbetaling": [], "vrijToegankelijk": false, "gemeenteBeperking": null, "openingstijden": null, "latitude": 53.1428272, "longitude": 7.0329106, "bronId": "L045935"}}, {"type": "Feature", "geometry": {"type": "Point", "coordinates": [7.0358043, 53.1423074]}, "properties": {"type": "inleverpunt", "locatieNaam": "Budget Food", "straatNaam": "Vissersdijk", "straatNr": "86", "postcode": "9671 EK", "plaats": "Winschoten", "merk": "Stibat", "puntType": "inzamelbak", "materialen": ["batterijen"], "uitbetaling": [], "vrijToegankelijk": false, "gemeenteBeperking": null, "openingstijden": null, "latitude": 53.1423074, "longitude": 7.0358043, "bronId": "L045756"}}, {"type": "Feature", "geometry": {"type": "Point", "coordinates": [7.0364623, 53.1428243]}, "properties": {"type": "inleverpunt", "locatieNaam": "Lidl", "straatNaam": "Synagoge-passage", "straatNr": "5", "postcode": "9671 ED", "plaats": "Winschoten", "merk": "Stibat", "puntType": "inzamelbak", "materialen": ["batterijen"], "uitbetaling": [], "vrijToegankelijk": false, "gemeenteBeperking": null, "openingstijden": null, "latitude": 53.1428243, "longitude": 7.0364623, "bronId": "L037988"}}, {"type": "Feature", "geometry": {"type": "Point", "coordinates": [7.0376396, 53.1421907]}, "properties": {"type": "inleverpunt", "locatieNaam": "Camera Xper", "straatNaam": "Venne", "straatNr": "52", "postcode": "9671 ET", "plaats": "Winschoten", "merk": "Stibat", "puntType": "inzamelbak", "materialen": ["batterijen"], "uitbetaling": [], "vrijToegankelijk": false, "gemeenteBeperking": null, "openingstijden": null, "latitude": 53.1421907, "longitude": 7.0376396, "bronId": "L028167"}}, {"type": "Feature", "geometry": {"type": "Point", "coordinates": [7.0363041, 53.1430532]}, "properties": {"type": "inleverpunt", "locatieNaam": "1094 Action", "straatNaam": "Reivel-passage", "straatNr": "8", "postcode": "9671 EB", "plaats": "Winschoten", "merk": "Stibat", "puntType": "inzamelbak", "materialen": ["batterijen"], "uitbetaling": [], "vrijToegankelijk": false, "gemeenteBeperking": null, "openingstijden": null, "latitude": 53.1430532, "longitude": 7.0363041, "bronId": "L018765"}}, {"type": "Feature", "geometry": {"type": "Point", "coordinates": [7.037198, 53.142938]}, "properties": {"type": "inleverpunt", "locatieNaam": "Hans Anders", "straatNaam": "Reivel-passage", "straatNr": "9", "postcode": "9671 EB", "plaats": "Winschoten", "merk": "Stibat", "puntType": "inzamelbak", "materialen": ["batterijen"], "uitbetaling": [], "vrijToegankelijk": false, "gemeenteBeperking": null, "openingstijden": null, "latitude": 53.142938, "longitude": 7.037198, "bronId": "L037962"}}, {"type": "Feature", "geometry": {"type": "Point", "coordinates": [7.0378083, 53.1428795]}, "properties": {"type": "inleverpunt", "locatieNaam": "Intertoys", "straatNaam": "Israelplein", "straatNr": "7", "postcode": "9671 EN", "plaats": "Winschoten", "merk": "Stibat", "puntType": "inzamelbak", "materialen": ["batterijen"], "uitbetaling": [], "vrijToegankelijk": false, "gemeenteBeperking": null, "openingstijden": null, "latitude": 53.1428795, "longitude": 7.0378083, "bronId": "L046515"}}, {"type": "Feature", "geometry": {"type": "Point", "coordinates": [7.037108, 53.1433303]}, "properties": {"type": "inleverpunt", "locatieNaam": "Trekpleister", "straatNaam": "Reivel-passage", "straatNr": "13", "postcode": "9671 EB", "plaats": "Winschoten", "merk": "Stibat", "puntType": "inzamelbak", "materialen": ["batterijen"], "uitbetaling": [], "vrijToegankelijk": false, "gemeenteBeperking": null, "openingstijden": null, "latitude": 53.1433303, "longitude": 7.037108, "bronId": "L017480"}}, {"type": "Feature", "geometry": {"type": "Point", "coordinates": [7.0376726, 53.142988]}, "properties": {"type": "inleverpunt", "locatieNaam": "Phone House", "straatNaam": "Israëlplein", "straatNr": "8", "postcode": "9671 EN", "plaats": "Winschoten", "merk": "Stibat", "puntType": "inzamelbak", "materialen": ["batterijen"], "uitbetaling": [], "vrijToegankelijk": false, "gemeenteBeperking": null, "openingstijden": null, "latitude": 53.142988, "longitude": 7.0376726, "bronId": "L023552"}}, {"type": "Feature", "geometry": {"type": "Point", "coordinates": [7.0378046, 53.1429415]}, "properties": {"type": "inleverpunt", "locatieNaam": "KiK Winschoten", "straatNaam": "Israelplein", "straatNr": "5", "postcode": "9671 EN", "plaats": "Winschoten", "merk": "Stibat", "puntType": "inzamelbak", "materialen": ["batterijen"], "uitbetaling": [], "vrijToegankelijk": false, "gemeenteBeperking": null, "openingstijden": null, "latitude": 53.1429415, "longitude": 7.0378046, "bronId": "L036042"}}, {"type": "Feature", "geometry": {"type": "Point", "coordinates": [7.0353672, 53.1448055]}, "properties": {"type": "inleverpunt", "locatieNaam": "Wibra", "straatNaam": "Langestraat", "straatNr": "58", "postcode": "9671 PJ", "plaats": "Winschoten", "merk": "Stibat", "puntType": "inzamelbak", "materialen": ["batterijen"], "uitbetaling": [], "vrijToegankelijk": false, "gemeenteBeperking": null, "openingstijden": null, "latitude": 53.1448055, "longitude": 7.0353672, "bronId": "L022252"}}, {"type": "Feature", "geometry": {"type": "Point", "coordinates": [7.0350134, 53.1451886]}, "properties": {"type": "inleverpunt", "locatieNaam": "KPN winkel", "straatNaam": "Langestraat", "straatNr": "72", "postcode": "9671 PJ", "plaats": "Winschoten", "merk": "Stibat", "puntType": "inzamelbak", "materialen": ["batterijen"], "uitbetaling": [], "vrijToegankelijk": false, "gemeenteBeperking": null, "openingstijden": null, "latitude": 53.1451886, "longitude": 7.0350134, "bronId": "L008200"}}, {"type": "Feature", "geometry": {"type": "Point", "coordinates": [7.0357525, 53.1448126]}, "properties": {"type": "inleverpunt", "locatieNaam": "Ringfoto", "straatNaam": "Langestraat", "straatNr": "54", "postcode": "9671 PJ", "plaats": "Winschoten", "merk": "Stibat", "puntType": "inzamelbak", "materialen": ["batterijen"], "uitbetaling": [], "vrijToegankelijk": false, "gemeenteBeperking": null, "openingstijden": null, "latitude": 53.1448126, "longitude": 7.0357525, "bronId": "L038540"}}, {"type": "Feature", "geometry": {"type": "Point", "coordinates": [7.0381425, 53.143357]}, "properties": {"type": "inleverpunt", "locatieNaam": "Beter Horen", "straatNaam": "Langestraat", "straatNr": "8", "postcode": "9671 PG", "plaats": "Winschoten", "merk": "Stibat", "puntType": "inzamelbak", "materialen": ["batterijen"], "uitbetaling": [], "vrijToegankelijk": false, "gemeenteBeperking": null, "openingstijden": null, "latitude": 53.143357, "longitude": 7.0381425, "bronId": "L017086"}}, {"type": "Feature", "geometry": {"type": "Point", "coordinates": [7.0351703, 53.1452755]}, "properties": {"type": "inleverpunt", "locatieNaam": "Zeeman", "straatNaam": "Langestraat", "straatNr": "79", "postcode": "9671 PD", "plaats": "Winschoten", "merk": "Stibat", "puntType": "inzamelbak", "materialen": ["batterijen"], "uitbetaling": [], "vrijToegankelijk": false, "gemeenteBeperking": null, "openingstijden": null, "latitude": 53.1452755, "longitude": 7.0351703, "bronId": "L019323"}}, {"type": "Feature", "geometry": {"type": "Point", "coordinates": [7.0390786, 53.1429353]}, "properties": {"type": "inleverpunt", "locatieNaam": "DA", "straatNaam": "Torenstraat", "straatNr": "2", "postcode": "9671 EE", "plaats": "Winschoten", "merk": "Stibat", "puntType": "inzamelbak", "materialen": ["batterijen"], "uitbetaling": [], "vrijToegankelijk": false, "gemeenteBeperking": null, "openingstijden": null, "latitude": 53.1429353, "longitude": 7.0390786, "bronId": "L026950"}}, {"type": "Feature", "geometry": {"type": "Point", "coordinates": [7.0339608, 53.1461195]}, "properties": {"type": "inleverpunt", "locatieNaam": "Expert", "straatNaam": "Langestraat", "straatNr": "98-104", "postcode": "9671 PN", "plaats": "Winschoten", "merk": "Stibat", "puntType": "inzamelbak", "materialen": ["batterijen"], "uitbetaling": [], "vrijToegankelijk": false, "gemeenteBeperking": null, "openingstijden": null, "latitude": 53.1461195, "longitude": 7.0339608, "bronId": "L008328"}}, {"type": "Feature", "geometry": {"type": "Point", "coordinates": [7.0368613, 53.1443252]}, "properties": {"type": "inleverpunt", "locatieNaam": "Specsavers", "straatNaam": "Langestraat", "straatNr": "34", "postcode": "9671 PH", "plaats": "Winschoten", "merk": "Stibat", "puntType": "inzamelbak", "materialen": ["batterijen"], "uitbetaling": [], "vrijToegankelijk": false, "gemeenteBeperking": null, "openingstijden": null, "latitude": 53.1443252, "longitude": 7.0368613, "bronId": "L045079"}}, {"type": "Feature", "geometry": {"type": "Point", "coordinates": [7.0392731, 53.1428613]}, "properties": {"type": "inleverpunt", "locatieNaam": "Bruna", "straatNaam": "Torenstraat", "straatNr": "4", "postcode": "9671 EE", "plaats": "Winschoten", "merk": "Stibat", "puntType": "inzamelbak", "materialen": ["batterijen"], "uitbetaling": [], "vrijToegankelijk": false, "gemeenteBeperking": null, "openingstijden": null, "latitude": 53.1428613, "longitude": 7.0392731, "bronId": "L023324"}}, {"type": "Feature", "geometry": {"type": "Point", "coordinates": [7.0375646, 53.1439623]}, "properties": {"type": "inleverpunt", "locatieNaam": "BelCompany", "straatNaam": "Langestraat", "straatNr": "22", "postcode": "9671 PG", "plaats": "Winschoten", "merk": "Stibat", "puntType": "inzamelbak", "materialen": ["batterijen"], "uitbetaling": [], "vrijToegankelijk": false, "gemeenteBeperking": null, "openingstijden": null, "latitude": 53.1439623, "longitude": 7.0375646, "bronId": "L023690"}}, {"type": "Feature", "geometry": {"type": "Point", "coordinates": [7.0362041, 53.1448221]}, "properties": {"type": "inleverpunt", "locatieNaam": "Primera", "straatNaam": "Langestraat", "straatNr": "61", "postcode": "9671 PC", "plaats": "Winschoten", "merk": "Stibat", "puntType": "inzamelbak", "materialen": ["batterijen"], "uitbetaling": [], "vrijToegankelijk": false, "gemeenteBeperking": null, "openingstijden": null, "latitude": 53.1448221, "longitude": 7.0362041, "bronId": "L022081"}}, {"type": "Feature", "geometry": {"type": "Point", "coordinates": [7.0388993, 53.1432118]}, "properties": {"type": "inleverpunt", "locatieNaam": "HEMA Langestraat", "straatNaam": "Langestraat", "straatNr": "1", "postcode": "9671 PA", "plaats": "Winschoten", "merk": "Stibat", "puntType": "inzamelbak", "materialen": ["batterijen"], "uitbetaling": [], "vrijToegankelijk": false, "gemeenteBeperking": null, "openingstijden": null, "latitude": 53.1432118, "longitude": 7.0388993, "bronId": "L007027"}}, {"type": "Feature", "geometry": {"type": "Point", "coordinates": [7.0379555, 53.1439363]}, "properties": {"type": "inleverpunt", "locatieNaam": "Xenos", "straatNaam": "Langestraat", "straatNr": "25", "postcode": "9671 PD", "plaats": "Winschoten", "merk": "Stibat", "puntType": "inzamelbak", "materialen": ["batterijen"], "uitbetaling": [], "vrijToegankelijk": false, "gemeenteBeperking": null, "openingstijden": null, "latitude": 53.1439363, "longitude": 7.0379555, "bronId": "L037078"}}, {"type": "Feature", "geometry": {"type": "Point", "coordinates": [7.033894, 53.146473]}, "properties": {"type": "inleverpunt", "locatieNaam": "Top1Toys", "straatNaam": "Langestraat", "straatNr": "113", "postcode": "9671 PE", "plaats": "Winschoten", "merk": "Stibat", "puntType": "inzamelbak", "materialen": ["batterijen"], "uitbetaling": [], "vrijToegankelijk": false, "gemeenteBeperking": null, "openingstijden": null, "latitude": 53.146473, "longitude": 7.033894, "bronId": "L013758"}}, {"type": "Feature", "geometry": {"type": "Point", "coordinates": [7.0367487, 53.1447618]}, "properties": {"type": "inleverpunt", "locatieNaam": "Schoonenberg Hoorcomfort", "straatNaam": "Gaslaan", "straatNr": "1c", "postcode": "9671 CS", "plaats": "Winschoten", "merk": "Stibat", "puntType": "inzamelbak", "materialen": ["batterijen"], "uitbetaling": [], "vrijToegankelijk": false, "gemeenteBeperking": null, "openingstijden": null, "latitude": 53.1447618, "longitude": 7.0367487, "bronId": "L020987"}}, {"type": "Feature", "geometry": {"type": "Point", "coordinates": [7.0382293, 53.1438633]}, "properties": {"type": "inleverpunt", "locatieNaam": "8864 Etos", "straatNaam": "Langestraat", "straatNr": "19", "postcode": "9671 PA", "plaats": "Winschoten", "merk": "Stibat", "puntType": "inzamelbak", "materialen": ["batterijen"], "uitbetaling": [], "vrijToegankelijk": false, "gemeenteBeperking": null, "openingstijden": null, "latitude": 53.1438633, "longitude": 7.0382293, "bronId": "L025314"}}, {"type": "Feature", "geometry": {"type": "Point", "coordinates": [7.0373291, 53.1446184]}, "properties": {"type": "inleverpunt", "locatieNaam": "Kruidvat", "straatNaam": "Langestraat", "straatNr": "49", "postcode": "9671 PB", "plaats": "Winschoten", "merk": "Stibat", "puntType": "inzamelbak", "materialen": ["batterijen"], "uitbetaling": [], "vrijToegankelijk": false, "gemeenteBeperking": null, "openingstijden": null, "latitude": 53.1446184, "longitude": 7.0373291, "bronId": "L015947"}}, {"type": "Feature", "geometry": {"type": "Point", "coordinates": [7.035386, 53.147774]}, "properties": {"type": "inleverpunt", "locatieNaam": "Aldi", "straatNaam": "Heemskerkstraat", "straatNr": "55", "postcode": "9675 BN", "plaats": "Winschoten", "merk": "Stibat", "puntType": "inzamelbak", "materialen": ["batterijen"], "uitbetaling": [], "vrijToegankelijk": false, "gemeenteBeperking": null, "openingstijden": null, "latitude": 53.147774, "longitude": 7.035386, "bronId": "L041598"}}, {"type": "Feature", "geometry": {"type": "Point", "coordinates": [7.0340983, 53.1485764]}, "properties": {"type": "inleverpunt", "locatieNaam": "Fietsplezier Oldambt", "straatNaam": "Zeeheldenstraat", "straatNr": "3", "postcode": "9675 AH", "plaats": "Winschoten", "merk": "Stibat", "puntType": "inzamelbak", "materialen": ["batterijen"], "uitbetaling": [], "vrijToegankelijk": false, "gemeenteBeperking": null, "openingstijden": null, "latitude": 53.1485764, "longitude": 7.0340983, "bronId": "L045653"}}, {"type": "Feature", "geometry": {"type": "Point", "coordinates": [7.0351256, 53.1481792]}, "properties": {"type": "inleverpunt", "locatieNaam": "Jumbo", "straatNaam": "Heemskerkstraat", "straatNr": "56", "postcode": "9675 BN", "plaats": "Winschoten", "merk": "Stibat", "puntType": "inzamelbak", "materialen": ["batterijen"], "uitbetaling": [], "vrijToegankelijk": false, "gemeenteBeperking": null, "openingstijden": null, "latitude": 53.1481792, "longitude": 7.0351256, "bronId": "L032421"}}, {"type": "Feature", "geometry": {"type": "Point", "coordinates": [7.0457078, 53.1434054]}, "properties": {"type": "inleverpunt", "locatieNaam": "Leen Bakker", "straatNaam": "Beersterweg", "straatNr": "1b", "postcode": "9672 BE", "plaats": "Winschoten", "merk": "Stibat", "puntType": "inzamelbak", "materialen": ["batterijen"], "uitbetaling": [], "vrijToegankelijk": false, "gemeenteBeperking": null, "openingstijden": null, "latitude": 53.1434054, "longitude": 7.0457078, "bronId": "L018240"}}, {"type": "Feature", "geometry": {"type": "Point", "coordinates": [7.0455893, 53.1436918]}, "properties": {"type": "inleverpunt", "locatieNaam": "Kwantum", "straatNaam": "Beertsterweg", "straatNr": "1c", "postcode": "9672 BE", "plaats": "Winschoten", "merk": "Stibat", "puntType": "inzamelbak", "materialen": ["batterijen"], "uitbetaling": [], "vrijToegankelijk": false, "gemeenteBeperking": null, "openingstijden": null, "latitude": 53.1436918, "longitude": 7.0455893, "bronId": "L018652"}}, {"type": "Feature", "geometry": {"type": "Point", "coordinates": [7.0458968, 53.1441196]}, "properties": {"type": "inleverpunt", "locatieNaam": "1627 Albert Heijn", "straatNaam": "Beertsterweg", "straatNr": "1d", "postcode": "9672 BE", "plaats": "Winschoten", "merk": "Stibat", "puntType": "inzamelbak", "materialen": ["batterijen"], "uitbetaling": [], "vrijToegankelijk": false, "gemeenteBeperking": null, "openingstijden": null, "latitude": 53.1441196, "longitude": 7.0458968, "bronId": "L017722"}}, {"type": "Feature", "geometry": {"type": "Point", "coordinates": [7.0461123, 53.144649]}, "properties": {"type": "inleverpunt", "locatieNaam": "Praxis 2030", "straatNaam": "Beertsterweg", "straatNr": "3", "postcode": "9672 BE", "plaats": "Winschoten", "merk": "Stibat", "puntType": "inzamelbak", "materialen": ["batterijen"], "uitbetaling": [], "vrijToegankelijk": false, "gemeenteBeperking": null, "openingstijden": null, "latitude": 53.144649, "longitude": 7.0461123, "bronId": "L014548"}}, {"type": "Feature", "geometry": {"type": "Point", "coordinates": [7.0595521, 53.1367578]}, "properties": {"type": "inleverpunt", "locatieNaam": "Afvalbrengstation Winschoten", "straatNaam": "Haitzemastraat", "straatNr": "3", "postcode": "9672 DC", "plaats": "Winschoten", "merk": "Stibat", "puntType": "inzamelbak", "materialen": ["batterijen"], "uitbetaling": [], "vrijToegankelijk": false, "gemeenteBeperking": null, "openingstijden": null, "latitude": 53.1367578, "longitude": 7.0595521, "bronId": "L035920"}}, {"type": "Feature", "geometry": {"type": "Point", "coordinates": [7.0456085, 53.1455505]}, "properties": {"type": "inleverpunt", "locatieNaam": "Welkoop", "straatNaam": "Transportbaan", "straatNr": "1", "postcode": "9672 BJ", "plaats": "Winschoten", "merk": "Stibat", "puntType": "inzamelbak", "materialen": ["batterijen"], "uitbetaling": [], "vrijToegankelijk": false, "gemeenteBeperking": null, "openingstijden": null, "latitude": 53.1455505, "longitude": 7.0456085, "bronId": "L018958"}}, {"type": "Feature", "geometry": {"type": "Point", "coordinates": [7.0325225, 53.1567447]}, "properties": {"type": "inleverpunt", "locatieNaam": "PLUS", "straatNaam": "Jachtlaan", "straatNr": "11", "postcode": "9675 JA", "plaats": "Winschoten", "merk": "Stibat", "puntType": "inzamelbak", "materialen": ["batterijen"], "uitbetaling": [], "vrijToegankelijk": false, "gemeenteBeperking": null, "openingstijden": null, "latitude": 53.1567447, "longitude": 7.0325225, "bronId": "L009120"}}, {"type": "Feature", "geometry": {"type": "Point", "coordinates": [6.9815357, 53.1887106]}, "properties": {"type": "inleverpunt", "locatieNaam": "Esso", "straatNaam": "Zijdwende", "straatNr": "2", "postcode": "9681 TZ", "plaats": "Midwolda", "merk": "Stibat", "puntType": "inzamelbak", "materialen": ["batterijen"], "uitbetaling": [], "vrijToegankelijk": false, "gemeenteBeperking": null, "openingstijden": null, "latitude": 53.1887106, "longitude": 6.9815357, "bronId": "L030956"}}, {"type": "Feature", "geometry": {"type": "Point", "coordinates": [6.9815357, 53.1887106]}, "properties": {"type": "inleverpunt", "locatieNaam": "De Haan", "straatNaam": "Zijdwende", "straatNr": "2", "postcode": "9681 TZ", "plaats": "Midwolda", "merk": "Stibat", "puntType": "inzamelbak", "materialen": ["batterijen"], "uitbetaling": [], "vrijToegankelijk": false, "gemeenteBeperking": null, "openingstijden": null, "latitude": 53.1887106, "longitude": 6.9815357, "bronId": "L044811"}}, {"type": "Feature", "geometry": {"type": "Point", "coordinates": [7.0499708, 53.1498067]}, "properties": {"type": "inleverpunt", "locatieNaam": "Lichtcentrum Koos de Ruiter", "straatNaam": "Papierbaan", "straatNr": "1a", "postcode": "9672 BG", "plaats": "Winschoten", "merk": "Stibat", "puntType": "inzamelbak", "materialen": ["batterijen"], "uitbetaling": [], "vrijToegankelijk": false, "gemeenteBeperking": null, "openingstijden": null, "latitude": 53.1498067, "longitude": 7.0499708, "bronId": "L026591"}}, {"type": "Feature", "geometry": {"type": "Point", "coordinates": [7.0517913, 53.149584]}, "properties": {"type": "inleverpunt", "locatieNaam": "Meijer De Fiets Specialist Winschoten", "straatNaam": "Papierbaan", "straatNr": "2e", "postcode": "9672 BH", "plaats": "Winschoten", "merk": "Stibat", "puntType": "inzamelbak", "materialen": ["batterijen"], "uitbetaling": [], "vrijToegankelijk": false, "gemeenteBeperking": null, "openingstijden": null, "latitude": 53.149584, "longitude": 7.0517913, "bronId": "L044484"}}, {"type": "Feature", "geometry": {"type": "Point", "coordinates": [6.9905932, 53.1888479]}, "properties": {"type": "inleverpunt", "locatieNaam": "Camping de Bouwte", "straatNaam": "Hoofdweg", "straatNr": "20a", "postcode": "9681 AH", "plaats": "Midwolda", "merk": "Stibat", "puntType": "inzamelbak", "materialen": ["batterijen"], "uitbetaling": [], "vrijToegankelijk": false, "gemeenteBeperking": null, "openingstijden": null, "latitude": 53.1888479, "longitude": 6.9905932, "bronId": "L005177"}}, {"type": "Feature", "geometry": {"type": "Point", "coordinates": [7.0606055, 53.1502444]}, "properties": {"type": "inleverpunt", "locatieNaam": "Intratuin", "straatNaam": "Lijnbaan", "straatNr": "23", "postcode": "9672 BL", "plaats": "Winschoten", "merk": "Stibat", "puntType": "inzamelbak", "materialen": ["batterijen"], "uitbetaling": [], "vrijToegankelijk": false, "gemeenteBeperking": null, "openingstijden": null, "latitude": 53.1502444, "longitude": 7.0606055, "bronId": "L024335"}}, {"type": "Feature", "geometry": {"type": "Point", "coordinates": [7.0368327, 53.1660568]}, "properties": {"type": "inleverpunt", "locatieNaam": "Jachthaven Havenkwartier Blauwestad (Watersport Huninga's)", "straatNaam": "Redersplein", "straatNr": "6", "postcode": "9685 AW", "plaats": "Blauwestad", "merk": "Stibat", "puntType": "inzamelbak", "materialen": ["batterijen"], "uitbetaling": [], "vrijToegankelijk": false, "gemeenteBeperking": null, "openingstijden": null, "latitude": 53.1660568, "longitude": 7.0368327, "bronId": "L040728"}}, {"type": "Feature", "geometry": {"type": "Point", "coordinates": [7.0134054, 53.1952083]}, "properties": {"type": "inleverpunt", "locatieNaam": "Dagwinkel", "straatNaam": "Hoofdweg", "straatNr": "159", "postcode": "9681 AD", "plaats": "Midwolda", "merk": "Stibat", "puntType": "inzamelbak", "materialen": ["batterijen"], "uitbetaling": [], "vrijToegankelijk": false, "gemeenteBeperking": null, "openingstijden": null, "latitude": 53.1952083, "longitude": 7.0134054, "bronId": "L039395"}}, {"type": "Feature", "geometry": {"type": "Point", "coordinates": [7.0819538, 53.1610058]}, "properties": {"type": "inleverpunt", "locatieNaam": "Kringloopwinkel de Snuffelstal", "straatNaam": "Hoofdstraat", "straatNr": "22", "postcode": "9686 VJ", "plaats": "Beerta", "merk": "Stibat", "puntType": "inzamelbak", "materialen": ["batterijen"], "uitbetaling": [], "vrijToegankelijk": false, "gemeenteBeperking": null, "openingstijden": null, "latitude": 53.1610058, "longitude": 7.0819538, "bronId": "L040349"}}, {"type": "Feature", "geometry": {"type": "Point", "coordinates": [7.03204, 53.196308]}, "properties": {"type": "inleverpunt", "locatieNaam": "Watersportbedrijf Huninga's/Jachthaven Midwolda", "straatNaam": "Strandweg", "straatNr": "1", "postcode": "9681 BK", "plaats": "Midwolda", "merk": "Stibat", "puntType": "inzamelbak", "materialen": ["batterijen"], "uitbetaling": [], "vrijToegankelijk": false, "gemeenteBeperking": null, "openingstijden": null, "latitude": 53.196308, "longitude": 7.03204, "bronId": "L040727"}}, {"type": "Feature", "geometry": {"type": "Point", "coordinates": [6.9712484, 53.2440347]}, "properties": {"type": "inleverpunt", "locatieNaam": "Attent", "straatNaam": "Hoofdstraat", "straatNr": "6", "postcode": "9944 AE", "plaats": "Nieuwolda", "merk": "Stibat", "puntType": "inzamelbak", "materialen": ["batterijen"], "uitbetaling": [], "vrijToegankelijk": false, "gemeenteBeperking": null, "openingstijden": null, "latitude": 53.2440347, "longitude": 6.9712484, "bronId": "L027825"}}, {"type": "Feature", "geometry": {"type": "Point", "coordinates": [7.0780682, 53.1828214]}, "properties": {"type": "inleverpunt", "locatieNaam": "Auto + Fiets Totaal Jan Musch", "straatNaam": "Molenstreek", "straatNr": "20", "postcode": "9684 AS", "plaats": "Finsterwolde", "merk": "Stibat", "puntType": "inzamelbak", "materialen": ["batterijen"], "uitbetaling": [], "vrijToegankelijk": false, "gemeenteBeperking": null, "openingstijden": null, "latitude": 53.1828214, "longitude": 7.0780682, "bronId": "L034280"}}, {"type": "Feature", "geometry": {"type": "Point", "coordinates": [7.0836163, 53.1980216]}, "properties": {"type": "inleverpunt", "locatieNaam": "Spar", "straatNaam": "Hoofdweg", "straatNr": "123", "postcode": "9684 CE", "plaats": "Finsterwolde", "merk": "Stibat", "puntType": "inzamelbak", "materialen": ["batterijen"], "uitbetaling": [], "vrijToegankelijk": false, "gemeenteBeperking": null, "openingstijden": null, "latitude": 53.1980216, "longitude": 7.0836163, "bronId": "L024277"}}, {"type": "Feature", "geometry": {"type": "Point", "coordinates": [7.20512, 53.1828747]}, "properties": {"type": "inleverpunt", "locatieNaam": "Electro World", "straatNaam": "Hoofdstraat", "straatNr": "26", "postcode": "9693 AH", "plaats": "Bad Nieuweschans", "merk": "Stibat", "puntType": "inzamelbak", "materialen": ["batterijen"], "uitbetaling": [], "vrijToegankelijk": false, "gemeenteBeperking": null, "openingstijden": null, "latitude": 53.1828747, "longitude": 7.20512, "bronId": "L038751"}}, {"type": "Feature", "geometry": {"type": "Point", "coordinates": [7.2064548, 53.1825587]}, "properties": {"type": "inleverpunt", "locatieNaam": "Poiesz", "straatNaam": "Hoofdstraat", "straatNr": "41", "postcode": "9693 AE", "plaats": "Bad Nieuweschans", "merk": "Stibat", "puntType": "inzamelbak", "materialen": ["batterijen"], "uitbetaling": [], "vrijToegankelijk": false, "gemeenteBeperking": null, "openingstijden": null, "latitude": 53.1825587, "longitude": 7.2064548, "bronId": "L048182"}}, {"type": "Feature", "geometry": {"type": "Polygon", "coordinates": [[[7.028027003357786, 53.116112004491605], [7.029754003359455, 53.115097004491005], [7.03211000336174, 53.11529600449096], [7.033659003363242, 53.11604700449127], [7.03446700336403, 53.11685700449165], [7.035597003365133, 53.11957900449298], [7.0500150033791265, 53.128896004496966], [7.051180003380257, 53.13021800449756], [7.0608240033896035, 53.134005004498974], [7.0639510033926385, 53.135769004499664], [7.068850003397384, 53.137486004500275], [7.076833003405119, 53.141406004501846], [7.0812400034093885, 53.144014004502935], [7.085033003413059, 53.144889004503156], [7.088594003416502, 53.145239004503146], [7.093136003420894, 53.144741004502606], [7.09954300342709, 53.14322900450149], [7.102291003429747, 53.1432490045013], [7.105651003432997, 53.143939004501526], [7.108817003436062, 53.14502400450189], [7.1113370034385, 53.146328004502415], [7.125630003452326, 53.15137000450417], [7.133568003459997, 53.15238500450419], [7.139556003465784, 53.15433000450486], [7.141643003467806, 53.15552400450533], [7.143161003469272, 53.15710000450605], [7.145308003471347, 53.1607740045078], [7.173959003499019, 53.14793100449959], [7.1769950035019505, 53.15258200450179], [7.183173003507916, 53.15475400450249], [7.189244003513776, 53.15488300450224], [7.189323003513856, 53.15732300450349], [7.1912030035156675, 53.15966100450455], [7.190670003515153, 53.161119004505295], [7.190900003515374, 53.16184000450564], [7.203655003527677, 53.1765640045124], [7.208135003531999, 53.17654200451209], [7.212562003536268, 53.17696500451204], [7.22749800355067, 53.1802790045128], [7.208043003531898, 53.18847700451818], [7.211453003535184, 53.19250900451996], [7.216552003540098, 53.195548004521186], [7.217623003541129, 53.197817004522285], [7.217025003540531, 53.21476700453084], [7.216500003540023, 53.21651500453174], [7.211926003535605, 53.22452400453606], [7.210492003534219, 53.22839700453808], [7.212505003536154, 53.228189004537846], [7.187601003512011, 53.33218200459084], [7.17172000349674, 53.33320600459231], [7.132559003459066, 53.332651004594354], [7.111174003438483, 53.3318180045952], [7.101249003428928, 53.330258004595], [7.100442003428146, 53.30997700458508], [7.134268003460731, 53.287822004572156], [7.134860003461306, 53.27969200456809], [7.113461003440677, 53.26288000456099], [7.084371003412613, 53.254628004558555], [7.076633003405135, 53.24969900455655], [7.079431003407832, 53.24817700455558], [7.067522003396331, 53.242378004553416], [7.059441003388539, 53.24822800455676], [7.057421003386586, 53.247340004556435], [7.048178003377677, 53.254570004560556], [7.04167400337141, 53.259266004563244], [7.040307003370093, 53.25983700456361], [7.038719003368554, 53.2586300045631], [7.037209003367099, 53.2596820045637], [7.034969003364935, 53.259163004563575], [7.0341970033641905, 53.25884000456348], [7.03459600336457, 53.258423004563234], [7.031598003361671, 53.25613200456226], [7.02822500335841, 53.2550490045619], [7.023348003353699, 53.25415600456169], [7.021847003352248, 53.25323700456131], [7.01329600334401, 53.26070200456556], [7.012605003343344, 53.260638004565536], [7.0132290033439615, 53.26684000456859], [6.997622003328887, 53.267141004569616], [6.994786003326148, 53.26680600456961], [6.968782003300996, 53.260069004567654], [6.968450003300677, 53.260209004567756], [6.960014003292512, 53.258065004567136], [6.952231003284983, 53.256499004566756], [6.945920003278848, 53.24870500456322], [6.945606003278524, 53.244755004561256], [6.944990003277926, 53.24361500456073], [6.942506003275511, 53.242043004560074], [6.937603003270783, 53.24424900456143], [6.9284370032618785, 53.23695200455829], [6.923283003256906, 53.239315004559714], [6.923372003256992, 53.23952800455984], [6.921721003255395, 53.23918000455975], [6.91614800325002, 53.24361800456225], [6.9138790032478195, 53.242734004561946], [6.911344003245369, 53.24301500456223], [6.910197003244232, 53.23756700455955], [6.9092520032433145, 53.23764800455963], [6.908591003242659, 53.2339540045578], [6.912716003246603, 53.225125004553135], [6.920041003253705, 53.22734300455389], [6.925532003258992, 53.22155800455071], [6.922816003256358, 53.22063000455034], [6.9246240032580975, 53.21871600454932], [6.92427700325776, 53.21859300454926], [6.926918003260297, 53.21449300454705], [6.929399003262691, 53.21281700454609], [6.920596003254137, 53.20744900454383], [6.924688003258091, 53.20507100454244], [6.922410003255874, 53.20339500454172], [6.918398003251963, 53.19873300453956], [6.916820003250418, 53.19557000453802], [6.925123003258455, 53.194286004536984], [6.923851003257207, 53.19166000453573], [6.922684003256073, 53.19067900453532], [6.9186900032522045, 53.19139200453583], [6.918136003251658, 53.18946200453492], [6.915891003249479, 53.18840600453448], [6.915776003249356, 53.18668100453362], [6.913820003247441, 53.18295300453184], [6.912005003245674, 53.18129800453111], [6.91158000324526, 53.18128400453112], [6.911498003245167, 53.17870400452983], [6.911956003245611, 53.17869200452977], [6.913085003246692, 53.17692900452881], [6.912534003246151, 53.175623004528205], [6.911521003245167, 53.17497100452794], [6.90827000324201, 53.17433800452775], [6.907636003241388, 53.17287800452706], [6.908536003242255, 53.17204000452655], [6.912208003245816, 53.17196600452635], [6.907633003241367, 53.16986800452553], [6.903300003237149, 53.16646300452398], [6.929276003262342, 53.16905100452396], [6.92983400326286, 53.16533500452204], [6.942236003274886, 53.166532004522004], [6.942401003275044, 53.16570300452155], [6.943047003275669, 53.1656720045215], [6.943783003276349, 53.15901300451811], [6.950381003282739, 53.1588950045177], [6.954665003286813, 53.14301700450935], [6.954640003286754, 53.13665400450613], [6.955477003287567, 53.13692000450622], [6.955872003287949, 53.136517004505976], [6.9570090032890315, 53.13297200450408], [6.960734003292604, 53.124912004499784], [6.960810003292673, 53.12467900449963], [6.959872003291761, 53.12449900449961], [6.965847003297493, 53.11207800449295], [6.964948003296617, 53.11175100449282], [6.965295003296954, 53.11083100449229], [6.967390003298986, 53.11135700449246], [6.979749003311009, 53.119196004495834], [6.981352003312559, 53.118306004495274], [6.982535003313711, 53.119123004495634], [6.984452003315564, 53.11811000449501], [6.98378100331491, 53.11765100449484], [6.987362003318374, 53.11577300449364], [6.987612003318618, 53.116103004493795], [7.028027003357786, 53.116112004491605]]]}, "properties": {"type": "boundary", "gemeente": "Oldambt"}}]}