{"type": "FeatureCollection", "metadata": {"gemeente": "Ommen", "slug": "ommen", "generated_at": "2026-08-24T03:11:25.039479Z", "total_points": 46, "merken": ["StatiegeldNederland", "Stibat", "StichtingOPEN"], "bounds": [6.414617, 52.4667929, 6.5457444, 52.5455172]}, "features": [{"type": "Feature", "geometry": {"type": "Point", "coordinates": [6.4257567, 52.5251847]}, "properties": {"type": "inleverpunt", "locatieNaam": "Albert Heijn", "straatNaam": "Haven Noord", "straatNr": "1", "postcode": "7731 GZ", "plaats": "Ommen", "merk": "StatiegeldNederland", "puntType": "automaat", "materialen": ["pet-groot", "pet-klein", "blik", "glas", "krat"], "uitbetaling": ["bonnetje", "donatie"], "vrijToegankelijk": true, "gemeenteBeperking": null, "openingstijden": {"ma": "08:00–21:00", "di": "08:00–21:00", "wo": "08:00–21:00", "do": "08:00–21:00", "vr": "08:00–21:00", "za": "08:00–21:00", "zo": "12:00–18:00"}, "latitude": 52.5251847, "longitude": 6.4257567, "bronId": "293506"}}, {"type": "Feature", "geometry": {"type": "Point", "coordinates": [6.4245227, 52.5275093]}, "properties": {"type": "inleverpunt", "locatieNaam": "Aldi", "straatNaam": "Nieuwelandstraat", "straatNr": "1B", "postcode": "7731 TH", "plaats": "Ommen", "merk": "StatiegeldNederland", "puntType": "automaat", "materialen": ["pet-groot", "pet-klein", "blik", "glas", "krat"], "uitbetaling": ["bonnetje"], "vrijToegankelijk": true, "gemeenteBeperking": null, "openingstijden": {"ma": "08:00–20:00", "di": "08:00–20:00", "wo": "08:00–20:00", "do": "08:00–20:00", "vr": "08:00–20:00", "za": "08:00–20:00", "zo": "12:00–18:00"}, "latitude": 52.5275093, "longitude": 6.4245227, "bronId": "294500"}}, {"type": "Feature", "geometry": {"type": "Point", "coordinates": [6.5455024, 52.5116509]}, "properties": {"type": "inleverpunt", "locatieNaam": "Beerze Bulten B.V.", "straatNaam": "Kampweg", "straatNr": "1", "postcode": "7736 PK", "plaats": "Beerze", "merk": "StatiegeldNederland", "puntType": "automaat", "materialen": ["pet-groot", "pet-klein", "blik"], "uitbetaling": ["bonnetje"], "vrijToegankelijk": true, "gemeenteBeperking": null, "openingstijden": {"ma": "09:00–20:30", "di": "09:00–20:30", "wo": "09:00–20:30", "do": "09:00–20:30", "vr": "09:00–20:30", "za": "09:00–20:30", "zo": "09:00–20:30"}, "latitude": 52.5116509, "longitude": 6.5455024, "bronId": "295032"}}, {"type": "Feature", "geometry": {"type": "Point", "coordinates": [6.4209278, 52.5188369]}, "properties": {"type": "inleverpunt", "locatieNaam": "Jumbo", "straatNaam": "Markt", "straatNr": "22-24", "postcode": "7731 DB", "plaats": "Ommen", "merk": "StatiegeldNederland", "puntType": "automaat", "materialen": ["pet-groot", "pet-klein", "blik", "glas", "krat"], "uitbetaling": ["bonnetje", "donatie"], "vrijToegankelijk": true, "gemeenteBeperking": null, "openingstijden": {"ma": "08:00–21:00", "di": "08:00–21:00", "wo": "08:00–21:00", "do": "08:00–21:00", "vr": "08:00–21:00", "za": "08:00–21:00", "zo": "12:00–18:00"}, "latitude": 52.5188369, "longitude": 6.4209278, "bronId": "297015"}}, {"type": "Feature", "geometry": {"type": "Point", "coordinates": [6.42547, 52.5229808]}, "properties": {"type": "inleverpunt", "locatieNaam": "Lidl", "straatNaam": "Schurinkstraat", "straatNr": "32", "postcode": "7731 GE", "plaats": "Ommen", "merk": "StatiegeldNederland", "puntType": "automaat", "materialen": ["pet-groot", "pet-klein", "blik", "glas", "krat"], "uitbetaling": ["bonnetje", "donatie"], "vrijToegankelijk": true, "gemeenteBeperking": null, "openingstijden": {"ma": "08:00–21:00", "di": "08:00–21:00", "wo": "08:00–21:00", "do": "08:00–21:00", "vr": "08:00–21:00", "za": "08:00–21:00", "zo": "12:00–18:00"}, "latitude": 52.5229808, "longitude": 6.42547, "bronId": "297836"}}, {"type": "Feature", "geometry": {"type": "Point", "coordinates": [6.4931201, 52.5453133]}, "properties": {"type": "inleverpunt", "locatieNaam": "Recreatiewinkel Brakert", "straatNaam": "Coevorderweg", "straatNr": "25", "postcode": "7737 PE", "plaats": "Stegeren", "merk": "StatiegeldNederland", "puntType": "automaat", "materialen": ["pet-groot", "pet-klein", "blik"], "uitbetaling": ["donatie", "retourpinnen"], "vrijToegankelijk": true, "gemeenteBeperking": null, "openingstijden": {"ma": "09:00–18:00", "di": "09:00–18:00", "wo": "09:00–18:00", "do": "09:00–20:00", "vr": "09:00–20:00", "za": "09:00–18:00", "zo": "12:00–18:00"}, "latitude": 52.5453133, "longitude": 6.4931201, "bronId": "299261"}}, {"type": "Feature", "geometry": {"type": "Point", "coordinates": [6.5455024, 52.5116509]}, "properties": {"type": "inleverpunt", "locatieNaam": "Spar", "straatNaam": "KAMPWEG", "straatNr": "1", "postcode": "7736 PK", "plaats": "Beerze", "merk": "StatiegeldNederland", "puntType": "balie", "materialen": ["pet-groot", "pet-klein", "blik"], "uitbetaling": [], "vrijToegankelijk": true, "gemeenteBeperking": null, "openingstijden": {"ma": "09:00–20:30", "di": "09:00–20:30", "wo": "09:00–20:30", "do": "09:00–20:30", "vr": "09:00–20:30", "za": "09:00–20:30", "zo": "09:00–20:30"}, "latitude": 52.5116509, "longitude": 6.5455024, "bronId": "299873"}}, {"type": "Feature", "geometry": {"type": "Point", "coordinates": [6.414617, 52.515336]}, "properties": {"type": "inleverpunt", "locatieNaam": "Kinderboerderij Ommen", "straatNaam": "Het Laar", "straatNr": "2c", "postcode": "7731 AV", "plaats": "Ommen", "merk": "StichtingOPEN", "puntType": "balie", "materialen": ["elektro-middel"], "uitbetaling": [], "vrijToegankelijk": false, "gemeenteBeperking": null, "openingstijden": null, "latitude": 52.515336, "longitude": 6.414617, "bronId": "SP00020772"}}, {"type": "Feature", "geometry": {"type": "Point", "coordinates": [6.421055, 52.518678]}, "properties": {"type": "inleverpunt", "locatieNaam": "Action Ommen 1318", "straatNaam": "Markt", "straatNr": "49", "postcode": "7731 DB", "plaats": "Ommen", "merk": "StichtingOPEN", "puntType": "balie", "materialen": ["lampen"], "uitbetaling": [], "vrijToegankelijk": false, "gemeenteBeperking": null, "openingstijden": null, "latitude": 52.518678, "longitude": 6.421055, "bronId": "SP00007885"}}, {"type": "Feature", "geometry": {"type": "Point", "coordinates": [6.421027, 52.518763]}, "properties": {"type": "inleverpunt", "locatieNaam": "Jumbo Ommen", "straatNaam": "Markt", "straatNr": "2224", "postcode": "7731 DB", "plaats": "Ommen", "merk": "StichtingOPEN", "puntType": "balie", "materialen": ["batterijen", "lampen"], "uitbetaling": [], "vrijToegankelijk": false, "gemeenteBeperking": null, "openingstijden": null, "latitude": 52.518763, "longitude": 6.421027, "bronId": "SP00025328"}}, {"type": "Feature", "geometry": {"type": "Point", "coordinates": [6.421536, 52.51928]}, "properties": {"type": "inleverpunt", "locatieNaam": "Kruidvat Ommen", "straatNaam": "Varsenerstraat", "straatNr": "5", "postcode": "7731 DC", "plaats": "Ommen", "merk": "StichtingOPEN", "puntType": "balie", "materialen": ["batterijen", "lampen"], "uitbetaling": [], "vrijToegankelijk": false, "gemeenteBeperking": null, "openingstijden": null, "latitude": 52.51928, "longitude": 6.421536, "bronId": "SP00024781"}}, {"type": "Feature", "geometry": {"type": "Point", "coordinates": [6.425561, 52.522275]}, "properties": {"type": "inleverpunt", "locatieNaam": "Expert Ommen B.V.", "straatNaam": "Schurinkstraat", "straatNr": "26A", "postcode": "7731 GD", "plaats": "Ommen", "merk": "StichtingOPEN", "puntType": "balie", "materialen": ["batterijen", "elektro-groot", "elektro-klein", "elektro-middel", "lampen"], "uitbetaling": [], "vrijToegankelijk": false, "gemeenteBeperking": null, "openingstijden": null, "latitude": 52.522275, "longitude": 6.425561, "bronId": "SP00033355"}}, {"type": "Feature", "geometry": {"type": "Point", "coordinates": [6.42584, 52.525205]}, "properties": {"type": "inleverpunt", "locatieNaam": "8621 Albert Heijn Ommen", "straatNaam": "Haven Noord", "straatNr": "1", "postcode": "7731 GZ", "plaats": "Ommen", "merk": "StichtingOPEN", "puntType": "balie", "materialen": ["batterijen", "elektro-klein", "lampen"], "uitbetaling": [], "vrijToegankelijk": false, "gemeenteBeperking": null, "openingstijden": null, "latitude": 52.525205, "longitude": 6.42584, "bronId": "SP00023120"}}, {"type": "Feature", "geometry": {"type": "Point", "coordinates": [6.422295, 52.529006]}, "properties": {"type": "inleverpunt", "locatieNaam": "KARWEI Ommen", "straatNaam": "Balkerweg", "straatNr": "1", "postcode": "7731 RX", "plaats": "Ommen", "merk": "StichtingOPEN", "puntType": "balie", "materialen": ["batterijen", "elektro-klein", "elektro-middel", "lampen", "tl-buizen"], "uitbetaling": [], "vrijToegankelijk": false, "gemeenteBeperking": null, "openingstijden": null, "latitude": 52.529006, "longitude": 6.422295, "bronId": "SP00003647"}}, {"type": "Feature", "geometry": {"type": "Point", "coordinates": [6.432363, 52.525836]}, "properties": {"type": "inleverpunt", "locatieNaam": "Stichting Kringloop Zwolle - Noggus & Noggus Ommen", "straatNaam": "Strangeweg", "straatNr": "23", "postcode": "7731 GV", "plaats": "Ommen", "merk": "StichtingOPEN", "puntType": "balie", "materialen": ["batterijen", "elektro-groot", "elektro-klein", "elektro-middel", "lampen", "tl-buizen"], "uitbetaling": [], "vrijToegankelijk": false, "gemeenteBeperking": null, "openingstijden": null, "latitude": 52.525836, "longitude": 6.432363, "bronId": "SP00040253"}}, {"type": "Feature", "geometry": {"type": "Point", "coordinates": [6.431975, 52.528047]}, "properties": {"type": "inleverpunt", "locatieNaam": "EP Ommen", "straatNaam": "Slagenkampweg", "straatNr": "9", "postcode": "7731 TK", "plaats": "Ommen", "merk": "StichtingOPEN", "puntType": "balie", "materialen": ["elektro-klein", "elektro-middel"], "uitbetaling": [], "vrijToegankelijk": false, "gemeenteBeperking": null, "openingstijden": null, "latitude": 52.528047, "longitude": 6.431975, "bronId": "SP00032707"}}, {"type": "Feature", "geometry": {"type": "Point", "coordinates": [6.434599, 52.529872]}, "properties": {"type": "inleverpunt", "locatieNaam": "Aldi Ommen", "straatNaam": "Slagenweg", "straatNr": "1", "postcode": "7731 TJ", "plaats": "Ommen", "merk": "StichtingOPEN", "puntType": "balie", "materialen": ["batterijen", "elektro-klein", "lampen"], "uitbetaling": [], "vrijToegankelijk": false, "gemeenteBeperking": null, "openingstijden": null, "latitude": 52.529872, "longitude": 6.434599, "bronId": "SP00027004"}}, {"type": "Feature", "geometry": {"type": "Point", "coordinates": [6.432363, 52.525836]}, "properties": {"type": "inleverpunt", "locatieNaam": "Noggus & Noggus Ommen", "straatNaam": "Strangeweg", "straatNr": "23", "postcode": "7731 GV", "plaats": "Ommen", "merk": "StichtingOPEN", "puntType": "milieustraat", "materialen": ["batterijen", "elektro-groot", "elektro-klein", "elektro-middel", "lampen", "tl-buizen"], "uitbetaling": [], "vrijToegankelijk": false, "gemeenteBeperking": ["Ommen"], "openingstijden": null, "latitude": 52.525836, "longitude": 6.432363, "bronId": "SP00004328"}}, {"type": "Feature", "geometry": {"type": "Point", "coordinates": [6.4259587, 52.4667929]}, "properties": {"type": "inleverpunt", "locatieNaam": "Camping de Lemeler-Esch", "straatNaam": "Lemelerweg", "straatNr": "16", "postcode": "8148 PC", "plaats": "Lemele", "merk": "Stibat", "puntType": "inzamelbak", "materialen": ["batterijen"], "uitbetaling": [], "vrijToegankelijk": false, "gemeenteBeperking": null, "openingstijden": null, "latitude": 52.4667929, "longitude": 6.4259587, "bronId": "L005157"}}, {"type": "Feature", "geometry": {"type": "Point", "coordinates": [6.4196688, 52.511142]}, "properties": {"type": "inleverpunt", "locatieNaam": "Telefoon reparatie Ommen", "straatNaam": "Stationsweg", "straatNr": "24", "postcode": "7731 AX", "plaats": "Ommen", "merk": "Stibat", "puntType": "inzamelbak", "materialen": ["batterijen"], "uitbetaling": [], "vrijToegankelijk": false, "gemeenteBeperking": null, "openingstijden": null, "latitude": 52.511142, "longitude": 6.4196688, "bronId": "L045467"}}, {"type": "Feature", "geometry": {"type": "Point", "coordinates": [6.4207423, 52.518872]}, "properties": {"type": "inleverpunt", "locatieNaam": "Jumbo", "straatNaam": "Markt", "straatNr": "22-24", "postcode": "7731 DB", "plaats": "Ommen", "merk": "Stibat", "puntType": "inzamelbak", "materialen": ["batterijen"], "uitbetaling": [], "vrijToegankelijk": false, "gemeenteBeperking": null, "openingstijden": null, "latitude": 52.518872, "longitude": 6.4207423, "bronId": "L030878"}}, {"type": "Feature", "geometry": {"type": "Point", "coordinates": [6.4215103, 52.5190784]}, "properties": {"type": "inleverpunt", "locatieNaam": "Phone House", "straatNaam": "11 April Plein", "straatNr": "16", "postcode": "7731 CD", "plaats": "Ommen", "merk": "Stibat", "puntType": "inzamelbak", "materialen": ["batterijen"], "uitbetaling": [], "vrijToegankelijk": false, "gemeenteBeperking": null, "openingstijden": null, "latitude": 52.5190784, "longitude": 6.4215103, "bronId": "L042577"}}, {"type": "Feature", "geometry": {"type": "Point", "coordinates": [6.4222974, 52.5185572]}, "properties": {"type": "inleverpunt", "locatieNaam": "Primera", "straatNaam": "Bermerstraat", "straatNr": "8-10", "postcode": "7731 CZ", "plaats": "Ommen", "merk": "Stibat", "puntType": "inzamelbak", "materialen": ["batterijen"], "uitbetaling": [], "vrijToegankelijk": false, "gemeenteBeperking": null, "openingstijden": null, "latitude": 52.5185572, "longitude": 6.4222974, "bronId": "L023236"}}, {"type": "Feature", "geometry": {"type": "Point", "coordinates": [6.4217908, 52.5192565]}, "properties": {"type": "inleverpunt", "locatieNaam": "Kruidvat", "straatNaam": "Varsenerstraat", "straatNr": "5", "postcode": "7731 DC", "plaats": "Ommen", "merk": "Stibat", "puntType": "inzamelbak", "materialen": ["batterijen"], "uitbetaling": [], "vrijToegankelijk": false, "gemeenteBeperking": null, "openingstijden": null, "latitude": 52.5192565, "longitude": 6.4217908, "bronId": "L016246"}}, {"type": "Feature", "geometry": {"type": "Point", "coordinates": [6.421739, 52.5195656]}, "properties": {"type": "inleverpunt", "locatieNaam": "HEMA Ommen", "straatNaam": "Varsenerstraat", "straatNr": "16", "postcode": "7731 DC", "plaats": "Ommen", "merk": "Stibat", "puntType": "inzamelbak", "materialen": ["batterijen"], "uitbetaling": [], "vrijToegankelijk": false, "gemeenteBeperking": null, "openingstijden": null, "latitude": 52.5195656, "longitude": 6.421739, "bronId": "L046770"}}, {"type": "Feature", "geometry": {"type": "Point", "coordinates": [6.423025, 52.518263]}, "properties": {"type": "inleverpunt", "locatieNaam": "Hans Anders", "straatNaam": "Brugstraat", "straatNr": "20", "postcode": "7731 CT", "plaats": "Ommen", "merk": "Stibat", "puntType": "inzamelbak", "materialen": ["batterijen"], "uitbetaling": [], "vrijToegankelijk": false, "gemeenteBeperking": null, "openingstijden": null, "latitude": 52.518263, "longitude": 6.423025, "bronId": "L037892"}}, {"type": "Feature", "geometry": {"type": "Point", "coordinates": [6.4225451, 52.5198023]}, "properties": {"type": "inleverpunt", "locatieNaam": "EP:", "straatNaam": "Gasthuisstraat", "straatNr": "52", "postcode": "7731 DA", "plaats": "Ommen", "merk": "Stibat", "puntType": "inzamelbak", "materialen": ["batterijen"], "uitbetaling": [], "vrijToegankelijk": false, "gemeenteBeperking": null, "openingstijden": null, "latitude": 52.5198023, "longitude": 6.4225451, "bronId": "L027797"}}, {"type": "Feature", "geometry": {"type": "Point", "coordinates": [6.4234835, 52.5191915]}, "properties": {"type": "inleverpunt", "locatieNaam": "The Read Shop", "straatNaam": "Kruisstraat", "straatNr": "3", "postcode": "7731 CR", "plaats": "Ommen", "merk": "Stibat", "puntType": "inzamelbak", "materialen": ["batterijen"], "uitbetaling": [], "vrijToegankelijk": false, "gemeenteBeperking": null, "openingstijden": null, "latitude": 52.5191915, "longitude": 6.4234835, "bronId": "L036487"}}, {"type": "Feature", "geometry": {"type": "Point", "coordinates": [6.4238117, 52.5189382]}, "properties": {"type": "inleverpunt", "locatieNaam": "Phone House", "straatNaam": "Vrijthof", "straatNr": "11", "postcode": "7731 CN", "plaats": "Ommen", "merk": "Stibat", "puntType": "inzamelbak", "materialen": ["batterijen"], "uitbetaling": [], "vrijToegankelijk": false, "gemeenteBeperking": null, "openingstijden": null, "latitude": 52.5189382, "longitude": 6.4238117, "bronId": "L023835"}}, {"type": "Feature", "geometry": {"type": "Point", "coordinates": [6.4233489, 52.5203611]}, "properties": {"type": "inleverpunt", "locatieNaam": "Van Boxtel hoorwinkel", "straatNaam": "Gasthuisstraat", "straatNr": "8", "postcode": "7731 DA", "plaats": "Ommen", "merk": "Stibat", "puntType": "inzamelbak", "materialen": ["batterijen"], "uitbetaling": [], "vrijToegankelijk": false, "gemeenteBeperking": null, "openingstijden": null, "latitude": 52.5203611, "longitude": 6.4233489, "bronId": "L036237"}}, {"type": "Feature", "geometry": {"type": "Point", "coordinates": [6.4237798, 52.5209817]}, "properties": {"type": "inleverpunt", "locatieNaam": "Gerrits Tweewielers", "straatNaam": "Hamsgoren", "straatNr": "3", "postcode": "7731 EZ", "plaats": "Ommen", "merk": "Stibat", "puntType": "inzamelbak", "materialen": ["batterijen"], "uitbetaling": [], "vrijToegankelijk": false, "gemeenteBeperking": null, "openingstijden": null, "latitude": 52.5209817, "longitude": 6.4237798, "bronId": "L034064"}}, {"type": "Feature", "geometry": {"type": "Point", "coordinates": [6.4257409, 52.5207499]}, "properties": {"type": "inleverpunt", "locatieNaam": "Gevro Tweewielers", "straatNaam": "Dr. A.C. van Raaltestraat", "straatNr": "15", "postcode": "7731 GN", "plaats": "Ommen", "merk": "Stibat", "puntType": "inzamelbak", "materialen": ["batterijen"], "uitbetaling": [], "vrijToegankelijk": false, "gemeenteBeperking": null, "openingstijden": null, "latitude": 52.5207499, "longitude": 6.4257409, "bronId": "L049251"}}, {"type": "Feature", "geometry": {"type": "Point", "coordinates": [6.426132, 52.520598]}, "properties": {"type": "inleverpunt", "locatieNaam": "Takman IJzerwaren", "straatNaam": "Dr. A.C. van Raaltestraat", "straatNr": "26", "postcode": "7731 GP", "plaats": "Ommen", "merk": "Stibat", "puntType": "inzamelbak", "materialen": ["batterijen"], "uitbetaling": [], "vrijToegankelijk": false, "gemeenteBeperking": null, "openingstijden": null, "latitude": 52.520598, "longitude": 6.426132, "bronId": "L039641"}}, {"type": "Feature", "geometry": {"type": "Point", "coordinates": [6.4246658, 52.5224797]}, "properties": {"type": "inleverpunt", "locatieNaam": "1318 Action", "straatNaam": "Schurinkhof", "straatNr": "2", "postcode": "7731 EX", "plaats": "Ommen", "merk": "Stibat", "puntType": "inzamelbak", "materialen": ["batterijen"], "uitbetaling": [], "vrijToegankelijk": false, "gemeenteBeperking": null, "openingstijden": null, "latitude": 52.5224797, "longitude": 6.4246658, "bronId": "L034764"}}, {"type": "Feature", "geometry": {"type": "Point", "coordinates": [6.4212497, 52.5263563]}, "properties": {"type": "inleverpunt", "locatieNaam": "Beter Horen", "straatNaam": "Carrouselplein", "straatNr": "10", "postcode": "7731 EG", "plaats": "Ommen", "merk": "Stibat", "puntType": "inzamelbak", "materialen": ["batterijen"], "uitbetaling": [], "vrijToegankelijk": false, "gemeenteBeperking": null, "openingstijden": null, "latitude": 52.5263563, "longitude": 6.4212497, "bronId": "L037446"}}, {"type": "Feature", "geometry": {"type": "Point", "coordinates": [6.425561, 52.522275]}, "properties": {"type": "inleverpunt", "locatieNaam": "Expert", "straatNaam": "Schurinkstraat", "straatNr": "26A", "postcode": "7731 GD", "plaats": "Ommen", "merk": "Stibat", "puntType": "inzamelbak", "materialen": ["batterijen"], "uitbetaling": [], "vrijToegankelijk": false, "gemeenteBeperking": null, "openingstijden": null, "latitude": 52.522275, "longitude": 6.425561, "bronId": "L020778"}}, {"type": "Feature", "geometry": {"type": "Point", "coordinates": [6.4164081, 52.5319672]}, "properties": {"type": "inleverpunt", "locatieNaam": "Welkoop", "straatNaam": "Brink", "straatNr": "59", "postcode": "7731 TD", "plaats": "Ommen", "merk": "Stibat", "puntType": "inzamelbak", "materialen": ["batterijen"], "uitbetaling": [], "vrijToegankelijk": false, "gemeenteBeperking": null, "openingstijden": null, "latitude": 52.5319672, "longitude": 6.4164081, "bronId": "L018749"}}, {"type": "Feature", "geometry": {"type": "Point", "coordinates": [6.4255274, 52.5231677]}, "properties": {"type": "inleverpunt", "locatieNaam": "Lidl", "straatNaam": "Schurinkstraat", "straatNr": "30", "postcode": "7731 GE", "plaats": "Ommen", "merk": "Stibat", "puntType": "inzamelbak", "materialen": ["batterijen"], "uitbetaling": [], "vrijToegankelijk": false, "gemeenteBeperking": null, "openingstijden": null, "latitude": 52.5231677, "longitude": 6.4255274, "bronId": "L030673"}}, {"type": "Feature", "geometry": {"type": "Point", "coordinates": [6.4255193, 52.5253294]}, "properties": {"type": "inleverpunt", "locatieNaam": "8621 Albert Heijn", "straatNaam": "Haven Noord", "straatNr": "1", "postcode": "7731 GZ", "plaats": "Ommen", "merk": "Stibat", "puntType": "inzamelbak", "materialen": ["batterijen"], "uitbetaling": [], "vrijToegankelijk": false, "gemeenteBeperking": null, "openingstijden": null, "latitude": 52.5253294, "longitude": 6.4255193, "bronId": "L006504"}}, {"type": "Feature", "geometry": {"type": "Point", "coordinates": [6.4223321, 52.5290364]}, "properties": {"type": "inleverpunt", "locatieNaam": "Karwei", "straatNaam": "Balkerweg", "straatNr": "1", "postcode": "7731 RX", "plaats": "Ommen", "merk": "Stibat", "puntType": "inzamelbak", "materialen": ["batterijen"], "uitbetaling": [], "vrijToegankelijk": false, "gemeenteBeperking": null, "openingstijden": null, "latitude": 52.5290364, "longitude": 6.4223321, "bronId": "L021381"}}, {"type": "Feature", "geometry": {"type": "Point", "coordinates": [6.4429503, 52.5081337]}, "properties": {"type": "inleverpunt", "locatieNaam": "Camping Ommerland", "straatNaam": "Besthemerberg", "straatNr": "1", "postcode": "7731 PB", "plaats": "Ommen", "merk": "Stibat", "puntType": "inzamelbak", "materialen": ["batterijen"], "uitbetaling": [], "vrijToegankelijk": false, "gemeenteBeperking": null, "openingstijden": null, "latitude": 52.5081337, "longitude": 6.4429503, "bronId": "L003747"}}, {"type": "Feature", "geometry": {"type": "Point", "coordinates": [6.4257696, 52.5274797]}, "properties": {"type": "inleverpunt", "locatieNaam": "Aldi", "straatNaam": "Nieuwelandstraat", "straatNr": "1 b", "postcode": "7731 TH", "plaats": "Ommen", "merk": "Stibat", "puntType": "inzamelbak", "materialen": ["batterijen"], "uitbetaling": [], "vrijToegankelijk": false, "gemeenteBeperking": null, "openingstijden": null, "latitude": 52.5274797, "longitude": 6.4257696, "bronId": "L041509"}}, {"type": "Feature", "geometry": {"type": "Point", "coordinates": [6.4323633, 52.5258365]}, "properties": {"type": "inleverpunt", "locatieNaam": "Kringloopwinkel Noggus &amp; Noggus Ommen", "straatNaam": "Strangeweg", "straatNr": "23", "postcode": "7731 GV", "plaats": "Ommen", "merk": "Stibat", "puntType": "inzamelbak", "materialen": ["batterijen"], "uitbetaling": [], "vrijToegankelijk": false, "gemeenteBeperking": null, "openingstijden": null, "latitude": 52.5258365, "longitude": 6.4323633, "bronId": "L044851"}}, {"type": "Feature", "geometry": {"type": "Point", "coordinates": [6.5155369, 52.5108217]}, "properties": {"type": "inleverpunt", "locatieNaam": "Camping de Roos", "straatNaam": "Beerzenweg", "straatNr": "10", "postcode": "7736 PJ", "plaats": "Beerze", "merk": "Stibat", "puntType": "inzamelbak", "materialen": ["batterijen"], "uitbetaling": [], "vrijToegankelijk": false, "gemeenteBeperking": null, "openingstijden": null, "latitude": 52.5108217, "longitude": 6.5155369, "bronId": "L004970"}}, {"type": "Feature", "geometry": {"type": "Point", "coordinates": [6.4943914, 52.5455172]}, "properties": {"type": "inleverpunt", "locatieNaam": "Camping De Kleine Wolf", "straatNaam": "Coevorderweg", "straatNr": "25", "postcode": "7737 PE", "plaats": "Stegeren", "merk": "Stibat", "puntType": "inzamelbak", "materialen": ["batterijen"], "uitbetaling": [], "vrijToegankelijk": false, "gemeenteBeperking": null, "openingstijden": null, "latitude": 52.5455172, "longitude": 6.4943914, "bronId": "L003590"}}, {"type": "Feature", "geometry": {"type": "Point", "coordinates": [6.5457444, 52.5124042]}, "properties": {"type": "inleverpunt", "locatieNaam": "Spar Beerze Bulten", "straatNaam": "Kampweg", "straatNr": "1", "postcode": "7736 PK", "plaats": "Beerze", "merk": "Stibat", "puntType": "inzamelbak", "materialen": ["batterijen"], "uitbetaling": [], "vrijToegankelijk": false, "gemeenteBeperking": null, "openingstijden": null, "latitude": 52.5124042, "longitude": 6.5457444, "bronId": "L049558"}}, {"type": "Feature", "geometry": {"type": "Polygon", "coordinates": [[[6.3903150027237166, 52.42814500414383], [6.428777002762025, 52.43868700414849], [6.437166002770432, 52.443652004151055], [6.438351002771606, 52.44397200415121], [6.437550002770833, 52.44474300415164], [6.438768002772064, 52.446106004152405], [6.438235002771579, 52.44815000415362], [6.439641002772973, 52.448238004153616], [6.4425160027758555, 52.450071004154566], [6.443081002776466, 52.45255800415599], [6.444395002777809, 52.45465500415717], [6.444199002777621, 52.45490900415731], [6.442174002775617, 52.45500000415745], [6.4417680027752295, 52.45567100415786], [6.442960002776434, 52.45693000415849], [6.445497002778948, 52.457289004158646], [6.4461550027796095, 52.457652004158795], [6.444647002778136, 52.45858000415943], [6.445026002778545, 52.46018600416033], [6.445935002779465, 52.46117000416086], [6.447152002780678, 52.46166000416112], [6.450675002784153, 52.461128004160656], [6.4514020027848735, 52.46133000416072], [6.450066002783569, 52.46189400416112], [6.449697002783221, 52.4628450041617], [6.447738002781315, 52.46449300416272], [6.447450002781051, 52.46554300416335], [6.448375002781986, 52.466469004163855], [6.450651002784245, 52.46689000416402], [6.451356002784904, 52.464914004162836], [6.452566002786095, 52.46459800416258], [6.453103002786671, 52.466900004163904], [6.450691002784307, 52.4680510041647], [6.450817002784445, 52.468623004165], [6.452681002786307, 52.46954100416546], [6.452062002785713, 52.47034100416595], [6.452530002786188, 52.471048004166335], [6.454145002787792, 52.47134500416649], [6.452933002786574, 52.47033900416591], [6.453287002786905, 52.469465004165386], [6.454668002788265, 52.469291004165235], [6.454879002788483, 52.469536004165384], [6.455136002788733, 52.469346004165246], [6.4571010027906866, 52.469868004165434], [6.45859900279217, 52.46989800416543], [6.461434002795, 52.471345004166146], [6.461486002795057, 52.47163200416632], [6.460635002794224, 52.472038004166585], [6.461661002795247, 52.472318004166716], [6.461504002795109, 52.47334100416729], [6.46545200279905, 52.47511500416817], [6.467101002800691, 52.47552700416833], [6.472442002805973, 52.47568800416822], [6.475965002809485, 52.47713700416893], [6.4784050028119085, 52.477605004169085], [6.484140002817563, 52.47691200416846], [6.488576002821949, 52.476862004168254], [6.492504002825878, 52.47925900416947], [6.493222002826592, 52.47944500416954], [6.495790002829127, 52.47925600416932], [6.4956000028289544, 52.48001100416979], [6.494683002828056, 52.48044500417008], [6.494809002828187, 52.48100200417037], [6.503773002837063, 52.48172200417044], [6.5054690028389155, 52.490963004175676], [6.554463002887255, 52.487593004171714], [6.595170002927325, 52.48028600416578], [6.600170002932346, 52.48515400416837], [6.609644002941824, 52.49250500417225], [6.592382002924911, 52.49956600417701], [6.573094002906019, 52.507984004182646], [6.5680110029010565, 52.51114900418473], [6.565930002899014, 52.51168500418515], [6.564490002897607, 52.512447004185624], [6.5612820028944485, 52.51293100418603], [6.560304002893499, 52.513911004186625], [6.560198002893416, 52.51522000418738], [6.56145600289466, 52.51541400418743], [6.563789002896951, 52.51452700418686], [6.564808002897954, 52.51447800418677], [6.566091002899234, 52.51505500418703], [6.5668390028999895, 52.51608200418761], [6.567064002900225, 52.517006004188104], [6.5665270028997105, 52.517802004188596], [6.564405002897636, 52.518871004189265], [6.560975002894268, 52.51979900419], [6.559049002892355, 52.51918200418973], [6.5572740028905585, 52.51678500418841], [6.554882002888178, 52.515596004187834], [6.556557002889801, 52.51405600418686], [6.556678002889905, 52.51326000418639], [6.555804002889037, 52.51270000418614], [6.554058002887305, 52.512460004186075], [6.553498002886754, 52.512506004186115], [6.550087002883432, 52.514991004187685], [6.545671002879093, 52.51603600418848], [6.545463002878893, 52.516477004188744], [6.546594002880047, 52.51855800418988], [6.54477300287826, 52.51907000419022], [6.5419990028755155, 52.5188000041902], [6.541323002874853, 52.51897000419038], [6.541368002874907, 52.51949000419063], [6.542797002876346, 52.52106000419146], [6.540913002874545, 52.5244300041935], [6.541814002875459, 52.52570800419417], [6.541772002875431, 52.526348004194546], [6.537884002871613, 52.52744300419533], [6.536055002869836, 52.52893000419626], [6.534760002868555, 52.52888200419633], [6.534115002867909, 52.528336004196014], [6.53096600286493, 52.53546000420022], [6.529660002863837, 52.54628600420647], [6.521827002856373, 52.56058600421496], [6.50493900283999, 52.575885004224354], [6.499883002834961, 52.57363700422327], [6.49676900283185, 52.57162200422226], [6.488356002823494, 52.569001004221114], [6.4792480028145025, 52.56883600422138], [6.438071002773861, 52.56937500422338], [6.431721002767625, 52.571021004224534], [6.428282002764234, 52.5712270042248], [6.423006002759015, 52.570958004224856], [6.4150150027511055, 52.570012004224616], [6.402645002739322, 52.59140300423726], [6.392348002729149, 52.59126500423756], [6.323413002661077, 52.592527004240885], [6.354608002690711, 52.53697600420807], [6.358368002694262, 52.529106004203406], [6.3601610026960085, 52.52787200420263], [6.361572002697336, 52.52475500420079], [6.3614240026971745, 52.524025004200396], [6.360584002696348, 52.52416500420049], [6.354690002690501, 52.523425004200284], [6.353267002689081, 52.52289900420005], [6.351953002687786, 52.52300700420014], [6.351351002687204, 52.52369800420057], [6.34827400268413, 52.52235900419992], [6.345801002681636, 52.520253004198786], [6.343203002679058, 52.519755004198615], [6.342509002678387, 52.52046300419899], [6.338719002674664, 52.521698004199905], [6.331516002667544, 52.52207500420037], [6.33192600266786, 52.517895004197975], [6.333312002669202, 52.51668500419718], [6.333702002669564, 52.515623004196584], [6.332181002667991, 52.512504004194845], [6.333190002668967, 52.51155700419427], [6.334849002670607, 52.51143200419413], [6.335437002671179, 52.510875004193814], [6.3356110026713415, 52.51043700419351], [6.334899002670619, 52.50968500419312], [6.3368020026724565, 52.507635004191854], [6.33458200267025, 52.50707800419166], [6.3440490026790615, 52.48172000417666], [6.342616002677094, 52.45690500416232], [6.378494002712614, 52.456417004160684], [6.3710610027051064, 52.44971100415711], [6.373154002707117, 52.4468570041554], [6.376210002710167, 52.44782500415584], [6.381105002714846, 52.44000500415109], [6.384150002717848, 52.439435004150646], [6.380556002714081, 52.42981900414519], [6.3903150027237166, 52.42814500414383]]]}, "properties": {"type": "boundary", "gemeente": "Ommen"}}]}