{"type": "FeatureCollection", "metadata": {"gemeente": "Oostzaan", "slug": "oostzaan", "generated_at": "2026-07-28T10:02:02.095237Z", "total_points": 17, "merken": ["StatiegeldNederland", "Stibat", "StichtingOPEN"], "bounds": [4.8549482, 52.4261045, 4.8802, 52.4428086]}, "features": [{"type": "Feature", "geometry": {"type": "Point", "coordinates": [4.8788896, 52.4373352]}, "properties": {"type": "inleverpunt", "locatieNaam": "Albert Heijn", "straatNaam": "Klaverweide", "straatNr": "10", "postcode": "1511 XW", "plaats": "Oostzaan", "merk": "StatiegeldNederland", "puntType": "automaat", "materialen": ["pet-groot", "pet-klein", "blik", "glas", "krat"], "uitbetaling": ["bonnetje", "donatie"], "vrijToegankelijk": true, "gemeenteBeperking": null, "openingstijden": {"ma": "08:00–21:00", "di": "08:00–21:00", "wo": "08:00–21:00", "do": "08:00–21:00", "vr": "08:00–21:00", "za": "07:00–21:00", "zo": "09:00–20:00"}, "latitude": 52.4373352, "longitude": 4.8788896, "bronId": "252409"}}, {"type": "Feature", "geometry": {"type": "Point", "coordinates": [4.8791694, 52.4261045]}, "properties": {"type": "inleverpunt", "locatieNaam": "Appel 2606 - Meyn Food", "straatNaam": "Westeinde", "straatNr": "6", "postcode": "1511 MA", "plaats": "Oostzaan", "merk": "StatiegeldNederland", "puntType": "balie", "materialen": ["pet-groot", "pet-klein", "blik"], "uitbetaling": [], "vrijToegankelijk": true, "gemeenteBeperking": null, "openingstijden": null, "latitude": 52.4261045, "longitude": 4.8791694, "bronId": "253597"}}, {"type": "Feature", "geometry": {"type": "Point", "coordinates": [4.8760099, 52.4417545]}, "properties": {"type": "inleverpunt", "locatieNaam": "Dirk", "straatNaam": "Hannie Schaftplein", "straatNr": "1", "postcode": "1511 VT", "plaats": "Oostzaan", "merk": "StatiegeldNederland", "puntType": "automaat", "materialen": ["pet-groot", "pet-klein", "blik", "glas", "krat"], "uitbetaling": ["bonnetje", "donatie"], "vrijToegankelijk": true, "gemeenteBeperking": null, "openingstijden": {"ma": "08:00–21:00", "di": "08:00–21:00", "wo": "08:00–21:00", "do": "08:00–21:00", "vr": "08:00–21:00", "za": "08:00–20:00", "zo": "09:00–20:00"}, "latitude": 52.4417545, "longitude": 4.8760099, "bronId": "254474"}}, {"type": "Feature", "geometry": {"type": "Point", "coordinates": [4.8549482, 52.4428086]}, "properties": {"type": "inleverpunt", "locatieNaam": "Spar Express", "straatNaam": "RIJKSWEG A8 - COENTUNNEL", "straatNr": "1", "postcode": "1511 HX", "plaats": "Oostzaan", "merk": "StatiegeldNederland", "puntType": "balie", "materialen": ["pet-groot", "pet-klein", "blik"], "uitbetaling": [], "vrijToegankelijk": true, "gemeenteBeperking": null, "openingstijden": {"ma": "24 uur geopend", "di": "24 uur geopend", "wo": "24 uur geopend", "do": "24 uur geopend", "vr": "24 uur geopend", "za": "24 uur geopend", "zo": "24 uur geopend"}, "latitude": 52.4428086, "longitude": 4.8549482, "bronId": "258573"}}, {"type": "Feature", "geometry": {"type": "Point", "coordinates": [4.8802, 52.42733]}, "properties": {"type": "inleverpunt", "locatieNaam": "Jumbo Pick Up Point Oostzaan", "straatNaam": "Westeinde", "straatNr": "26", "postcode": "1511 MA", "plaats": "Oostzaan", "merk": "StichtingOPEN", "puntType": "balie", "materialen": ["batterijen", "elektro-klein", "lampen"], "uitbetaling": [], "vrijToegankelijk": false, "gemeenteBeperking": null, "openingstijden": null, "latitude": 52.42733, "longitude": 4.8802, "bronId": "SP00029895"}}, {"type": "Feature", "geometry": {"type": "Point", "coordinates": [4.878395, 52.437216]}, "properties": {"type": "inleverpunt", "locatieNaam": "8711 Albert Heijn (Retourette) Oostzaan", "straatNaam": "Klaverweide", "straatNr": "10", "postcode": "1511 XW", "plaats": "Oostzaan", "merk": "StichtingOPEN", "puntType": "balie", "materialen": ["batterijen", "elektro-klein", "lampen"], "uitbetaling": [], "vrijToegankelijk": false, "gemeenteBeperking": null, "openingstijden": null, "latitude": 52.437216, "longitude": 4.878395, "bronId": "SP00023098"}}, {"type": "Feature", "geometry": {"type": "Point", "coordinates": [4.86234, 52.434916]}, "properties": {"type": "inleverpunt", "locatieNaam": "Technische Unie VK Oostzaan", "straatNaam": "Ambacht", "straatNr": "24D", "postcode": "1511 JZ", "plaats": "Oostzaan", "merk": "StichtingOPEN", "puntType": "balie", "materialen": ["elektro-klein", "lampen", "tl-buizen"], "uitbetaling": [], "vrijToegankelijk": false, "gemeenteBeperking": null, "openingstijden": null, "latitude": 52.434916, "longitude": 4.86234, "bronId": "SP00031716"}}, {"type": "Feature", "geometry": {"type": "Point", "coordinates": [4.87594, 52.441556]}, "properties": {"type": "inleverpunt", "locatieNaam": "Dirk Oostzaan", "straatNaam": "Hannie Schaftplein", "straatNr": "1", "postcode": "1511 VT", "plaats": "Oostzaan", "merk": "StichtingOPEN", "puntType": "balie", "materialen": ["batterijen", "lampen"], "uitbetaling": [], "vrijToegankelijk": false, "gemeenteBeperking": null, "openingstijden": null, "latitude": 52.441556, "longitude": 4.87594, "bronId": "SP00023491"}}, {"type": "Feature", "geometry": {"type": "Point", "coordinates": [4.87594, 52.441556]}, "properties": {"type": "inleverpunt", "locatieNaam": "Kruidvat Oostzaan", "straatNaam": "Hannie Schaftplein", "straatNr": "1", "postcode": "1511 VT", "plaats": "Oostzaan", "merk": "StichtingOPEN", "puntType": "balie", "materialen": ["batterijen", "elektro-klein", "lampen"], "uitbetaling": [], "vrijToegankelijk": false, "gemeenteBeperking": null, "openingstijden": null, "latitude": 52.441556, "longitude": 4.87594, "bronId": "SP00032377"}}, {"type": "Feature", "geometry": {"type": "Point", "coordinates": [4.87601, 52.431724]}, "properties": {"type": "inleverpunt", "locatieNaam": "ABS Oostzaan", "straatNaam": "Skoon", "straatNr": "1", "postcode": "1511 HV", "plaats": "Oostzaan", "merk": "StichtingOPEN", "puntType": "milieustraat", "materialen": ["batterijen", "elektro-groot", "elektro-klein", "elektro-middel", "lampen", "tl-buizen"], "uitbetaling": [], "vrijToegankelijk": false, "gemeenteBeperking": ["Oostzaan"], "openingstijden": null, "latitude": 52.431724, "longitude": 4.87601, "bronId": "SP00004228"}}, {"type": "Feature", "geometry": {"type": "Point", "coordinates": [4.8760112, 52.4317225]}, "properties": {"type": "inleverpunt", "locatieNaam": "Milieustraat Oostzaan", "straatNaam": "Skoon", "straatNr": "1", "postcode": "1511 HV", "plaats": "Oostzaan", "merk": "Stibat", "puntType": "inzamelbak", "materialen": ["batterijen"], "uitbetaling": [], "vrijToegankelijk": false, "gemeenteBeperking": null, "openingstijden": null, "latitude": 52.4317225, "longitude": 4.8760112, "bronId": "L035589"}}, {"type": "Feature", "geometry": {"type": "Point", "coordinates": [4.8783977, 52.4372186]}, "properties": {"type": "inleverpunt", "locatieNaam": "8711 Albert Heijn (Retourette)", "straatNaam": "Klaverweide", "straatNr": "10", "postcode": "1511 XW", "plaats": "Oostzaan", "merk": "Stibat", "puntType": "inzamelbak", "materialen": ["batterijen"], "uitbetaling": [], "vrijToegankelijk": false, "gemeenteBeperking": null, "openingstijden": null, "latitude": 52.4372186, "longitude": 4.8783977, "bronId": "L007134"}}, {"type": "Feature", "geometry": {"type": "Point", "coordinates": [4.875066, 52.4403709]}, "properties": {"type": "inleverpunt", "locatieNaam": "HEMA Oostzaan", "straatNaam": "Kerkbuurt", "straatNr": "1", "postcode": "1511 BB", "plaats": "Oostzaan", "merk": "Stibat", "puntType": "inzamelbak", "materialen": ["batterijen"], "uitbetaling": [], "vrijToegankelijk": false, "gemeenteBeperking": null, "openingstijden": null, "latitude": 52.4403709, "longitude": 4.875066, "bronId": "L046823"}}, {"type": "Feature", "geometry": {"type": "Point", "coordinates": [4.8759403, 52.4415592]}, "properties": {"type": "inleverpunt", "locatieNaam": "Kruidvat", "straatNaam": "Hannie Schaftplein", "straatNr": "1", "postcode": "1511 VT", "plaats": "Oostzaan", "merk": "Stibat", "puntType": "inzamelbak", "materialen": ["batterijen"], "uitbetaling": [], "vrijToegankelijk": false, "gemeenteBeperking": null, "openingstijden": null, "latitude": 52.4415592, "longitude": 4.8759403, "bronId": "L036277"}}, {"type": "Feature", "geometry": {"type": "Point", "coordinates": [4.8761775, 52.4418489]}, "properties": {"type": "inleverpunt", "locatieNaam": "Dirk", "straatNaam": "Hannie Schaftplein", "straatNr": "1", "postcode": "1511 VT", "plaats": "Oostzaan", "merk": "Stibat", "puntType": "inzamelbak", "materialen": ["batterijen"], "uitbetaling": [], "vrijToegankelijk": false, "gemeenteBeperking": null, "openingstijden": null, "latitude": 52.4418489, "longitude": 4.8761775, "bronId": "L012717"}}, {"type": "Feature", "geometry": {"type": "Point", "coordinates": [4.8689447, 52.4389909]}, "properties": {"type": "inleverpunt", "locatieNaam": "Dral Fietsen", "straatNaam": "Kerkstraat", "straatNr": "192a", "postcode": "1511 EM", "plaats": "Oostzaan", "merk": "Stibat", "puntType": "inzamelbak", "materialen": ["batterijen"], "uitbetaling": [], "vrijToegankelijk": false, "gemeenteBeperking": null, "openingstijden": null, "latitude": 52.4389909, "longitude": 4.8689447, "bronId": "L031954"}}, {"type": "Feature", "geometry": {"type": "Point", "coordinates": [4.8574875, 52.4414921]}, "properties": {"type": "inleverpunt", "locatieNaam": "5521 Albert Heijn (bij BP tankstation)", "straatNaam": "Rijksweg", "straatNr": "A8", "postcode": "1511 HX", "plaats": "Oostzaan", "merk": "Stibat", "puntType": "inzamelbak", "materialen": ["batterijen"], "uitbetaling": [], "vrijToegankelijk": false, "gemeenteBeperking": null, "openingstijden": null, "latitude": 52.4414921, "longitude": 4.8574875, "bronId": "L038582"}}, {"type": "Feature", "geometry": {"type": "Polygon", "coordinates": [[[4.882977001222922, 52.425509004173], [4.892458001232381, 52.42544900417296], [4.898740001238601, 52.42446100417238], [4.899285001239541, 52.432774004177226], [4.898513001238807, 52.43346700417764], [4.8988040012391085, 52.43376800417781], [4.897166001237507, 52.434410004178176], [4.89694100123731, 52.43500400417853], [4.894464001234939, 52.43706500417973], [4.8967420012373575, 52.44015000418151], [4.896099001236778, 52.4414010041823], [4.896489001237397, 52.44618400418504], [4.894896001236028, 52.45081000418772], [4.893077001234374, 52.45411500418971], [4.893110001234515, 52.45634900419099], [4.893651001235121, 52.45779700419182], [4.8955210012370936, 52.46005200419314], [4.897180001238932, 52.463815004195304], [4.898825001240632, 52.46505500419603], [4.899733001241638, 52.46718800419729], [4.901388001243369, 52.46887800419824], [4.903867001246042, 52.473056004200686], [4.905307001247698, 52.477688004203365], [4.906470001248961, 52.479826004204554], [4.895631001238078, 52.478228004203686], [4.892304001234797, 52.47897800420412], [4.890532001233029, 52.47895900420413], [4.882438001224762, 52.47480200420174], [4.87648800121873, 52.47275800420056], [4.872335001214556, 52.472090004200204], [4.866362001208519, 52.47037400419922], [4.866468001208615, 52.470145004199075], [4.8625870012046635, 52.46849800419815], [4.8616380012037155, 52.4684690041981], [4.852505001194705, 52.47036700419925], [4.849140001190874, 52.46065200419358], [4.848568001190253, 52.45956900419296], [4.844924001186467, 52.45648200419119], [4.844388001185834, 52.45446200419], [4.845124001186508, 52.453248004189284], [4.842951001184295, 52.45226100418871], [4.853572001194399, 52.442274004182856], [4.855914001196529, 52.4380690041804], [4.8617630012019575, 52.429684004175506], [4.865970001206204, 52.43067900417606], [4.868189001208407, 52.43046500417595], [4.869697001209876, 52.42974600417553], [4.8707410012109476, 52.4303950041759], [4.873337001213498, 52.429486004175345], [4.874112001214198, 52.427964004174484], [4.875967001215979, 52.42654600417365], [4.877339001217318, 52.42596900417333], [4.879407001219368, 52.42568600417312], [4.881872001221845, 52.42601900417333], [4.882977001222922, 52.425509004173]]]}, "properties": {"type": "boundary", "gemeente": "Oostzaan"}}]}