{"type": "FeatureCollection", "metadata": {"gemeente": "Oost Gelre", "slug": "oost-gelre", "generated_at": "2026-07-28T09:25:50.134599Z", "total_points": 78, "merken": ["StatiegeldNederland", "Stibat", "StichtingOPEN"], "bounds": [6.5196367, 51.9823432, 6.6332159, 52.056294]}, "features": [{"type": "Feature", "geometry": {"type": "Point", "coordinates": [6.6135363, 52.0430526]}, "properties": {"type": "inleverpunt", "locatieNaam": "Albert Heijn", "straatNaam": "Beltrumsestraat", "straatNr": "40", "postcode": "7141 AM", "plaats": "Groenlo", "merk": "StatiegeldNederland", "puntType": "automaat", "materialen": ["pet-groot", "pet-klein", "blik", "glas", "krat"], "uitbetaling": ["bonnetje", "donatie"], "vrijToegankelijk": true, "gemeenteBeperking": null, "openingstijden": {"ma": "08:00–20:00", "di": "08:00–20:00", "wo": "08:00–20:00", "do": "08:00–20:00", "vr": "08:00–21:00", "za": "08:00–20:00", "zo": "09:00–20:00"}, "latitude": 52.0430526, "longitude": 6.6135363, "bronId": "252008"}}, {"type": "Feature", "geometry": {"type": "Point", "coordinates": [6.5681991, 51.9885406]}, "properties": {"type": "inleverpunt", "locatieNaam": "Albert Heijn", "straatNaam": "Varkensmarkt", "straatNr": "12", "postcode": "7131 DH", "plaats": "Lichtenvoorde", "merk": "StatiegeldNederland", "puntType": "automaat", "materialen": ["pet-groot", "pet-klein", "blik", "glas", "krat"], "uitbetaling": ["bonnetje"], "vrijToegankelijk": true, "gemeenteBeperking": null, "openingstijden": {"ma": "08:00–20:00", "di": "08:00–20:00", "wo": "08:00–20:00", "do": "08:00–20:00", "vr": "08:00–21:00", "za": "08:00–20:00", "zo": "10:00–20:00"}, "latitude": 51.9885406, "longitude": 6.5681991, "bronId": "252849"}}, {"type": "Feature", "geometry": {"type": "Point", "coordinates": [6.5896273, 51.9897743]}, "properties": {"type": "inleverpunt", "locatieNaam": "Aldi", "straatNaam": "Heringaweg", "straatNr": "2A", "postcode": "7134 RC", "plaats": "Vragender", "merk": "StatiegeldNederland", "puntType": "automaat", "materialen": ["pet-groot", "pet-klein", "blik", "glas", "krat"], "uitbetaling": ["bonnetje"], "vrijToegankelijk": true, "gemeenteBeperking": null, "openingstijden": {"ma": "08:00–20:00", "di": "08:00–20:00", "wo": "08:00–20:00", "do": "08:00–20:00", "vr": "08:00–20:00", "za": "08:00–20:00", "zo": "10:00–17:00"}, "latitude": 51.9897743, "longitude": 6.5896273, "bronId": "253150"}}, {"type": "Feature", "geometry": {"type": "Point", "coordinates": [6.610078, 52.044479]}, "properties": {"type": "inleverpunt", "locatieNaam": "Aldi", "straatNaam": "Het Pand", "straatNr": "2", "postcode": "7141 VH", "plaats": "Groenlo", "merk": "StatiegeldNederland", "puntType": "automaat", "materialen": ["pet-groot", "pet-klein", "blik", "glas", "krat"], "uitbetaling": ["bonnetje"], "vrijToegankelijk": true, "gemeenteBeperking": null, "openingstijden": {"ma": "08:00–20:00", "di": "08:00–20:00", "wo": "08:00–20:00", "do": "08:00–20:00", "vr": "08:00–20:00", "za": "08:00–20:00", "zo": "10:00–17:00"}, "latitude": 52.044479, "longitude": 6.610078, "bronId": "253152"}}, {"type": "Feature", "geometry": {"type": "Point", "coordinates": [6.6077771, 52.0419629]}, "properties": {"type": "inleverpunt", "locatieNaam": "Medikamente die Grenze", "straatNaam": "Ruurloseweg", "straatNr": "24", "postcode": "7141 KC", "plaats": "Groenlo", "merk": "StatiegeldNederland", "puntType": "automaat", "materialen": ["pet-groot", "pet-klein", "blik"], "uitbetaling": ["bonnetje"], "vrijToegankelijk": true, "gemeenteBeperking": null, "openingstijden": null, "latitude": 52.0419629, "longitude": 6.6077771, "bronId": "256736"}}, {"type": "Feature", "geometry": {"type": "Point", "coordinates": [6.6244636, 52.0512509]}, "properties": {"type": "inleverpunt", "locatieNaam": "Appel 5056-vion Goeiloo Slachthuis", "straatNaam": "Den Sliem", "straatNr": "8", "postcode": "7141 JE", "plaats": "Groenlo", "merk": "StatiegeldNederland", "puntType": "balie", "materialen": ["pet-groot", "pet-klein", "blik"], "uitbetaling": [], "vrijToegankelijk": true, "gemeenteBeperking": null, "openingstijden": {"ma": "05:00–18:00", "di": "05:00–18:00", "wo": "05:00–18:00", "do": "05:00–18:00", "vr": "05:00–18:00", "za": "05:00–15:00", "zo": "Gesloten"}, "latitude": 52.0512509, "longitude": 6.6244636, "bronId": "253679"}}, {"type": "Feature", "geometry": {"type": "Point", "coordinates": [6.6241632, 52.0520624]}, "properties": {"type": "inleverpunt", "locatieNaam": "Appel 5057 - Vion Goeiloo Retail", "straatNaam": "Den Sliem", "straatNr": "1", "postcode": "7141 JE", "plaats": "Groenlo", "merk": "StatiegeldNederland", "puntType": "balie", "materialen": ["pet-groot", "pet-klein", "blik"], "uitbetaling": [], "vrijToegankelijk": true, "gemeenteBeperking": null, "openingstijden": null, "latitude": 52.0520624, "longitude": 6.6241632, "bronId": "253680"}}, {"type": "Feature", "geometry": {"type": "Point", "coordinates": [6.6174435, 52.0380653]}, "properties": {"type": "inleverpunt", "locatieNaam": "Groenlo", "straatNaam": "Deken Hooijmansingel", "straatNr": "1", "postcode": "7141 EA", "plaats": "Groenlo", "merk": "StatiegeldNederland", "puntType": "automaat", "materialen": ["pet-klein", "blik"], "uitbetaling": ["donatie", "tikkie"], "vrijToegankelijk": false, "gemeenteBeperking": null, "openingstijden": null, "latitude": 52.0380653, "longitude": 6.6174435, "bronId": "254883"}}, {"type": "Feature", "geometry": {"type": "Point", "coordinates": [6.610539, 52.043561]}, "properties": {"type": "inleverpunt", "locatieNaam": "Jumbo", "straatNaam": "Den Koem", "straatNr": "2", "postcode": "7141 VW", "plaats": "Groenlo", "merk": "StatiegeldNederland", "puntType": "automaat", "materialen": ["pet-groot", "pet-klein", "blik", "glas", "krat"], "uitbetaling": ["bonnetje"], "vrijToegankelijk": true, "gemeenteBeperking": null, "openingstijden": {"ma": "08:00–20:00", "di": "08:00–20:00", "wo": "08:00–20:00", "do": "08:00–20:00", "vr": "08:00–21:00", "za": "08:00–20:00", "zo": "09:00–18:00"}, "latitude": 52.043561, "longitude": 6.610539, "bronId": "255312"}}, {"type": "Feature", "geometry": {"type": "Point", "coordinates": [6.561418, 51.985796]}, "properties": {"type": "inleverpunt", "locatieNaam": "Jumbo", "straatNaam": "Heijdenstraat", "straatNr": "17", "postcode": "7131 CA", "plaats": "Lichtenvoorde", "merk": "StatiegeldNederland", "puntType": "automaat", "materialen": ["pet-groot", "pet-klein", "blik", "glas", "krat"], "uitbetaling": ["bonnetje"], "vrijToegankelijk": true, "gemeenteBeperking": null, "openingstijden": {"ma": "08:00–20:00", "di": "08:00–20:00", "wo": "08:00–20:00", "do": "08:00–20:00", "vr": "08:00–21:00", "za": "08:00–20:00", "zo": "09:00–18:00"}, "latitude": 51.985796, "longitude": 6.561418, "bronId": "255409"}}, {"type": "Feature", "geometry": {"type": "Point", "coordinates": [6.56714, 51.98587]}, "properties": {"type": "inleverpunt", "locatieNaam": "Lidl", "straatNaam": "De Leest", "straatNr": "41", "postcode": "7141 LE", "plaats": "Lichtenvoorde", "merk": "StatiegeldNederland", "puntType": "automaat", "materialen": ["pet-groot", "pet-klein", "blik", "glas", "krat"], "uitbetaling": ["bonnetje", "donatie"], "vrijToegankelijk": true, "gemeenteBeperking": null, "openingstijden": {"ma": "08:00–21:00", "di": "08:00–21:00", "wo": "08:00–21:00", "do": "08:00–21:00", "vr": "08:00–21:00", "za": "08:00–20:00", "zo": "10:00–18:00"}, "latitude": 51.98587, "longitude": 6.56714, "bronId": "256113"}}, {"type": "Feature", "geometry": {"type": "Point", "coordinates": [6.564378, 51.991533]}, "properties": {"type": "inleverpunt", "locatieNaam": "Ltc De Kei", "straatNaam": "Kerkhoflaan", "straatNr": "3", "postcode": "7131 TE", "plaats": "Lichtenvoorde", "merk": "StatiegeldNederland", "puntType": "balie", "materialen": ["pet-groot", "pet-klein", "blik"], "uitbetaling": [], "vrijToegankelijk": false, "gemeenteBeperking": null, "openingstijden": {"ma": "08:30–23:00", "di": "08:30–23:00", "wo": "08:30–23:00", "do": "08:30–23:00", "vr": "08:30–23:00", "za": "08:30–23:00", "zo": "08:30–23:00"}, "latitude": 51.991533, "longitude": 6.564378, "bronId": "256501"}}, {"type": "Feature", "geometry": {"type": "Point", "coordinates": [6.5716424, 51.9823432]}, "properties": {"type": "inleverpunt", "locatieNaam": "Marianum", "straatNaam": "Dr. Ariënsstraat", "straatNr": "1", "postcode": "7131 XM", "plaats": "Lichtenvoorde", "merk": "StatiegeldNederland", "puntType": "automaat", "materialen": ["pet-klein", "blik"], "uitbetaling": ["donatie", "tikkie"], "vrijToegankelijk": false, "gemeenteBeperking": null, "openingstijden": null, "latitude": 51.9823432, "longitude": 6.5716424, "bronId": "256676"}}, {"type": "Feature", "geometry": {"type": "Point", "coordinates": [6.5716424, 51.9823432]}, "properties": {"type": "inleverpunt", "locatieNaam": "Marianum", "straatNaam": "Dr. Ariënsstraat", "straatNr": "3", "postcode": "7131 XM", "plaats": "Lichtenvoorde", "merk": "StatiegeldNederland", "puntType": "automaat", "materialen": ["pet-klein", "blik"], "uitbetaling": ["donatie", "tikkie"], "vrijToegankelijk": false, "gemeenteBeperking": null, "openingstijden": null, "latitude": 51.9823432, "longitude": 6.5716424, "bronId": "256677"}}, {"type": "Feature", "geometry": {"type": "Point", "coordinates": [6.6077771, 52.0419629]}, "properties": {"type": "inleverpunt", "locatieNaam": "Marveld Recreatie Groenlo", "straatNaam": "Elshofweg", "straatNr": "6", "postcode": "7141 DH", "plaats": "Groenlo", "merk": "StatiegeldNederland", "puntType": "automaat", "materialen": ["pet-groot", "pet-klein", "blik"], "uitbetaling": ["bonnetje", "donatie"], "vrijToegankelijk": true, "gemeenteBeperking": null, "openingstijden": null, "latitude": 52.0419629, "longitude": 6.6077771, "bronId": "256679"}}, {"type": "Feature", "geometry": {"type": "Point", "coordinates": [6.6321398, 52.0369038]}, "properties": {"type": "inleverpunt", "locatieNaam": "R. Kraaijenvanger Supermarkt 732", "straatNaam": "ELSHOFWEG", "straatNr": "6", "postcode": "7141 DH", "plaats": "Groenlo", "merk": "StatiegeldNederland", "puntType": "balie", "materialen": ["pet-groot", "pet-klein", "blik"], "uitbetaling": [], "vrijToegankelijk": true, "gemeenteBeperking": null, "openingstijden": {"ma": "08:00–19:00", "di": "09:00–18:00", "wo": "08:00–18:00", "do": "08:00–18:00", "vr": "08:00–20:00", "za": "08:00–18:00", "zo": "08:00–17:00"}, "latitude": 52.0369038, "longitude": 6.6321398, "bronId": "257734"}}, {"type": "Feature", "geometry": {"type": "Point", "coordinates": [6.520061, 52.002601]}, "properties": {"type": "inleverpunt", "locatieNaam": "Spar", "straatNaam": "Dorpsstraat", "straatNr": "31", "postcode": "7136 LE", "plaats": "Zieuwent", "merk": "StatiegeldNederland", "puntType": "automaat", "materialen": ["pet-groot", "pet-klein", "blik", "glas", "krat"], "uitbetaling": ["bonnetje", "donatie"], "vrijToegankelijk": true, "gemeenteBeperking": null, "openingstijden": {"ma": "08:00–20:00", "di": "08:00–20:00", "wo": "08:00–20:00", "do": "08:00–20:00", "vr": "08:00–20:00", "za": "08:00–17:00", "zo": "Gesloten"}, "latitude": 52.002601, "longitude": 6.520061, "bronId": "258341"}}, {"type": "Feature", "geometry": {"type": "Point", "coordinates": [6.5716424, 51.9823432]}, "properties": {"type": "inleverpunt", "locatieNaam": "Topparken Résidence Lichtenvoorde B.V.", "straatNaam": "Boschlaan", "straatNr": "26", "postcode": "7131 RC", "plaats": "Lichtenvoorde", "merk": "StatiegeldNederland", "puntType": "automaat", "materialen": ["pet-groot", "pet-klein", "blik"], "uitbetaling": ["bonnetje", "donatie", "retourpinnen"], "vrijToegankelijk": true, "gemeenteBeperking": null, "openingstijden": null, "latitude": 51.9823432, "longitude": 6.5716424, "bronId": "259006"}}, {"type": "Feature", "geometry": {"type": "Point", "coordinates": [6.520062, 52.002628]}, "properties": {"type": "inleverpunt", "locatieNaam": "Spar Zieuwent", "straatNaam": "Dorpsstraat", "straatNr": "31", "postcode": "7136 LE", "plaats": "Zieuwent", "merk": "StichtingOPEN", "puntType": "balie", "materialen": ["batterijen", "lampen"], "uitbetaling": [], "vrijToegankelijk": false, "gemeenteBeperking": null, "openingstijden": null, "latitude": 52.002628, "longitude": 6.520062, "bronId": "SP00022415"}}, {"type": "Feature", "geometry": {"type": "Point", "coordinates": [6.55792, 51.986104]}, "properties": {"type": "inleverpunt", "locatieNaam": "MaJa Trading", "straatNaam": "van Reedestraat", "straatNr": "12", "postcode": "7131 BE", "plaats": "Lichtenvoorde", "merk": "StichtingOPEN", "puntType": "balie", "materialen": ["batterijen", "elektro-groot", "elektro-klein", "elektro-middel", "lampen", "tl-buizen"], "uitbetaling": [], "vrijToegankelijk": false, "gemeenteBeperking": null, "openingstijden": null, "latitude": 51.986104, "longitude": 6.55792, "bronId": "SP00031619"}}, {"type": "Feature", "geometry": {"type": "Point", "coordinates": [6.561413, 51.985802]}, "properties": {"type": "inleverpunt", "locatieNaam": "Jumbo Lichtenvoorde", "straatNaam": "van Heijdenstraat", "straatNr": "17", "postcode": "7131 CA", "plaats": "Lichtenvoorde", "merk": "StichtingOPEN", "puntType": "balie", "materialen": ["batterijen", "elektro-klein", "lampen"], "uitbetaling": [], "vrijToegankelijk": false, "gemeenteBeperking": null, "openingstijden": null, "latitude": 51.985802, "longitude": 6.561413, "bronId": "SP00025174"}}, {"type": "Feature", "geometry": {"type": "Point", "coordinates": [6.563796, 51.986459]}, "properties": {"type": "inleverpunt", "locatieNaam": "Obbink Lichtenvoorde", "straatNaam": "Patronaatsstraat", "straatNr": "15", "postcode": "7131 CD", "plaats": "Lichtenvoorde", "merk": "StichtingOPEN", "puntType": "balie", "materialen": ["batterijen", "elektro-groot", "elektro-klein", "elektro-middel", "lampen", "tl-buizen"], "uitbetaling": [], "vrijToegankelijk": false, "gemeenteBeperking": null, "openingstijden": null, "latitude": 51.986459, "longitude": 6.563796, "bronId": "SP00021892"}}, {"type": "Feature", "geometry": {"type": "Point", "coordinates": [6.56754, 51.98735]}, "properties": {"type": "inleverpunt", "locatieNaam": "Kruidvat Lichtenvoorde", "straatNaam": "Markt", "straatNr": "12a", "postcode": "7131 DG", "plaats": "Lichtenvoorde", "merk": "StichtingOPEN", "puntType": "balie", "materialen": ["batterijen", "lampen"], "uitbetaling": [], "vrijToegankelijk": false, "gemeenteBeperking": null, "openingstijden": null, "latitude": 51.98735, "longitude": 6.56754, "bronId": "SP00029501"}}, {"type": "Feature", "geometry": {"type": "Point", "coordinates": [6.567375, 51.98607]}, "properties": {"type": "inleverpunt", "locatieNaam": "Aldi Lichtenvoorde", "straatNaam": "De Leest", "straatNr": "35", "postcode": "7131 LE", "plaats": "Lichtenvoorde", "merk": "StichtingOPEN", "puntType": "balie", "materialen": ["batterijen", "elektro-klein", "lampen"], "uitbetaling": [], "vrijToegankelijk": false, "gemeenteBeperking": null, "openingstijden": null, "latitude": 51.98607, "longitude": 6.567375, "bronId": "SP00026955"}}, {"type": "Feature", "geometry": {"type": "Point", "coordinates": [6.56841, 51.988566]}, "properties": {"type": "inleverpunt", "locatieNaam": "8710 Albert Heijn Lichtenvoorde", "straatNaam": "Varkensmarkt", "straatNr": "12", "postcode": "7131 DH", "plaats": "Lichtenvoorde", "merk": "StichtingOPEN", "puntType": "balie", "materialen": ["batterijen", "elektro-klein", "lampen"], "uitbetaling": [], "vrijToegankelijk": false, "gemeenteBeperking": null, "openingstijden": null, "latitude": 51.988566, "longitude": 6.56841, "bronId": "SP00022784"}}, {"type": "Feature", "geometry": {"type": "Point", "coordinates": [6.575009, 51.987084]}, "properties": {"type": "inleverpunt", "locatieNaam": "Hubo Lichtenvoorde", "straatNaam": "Aaltenseweg", "straatNr": "1115", "postcode": "7131 NA", "plaats": "Lichtenvoorde", "merk": "StichtingOPEN", "puntType": "balie", "materialen": ["lampen", "tl-buizen"], "uitbetaling": [], "vrijToegankelijk": false, "gemeenteBeperking": null, "openingstijden": null, "latitude": 51.987084, "longitude": 6.575009, "bronId": "SP00008656"}}, {"type": "Feature", "geometry": {"type": "Point", "coordinates": [6.575839, 51.986897]}, "properties": {"type": "inleverpunt", "locatieNaam": "Action Lichtenvoorde", "straatNaam": "Aaltenseweg", "straatNr": "24", "postcode": "7131 NA", "plaats": "Lichtenvoorde", "merk": "StichtingOPEN", "puntType": "balie", "materialen": ["batterijen", "lampen"], "uitbetaling": [], "vrijToegankelijk": false, "gemeenteBeperking": null, "openingstijden": null, "latitude": 51.986897, "longitude": 6.575839, "bronId": "SP00025497"}}, {"type": "Feature", "geometry": {"type": "Point", "coordinates": [6.575839, 51.986897]}, "properties": {"type": "inleverpunt", "locatieNaam": "Action Lichtenvoorde 1198", "straatNaam": "Aaltenseweg", "straatNr": "24", "postcode": "7131 ND", "plaats": "Lichtenvoorde", "merk": "StichtingOPEN", "puntType": "balie", "materialen": ["lampen"], "uitbetaling": [], "vrijToegankelijk": false, "gemeenteBeperking": null, "openingstijden": null, "latitude": 51.986897, "longitude": 6.575839, "bronId": "SP00007776"}}, {"type": "Feature", "geometry": {"type": "Point", "coordinates": [6.581663, 51.997203]}, "properties": {"type": "inleverpunt", "locatieNaam": "Boxxer Online B.V.", "straatNaam": "Koningslinde", "straatNr": "3", "postcode": "7131 MP", "plaats": "Lichtenvoorde", "merk": "StichtingOPEN", "puntType": "balie", "materialen": ["elektro-groot", "elektro-klein", "elektro-middel"], "uitbetaling": [], "vrijToegankelijk": false, "gemeenteBeperking": null, "openingstijden": null, "latitude": 51.997203, "longitude": 6.581663, "bronId": "SP00033670"}}, {"type": "Feature", "geometry": {"type": "Point", "coordinates": [6.587042, 51.996598]}, "properties": {"type": "inleverpunt", "locatieNaam": "Afvalbrengstation Firma Dusseldorp", "straatNaam": "Galileistraat", "straatNr": "16", "postcode": "7131 PE", "plaats": "Lichtenvoorde", "merk": "StichtingOPEN", "puntType": "balie", "materialen": ["elektro-groot", "elektro-middel", "lampen", "tl-buizen"], "uitbetaling": [], "vrijToegankelijk": false, "gemeenteBeperking": null, "openingstijden": null, "latitude": 51.996598, "longitude": 6.587042, "bronId": "SP00004370"}}, {"type": "Feature", "geometry": {"type": "Point", "coordinates": [6.586601, 51.983303]}, "properties": {"type": "inleverpunt", "locatieNaam": "Praxis Lichtenvoorde - 2436", "straatNaam": "Nobelstraat", "straatNr": "5", "postcode": "7131 PZ", "plaats": "Lichtenvoorde", "merk": "StichtingOPEN", "puntType": "balie", "materialen": ["batterijen", "elektro-klein", "lampen", "tl-buizen"], "uitbetaling": [], "vrijToegankelijk": false, "gemeenteBeperking": null, "openingstijden": null, "latitude": 51.983303, "longitude": 6.586601, "bronId": "SP00003682"}}, {"type": "Feature", "geometry": {"type": "Point", "coordinates": [6.610077, 52.044478]}, "properties": {"type": "inleverpunt", "locatieNaam": "Aldi Groenlo", "straatNaam": "Het Pand", "straatNr": "2", "postcode": "7141 VH", "plaats": "Groenlo", "merk": "StichtingOPEN", "puntType": "balie", "materialen": ["batterijen", "elektro-klein", "lampen"], "uitbetaling": [], "vrijToegankelijk": false, "gemeenteBeperking": null, "openingstijden": null, "latitude": 52.044478, "longitude": 6.610077, "bronId": "SP00026972"}}, {"type": "Feature", "geometry": {"type": "Point", "coordinates": [6.61073, 52.04367]}, "properties": {"type": "inleverpunt", "locatieNaam": "Jumbo Groenlo", "straatNaam": "Den Koem", "straatNr": "2", "postcode": "7141 VW", "plaats": "Groenlo", "merk": "StichtingOPEN", "puntType": "balie", "materialen": ["batterijen", "elektro-klein", "lampen"], "uitbetaling": [], "vrijToegankelijk": false, "gemeenteBeperking": null, "openingstijden": null, "latitude": 52.04367, "longitude": 6.61073, "bronId": "SP00029903"}}, {"type": "Feature", "geometry": {"type": "Point", "coordinates": [6.613479, 52.043012]}, "properties": {"type": "inleverpunt", "locatieNaam": "8503 Albert Heijn Groenlo", "straatNaam": "Beltrumsestraat", "straatNr": "40", "postcode": "7141 AM", "plaats": "Groenlo", "merk": "StichtingOPEN", "puntType": "balie", "materialen": ["batterijen", "elektro-klein", "lampen"], "uitbetaling": [], "vrijToegankelijk": false, "gemeenteBeperking": null, "openingstijden": null, "latitude": 52.043012, "longitude": 6.613479, "bronId": "SP00022821"}}, {"type": "Feature", "geometry": {"type": "Point", "coordinates": [6.613446, 52.04273]}, "properties": {"type": "inleverpunt", "locatieNaam": "Groot Zevert Electro", "straatNaam": "Beltrumsestraat", "straatNr": "44", "postcode": "7141 AM", "plaats": "Groenlo", "merk": "StichtingOPEN", "puntType": "balie", "materialen": ["elektro-klein", "elektro-middel"], "uitbetaling": [], "vrijToegankelijk": false, "gemeenteBeperking": null, "openingstijden": null, "latitude": 52.04273, "longitude": 6.613446, "bronId": "SP00006473"}}, {"type": "Feature", "geometry": {"type": "Point", "coordinates": [6.614491, 52.042583]}, "properties": {"type": "inleverpunt", "locatieNaam": "Kruidvat Groenlo", "straatNaam": "Beltrumsestraat", "straatNr": "31", "postcode": "7141 AK", "plaats": "Groenlo", "merk": "StichtingOPEN", "puntType": "balie", "materialen": ["batterijen", "lampen"], "uitbetaling": [], "vrijToegankelijk": false, "gemeenteBeperking": null, "openingstijden": null, "latitude": 52.042583, "longitude": 6.614491, "bronId": "SP00024638"}}, {"type": "Feature", "geometry": {"type": "Point", "coordinates": [6.623047, 52.037804]}, "properties": {"type": "inleverpunt", "locatieNaam": "66480 Hubo Groenlo", "straatNaam": "Parallelweg", "straatNr": "3", "postcode": "7141 DL", "plaats": "Groenlo", "merk": "StichtingOPEN", "puntType": "balie", "materialen": ["elektro-middel", "lampen", "tl-buizen"], "uitbetaling": [], "vrijToegankelijk": false, "gemeenteBeperking": null, "openingstijden": null, "latitude": 52.037804, "longitude": 6.623047, "bronId": "SP00007543"}}, {"type": "Feature", "geometry": {"type": "Point", "coordinates": [6.62056, 52.056294]}, "properties": {"type": "inleverpunt", "locatieNaam": "Stichting Aktief Groenlo", "straatNaam": "Zuidgang", "straatNr": "1a", "postcode": "7141 JK", "plaats": "Groenlo", "merk": "StichtingOPEN", "puntType": "milieustraat", "materialen": ["batterijen", "elektro-groot", "elektro-klein", "elektro-middel", "lampen", "tl-buizen"], "uitbetaling": [], "vrijToegankelijk": false, "gemeenteBeperking": ["Oost Gelre"], "openingstijden": null, "latitude": 52.056294, "longitude": 6.62056, "bronId": "SP00005988"}}, {"type": "Feature", "geometry": {"type": "Point", "coordinates": [6.5196367, 52.0030551]}, "properties": {"type": "inleverpunt", "locatieNaam": "Knippenborg Fietsen", "straatNaam": "Dorpsstraat", "straatNr": "37", "postcode": "7136 LE", "plaats": "ZIEUWENT", "merk": "Stibat", "puntType": "inzamelbak", "materialen": ["batterijen"], "uitbetaling": [], "vrijToegankelijk": false, "gemeenteBeperking": null, "openingstijden": null, "latitude": 52.0030551, "longitude": 6.5196367, "bronId": "L048784"}}, {"type": "Feature", "geometry": {"type": "Point", "coordinates": [6.5196525, 52.0030458]}, "properties": {"type": "inleverpunt", "locatieNaam": "KNIPPENBORG FIETSEN", "straatNaam": "Dorpsstraat", "straatNr": "37", "postcode": "7136 LE", "plaats": "ZIEUWENT", "merk": "Stibat", "puntType": "inzamelbak", "materialen": ["batterijen"], "uitbetaling": [], "vrijToegankelijk": false, "gemeenteBeperking": null, "openingstijden": null, "latitude": 52.0030458, "longitude": 6.5196525, "bronId": "L033873"}}, {"type": "Feature", "geometry": {"type": "Point", "coordinates": [6.5201117, 52.0025965]}, "properties": {"type": "inleverpunt", "locatieNaam": "Meermarkt", "straatNaam": "Dorpsstraat", "straatNr": "31", "postcode": "7136 LE", "plaats": "ZIEUWENT", "merk": "Stibat", "puntType": "inzamelbak", "materialen": ["batterijen"], "uitbetaling": [], "vrijToegankelijk": false, "gemeenteBeperking": null, "openingstijden": null, "latitude": 52.0025965, "longitude": 6.5201117, "bronId": "L006477"}}, {"type": "Feature", "geometry": {"type": "Point", "coordinates": [6.5201117, 52.0025965]}, "properties": {"type": "inleverpunt", "locatieNaam": "Spar", "straatNaam": "Dorpsstraat", "straatNr": "31", "postcode": "7136 LE", "plaats": "ZIEUWENT", "merk": "Stibat", "puntType": "inzamelbak", "materialen": ["batterijen"], "uitbetaling": [], "vrijToegankelijk": false, "gemeenteBeperking": null, "openingstijden": null, "latitude": 52.0025965, "longitude": 6.5201117, "bronId": "L022373"}}, {"type": "Feature", "geometry": {"type": "Point", "coordinates": [6.5498219, 51.9831571]}, "properties": {"type": "inleverpunt", "locatieNaam": "Onno Hemmink Fietsspecialist", "straatNaam": "Schatbergstraat", "straatNr": "102", "postcode": "7132 AB", "plaats": "LICHTENVOORDE", "merk": "Stibat", "puntType": "inzamelbak", "materialen": ["batterijen"], "uitbetaling": [], "vrijToegankelijk": false, "gemeenteBeperking": null, "openingstijden": null, "latitude": 51.9831571, "longitude": 6.5498219, "bronId": "L048779"}}, {"type": "Feature", "geometry": {"type": "Point", "coordinates": [6.5622311, 51.9861606]}, "properties": {"type": "inleverpunt", "locatieNaam": "Jumbo", "straatNaam": "van Heijdenstraat", "straatNr": "17", "postcode": "7131 CA", "plaats": "LICHTENVOORDE", "merk": "Stibat", "puntType": "inzamelbak", "materialen": ["batterijen"], "uitbetaling": [], "vrijToegankelijk": false, "gemeenteBeperking": null, "openingstijden": null, "latitude": 51.9861606, "longitude": 6.5622311, "bronId": "L035284"}}, {"type": "Feature", "geometry": {"type": "Point", "coordinates": [6.5637968, 51.9864596]}, "properties": {"type": "inleverpunt", "locatieNaam": "Obbink Lichtenvoorde", "straatNaam": "Patronaatsstraat", "straatNr": "15", "postcode": "7131 CD", "plaats": "LICHTENVOORDE", "merk": "Stibat", "puntType": "inzamelbak", "materialen": ["batterijen"], "uitbetaling": [], "vrijToegankelijk": false, "gemeenteBeperking": null, "openingstijden": null, "latitude": 51.9864596, "longitude": 6.5637968, "bronId": "L040884"}}, {"type": "Feature", "geometry": {"type": "Point", "coordinates": [6.5668316, 51.9892683]}, "properties": {"type": "inleverpunt", "locatieNaam": "Welkoop", "straatNaam": "Carel Looierstraat", "straatNr": "1", "postcode": "7131 DJ", "plaats": "LICHTENVOORDE", "merk": "Stibat", "puntType": "inzamelbak", "materialen": ["batterijen"], "uitbetaling": [], "vrijToegankelijk": false, "gemeenteBeperking": null, "openingstijden": null, "latitude": 51.9892683, "longitude": 6.5668316, "bronId": "L019135"}}, {"type": "Feature", "geometry": {"type": "Point", "coordinates": [6.5666694, 51.9859898]}, "properties": {"type": "inleverpunt", "locatieNaam": "Van Boxtel hoorwinkel", "straatNaam": "Nieuwmarkt", "straatNr": "67", "postcode": "7131 LJ", "plaats": "LICHTENVOORDE", "merk": "Stibat", "puntType": "inzamelbak", "materialen": ["batterijen"], "uitbetaling": [], "vrijToegankelijk": false, "gemeenteBeperking": null, "openingstijden": null, "latitude": 51.9859898, "longitude": 6.5666694, "bronId": "L036234"}}, {"type": "Feature", "geometry": {"type": "Point", "coordinates": [6.5668516, 51.9863582]}, "properties": {"type": "inleverpunt", "locatieNaam": "Zeeman", "straatNaam": "Nieuwmarkt", "straatNr": "61", "postcode": "7131 LJ", "plaats": "LICHTENVOORDE", "merk": "Stibat", "puntType": "inzamelbak", "materialen": ["batterijen"], "uitbetaling": [], "vrijToegankelijk": false, "gemeenteBeperking": null, "openingstijden": null, "latitude": 51.9863582, "longitude": 6.5668516, "bronId": "L020049"}}, {"type": "Feature", "geometry": {"type": "Point", "coordinates": [6.5668366, 51.9856891]}, "properties": {"type": "inleverpunt", "locatieNaam": "Lidl", "straatNaam": "De Leest", "straatNr": "41", "postcode": "7131 LE", "plaats": "LICHTENVOORDE", "merk": "Stibat", "puntType": "inzamelbak", "materialen": ["batterijen"], "uitbetaling": [], "vrijToegankelijk": false, "gemeenteBeperking": null, "openingstijden": null, "latitude": 51.9856891, "longitude": 6.5668366, "bronId": "L036170"}}, {"type": "Feature", "geometry": {"type": "Point", "coordinates": [6.5672225, 51.9871839]}, "properties": {"type": "inleverpunt", "locatieNaam": "Hans Anders", "straatNaam": "Markt", "straatNr": "9F", "postcode": "7131 DG", "plaats": "LICHTENVOORDE", "merk": "Stibat", "puntType": "inzamelbak", "materialen": ["batterijen"], "uitbetaling": [], "vrijToegankelijk": false, "gemeenteBeperking": null, "openingstijden": null, "latitude": 51.9871839, "longitude": 6.5672225, "bronId": "L041026"}}, {"type": "Feature", "geometry": {"type": "Point", "coordinates": [6.5672269, 51.9861336]}, "properties": {"type": "inleverpunt", "locatieNaam": "Primera", "straatNaam": "De Leest", "straatNr": "58", "postcode": "7131 LH", "plaats": "LICHTENVOORDE", "merk": "Stibat", "puntType": "inzamelbak", "materialen": ["batterijen"], "uitbetaling": [], "vrijToegankelijk": false, "gemeenteBeperking": null, "openingstijden": null, "latitude": 51.9861336, "longitude": 6.5672269, "bronId": "L030751"}}, {"type": "Feature", "geometry": {"type": "Point", "coordinates": [6.5676064, 51.9873545]}, "properties": {"type": "inleverpunt", "locatieNaam": "Kruidvat", "straatNaam": "Markt", "straatNr": "12a", "postcode": "7131 DG", "plaats": "LICHTENVOORDE", "merk": "Stibat", "puntType": "inzamelbak", "materialen": ["batterijen"], "uitbetaling": [], "vrijToegankelijk": false, "gemeenteBeperking": null, "openingstijden": null, "latitude": 51.9873545, "longitude": 6.5676064, "bronId": "L016142"}}, {"type": "Feature", "geometry": {"type": "Point", "coordinates": [6.5680052, 51.9886039]}, "properties": {"type": "inleverpunt", "locatieNaam": "The Read Shop", "straatNaam": "Varkensmarkt", "straatNr": "8a", "postcode": "7131 DH", "plaats": "LICHTENVOORDE", "merk": "Stibat", "puntType": "inzamelbak", "materialen": ["batterijen"], "uitbetaling": [], "vrijToegankelijk": false, "gemeenteBeperking": null, "openingstijden": null, "latitude": 51.9886039, "longitude": 6.5680052, "bronId": "L022785"}}, {"type": "Feature", "geometry": {"type": "Point", "coordinates": [6.5681324, 51.9874938]}, "properties": {"type": "inleverpunt", "locatieNaam": "HEMA Lichtenvoorde", "straatNaam": "Korte Rapenburgsestraat", "straatNr": "4", "postcode": "7131 DE", "plaats": "Lichtenvoorde", "merk": "Stibat", "puntType": "inzamelbak", "materialen": ["batterijen"], "uitbetaling": [], "vrijToegankelijk": false, "gemeenteBeperking": null, "openingstijden": null, "latitude": 51.9874938, "longitude": 6.5681324, "bronId": "L047033"}}, {"type": "Feature", "geometry": {"type": "Point", "coordinates": [6.5684131, 51.9885687]}, "properties": {"type": "inleverpunt", "locatieNaam": "8710 Albert Heijn", "straatNaam": "Varkensmarkt", "straatNr": "12", "postcode": "7131 DH", "plaats": "LICHTENVOORDE", "merk": "Stibat", "puntType": "inzamelbak", "materialen": ["batterijen"], "uitbetaling": [], "vrijToegankelijk": false, "gemeenteBeperking": null, "openingstijden": null, "latitude": 51.9885687, "longitude": 6.5684131, "bronId": "L007662"}}, {"type": "Feature", "geometry": {"type": "Point", "coordinates": [6.5690285, 51.9872174]}, "properties": {"type": "inleverpunt", "locatieNaam": "Dusseldorp Fietsen", "straatNaam": "Dijkstraat", "straatNr": "9", "postcode": "7131 DM", "plaats": "LICHTENVOORDE", "merk": "Stibat", "puntType": "inzamelbak", "materialen": ["batterijen"], "uitbetaling": [], "vrijToegankelijk": false, "gemeenteBeperking": null, "openingstijden": null, "latitude": 51.9872174, "longitude": 6.5690285, "bronId": "L033871"}}, {"type": "Feature", "geometry": {"type": "Point", "coordinates": [6.5750091, 51.987084]}, "properties": {"type": "inleverpunt", "locatieNaam": "Hubo", "straatNaam": "Aaltenseweg", "straatNr": "11-15", "postcode": "7131 NA", "plaats": "LICHTENVOORDE", "merk": "Stibat", "puntType": "inzamelbak", "materialen": ["batterijen"], "uitbetaling": [], "vrijToegankelijk": false, "gemeenteBeperking": null, "openingstijden": null, "latitude": 51.987084, "longitude": 6.5750091, "bronId": "L038994"}}, {"type": "Feature", "geometry": {"type": "Point", "coordinates": [6.5774959, 51.986978]}, "properties": {"type": "inleverpunt", "locatieNaam": "1198 Action", "straatNaam": "Vragenderweg", "straatNr": "4", "postcode": "7131 NT", "plaats": "LICHTENVOORDE", "merk": "Stibat", "puntType": "inzamelbak", "materialen": ["batterijen"], "uitbetaling": [], "vrijToegankelijk": false, "gemeenteBeperking": null, "openingstijden": null, "latitude": 51.986978, "longitude": 6.5774959, "bronId": "L027981"}}, {"type": "Feature", "geometry": {"type": "Point", "coordinates": [6.5859843, 51.9978853]}, "properties": {"type": "inleverpunt", "locatieNaam": "Handelshuys / Repairhuys", "straatNaam": "Buys Ballotstraat", "straatNr": "13-A", "postcode": "7131 PN", "plaats": "LICHTENVOORDE", "merk": "Stibat", "puntType": "inzamelbak", "materialen": ["batterijen"], "uitbetaling": [], "vrijToegankelijk": false, "gemeenteBeperking": null, "openingstijden": null, "latitude": 51.9978853, "longitude": 6.5859843, "bronId": "L043764"}}, {"type": "Feature", "geometry": {"type": "Point", "coordinates": [6.5874639, 51.9966039]}, "properties": {"type": "inleverpunt", "locatieNaam": "Afvalbrengstation firma Dusseldorp", "straatNaam": "Galileïstraat", "straatNr": "16", "postcode": "7131 PE", "plaats": "LICHTENVOORDE", "merk": "Stibat", "puntType": "inzamelbak", "materialen": ["batterijen"], "uitbetaling": [], "vrijToegankelijk": false, "gemeenteBeperking": null, "openingstijden": null, "latitude": 51.9966039, "longitude": 6.5874639, "bronId": "L035840"}}, {"type": "Feature", "geometry": {"type": "Point", "coordinates": [6.5866016, 51.983303]}, "properties": {"type": "inleverpunt", "locatieNaam": "Praxis 2436", "straatNaam": "Nobelstraat", "straatNr": "5", "postcode": "7131 PZ", "plaats": "LICHTENVOORDE", "merk": "Stibat", "puntType": "inzamelbak", "materialen": ["batterijen"], "uitbetaling": [], "vrijToegankelijk": false, "gemeenteBeperking": null, "openingstijden": null, "latitude": 51.983303, "longitude": 6.5866016, "bronId": "L039772"}}, {"type": "Feature", "geometry": {"type": "Point", "coordinates": [6.5887052, 51.9898097]}, "properties": {"type": "inleverpunt", "locatieNaam": "Aldi", "straatNaam": "Heringsaweg", "straatNr": "2", "postcode": "7134 RC", "plaats": "VRAGENDER", "merk": "Stibat", "puntType": "inzamelbak", "materialen": ["batterijen"], "uitbetaling": [], "vrijToegankelijk": false, "gemeenteBeperking": null, "openingstijden": null, "latitude": 51.9898097, "longitude": 6.5887052, "bronId": "L047340"}}, {"type": "Feature", "geometry": {"type": "Point", "coordinates": [6.6084252, 52.0420165]}, "properties": {"type": "inleverpunt", "locatieNaam": "Goossens Fietsen BV", "straatNaam": "Ruurloseweg", "straatNr": "22", "postcode": "7141 KC", "plaats": "Groenlo", "merk": "Stibat", "puntType": "inzamelbak", "materialen": ["batterijen"], "uitbetaling": [], "vrijToegankelijk": false, "gemeenteBeperking": null, "openingstijden": null, "latitude": 52.0420165, "longitude": 6.6084252, "bronId": "L033875"}}, {"type": "Feature", "geometry": {"type": "Point", "coordinates": [6.6100104, 52.0444488]}, "properties": {"type": "inleverpunt", "locatieNaam": "Aldi", "straatNaam": "Het Pand", "straatNr": "2", "postcode": "7141 VH", "plaats": "Groenlo", "merk": "Stibat", "puntType": "inzamelbak", "materialen": ["batterijen"], "uitbetaling": [], "vrijToegankelijk": false, "gemeenteBeperking": null, "openingstijden": null, "latitude": 52.0444488, "longitude": 6.6100104, "bronId": "L041461"}}, {"type": "Feature", "geometry": {"type": "Point", "coordinates": [6.6104351, 52.043648]}, "properties": {"type": "inleverpunt", "locatieNaam": "Jumbo", "straatNaam": "Den Koem", "straatNr": "2", "postcode": "7141 VW", "plaats": "GROENLO", "merk": "Stibat", "puntType": "inzamelbak", "materialen": ["batterijen"], "uitbetaling": [], "vrijToegankelijk": false, "gemeenteBeperking": null, "openingstijden": null, "latitude": 52.043648, "longitude": 6.6104351, "bronId": "L040911"}}, {"type": "Feature", "geometry": {"type": "Point", "coordinates": [6.6132885, 52.0426452]}, "properties": {"type": "inleverpunt", "locatieNaam": "7779 Etos", "straatNaam": "Beltrumsestraat", "straatNr": "50", "postcode": "7141 AM", "plaats": "Groenlo", "merk": "Stibat", "puntType": "inzamelbak", "materialen": ["batterijen"], "uitbetaling": [], "vrijToegankelijk": false, "gemeenteBeperking": null, "openingstijden": null, "latitude": 52.0426452, "longitude": 6.6132885, "bronId": "L024924"}}, {"type": "Feature", "geometry": {"type": "Point", "coordinates": [6.6133716, 52.0425528]}, "properties": {"type": "inleverpunt", "locatieNaam": "Bruna", "straatNaam": "Beltrumsestraat", "straatNr": "52", "postcode": "7141 AM", "plaats": "GROENLO", "merk": "Stibat", "puntType": "inzamelbak", "materialen": ["batterijen"], "uitbetaling": [], "vrijToegankelijk": false, "gemeenteBeperking": null, "openingstijden": null, "latitude": 52.0425528, "longitude": 6.6133716, "bronId": "L029474"}}, {"type": "Feature", "geometry": {"type": "Point", "coordinates": [6.6134225, 52.0427686]}, "properties": {"type": "inleverpunt", "locatieNaam": "EP: Groot Zevert", "straatNaam": "Beltrumsestraat", "straatNr": "44", "postcode": "7141 AM", "plaats": "GROENLO", "merk": "Stibat", "puntType": "inzamelbak", "materialen": ["batterijen"], "uitbetaling": [], "vrijToegankelijk": false, "gemeenteBeperking": null, "openingstijden": null, "latitude": 52.0427686, "longitude": 6.6134225, "bronId": "L018738"}}, {"type": "Feature", "geometry": {"type": "Point", "coordinates": [6.6134825, 52.0430144]}, "properties": {"type": "inleverpunt", "locatieNaam": "8503 Albert Heijn", "straatNaam": "Beltrumsestraat", "straatNr": "40", "postcode": "7141 AM", "plaats": "GROENLO", "merk": "Stibat", "puntType": "inzamelbak", "materialen": ["batterijen"], "uitbetaling": [], "vrijToegankelijk": false, "gemeenteBeperking": null, "openingstijden": null, "latitude": 52.0430144, "longitude": 6.6134825, "bronId": "L007852"}}, {"type": "Feature", "geometry": {"type": "Point", "coordinates": [6.6143954, 52.0425766]}, "properties": {"type": "inleverpunt", "locatieNaam": "HEMA Groenlo", "straatNaam": "Beltrumsestraat", "straatNr": "31 A", "postcode": "7141 AK", "plaats": "Groenlo", "merk": "Stibat", "puntType": "inzamelbak", "materialen": ["batterijen"], "uitbetaling": [], "vrijToegankelijk": false, "gemeenteBeperking": null, "openingstijden": null, "latitude": 52.0425766, "longitude": 6.6143954, "bronId": "L046959"}}, {"type": "Feature", "geometry": {"type": "Point", "coordinates": [6.6146051, 52.0426402]}, "properties": {"type": "inleverpunt", "locatieNaam": "Kruidvat", "straatNaam": "Beltrumsestraat", "straatNr": "31", "postcode": "7141 AK", "plaats": "GROENLO", "merk": "Stibat", "puntType": "inzamelbak", "materialen": ["batterijen"], "uitbetaling": [], "vrijToegankelijk": false, "gemeenteBeperking": null, "openingstijden": null, "latitude": 52.0426402, "longitude": 6.6146051, "bronId": "L014797"}}, {"type": "Feature", "geometry": {"type": "Point", "coordinates": [6.6209914, 52.0512507]}, "properties": {"type": "inleverpunt", "locatieNaam": "Afvalbrengstation Aktief Kringloopbedrijven", "straatNaam": "Den Sliem", "straatNr": "82", "postcode": "7141 JJ", "plaats": "GROENLO", "merk": "Stibat", "puntType": "inzamelbak", "materialen": ["batterijen"], "uitbetaling": [], "vrijToegankelijk": false, "gemeenteBeperking": null, "openingstijden": null, "latitude": 52.0512507, "longitude": 6.6209914, "bronId": "L035841"}}, {"type": "Feature", "geometry": {"type": "Point", "coordinates": [6.6097412, 51.986893]}, "properties": {"type": "inleverpunt", "locatieNaam": "H.A.M. Rensing", "straatNaam": "Pastoor Scheepersstraat", "straatNr": "2", "postcode": "7134 RE", "plaats": "Vragender", "merk": "Stibat", "puntType": "inzamelbak", "materialen": ["batterijen"], "uitbetaling": [], "vrijToegankelijk": false, "gemeenteBeperking": null, "openingstijden": null, "latitude": 51.986893, "longitude": 6.6097412, "bronId": "L033872"}}, {"type": "Feature", "geometry": {"type": "Point", "coordinates": [6.6230474, 52.0378047]}, "properties": {"type": "inleverpunt", "locatieNaam": "Hubo", "straatNaam": "Parallelweg", "straatNr": "3", "postcode": "7141 DL", "plaats": "GROENLO", "merk": "Stibat", "puntType": "inzamelbak", "materialen": ["batterijen"], "uitbetaling": [], "vrijToegankelijk": false, "gemeenteBeperking": null, "openingstijden": null, "latitude": 52.0378047, "longitude": 6.6230474, "bronId": "L043684"}}, {"type": "Feature", "geometry": {"type": "Point", "coordinates": [6.6255465, 52.0519291]}, "properties": {"type": "inleverpunt", "locatieNaam": "De Haan", "straatNaam": "Eibergseweg", "straatNr": "81", "postcode": "7141 CE", "plaats": "Groenlo", "merk": "Stibat", "puntType": "inzamelbak", "materialen": ["batterijen"], "uitbetaling": [], "vrijToegankelijk": false, "gemeenteBeperking": null, "openingstijden": null, "latitude": 52.0519291, "longitude": 6.6255465, "bronId": "L044742"}}, {"type": "Feature", "geometry": {"type": "Point", "coordinates": [6.631004, 52.0351047]}, "properties": {"type": "inleverpunt", "locatieNaam": "Marveld Recreatie", "straatNaam": "Elshofweg", "straatNr": "6", "postcode": "7141 DH", "plaats": "GROENLO", "merk": "Stibat", "puntType": "inzamelbak", "materialen": ["batterijen"], "uitbetaling": [], "vrijToegankelijk": false, "gemeenteBeperking": null, "openingstijden": null, "latitude": 52.0351047, "longitude": 6.631004, "bronId": "L046470"}}, {"type": "Feature", "geometry": {"type": "Point", "coordinates": [6.6321425, 52.0369059]}, "properties": {"type": "inleverpunt", "locatieNaam": "Marveld Recreatie bv", "straatNaam": "Elshofweg", "straatNr": "6", "postcode": "7141 DH", "plaats": "GROENLO", "merk": "Stibat", "puntType": "inzamelbak", "materialen": ["batterijen"], "uitbetaling": [], "vrijToegankelijk": false, "gemeenteBeperking": null, "openingstijden": null, "latitude": 52.0369059, "longitude": 6.6321425, "bronId": "L004863"}}, {"type": "Feature", "geometry": {"type": "Point", "coordinates": [6.6332159, 52.0411286]}, "properties": {"type": "inleverpunt", "locatieNaam": "Groenrijk", "straatNaam": "Maarsevonder", "straatNr": "5", "postcode": "7141 HG", "plaats": "GROENLO", "merk": "Stibat", "puntType": "inzamelbak", "materialen": ["batterijen"], "uitbetaling": [], "vrijToegankelijk": false, "gemeenteBeperking": null, "openingstijden": null, "latitude": 52.0411286, "longitude": 6.6332159, "bronId": "L040828"}}, {"type": "Feature", "geometry": {"type": "Polygon", "coordinates": [[[6.52726900284981, 51.96602400385935], [6.547003002869618, 51.97271600386274], [6.559199002881802, 51.97436700386328], [6.569684002892198, 51.9721580038615], [6.575104002897623, 51.973225003861906], [6.576481002898988, 51.97297300386169], [6.576961002899461, 51.972734003861504], [6.57672300289922, 51.97258500386146], [6.585486002907942, 51.97235300386094], [6.589442002911867, 51.97170900386039], [6.591865002914291, 51.972161003860535], [6.592541002914937, 51.9708410038597], [6.598433002920812, 51.971143003859666], [6.611115002933399, 51.96927200385794], [6.628721002950883, 51.96728100385596], [6.633928002956035, 51.96567000385474], [6.638916002960936, 51.96254700385258], [6.638720002960769, 51.96396200385346], [6.637585002959659, 51.96495000385413], [6.641639002963703, 51.965410003854245], [6.642420002964488, 51.9657440038544], [6.645743002967862, 51.9690150038563], [6.6464580029686005, 51.970419003857145], [6.647777002969911, 51.97033300385704], [6.6484610029706, 51.97065100385723], [6.655691002977889, 51.97547000385993], [6.654519002976738, 51.976249003860445], [6.6570560029792905, 51.97755200386118], [6.65517500297745, 51.97927400386231], [6.652641002975294, 51.99754300387379], [6.65405700297679, 52.00198100387652], [6.658074002980949, 52.01050200388159], [6.657458002980345, 52.01079800388181], [6.658493002981387, 52.011477003882206], [6.65649900297942, 52.01247100388287], [6.6555320029784895, 52.01393400388384], [6.656533002979491, 52.01426500388403], [6.656649002979618, 52.01481400388435], [6.658485002981433, 52.01422100388392], [6.660572002983526, 52.01509900388434], [6.6605110029834735, 52.015625003884686], [6.661791002984747, 52.0155590038846], [6.662405002985368, 52.016251003884975], [6.661923002984899, 52.01671800388529], [6.662209002985195, 52.01729900388564], [6.672061002995098, 52.022901003888684], [6.675901002998983, 52.0263920038907], [6.675391002998476, 52.02657000389081], [6.67558700299868, 52.026900003891], [6.677733003000841, 52.028375003891846], [6.6795970030027, 52.02868700389193], [6.680667003003752, 52.02799900389146], [6.683569003006636, 52.02820200389146], [6.687853003011117, 52.039856003898485], [6.687981003011329, 52.044365003901255], [6.684019003007401, 52.04483500390172], [6.678722003002185, 52.04730000390347], [6.674704002998217, 52.048559003904394], [6.6725980029961285, 52.048799003904655], [6.666760002990357, 52.05031500390589], [6.665622002989223, 52.05011000390581], [6.661794002985447, 52.05160300390689], [6.66180700298547, 52.05223700390724], [6.663929002987626, 52.05444800390853], [6.663808002987567, 52.05770500391054], [6.663004002986797, 52.05921800391154], [6.661430002985248, 52.06005400391209], [6.658971002982862, 52.06304100391405], [6.651138002975092, 52.06359900391471], [6.646839002970853, 52.06541100391602], [6.643209002967147, 52.06020500391299], [6.638684002962655, 52.060592003913406], [6.636473002960381, 52.056647003911074], [6.635993002959912, 52.057071003911375], [6.6341430029580835, 52.05754900391171], [6.631455002955454, 52.05981500391322], [6.631929002955933, 52.060067003913375], [6.631480002955495, 52.06049800391366], [6.632181002956201, 52.06105600391398], [6.6353550029593515, 52.06081400391373], [6.636945002961003, 52.06432600391578], [6.631013002955109, 52.0644580039161], [6.623932002948053, 52.063591003915896], [6.62137400294555, 52.065575003917225], [6.613086002937361, 52.06804000391909], [6.6061190029303765, 52.0651170039176], [6.6064710029306335, 52.06033700391462], [6.604389002928462, 52.05551400391172], [6.605592002929583, 52.05182700390942], [6.603566002927552, 52.0508750039089], [6.60298600292696, 52.050198003908505], [6.601448002925434, 52.050278003908645], [6.601048002925027, 52.04984500390839], [6.598780002922757, 52.04917300390808], [6.596588002920536, 52.04724900390697], [6.595903002919837, 52.04619000390634], [6.5964770029203645, 52.04407500390503], [6.595555002919435, 52.04347100390467], [6.596238002920098, 52.04281900390423], [6.590740002914609, 52.041572003903696], [6.590902002914761, 52.04131400390352], [6.590132002913987, 52.04084500390327], [6.5905210029143655, 52.04053400390306], [6.590309002914138, 52.03953400390247], [6.589790002913616, 52.0393720039024], [6.590028002913846, 52.03905400390215], [6.586886002910697, 52.037992003901664], [6.574314002898064, 52.03193300389841], [6.571578002895329, 52.0314030038982], [6.571742002895474, 52.0304390038976], [6.569998002893736, 52.03016300389747], [6.5692760028930275, 52.03095700389802], [6.5389890028627615, 52.025197003895705], [6.5172880028415285, 52.04241400390721], [6.51482800283904, 52.04049400390613], [6.508707002833025, 52.04426600390873], [6.499596002823768, 52.035820003903865], [6.494297002818534, 52.03785100390531], [6.492808002817008, 52.03588900390415], [6.491619002815837, 52.03635900390449], [6.4906440028148475, 52.035614003904094], [6.491100002815293, 52.035222003903804], [6.4879090028120485, 52.03230700390213], [6.486670002810853, 52.03393300390318], [6.483386002807523, 52.03134700390171], [6.480071002804258, 52.03294800390286], [6.4758780028000125, 52.03003300390118], [6.464947002788914, 52.02060100389578], [6.463147002787138, 52.02134600389631], [6.463228002787225, 52.02155600389646], [6.462185002786186, 52.02170100389657], [6.459187002783129, 52.01872200389482], [6.462058002785951, 52.0169150038936], [6.460667002784541, 52.015828003892985], [6.461539002785401, 52.015409003892664], [6.46030500278415, 52.01456400389221], [6.462700002786511, 52.013325003891346], [6.461886002785697, 52.01320100389131], [6.4618690027856545, 52.01203400389056], [6.4636870027874025, 52.00939400388888], [6.465632002789306, 52.00769500388773], [6.4602680027839225, 52.006171003887005], [6.461116002784743, 52.005139003886335], [6.467488002790997, 52.00075700388337], [6.459208002782677, 51.997752003881764], [6.4600600027834965, 51.996450003880966], [6.460058002783462, 51.99515100388013], [6.47577300279897, 51.98813600387521], [6.472114002795221, 51.98353700387248], [6.471557002794668, 51.98369700387257], [6.468821002791884, 51.98119600387113], [6.466927002789937, 51.97862200386961], [6.473198002796131, 51.976040003867745], [6.476627002799537, 51.97547900386725], [6.481470002804331, 51.97388600386606], [6.482963002805815, 51.973687003865855], [6.483566002806429, 51.974285003866235], [6.48709700280992, 51.973011003865295], [6.4881640028109855, 51.97302900386528], [6.488156002810972, 51.972778003865116], [6.494798002817542, 51.97059100386348], [6.505967002828646, 51.96914000386213], [6.524641002847229, 51.96780100386052], [6.52726900284981, 51.96602400385935]]]}, "properties": {"type": "boundary", "gemeente": "Oost Gelre"}}]}