{"type": "FeatureCollection", "metadata": {"gemeente": "Oss", "slug": "oss", "generated_at": "2026-07-28T10:02:02.095237Z", "total_points": 159, "merken": ["StatiegeldNederland", "Stibat", "StichtingOPEN"], "bounds": [5.3947379, 51.7346627, 5.6532775, 51.824262]}, "features": [{"type": "Feature", "geometry": {"type": "Point", "coordinates": [5.5265182, 51.771826]}, "properties": {"type": "inleverpunt", "locatieNaam": "Albert Heijn", "straatNaam": "Burchtplein", "straatNr": "80", "postcode": "5341 VE", "plaats": "Oss", "merk": "StatiegeldNederland", "puntType": "automaat", "materialen": ["pet-groot", "pet-klein", "blik", "glas", "krat"], "uitbetaling": ["bonnetje", "donatie"], "vrijToegankelijk": true, "gemeenteBeperking": null, "openingstijden": {"ma": "08:00–22:00", "di": "08:00–22:00", "wo": "08:00–22:00", "do": "08:00–22:00", "vr": "08:00–22:00", "za": "08:00–22:00", "zo": "09:00–21:00"}, "latitude": 51.771826, "longitude": 5.5265182, "bronId": "252071"}}, {"type": "Feature", "geometry": {"type": "Point", "coordinates": [5.5675612, 51.7703838]}, "properties": {"type": "inleverpunt", "locatieNaam": "Albert Heijn", "straatNaam": "St. Willibrordusstraat", "straatNr": "45", "postcode": "5351 EE", "plaats": "Berghem", "merk": "StatiegeldNederland", "puntType": "automaat", "materialen": ["pet-groot", "pet-klein", "blik", "glas", "krat"], "uitbetaling": ["bonnetje"], "vrijToegankelijk": true, "gemeenteBeperking": null, "openingstijden": {"ma": "08:00–21:00", "di": "08:00–21:00", "wo": "08:00–21:00", "do": "08:00–21:00", "vr": "08:00–21:00", "za": "08:00–21:00", "zo": "09:00–19:00"}, "latitude": 51.7703838, "longitude": 5.5675612, "bronId": "252754"}}, {"type": "Feature", "geometry": {"type": "Point", "coordinates": [5.5113399, 51.7541994]}, "properties": {"type": "inleverpunt", "locatieNaam": "Albert Heijn", "straatNaam": "Sterrebos", "straatNr": "2", "postcode": "5344 AM", "plaats": "Oss", "merk": "StatiegeldNederland", "puntType": "automaat", "materialen": ["pet-groot", "pet-klein", "blik", "glas", "krat"], "uitbetaling": ["bonnetje", "donatie"], "vrijToegankelijk": true, "gemeenteBeperking": null, "openingstijden": {"ma": "08:00–21:00", "di": "08:00–21:00", "wo": "08:00–21:00", "do": "08:00–21:00", "vr": "08:00–21:00", "za": "08:00–21:00", "zo": "09:00–21:00"}, "latitude": 51.7541994, "longitude": 5.5113399, "bronId": "252777"}}, {"type": "Feature", "geometry": {"type": "Point", "coordinates": [5.5501874, 51.7627029]}, "properties": {"type": "inleverpunt", "locatieNaam": "BOXSS Oss", "straatNaam": "Landweerstraat-zuid", "straatNr": "140", "postcode": "5349 AK", "plaats": "Oss", "merk": "StatiegeldNederland", "puntType": "automaat", "materialen": ["pet-groot", "pet-klein", "blik", "krat"], "uitbetaling": ["donatie", "tikkie"], "vrijToegankelijk": true, "gemeenteBeperking": null, "openingstijden": null, "latitude": 51.7627029, "longitude": 5.5501874, "bronId": "253893"}}, {"type": "Feature", "geometry": {"type": "Point", "coordinates": [5.500238, 51.7523]}, "properties": {"type": "inleverpunt", "locatieNaam": "Aldi", "straatNaam": "Dr. Schaepmanlaan", "straatNr": "105", "postcode": "5344 BC", "plaats": "Oss", "merk": "StatiegeldNederland", "puntType": "automaat", "materialen": ["pet-groot", "pet-klein", "blik", "glas", "krat"], "uitbetaling": ["bonnetje"], "vrijToegankelijk": true, "gemeenteBeperking": null, "openingstijden": {"ma": "08:00–20:00", "di": "08:00–20:00", "wo": "08:00–20:00", "do": "08:00–20:00", "vr": "08:00–20:00", "za": "08:00–20:00", "zo": "10:00–18:00"}, "latitude": 51.7523, "longitude": 5.500238, "bronId": "253089"}}, {"type": "Feature", "geometry": {"type": "Point", "coordinates": [5.5819789, 51.8048302]}, "properties": {"type": "inleverpunt", "locatieNaam": "Aldi", "straatNaam": "Lietingstraat", "straatNr": "21", "postcode": "5368 AA", "plaats": "Haren (Nb)", "merk": "StatiegeldNederland", "puntType": "automaat", "materialen": ["pet-groot", "pet-klein", "blik", "glas", "krat"], "uitbetaling": ["bonnetje"], "vrijToegankelijk": true, "gemeenteBeperking": null, "openingstijden": {"ma": "08:00–20:00", "di": "08:00–20:00", "wo": "08:00–20:00", "do": "08:00–20:00", "vr": "08:00–20:00", "za": "08:00–20:00", "zo": "10:00–18:00"}, "latitude": 51.8048302, "longitude": 5.5819789, "bronId": "253232"}}, {"type": "Feature", "geometry": {"type": "Point", "coordinates": [5.501723, 51.766486]}, "properties": {"type": "inleverpunt", "locatieNaam": "Aldi", "straatNaam": "Wolfskooy", "straatNr": "3", "postcode": "5345 MH", "plaats": "Oss", "merk": "StatiegeldNederland", "puntType": "automaat", "materialen": ["pet-groot", "pet-klein", "blik", "glas", "krat"], "uitbetaling": ["bonnetje"], "vrijToegankelijk": true, "gemeenteBeperking": null, "openingstijden": {"ma": "08:00–20:00", "di": "08:00–20:00", "wo": "08:00–20:00", "do": "08:00–20:00", "vr": "08:00–20:00", "za": "08:00–20:00", "zo": "10:00–18:00"}, "latitude": 51.766486, "longitude": 5.501723, "bronId": "253451"}}, {"type": "Feature", "geometry": {"type": "Point", "coordinates": [5.5371888, 51.7615989]}, "properties": {"type": "inleverpunt", "locatieNaam": "Appel 2609 - Aspen De Breek", "straatNaam": "Kloosterstraat", "straatNr": "6", "postcode": "5349 AB", "plaats": "Oss", "merk": "StatiegeldNederland", "puntType": "balie", "materialen": ["pet-groot", "pet-klein", "blik"], "uitbetaling": [], "vrijToegankelijk": true, "gemeenteBeperking": null, "openingstijden": {"ma": "24 uur geopend", "di": "24 uur geopend", "wo": "24 uur geopend", "do": "24 uur geopend", "vr": "24 uur geopend", "za": "24 uur geopend", "zo": "24 uur geopend"}, "latitude": 51.7615989, "longitude": 5.5371888, "bronId": "253599"}}, {"type": "Feature", "geometry": {"type": "Point", "coordinates": [5.5371888, 51.7615989]}, "properties": {"type": "inleverpunt", "locatieNaam": "Appel 2610 - Aspen Trefpunt", "straatNaam": "Veersemeer", "straatNr": "4", "postcode": "5347 JN", "plaats": "Oss", "merk": "StatiegeldNederland", "puntType": "balie", "materialen": ["pet-groot", "pet-klein", "blik"], "uitbetaling": [], "vrijToegankelijk": true, "gemeenteBeperking": null, "openingstijden": {"ma": "24 uur geopend", "di": "24 uur geopend", "wo": "24 uur geopend", "do": "24 uur geopend", "vr": "24 uur geopend", "za": "24 uur geopend", "zo": "24 uur geopend"}, "latitude": 51.7615989, "longitude": 5.5371888, "bronId": "253600"}}, {"type": "Feature", "geometry": {"type": "Point", "coordinates": [5.5381693, 51.7603267]}, "properties": {"type": "inleverpunt", "locatieNaam": "Appel 2709 - Pivot Park", "straatNaam": "Kloosterstraat", "straatNr": "6", "postcode": "5349 AB", "plaats": "Oss", "merk": "StatiegeldNederland", "puntType": "balie", "materialen": ["pet-groot", "pet-klein", "blik"], "uitbetaling": [], "vrijToegankelijk": true, "gemeenteBeperking": null, "openingstijden": {"ma": "07:00–19:00", "di": "07:00–19:00", "wo": "07:00–19:00", "do": "07:00–19:00", "vr": "07:00–19:00", "za": "Gesloten", "zo": "Gesloten"}, "latitude": 51.7603267, "longitude": 5.5381693, "bronId": "253640"}}, {"type": "Feature", "geometry": {"type": "Point", "coordinates": [5.526459, 51.7807]}, "properties": {"type": "inleverpunt", "locatieNaam": "Base En Softballclub De Cardinals", "straatNaam": "Spitsbergerweg", "straatNr": "52", "postcode": "5346 JP", "plaats": "Oss", "merk": "StatiegeldNederland", "puntType": "balie", "materialen": ["pet-groot", "pet-klein", "blik"], "uitbetaling": [], "vrijToegankelijk": false, "gemeenteBeperking": null, "openingstijden": null, "latitude": 51.7807, "longitude": 5.526459, "bronId": "253810"}}, {"type": "Feature", "geometry": {"type": "Point", "coordinates": [5.4939754, 51.7346627]}, "properties": {"type": "inleverpunt", "locatieNaam": "BP", "straatNaam": "RIJKSWEG", "straatNr": "40", "postcode": "5386 LE", "plaats": "Geffen", "merk": "StatiegeldNederland", "puntType": "balie", "materialen": ["pet-groot", "pet-klein", "blik"], "uitbetaling": [], "vrijToegankelijk": true, "gemeenteBeperking": null, "openingstijden": {"ma": "05:00–22:00", "di": "05:00–22:00", "wo": "05:00–22:00", "do": "05:00–22:00", "vr": "05:00–22:00", "za": "06:00–22:00", "zo": "08:00–22:00"}, "latitude": 51.7346627, "longitude": 5.4939754, "bronId": "253904"}}, {"type": "Feature", "geometry": {"type": "Point", "coordinates": [5.5607437, 51.7504139]}, "properties": {"type": "inleverpunt", "locatieNaam": "Circlek Servauto - Danenhoef", "straatNaam": "Graafsebaan", "straatNr": "5", "postcode": "5342 LJ", "plaats": "Oss", "merk": "StatiegeldNederland", "puntType": "balie", "materialen": ["pet-groot", "pet-klein", "blik"], "uitbetaling": [], "vrijToegankelijk": true, "gemeenteBeperking": null, "openingstijden": {"ma": "06:00–22:00", "di": "06:00–22:00", "wo": "06:00–22:00", "do": "06:00–22:00", "vr": "06:00–22:00", "za": "08:00–21:00", "zo": "09:00–20:00"}, "latitude": 51.7504139, "longitude": 5.5607437, "bronId": "254129"}}, {"type": "Feature", "geometry": {"type": "Point", "coordinates": [5.5116237, 51.756823]}, "properties": {"type": "inleverpunt", "locatieNaam": "Circlek Servauto - De Ruwaard", "straatNaam": "Euterpelaan", "straatNr": "35", "postcode": "5344 CA", "plaats": "Oss", "merk": "StatiegeldNederland", "puntType": "balie", "materialen": ["pet-groot", "pet-klein", "blik"], "uitbetaling": [], "vrijToegankelijk": true, "gemeenteBeperking": null, "openingstijden": {"ma": "06:00–23:30", "di": "06:00–23:30", "wo": "06:00–23:30", "do": "06:00–23:30", "vr": "06:00–23:30", "za": "07:00–23:30", "zo": "08:00–23:30"}, "latitude": 51.756823, "longitude": 5.5116237, "bronId": "254138"}}, {"type": "Feature", "geometry": {"type": "Point", "coordinates": [5.5223675, 51.7671663]}, "properties": {"type": "inleverpunt", "locatieNaam": "Ekoplaza", "straatNaam": "KRUISSTRAAT", "straatNr": "22", "postcode": "5341 HD", "plaats": "Oss", "merk": "StatiegeldNederland", "puntType": "balie", "materialen": ["pet-groot", "pet-klein", "blik"], "uitbetaling": [], "vrijToegankelijk": true, "gemeenteBeperking": null, "openingstijden": {"ma": "11:00–18:00", "di": "09:30–18:00", "wo": "09:30–18:00", "do": "09:30–18:00", "vr": "09:30–18:00", "za": "09:30–17:30", "zo": "Gesloten"}, "latitude": 51.7671663, "longitude": 5.5223675, "bronId": "254661"}}, {"type": "Feature", "geometry": {"type": "Point", "coordinates": [5.5433271, 51.7757397]}, "properties": {"type": "inleverpunt", "locatieNaam": "Fc Schadewijk", "straatNaam": "Scheldestraat", "straatNr": "31", "postcode": "5347 JC", "plaats": "Oss", "merk": "StatiegeldNederland", "puntType": "balie", "materialen": ["pet-groot", "pet-klein", "blik"], "uitbetaling": [], "vrijToegankelijk": false, "gemeenteBeperking": null, "openingstijden": {"ma": "Gesloten", "di": "19:00–23:00", "wo": "19:00–22:00", "do": "19:00–00:00", "vr": "Gesloten", "za": "Gesloten", "zo": "09:00–23:30"}, "latitude": 51.7757397, "longitude": 5.5433271, "bronId": "254770"}}, {"type": "Feature", "geometry": {"type": "Point", "coordinates": [5.5174601, 51.7606017]}, "properties": {"type": "inleverpunt", "locatieNaam": "Het Hooghuis De Singel", "straatNaam": "Euterpehof", "straatNr": "20", "postcode": "5342 CW", "plaats": "Oss", "merk": "StatiegeldNederland", "puntType": "automaat", "materialen": ["pet-klein", "blik"], "uitbetaling": ["donatie"], "vrijToegankelijk": false, "gemeenteBeperking": null, "openingstijden": null, "latitude": 51.7606017, "longitude": 5.5174601, "bronId": "254963"}}, {"type": "Feature", "geometry": {"type": "Point", "coordinates": [5.5297, 51.754209]}, "properties": {"type": "inleverpunt", "locatieNaam": "Het Hooghuis Mondriaan", "straatNaam": "Mondriaanlaan", "straatNr": "1", "postcode": "5342 CN", "plaats": "Oss", "merk": "StatiegeldNederland", "puntType": "automaat", "materialen": ["pet-klein", "blik"], "uitbetaling": ["donatie"], "vrijToegankelijk": false, "gemeenteBeperking": null, "openingstijden": null, "latitude": 51.754209, "longitude": 5.5297, "bronId": "254964"}}, {"type": "Feature", "geometry": {"type": "Point", "coordinates": [5.5291016, 51.7542016]}, "properties": {"type": "inleverpunt", "locatieNaam": "Het Hooghuis Stadion", "straatNaam": "Mondriaanlaan", "straatNr": "6", "postcode": "5342 CN", "plaats": "Oss", "merk": "StatiegeldNederland", "puntType": "automaat", "materialen": ["pet-klein", "blik"], "uitbetaling": ["donatie"], "vrijToegankelijk": false, "gemeenteBeperking": null, "openingstijden": null, "latitude": 51.7542016, "longitude": 5.5291016, "bronId": "254965"}}, {"type": "Feature", "geometry": {"type": "Point", "coordinates": [5.5263197, 51.7671769]}, "properties": {"type": "inleverpunt", "locatieNaam": "Het Hooghuis TBL", "straatNaam": "Molenstraat", "straatNr": "30", "postcode": "5341 GD", "plaats": "Oss", "merk": "StatiegeldNederland", "puntType": "automaat", "materialen": ["pet-klein", "blik"], "uitbetaling": ["donatie"], "vrijToegankelijk": false, "gemeenteBeperking": null, "openingstijden": {"ma": "09:00–18:00", "di": "09:00–18:00", "wo": "09:00–18:00", "do": "09:00–18:00", "vr": "09:00–18:00", "za": "09:00–17:00", "zo": "Gesloten"}, "latitude": 51.7671769, "longitude": 5.5263197, "bronId": "254966"}}, {"type": "Feature", "geometry": {"type": "Point", "coordinates": [5.5197589, 51.7534322]}, "properties": {"type": "inleverpunt", "locatieNaam": "Het Hooghuis West", "straatNaam": "Verdistraat", "straatNr": "75", "postcode": "5343 VC", "plaats": "Oss", "merk": "StatiegeldNederland", "puntType": "automaat", "materialen": ["pet-klein", "blik"], "uitbetaling": ["donatie"], "vrijToegankelijk": false, "gemeenteBeperking": null, "openingstijden": null, "latitude": 51.7534322, "longitude": 5.5197589, "bronId": "254967"}}, {"type": "Feature", "geometry": {"type": "Point", "coordinates": [5.5305711, 51.7530736]}, "properties": {"type": "inleverpunt", "locatieNaam": "Het Hooghuis Zuid", "straatNaam": "Ruivert", "straatNr": "5", "postcode": "5342 CM", "plaats": "Oss", "merk": "StatiegeldNederland", "puntType": "automaat", "materialen": ["pet-klein", "blik"], "uitbetaling": ["donatie"], "vrijToegankelijk": false, "gemeenteBeperking": null, "openingstijden": null, "latitude": 51.7530736, "longitude": 5.5305711, "bronId": "254968"}}, {"type": "Feature", "geometry": {"type": "Point", "coordinates": [5.462339, 51.741324]}, "properties": {"type": "inleverpunt", "locatieNaam": "Jumbo", "straatNaam": "Aloysiusplein", "straatNr": "1", "postcode": "5386 BD", "plaats": "Geffen", "merk": "StatiegeldNederland", "puntType": "automaat", "materialen": ["pet-groot", "pet-klein", "blik", "glas", "krat"], "uitbetaling": ["bonnetje", "donatie"], "vrijToegankelijk": true, "gemeenteBeperking": null, "openingstijden": {"ma": "08:00–20:00", "di": "08:00–20:00", "wo": "08:00–20:00", "do": "08:00–20:00", "vr": "08:00–20:00", "za": "08:00–20:00", "zo": "10:00–18:00"}, "latitude": 51.741324, "longitude": 5.462339, "bronId": "255208"}}, {"type": "Feature", "geometry": {"type": "Point", "coordinates": [5.536781, 51.772179]}, "properties": {"type": "inleverpunt", "locatieNaam": "Jumbo", "straatNaam": "Kardinaal De Jongstraat", "straatNr": "38", "postcode": "5348 BH", "plaats": "Oss", "merk": "StatiegeldNederland", "puntType": "automaat", "materialen": ["pet-groot", "pet-klein", "blik", "glas", "krat"], "uitbetaling": ["bonnetje"], "vrijToegankelijk": true, "gemeenteBeperking": null, "openingstijden": {"ma": "08:00–21:00", "di": "08:00–21:00", "wo": "08:00–21:00", "do": "08:00–21:00", "vr": "08:00–21:00", "za": "08:00–21:00", "zo": "09:00–20:00"}, "latitude": 51.772179, "longitude": 5.536781, "bronId": "255468"}}, {"type": "Feature", "geometry": {"type": "Point", "coordinates": [5.568354, 51.771748]}, "properties": {"type": "inleverpunt", "locatieNaam": "Jumbo", "straatNaam": "Meester Gielenplein", "straatNr": "1-3", "postcode": "5351 EH", "plaats": "Berghem", "merk": "StatiegeldNederland", "puntType": "automaat", "materialen": ["pet-groot", "pet-klein", "blik", "glas", "krat"], "uitbetaling": ["bonnetje", "donatie"], "vrijToegankelijk": true, "gemeenteBeperking": null, "openingstijden": {"ma": "08:00–21:00", "di": "08:00–21:00", "wo": "08:00–21:00", "do": "08:00–21:00", "vr": "08:00–21:00", "za": "08:00–21:00", "zo": "09:00–19:00"}, "latitude": 51.771748, "longitude": 5.568354, "bronId": "255577"}}, {"type": "Feature", "geometry": {"type": "Point", "coordinates": [5.514527, 51.770144]}, "properties": {"type": "inleverpunt", "locatieNaam": "Jumbo", "straatNaam": "Vierhoeksingel", "straatNr": "7", "postcode": "5341 PN", "plaats": "Oss", "merk": "StatiegeldNederland", "puntType": "automaat", "materialen": ["pet-groot", "pet-klein", "blik", "glas", "krat"], "uitbetaling": ["bonnetje", "donatie"], "vrijToegankelijk": true, "gemeenteBeperking": null, "openingstijden": {"ma": "08:00–21:00", "di": "08:00–21:00", "wo": "08:00–21:00", "do": "08:00–21:00", "vr": "08:00–21:00", "za": "08:00–21:00", "zo": "09:00–20:00"}, "latitude": 51.770144, "longitude": 5.514527, "bronId": "255822"}}, {"type": "Feature", "geometry": {"type": "Point", "coordinates": [5.501909, 51.765882]}, "properties": {"type": "inleverpunt", "locatieNaam": "Jumbo", "straatNaam": "Wolfskooi", "straatNr": "49", "postcode": "5345 MH", "plaats": "Oss", "merk": "StatiegeldNederland", "puntType": "automaat", "materialen": ["pet-groot", "pet-klein", "blik", "glas", "krat"], "uitbetaling": ["bonnetje", "donatie"], "vrijToegankelijk": true, "gemeenteBeperking": null, "openingstijden": {"ma": "08:00–21:00", "di": "08:00–21:00", "wo": "08:00–21:00", "do": "08:00–21:00", "vr": "08:00–21:00", "za": "08:00–21:00", "zo": "09:00–20:00"}, "latitude": 51.765882, "longitude": 5.501909, "bronId": "255879"}}, {"type": "Feature", "geometry": {"type": "Point", "coordinates": [5.518127, 51.758608]}, "properties": {"type": "inleverpunt", "locatieNaam": "Koning Willem 1 College", "straatNaam": "Euterpelaan", "straatNr": "100", "postcode": "5344 CS", "plaats": "Oss", "merk": "StatiegeldNederland", "puntType": "automaat", "materialen": ["pet-klein", "blik"], "uitbetaling": ["donatie", "tikkie"], "vrijToegankelijk": false, "gemeenteBeperking": null, "openingstijden": null, "latitude": 51.758608, "longitude": 5.518127, "bronId": "255913"}}, {"type": "Feature", "geometry": {"type": "Point", "coordinates": [5.5255096, 51.7557897]}, "properties": {"type": "inleverpunt", "locatieNaam": "Koning Willem 1 College", "straatNaam": "Nelson Mandelaboulevard", "straatNr": "4", "postcode": "5342 CZ", "plaats": "Oss", "merk": "StatiegeldNederland", "puntType": "automaat", "materialen": ["pet-klein", "blik"], "uitbetaling": ["donatie", "tikkie"], "vrijToegankelijk": false, "gemeenteBeperking": null, "openingstijden": {"ma": "10:00–17:00", "di": "10:00–17:00", "wo": "10:00–17:00", "do": "10:00–17:00", "vr": "10:00–17:00", "za": "10:00–17:00", "zo": "10:00–17:00"}, "latitude": 51.7557897, "longitude": 5.5255096, "bronId": "255915"}}, {"type": "Feature", "geometry": {"type": "Point", "coordinates": [5.5675, 51.77413]}, "properties": {"type": "inleverpunt", "locatieNaam": "Lidl", "straatNaam": "Burg. Van Erpstraat", "straatNr": "10", "postcode": "5351 AW", "plaats": "Berghem", "merk": "StatiegeldNederland", "puntType": "automaat", "materialen": ["pet-groot", "pet-klein", "blik", "glas", "krat"], "uitbetaling": ["bonnetje", "donatie"], "vrijToegankelijk": true, "gemeenteBeperking": null, "openingstijden": {"ma": "08:00–21:00", "di": "08:00–21:00", "wo": "08:00–21:00", "do": "08:00–21:00", "vr": "08:00–21:00", "za": "08:00–21:00", "zo": "09:00–19:00"}, "latitude": 51.77413, "longitude": 5.5675, "bronId": "256091"}}, {"type": "Feature", "geometry": {"type": "Point", "coordinates": [5.53481, 51.75814]}, "properties": {"type": "inleverpunt", "locatieNaam": "Lidl", "straatNaam": "Oude Molenstraat", "straatNr": "47-49", "postcode": "5342 GB", "plaats": "Oss", "merk": "StatiegeldNederland", "puntType": "automaat", "materialen": ["pet-groot", "pet-klein", "blik", "glas", "krat"], "uitbetaling": ["bonnetje", "donatie"], "vrijToegankelijk": true, "gemeenteBeperking": null, "openingstijden": {"ma": "07:30–21:00", "di": "07:30–21:00", "wo": "07:30–21:00", "do": "07:30–21:00", "vr": "07:30–21:00", "za": "07:30–21:00", "zo": "10:00–19:00"}, "latitude": 51.75814, "longitude": 5.53481, "bronId": "256319"}}, {"type": "Feature", "geometry": {"type": "Point", "coordinates": [5.5415003, 51.8061167]}, "properties": {"type": "inleverpunt", "locatieNaam": "Ltc De Brug", "straatNaam": "Hoogstraat", "straatNr": "5A", "postcode": "5367 AA", "plaats": "Macharen", "merk": "StatiegeldNederland", "puntType": "balie", "materialen": ["pet-groot", "pet-klein", "blik"], "uitbetaling": [], "vrijToegankelijk": false, "gemeenteBeperking": null, "openingstijden": {"ma": "09:00–23:00", "di": "09:00–23:00", "wo": "09:00–23:00", "do": "09:00–23:00", "vr": "09:00–23:00", "za": "09:00–23:00", "zo": "09:00–23:00"}, "latitude": 51.8061167, "longitude": 5.5415003, "bronId": "256500"}}, {"type": "Feature", "geometry": {"type": "Point", "coordinates": [5.5225928, 51.7622653]}, "properties": {"type": "inleverpunt", "locatieNaam": "Maaslandcollege", "straatNaam": "Vianenstraat", "straatNr": "1", "postcode": "5342 AJ", "plaats": "Oss", "merk": "StatiegeldNederland", "puntType": "automaat", "materialen": ["pet-klein", "blik"], "uitbetaling": ["donatie"], "vrijToegankelijk": false, "gemeenteBeperking": null, "openingstijden": {"ma": "08:30–20:00", "di": "08:30–17:00", "wo": "08:30–17:00", "do": "08:30–17:00", "vr": "08:30–17:00", "za": "Gesloten", "zo": "Gesloten"}, "latitude": 51.7622653, "longitude": 5.5225928, "bronId": "256522"}}, {"type": "Feature", "geometry": {"type": "Point", "coordinates": [5.5185308, 51.7587223]}, "properties": {"type": "inleverpunt", "locatieNaam": "Markies 60016 Kw1 College Eu", "straatNaam": "Euterpelaan", "straatNr": "100", "postcode": "5344 CB", "plaats": "Oss", "merk": "StatiegeldNederland", "puntType": "balie", "materialen": ["pet-groot", "pet-klein", "blik"], "uitbetaling": [], "vrijToegankelijk": true, "gemeenteBeperking": null, "openingstijden": {"ma": "08:00–18:00", "di": "08:00–18:00", "wo": "08:00–18:00", "do": "08:00–18:00", "vr": "08:00–18:00", "za": "Gesloten", "zo": "Gesloten"}, "latitude": 51.7587223, "longitude": 5.5185308, "bronId": "256637"}}, {"type": "Feature", "geometry": {"type": "Point", "coordinates": [5.5255096, 51.7557897]}, "properties": {"type": "inleverpunt", "locatieNaam": "Markies 60017 Kw1 College N.", "straatNaam": "Nelson Mandelaboulevard", "straatNr": "4", "postcode": "5342 BT", "plaats": "Oss", "merk": "StatiegeldNederland", "puntType": "balie", "materialen": ["pet-groot", "pet-klein", "blik"], "uitbetaling": [], "vrijToegankelijk": true, "gemeenteBeperking": null, "openingstijden": {"ma": "08:00–18:00", "di": "08:00–18:00", "wo": "08:00–18:00", "do": "08:00–18:00", "vr": "08:00–18:00", "za": "Gesloten", "zo": "Gesloten"}, "latitude": 51.7557897, "longitude": 5.5255096, "bronId": "256638"}}, {"type": "Feature", "geometry": {"type": "Point", "coordinates": [5.6453778, 51.7934864]}, "properties": {"type": "inleverpunt", "locatieNaam": "Nettorama", "straatNaam": "Schaafdries", "straatNr": "2", "postcode": "5371 NJ", "plaats": "Ravenstein", "merk": "StatiegeldNederland", "puntType": "automaat", "materialen": ["pet-groot", "pet-klein", "blik", "glas", "krat"], "uitbetaling": ["bonnetje"], "vrijToegankelijk": true, "gemeenteBeperking": null, "openingstijden": {"ma": "08:00–20:00", "di": "08:00–20:00", "wo": "08:00–20:00", "do": "08:00–21:00", "vr": "08:00–21:00", "za": "08:00–20:00", "zo": "10:00–18:00"}, "latitude": 51.7934864, "longitude": 5.6453778, "bronId": "256909"}}, {"type": "Feature", "geometry": {"type": "Point", "coordinates": [5.5127351, 51.7533657]}, "properties": {"type": "inleverpunt", "locatieNaam": "Nettorama", "straatNaam": "Sterrebos", "straatNr": "32", "postcode": "5344 AM", "plaats": "Oss", "merk": "StatiegeldNederland", "puntType": "automaat", "materialen": ["pet-groot", "pet-klein", "blik", "glas", "krat"], "uitbetaling": ["bonnetje"], "vrijToegankelijk": true, "gemeenteBeperking": null, "openingstijden": {"ma": "07:00–20:00", "di": "07:00–20:00", "wo": "07:00–20:00", "do": "07:00–21:00", "vr": "07:00–21:00", "za": "07:00–20:00", "zo": "10:00–20:00"}, "latitude": 51.7533657, "longitude": 5.5127351, "bronId": "256914"}}, {"type": "Feature", "geometry": {"type": "Point", "coordinates": [5.5239335, 51.7669253]}, "properties": {"type": "inleverpunt", "locatieNaam": "Plus", "straatNaam": "Heschepad 49 -", "straatNr": "51", "postcode": "5341 GS", "plaats": "Oss", "merk": "StatiegeldNederland", "puntType": "automaat", "materialen": ["pet-groot", "pet-klein", "blik", "glas", "krat"], "uitbetaling": ["bonnetje", "donatie"], "vrijToegankelijk": true, "gemeenteBeperking": null, "openingstijden": {"ma": "08:00–21:00", "di": "08:00–21:00", "wo": "08:00–21:00", "do": "08:00–21:00", "vr": "08:00–21:00", "za": "08:00–21:00", "zo": "10:00–18:00"}, "latitude": 51.7669253, "longitude": 5.5239335, "bronId": "257337"}}, {"type": "Feature", "geometry": {"type": "Point", "coordinates": [5.43994, 51.80584]}, "properties": {"type": "inleverpunt", "locatieNaam": "Plus", "straatNaam": "Mgr. Bekkerstraat", "straatNr": "11", "postcode": "5397 EJ", "plaats": "Lith", "merk": "StatiegeldNederland", "puntType": "automaat", "materialen": ["pet-groot", "pet-klein", "blik", "glas", "krat"], "uitbetaling": ["bonnetje", "donatie"], "vrijToegankelijk": true, "gemeenteBeperking": null, "openingstijden": {"ma": "08:00–20:00", "di": "08:00–20:00", "wo": "08:00–20:00", "do": "08:00–20:00", "vr": "08:00–21:00", "za": "08:00–20:00", "zo": "10:00–18:00"}, "latitude": 51.80584, "longitude": 5.43994, "bronId": "257424"}}, {"type": "Feature", "geometry": {"type": "Point", "coordinates": [5.64095, 51.77179]}, "properties": {"type": "inleverpunt", "locatieNaam": "Plus", "straatNaam": "Rogstraat", "straatNr": "6", "postcode": "5373 AT", "plaats": "Herpen", "merk": "StatiegeldNederland", "puntType": "automaat", "materialen": ["pet-groot", "pet-klein", "blik", "glas", "krat"], "uitbetaling": ["bonnetje", "donatie"], "vrijToegankelijk": true, "gemeenteBeperking": null, "openingstijden": {"ma": "08:00–20:00", "di": "08:00–20:00", "wo": "08:00–20:00", "do": "08:00–20:00", "vr": "08:00–21:00", "za": "08:00–20:00", "zo": "09:00–19:00"}, "latitude": 51.77179, "longitude": 5.64095, "bronId": "257512"}}, {"type": "Feature", "geometry": {"type": "Point", "coordinates": [5.5508617, 51.7624727]}, "properties": {"type": "inleverpunt", "locatieNaam": "Polski Market Lowiczanka Oss", "straatNaam": "Docfalaan", "straatNr": "22", "postcode": "5342 LD", "plaats": "Oss", "merk": "StatiegeldNederland", "puntType": "automaat", "materialen": ["pet-groot", "pet-klein", "blik"], "uitbetaling": ["donatie"], "vrijToegankelijk": true, "gemeenteBeperking": null, "openingstijden": {"ma": "24 uur geopend", "di": "24 uur geopend", "wo": "24 uur geopend", "do": "24 uur geopend", "vr": "24 uur geopend", "za": "24 uur geopend", "zo": "24 uur geopend"}, "latitude": 51.7624727, "longitude": 5.5508617, "bronId": "257713"}}, {"type": "Feature", "geometry": {"type": "Point", "coordinates": [5.5270241, 51.7698107]}, "properties": {"type": "inleverpunt", "locatieNaam": "Polski Slep Hooghuisstraat Oss", "straatNaam": "Hooghuisstraat", "straatNr": "12", "postcode": "5341 CE", "plaats": "Oss", "merk": "StatiegeldNederland", "puntType": "automaat", "materialen": ["pet-groot", "pet-klein", "blik"], "uitbetaling": ["bonnetje", "donatie", "tikkie"], "vrijToegankelijk": true, "gemeenteBeperking": null, "openingstijden": null, "latitude": 51.7698107, "longitude": 5.5270241, "bronId": "257717"}}, {"type": "Feature", "geometry": {"type": "Point", "coordinates": [5.5641336, 51.824262]}, "properties": {"type": "inleverpunt", "locatieNaam": "R.k.s.v. Ulysses", "straatNaam": "Maasdijk", "straatNr": "44", "postcode": "5366 CM", "plaats": "Megen", "merk": "StatiegeldNederland", "puntType": "balie", "materialen": ["pet-groot", "pet-klein", "blik"], "uitbetaling": [], "vrijToegankelijk": false, "gemeenteBeperking": null, "openingstijden": null, "latitude": 51.824262, "longitude": 5.5641336, "bronId": "257745"}}, {"type": "Feature", "geometry": {"type": "Point", "coordinates": [5.3947379, 51.7918575]}, "properties": {"type": "inleverpunt", "locatieNaam": "S.v. Maaskantse Boys", "straatNaam": "Pastoor Roesweg", "straatNr": "43", "postcode": "5398 HZ", "plaats": "Maren-kessel", "merk": "StatiegeldNederland", "puntType": "balie", "materialen": ["pet-groot", "pet-klein", "blik"], "uitbetaling": [], "vrijToegankelijk": false, "gemeenteBeperking": null, "openingstijden": null, "latitude": 51.7918575, "longitude": 5.3947379, "bronId": "257925"}}, {"type": "Feature", "geometry": {"type": "Point", "coordinates": [5.5636384, 51.7633823]}, "properties": {"type": "inleverpunt", "locatieNaam": "Srmv-berghem", "straatNaam": "Angelenweg", "straatNr": "73", "postcode": "5349 TA", "plaats": "Oss", "merk": "StatiegeldNederland", "puntType": "balie", "materialen": ["pet-groot", "pet-klein", "blik"], "uitbetaling": [], "vrijToegankelijk": false, "gemeenteBeperking": null, "openingstijden": null, "latitude": 51.7633823, "longitude": 5.5636384, "bronId": "258666"}}, {"type": "Feature", "geometry": {"type": "Point", "coordinates": [5.5557072, 51.7820012]}, "properties": {"type": "inleverpunt", "locatieNaam": "Vending@Work GXO Oss", "straatNaam": "Markermeer", "straatNr": "1", "postcode": "5347 JM", "plaats": "Oss", "merk": "StatiegeldNederland", "puntType": "automaat", "materialen": ["pet-groot", "pet-klein", "blik"], "uitbetaling": ["bonnetje", "donatie", "tikkie"], "vrijToegankelijk": true, "gemeenteBeperking": null, "openingstijden": {"ma": "10:00–17:00", "di": "10:00–17:00", "wo": "10:00–17:00", "do": "10:00–17:00", "vr": "10:00–17:00", "za": "10:00–17:00", "zo": "10:00–17:00"}, "latitude": 51.7820012, "longitude": 5.5557072, "bronId": "259179"}}, {"type": "Feature", "geometry": {"type": "Point", "coordinates": [5.5021472, 51.7700996]}, "properties": {"type": "inleverpunt", "locatieNaam": "ViaTim", "straatNaam": "Kroezel", "straatNr": "2", "postcode": "5345 GD", "plaats": "Oss", "merk": "StatiegeldNederland", "puntType": "balie", "materialen": ["pet-groot", "pet-klein", "blik"], "uitbetaling": ["tikkie"], "vrijToegankelijk": true, "gemeenteBeperking": null, "openingstijden": {"ma": "16:00–21:00", "di": "16:00–21:00", "wo": "16:00–21:00", "do": "16:00–21:00", "vr": "16:00–21:00", "za": "Gesloten", "zo": "Gesloten"}, "latitude": 51.7700996, "longitude": 5.5021472, "bronId": "259382"}}, {"type": "Feature", "geometry": {"type": "Point", "coordinates": [5.5508617, 51.7624727]}, "properties": {"type": "inleverpunt", "locatieNaam": "Zapolski Oss", "straatNaam": "Wethouder Van Eschstraat", "straatNr": "278", "postcode": "5342 AV", "plaats": "Oss", "merk": "StatiegeldNederland", "puntType": "automaat", "materialen": ["pet-groot", "pet-klein", "blik"], "uitbetaling": ["bonnetje", "donatie", "tikkie"], "vrijToegankelijk": true, "gemeenteBeperking": null, "openingstijden": {"ma": "24 uur geopend", "di": "24 uur geopend", "wo": "24 uur geopend", "do": "24 uur geopend", "vr": "24 uur geopend", "za": "24 uur geopend", "zo": "24 uur geopend"}, "latitude": 51.7624727, "longitude": 5.5508617, "bronId": "259889"}}, {"type": "Feature", "geometry": {"type": "Point", "coordinates": [5.4398, 51.805663]}, "properties": {"type": "inleverpunt", "locatieNaam": "PLUS Lith", "straatNaam": "Monseigneur Bekkersstraat", "straatNr": "11", "postcode": "5397 EJ", "plaats": "Lith", "merk": "StichtingOPEN", "puntType": "balie", "materialen": ["batterijen", "lampen"], "uitbetaling": [], "vrijToegankelijk": false, "gemeenteBeperking": null, "openingstijden": null, "latitude": 51.805663, "longitude": 5.4398, "bronId": "SP00024116"}}, {"type": "Feature", "geometry": {"type": "Point", "coordinates": [5.581978, 51.80483]}, "properties": {"type": "inleverpunt", "locatieNaam": "Aldi Haren", "straatNaam": "Lietingstraat", "straatNr": "21", "postcode": "5368 AA", "plaats": "Haren", "merk": "StichtingOPEN", "puntType": "balie", "materialen": ["batterijen", "elektro-klein", "lampen"], "uitbetaling": [], "vrijToegankelijk": false, "gemeenteBeperking": null, "openingstijden": null, "latitude": 51.80483, "longitude": 5.581978, "bronId": "SP00026781"}}, {"type": "Feature", "geometry": {"type": "Point", "coordinates": [5.505413, 51.781638]}, "properties": {"type": "inleverpunt", "locatieNaam": "Coppelmans Oss", "straatNaam": "Frankenbeemdweg", "straatNr": "50", "postcode": "5346 JJ", "plaats": "Oss", "merk": "StichtingOPEN", "puntType": "balie", "materialen": ["elektro-middel", "lampen"], "uitbetaling": [], "vrijToegankelijk": false, "gemeenteBeperking": null, "openingstijden": null, "latitude": 51.781638, "longitude": 5.505413, "bronId": "SP00006422"}}, {"type": "Feature", "geometry": {"type": "Point", "coordinates": [5.540186, 51.779921]}, "properties": {"type": "inleverpunt", "locatieNaam": "GAMMA Oss", "straatNaam": "Kanaalstraat", "straatNr": "4", "postcode": "5347 KM", "plaats": "Oss", "merk": "StichtingOPEN", "puntType": "balie", "materialen": ["batterijen", "elektro-middel", "lampen", "tl-buizen"], "uitbetaling": [], "vrijToegankelijk": false, "gemeenteBeperking": null, "openingstijden": null, "latitude": 51.779921, "longitude": 5.540186, "bronId": "SP00000700"}}, {"type": "Feature", "geometry": {"type": "Point", "coordinates": [5.514269, 51.770122]}, "properties": {"type": "inleverpunt", "locatieNaam": "Jumbo Oss", "straatNaam": "Vierhoeksingel", "straatNr": "7", "postcode": "5341 PN", "plaats": "Oss", "merk": "StichtingOPEN", "puntType": "balie", "materialen": ["batterijen", "lampen"], "uitbetaling": [], "vrijToegankelijk": false, "gemeenteBeperking": null, "openingstijden": null, "latitude": 51.770122, "longitude": 5.514269, "bronId": "SP00025091"}}, {"type": "Feature", "geometry": {"type": "Point", "coordinates": [5.507889, 51.767918]}, "properties": {"type": "inleverpunt", "locatieNaam": "Praxis Oss (Ussen) - 2442", "straatNaam": "Venusstraat", "straatNr": "10-12", "postcode": "5345 LP", "plaats": "Oss", "merk": "StichtingOPEN", "puntType": "balie", "materialen": ["elektro-middel", "lampen", "tl-buizen"], "uitbetaling": [], "vrijToegankelijk": false, "gemeenteBeperking": null, "openingstijden": null, "latitude": 51.767918, "longitude": 5.507889, "bronId": "SP00003685"}}, {"type": "Feature", "geometry": {"type": "Point", "coordinates": [5.501872, 51.766501]}, "properties": {"type": "inleverpunt", "locatieNaam": "Aldi Oss", "straatNaam": "Wolfskooi", "straatNr": "3", "postcode": "5345 MH", "plaats": "Oss", "merk": "StichtingOPEN", "puntType": "balie", "materialen": ["batterijen", "elektro-klein", "lampen"], "uitbetaling": [], "vrijToegankelijk": false, "gemeenteBeperking": null, "openingstijden": null, "latitude": 51.766501, "longitude": 5.501872, "bronId": "SP00026791"}}, {"type": "Feature", "geometry": {"type": "Point", "coordinates": [5.50118, 51.766045]}, "properties": {"type": "inleverpunt", "locatieNaam": "Kruidvat Oss", "straatNaam": "Wolfskooi", "straatNr": "39", "postcode": "5345 MH", "plaats": "Oss", "merk": "StichtingOPEN", "puntType": "balie", "materialen": ["batterijen", "lampen"], "uitbetaling": [], "vrijToegankelijk": false, "gemeenteBeperking": null, "openingstijden": null, "latitude": 51.766045, "longitude": 5.50118, "bronId": "SP00024545"}}, {"type": "Feature", "geometry": {"type": "Point", "coordinates": [5.50173, 51.765875]}, "properties": {"type": "inleverpunt", "locatieNaam": "Jumbo Oss", "straatNaam": "Wolfskooi", "straatNr": "49", "postcode": "5345 MH", "plaats": "Oss", "merk": "StichtingOPEN", "puntType": "balie", "materialen": ["batterijen", "lampen"], "uitbetaling": [], "vrijToegankelijk": false, "gemeenteBeperking": null, "openingstijden": null, "latitude": 51.765875, "longitude": 5.50173, "bronId": "SP00025090"}}, {"type": "Feature", "geometry": {"type": "Point", "coordinates": [5.52676, 51.771871]}, "properties": {"type": "inleverpunt", "locatieNaam": "1622 Albert Heijn Oss", "straatNaam": "Burchtplein", "straatNr": "80", "postcode": "5341 VE", "plaats": "Oss", "merk": "StichtingOPEN", "puntType": "balie", "materialen": ["batterijen", "elektro-klein", "lampen"], "uitbetaling": [], "vrijToegankelijk": false, "gemeenteBeperking": null, "openingstijden": null, "latitude": 51.771871, "longitude": 5.52676, "bronId": "SP00022660"}}, {"type": "Feature", "geometry": {"type": "Point", "coordinates": [5.52438, 51.76933]}, "properties": {"type": "inleverpunt", "locatieNaam": "Kruidvat Oss", "straatNaam": "Heuvel", "straatNr": "14a", "postcode": "5341 CW", "plaats": "Oss", "merk": "StichtingOPEN", "puntType": "balie", "materialen": ["batterijen", "lampen"], "uitbetaling": [], "vrijToegankelijk": false, "gemeenteBeperking": null, "openingstijden": null, "latitude": 51.76933, "longitude": 5.52438, "bronId": "SP00029551"}}, {"type": "Feature", "geometry": {"type": "Point", "coordinates": [5.53665, 51.77213]}, "properties": {"type": "inleverpunt", "locatieNaam": "Jumbo Ede", "straatNaam": "Kardinaal de Jongstraat", "straatNr": "38", "postcode": "5348 BH", "plaats": "Oss", "merk": "StichtingOPEN", "puntType": "balie", "materialen": ["batterijen", "elektro-klein", "lampen"], "uitbetaling": [], "vrijToegankelijk": false, "gemeenteBeperking": null, "openingstijden": null, "latitude": 51.77213, "longitude": 5.53665, "bronId": "SP00030224"}}, {"type": "Feature", "geometry": {"type": "Point", "coordinates": [5.52378, 51.76699]}, "properties": {"type": "inleverpunt", "locatieNaam": "Coop Oss Oss", "straatNaam": "Heschepad", "straatNr": "49-51", "postcode": "5341 GS", "plaats": "Oss", "merk": "StichtingOPEN", "puntType": "balie", "materialen": ["batterijen", "lampen"], "uitbetaling": [], "vrijToegankelijk": false, "gemeenteBeperking": null, "openingstijden": null, "latitude": 51.76699, "longitude": 5.52378, "bronId": "SP00029805"}}, {"type": "Feature", "geometry": {"type": "Point", "coordinates": [5.512419, 51.759471]}, "properties": {"type": "inleverpunt", "locatieNaam": "Geurts van Kessel Elektrotechniek BV", "straatNaam": "Willaertstraat", "straatNr": "6", "postcode": "5344 AB", "plaats": "Oss", "merk": "StichtingOPEN", "puntType": "balie", "materialen": ["lampen", "tl-buizen"], "uitbetaling": [], "vrijToegankelijk": false, "gemeenteBeperking": null, "openingstijden": null, "latitude": 51.759471, "longitude": 5.512419, "bronId": "SP00021056"}}, {"type": "Feature", "geometry": {"type": "Point", "coordinates": [5.56887, 51.77148]}, "properties": {"type": "inleverpunt", "locatieNaam": "Jumbo Berghem", "straatNaam": "Meester Gielenplein", "straatNr": "1-3", "postcode": "5351 EH", "plaats": "Berghem", "merk": "StichtingOPEN", "puntType": "balie", "materialen": ["batterijen", "lampen"], "uitbetaling": [], "vrijToegankelijk": false, "gemeenteBeperking": null, "openingstijden": null, "latitude": 51.77148, "longitude": 5.56887, "bronId": "SP00027343"}}, {"type": "Feature", "geometry": {"type": "Point", "coordinates": [5.500046, 51.752741]}, "properties": {"type": "inleverpunt", "locatieNaam": "Aldi Oss", "straatNaam": "Dr. Schaepmanlaan", "straatNr": "109", "postcode": "5344 BC", "plaats": "Oss", "merk": "StichtingOPEN", "puntType": "balie", "materialen": ["batterijen", "elektro-klein", "lampen"], "uitbetaling": [], "vrijToegankelijk": false, "gemeenteBeperking": null, "openingstijden": null, "latitude": 51.752741, "longitude": 5.500046, "bronId": "SP00026792"}}, {"type": "Feature", "geometry": {"type": "Point", "coordinates": [5.567561, 51.770383]}, "properties": {"type": "inleverpunt", "locatieNaam": "8744 Albert Heijn Berghem", "straatNaam": "St. Willibrordusstraat", "straatNr": "45", "postcode": "5351 EE", "plaats": "Berghem", "merk": "StichtingOPEN", "puntType": "balie", "materialen": ["batterijen", "elektro-klein", "lampen"], "uitbetaling": [], "vrijToegankelijk": false, "gemeenteBeperking": null, "openingstijden": null, "latitude": 51.770383, "longitude": 5.567561, "bronId": "SP00023351"}}, {"type": "Feature", "geometry": {"type": "Point", "coordinates": [5.500674, 51.752794]}, "properties": {"type": "inleverpunt", "locatieNaam": "Action Oss 1073", "straatNaam": "Schaepmanlaan", "straatNr": "89", "postcode": "5344 BC", "plaats": "Oss", "merk": "StichtingOPEN", "puntType": "balie", "materialen": ["batterijen", "lampen"], "uitbetaling": [], "vrijToegankelijk": false, "gemeenteBeperking": null, "openingstijden": null, "latitude": 51.752794, "longitude": 5.500674, "bronId": "SP00007670"}}, {"type": "Feature", "geometry": {"type": "Point", "coordinates": [5.53264, 51.759987]}, "properties": {"type": "inleverpunt", "locatieNaam": "Action Oss 1065", "straatNaam": "Oude Molenstraat", "straatNr": "12-14", "postcode": "5342 GC", "plaats": "Oss", "merk": "StichtingOPEN", "puntType": "balie", "materialen": ["batterijen", "lampen"], "uitbetaling": [], "vrijToegankelijk": false, "gemeenteBeperking": null, "openingstijden": null, "latitude": 51.759987, "longitude": 5.53264, "bronId": "SP00007663"}}, {"type": "Feature", "geometry": {"type": "Point", "coordinates": [5.511661, 51.754395]}, "properties": {"type": "inleverpunt", "locatieNaam": "1222 Albert Heijn Oss", "straatNaam": "Sterrebos", "straatNr": "2", "postcode": "5344 AM", "plaats": "Oss", "merk": "StichtingOPEN", "puntType": "balie", "materialen": ["batterijen", "elektro-klein", "lampen"], "uitbetaling": [], "vrijToegankelijk": false, "gemeenteBeperking": null, "openingstijden": null, "latitude": 51.754395, "longitude": 5.511661, "bronId": "SP00022657"}}, {"type": "Feature", "geometry": {"type": "Point", "coordinates": [5.512301, 51.753467]}, "properties": {"type": "inleverpunt", "locatieNaam": "Kruidvat Oss", "straatNaam": "Sterrebos", "straatNr": "27", "postcode": "5344 AL", "plaats": "Oss", "merk": "StichtingOPEN", "puntType": "balie", "materialen": ["batterijen", "lampen"], "uitbetaling": [], "vrijToegankelijk": false, "gemeenteBeperking": null, "openingstijden": null, "latitude": 51.753467, "longitude": 5.512301, "bronId": "SP00024920"}}, {"type": "Feature", "geometry": {"type": "Point", "coordinates": [5.460844, 51.741288]}, "properties": {"type": "inleverpunt", "locatieNaam": "Kruidvat Geffen", "straatNaam": "Dorpstraat", "straatNr": "7", "postcode": "5386 AK", "plaats": "Geffen", "merk": "StichtingOPEN", "puntType": "balie", "materialen": ["batterijen", "lampen"], "uitbetaling": [], "vrijToegankelijk": false, "gemeenteBeperking": null, "openingstijden": null, "latitude": 51.741288, "longitude": 5.460844, "bronId": "SP00024542"}}, {"type": "Feature", "geometry": {"type": "Point", "coordinates": [5.547671, 51.758591]}, "properties": {"type": "inleverpunt", "locatieNaam": "Technisch Unie Oss", "straatNaam": "Lichtstraat", "straatNr": "27", "postcode": "5349 CA", "plaats": "Oss", "merk": "StichtingOPEN", "puntType": "balie", "materialen": ["elektro-klein", "elektro-middel", "lampen", "tl-buizen"], "uitbetaling": [], "vrijToegankelijk": false, "gemeenteBeperking": null, "openingstijden": null, "latitude": 51.758591, "longitude": 5.547671, "bronId": "SP00039918"}}, {"type": "Feature", "geometry": {"type": "Point", "coordinates": [5.65039, 51.79416]}, "properties": {"type": "inleverpunt", "locatieNaam": "Coop", "straatNaam": "Keurvorstenplein", "straatNr": "12", "postcode": "5371 CM", "plaats": "Ravenstein", "merk": "StichtingOPEN", "puntType": "balie", "materialen": ["batterijen", "lampen"], "uitbetaling": [], "vrijToegankelijk": false, "gemeenteBeperking": null, "openingstijden": null, "latitude": 51.79416, "longitude": 5.65039, "bronId": "SP00030198"}}, {"type": "Feature", "geometry": {"type": "Point", "coordinates": [5.553531, 51.757542]}, "properties": {"type": "inleverpunt", "locatieNaam": "Praxis Oss (Woonboulevard) - 2410", "straatNaam": "Frankenweg", "straatNr": "61", "postcode": "5349 AP", "plaats": "Oss", "merk": "StichtingOPEN", "puntType": "balie", "materialen": ["elektro-middel", "lampen", "tl-buizen"], "uitbetaling": [], "vrijToegankelijk": false, "gemeenteBeperking": null, "openingstijden": null, "latitude": 51.757542, "longitude": 5.553531, "bronId": "SP00004622"}}, {"type": "Feature", "geometry": {"type": "Point", "coordinates": [5.55464, 51.75683]}, "properties": {"type": "inleverpunt", "locatieNaam": "Leen Bakker Oss", "straatNaam": "Frankenweg", "straatNr": "49", "postcode": "5349 AP", "plaats": "Oss", "merk": "StichtingOPEN", "puntType": "balie", "materialen": ["batterijen", "lampen"], "uitbetaling": [], "vrijToegankelijk": false, "gemeenteBeperking": null, "openingstijden": null, "latitude": 51.75683, "longitude": 5.55464, "bronId": "SP00030075"}}, {"type": "Feature", "geometry": {"type": "Point", "coordinates": [5.640883, 51.77176]}, "properties": {"type": "inleverpunt", "locatieNaam": "PLUS Herpen", "straatNaam": "Rogstraat", "straatNr": "6", "postcode": "5373 AT", "plaats": "Herpen", "merk": "StichtingOPEN", "puntType": "balie", "materialen": ["batterijen", "lampen"], "uitbetaling": [], "vrijToegankelijk": false, "gemeenteBeperking": null, "openingstijden": null, "latitude": 51.77176, "longitude": 5.640883, "bronId": "SP00024171"}}, {"type": "Feature", "geometry": {"type": "Point", "coordinates": [5.639533, 51.770956]}, "properties": {"type": "inleverpunt", "locatieNaam": "Ad vd Oever Warenhuis BV", "straatNaam": "Rogstraat", "straatNr": "29", "postcode": "5373 AS", "plaats": "Herpen", "merk": "StichtingOPEN", "puntType": "balie", "materialen": ["elektro-groot", "elektro-klein", "elektro-middel"], "uitbetaling": [], "vrijToegankelijk": false, "gemeenteBeperking": null, "openingstijden": null, "latitude": 51.770956, "longitude": 5.639533, "bronId": "SP00002502"}}, {"type": "Feature", "geometry": {"type": "Point", "coordinates": [5.536693, 51.785114]}, "properties": {"type": "inleverpunt", "locatieNaam": "Milieustraat Oss", "straatNaam": "Maaskade", "straatNr": "28", "postcode": "5347 KD", "plaats": "Oss", "merk": "StichtingOPEN", "puntType": "milieustraat", "materialen": ["batterijen", "elektro-groot", "elektro-klein", "elektro-middel", "lampen", "tl-buizen"], "uitbetaling": [], "vrijToegankelijk": false, "gemeenteBeperking": ["Oss"], "openingstijden": null, "latitude": 51.785114, "longitude": 5.536693, "bronId": "SP00004263"}}, {"type": "Feature", "geometry": {"type": "Point", "coordinates": [5.4389959, 51.8079838]}, "properties": {"type": "inleverpunt", "locatieNaam": "Henri van Os Tweewielers", "straatNaam": "Lithsedijk", "straatNr": "38", "postcode": "5397 ED", "plaats": "Lith", "merk": "Stibat", "puntType": "inzamelbak", "materialen": ["batterijen"], "uitbetaling": [], "vrijToegankelijk": false, "gemeenteBeperking": null, "openingstijden": null, "latitude": 51.8079838, "longitude": 5.4389959, "bronId": "L038607"}}, {"type": "Feature", "geometry": {"type": "Point", "coordinates": [5.4398284, 51.8056631]}, "properties": {"type": "inleverpunt", "locatieNaam": "PLUS", "straatNaam": "Mgr Bekkersstraat", "straatNr": "11", "postcode": "5397 EJ", "plaats": "Lith", "merk": "Stibat", "puntType": "inzamelbak", "materialen": ["batterijen"], "uitbetaling": [], "vrijToegankelijk": false, "gemeenteBeperking": null, "openingstijden": null, "latitude": 51.8056631, "longitude": 5.4398284, "bronId": "L021200"}}, {"type": "Feature", "geometry": {"type": "Point", "coordinates": [5.5819789, 51.8048302]}, "properties": {"type": "inleverpunt", "locatieNaam": "Aldi", "straatNaam": "Lietingstraat", "straatNr": "21", "postcode": "5368 AA", "plaats": "Haren", "merk": "Stibat", "puntType": "inzamelbak", "materialen": ["batterijen"], "uitbetaling": [], "vrijToegankelijk": false, "gemeenteBeperking": null, "openingstijden": null, "latitude": 51.8048302, "longitude": 5.5819789, "bronId": "L041337"}}, {"type": "Feature", "geometry": {"type": "Point", "coordinates": [5.5054042, 51.7816259]}, "properties": {"type": "inleverpunt", "locatieNaam": "Tuincentrum Coppelmans", "straatNaam": "Frankenbeemdweg", "straatNr": "50", "postcode": "5346 JJ", "plaats": "Oss", "merk": "Stibat", "puntType": "inzamelbak", "materialen": ["batterijen"], "uitbetaling": [], "vrijToegankelijk": false, "gemeenteBeperking": null, "openingstijden": null, "latitude": 51.7816259, "longitude": 5.5054042, "bronId": "L038280"}}, {"type": "Feature", "geometry": {"type": "Point", "coordinates": [5.5835939, 51.8049248]}, "properties": {"type": "inleverpunt", "locatieNaam": "De Smid Lifestyle", "straatNaam": "Lietingstraat", "straatNr": "23", "postcode": "5368 AA", "plaats": "Haren Nb", "merk": "Stibat", "puntType": "inzamelbak", "materialen": ["batterijen"], "uitbetaling": [], "vrijToegankelijk": false, "gemeenteBeperking": null, "openingstijden": null, "latitude": 51.8049248, "longitude": 5.5835939, "bronId": "L039088"}}, {"type": "Feature", "geometry": {"type": "Point", "coordinates": [5.5400066, 51.7795507]}, "properties": {"type": "inleverpunt", "locatieNaam": "Gamma", "straatNaam": "Kanaalstraat", "straatNr": "4", "postcode": "5347 KM", "plaats": "Oss", "merk": "Stibat", "puntType": "inzamelbak", "materialen": ["batterijen"], "uitbetaling": [], "vrijToegankelijk": false, "gemeenteBeperking": null, "openingstijden": null, "latitude": 51.7795507, "longitude": 5.5400066, "bronId": "L007380"}}, {"type": "Feature", "geometry": {"type": "Point", "coordinates": [5.5375262, 51.7776403]}, "properties": {"type": "inleverpunt", "locatieNaam": "Afvalinzamelstation Oss", "straatNaam": "Maaskade", "straatNr": "28", "postcode": "5347 KD", "plaats": "Oss", "merk": "Stibat", "puntType": "inzamelbak", "materialen": ["batterijen"], "uitbetaling": [], "vrijToegankelijk": false, "gemeenteBeperking": null, "openingstijden": null, "latitude": 51.7776403, "longitude": 5.5375262, "bronId": "L035760"}}, {"type": "Feature", "geometry": {"type": "Point", "coordinates": [5.5145307, 51.7701467]}, "properties": {"type": "inleverpunt", "locatieNaam": "Jumbo", "straatNaam": "Vierhoeksingel", "straatNr": "7", "postcode": "5341 PN", "plaats": "Oss", "merk": "Stibat", "puntType": "inzamelbak", "materialen": ["batterijen"], "uitbetaling": [], "vrijToegankelijk": false, "gemeenteBeperking": null, "openingstijden": null, "latitude": 51.7701467, "longitude": 5.5145307, "bronId": "L028388"}}, {"type": "Feature", "geometry": {"type": "Point", "coordinates": [5.5018725, 51.7665015]}, "properties": {"type": "inleverpunt", "locatieNaam": "Aldi", "straatNaam": "Wolfskooi", "straatNr": "3", "postcode": "5345 MH", "plaats": "Oss", "merk": "Stibat", "puntType": "inzamelbak", "materialen": ["batterijen"], "uitbetaling": [], "vrijToegankelijk": false, "gemeenteBeperking": null, "openingstijden": null, "latitude": 51.7665015, "longitude": 5.5018725, "bronId": "L041336"}}, {"type": "Feature", "geometry": {"type": "Point", "coordinates": [5.5012008, 51.7660064]}, "properties": {"type": "inleverpunt", "locatieNaam": "Kruidvat", "straatNaam": "Wolfskooi", "straatNr": "39", "postcode": "5345 MH", "plaats": "Oss", "merk": "Stibat", "puntType": "inzamelbak", "materialen": ["batterijen"], "uitbetaling": [], "vrijToegankelijk": false, "gemeenteBeperking": null, "openingstijden": null, "latitude": 51.7660064, "longitude": 5.5012008, "bronId": "L018942"}}, {"type": "Feature", "geometry": {"type": "Point", "coordinates": [5.5019123, 51.765885]}, "properties": {"type": "inleverpunt", "locatieNaam": "Primera", "straatNaam": "Wolfskooi", "straatNr": "47", "postcode": "5345 MH", "plaats": "Oss", "merk": "Stibat", "puntType": "inzamelbak", "materialen": ["batterijen"], "uitbetaling": [], "vrijToegankelijk": false, "gemeenteBeperking": null, "openingstijden": null, "latitude": 51.765885, "longitude": 5.5019123, "bronId": "L031034"}}, {"type": "Feature", "geometry": {"type": "Point", "coordinates": [5.5019123, 51.765885]}, "properties": {"type": "inleverpunt", "locatieNaam": "Jumbo", "straatNaam": "Wolfskooi", "straatNr": "49", "postcode": "5345 MH", "plaats": "Oss", "merk": "Stibat", "puntType": "inzamelbak", "materialen": ["batterijen"], "uitbetaling": [], "vrijToegankelijk": false, "gemeenteBeperking": null, "openingstijden": null, "latitude": 51.765885, "longitude": 5.5019123, "bronId": "L028671"}}, {"type": "Feature", "geometry": {"type": "Point", "coordinates": [5.5268625, 51.7719551]}, "properties": {"type": "inleverpunt", "locatieNaam": "7484 Etos", "straatNaam": "Burchtplein", "straatNr": "80", "postcode": "5341 VE", "plaats": "Oss", "merk": "Stibat", "puntType": "inzamelbak", "materialen": ["batterijen"], "uitbetaling": [], "vrijToegankelijk": false, "gemeenteBeperking": null, "openingstijden": null, "latitude": 51.7719551, "longitude": 5.5268625, "bronId": "L023171"}}, {"type": "Feature", "geometry": {"type": "Point", "coordinates": [5.5268625, 51.7719551]}, "properties": {"type": "inleverpunt", "locatieNaam": "1622 Albert Heijn", "straatNaam": "Burchtplein", "straatNr": "80", "postcode": "5341 VE", "plaats": "Oss", "merk": "Stibat", "puntType": "inzamelbak", "materialen": ["batterijen"], "uitbetaling": [], "vrijToegankelijk": false, "gemeenteBeperking": null, "openingstijden": null, "latitude": 51.7719551, "longitude": 5.5268625, "bronId": "L016659"}}, {"type": "Feature", "geometry": {"type": "Point", "coordinates": [5.5248671, 51.7704586]}, "properties": {"type": "inleverpunt", "locatieNaam": "Fotohuis Oss", "straatNaam": "Terwaenen", "straatNr": "6", "postcode": "5341 DG", "plaats": "Oss", "merk": "Stibat", "puntType": "inzamelbak", "materialen": ["batterijen"], "uitbetaling": [], "vrijToegankelijk": false, "gemeenteBeperking": null, "openingstijden": null, "latitude": 51.7704586, "longitude": 5.5248671, "bronId": "L027270"}}, {"type": "Feature", "geometry": {"type": "Point", "coordinates": [5.5248671, 51.7704586]}, "properties": {"type": "inleverpunt", "locatieNaam": "Primera", "straatNaam": "Terwaenen", "straatNr": "24", "postcode": "5341 DG", "plaats": "Oss", "merk": "Stibat", "puntType": "inzamelbak", "materialen": ["batterijen"], "uitbetaling": [], "vrijToegankelijk": false, "gemeenteBeperking": null, "openingstijden": null, "latitude": 51.7704586, "longitude": 5.5248671, "bronId": "L022506"}}, {"type": "Feature", "geometry": {"type": "Point", "coordinates": [5.525692, 51.770477]}, "properties": {"type": "inleverpunt", "locatieNaam": "Hans Anders", "straatNaam": "Terwaenen", "straatNr": "29-31", "postcode": "5341 DC", "plaats": "Oss", "merk": "Stibat", "puntType": "inzamelbak", "materialen": ["batterijen"], "uitbetaling": [], "vrijToegankelijk": false, "gemeenteBeperking": null, "openingstijden": null, "latitude": 51.770477, "longitude": 5.525692, "bronId": "L037895"}}, {"type": "Feature", "geometry": {"type": "Point", "coordinates": [5.5512435, 51.7770012]}, "properties": {"type": "inleverpunt", "locatieNaam": "Destil", "straatNaam": "Spaanderstraat", "straatNr": "40", "postcode": "5348 LA", "plaats": "Oss", "merk": "Stibat", "puntType": "inzamelbak", "materialen": ["batterijen"], "uitbetaling": [], "vrijToegankelijk": false, "gemeenteBeperking": null, "openingstijden": null, "latitude": 51.7770012, "longitude": 5.5512435, "bronId": "L043440"}}, {"type": "Feature", "geometry": {"type": "Point", "coordinates": [5.524384, 51.7693299]}, "properties": {"type": "inleverpunt", "locatieNaam": "Kruidvat", "straatNaam": "Heuvel", "straatNr": "14-14a", "postcode": "5341 CW", "plaats": "Oss", "merk": "Stibat", "puntType": "inzamelbak", "materialen": ["batterijen"], "uitbetaling": [], "vrijToegankelijk": false, "gemeenteBeperking": null, "openingstijden": null, "latitude": 51.7693299, "longitude": 5.524384, "bronId": "L015637"}}, {"type": "Feature", "geometry": {"type": "Point", "coordinates": [5.5361786, 51.7723557]}, "properties": {"type": "inleverpunt", "locatieNaam": "De FietsenBoetiek", "straatNaam": "Klingenstraat", "straatNr": "29", "postcode": "5348 AX", "plaats": "Oss", "merk": "Stibat", "puntType": "inzamelbak", "materialen": ["batterijen"], "uitbetaling": [], "vrijToegankelijk": false, "gemeenteBeperking": null, "openingstijden": null, "latitude": 51.7723557, "longitude": 5.5361786, "bronId": "L046747"}}, {"type": "Feature", "geometry": {"type": "Point", "coordinates": [5.5246517, 51.7691803]}, "properties": {"type": "inleverpunt", "locatieNaam": "7369 Etos", "straatNaam": "Heuvel", "straatNr": "12", "postcode": "5341 CW", "plaats": "Oss", "merk": "Stibat", "puntType": "inzamelbak", "materialen": ["batterijen"], "uitbetaling": [], "vrijToegankelijk": false, "gemeenteBeperking": null, "openingstijden": null, "latitude": 51.7691803, "longitude": 5.5246517, "bronId": "L024086"}}, {"type": "Feature", "geometry": {"type": "Point", "coordinates": [5.5253113, 51.7692817]}, "properties": {"type": "inleverpunt", "locatieNaam": "ANWB", "straatNaam": "Heuvel", "straatNr": "21", "postcode": "5341 CV", "plaats": "Oss", "merk": "Stibat", "puntType": "inzamelbak", "materialen": ["batterijen"], "uitbetaling": [], "vrijToegankelijk": false, "gemeenteBeperking": null, "openingstijden": null, "latitude": 51.7692817, "longitude": 5.5253113, "bronId": "L044632"}}, {"type": "Feature", "geometry": {"type": "Point", "coordinates": [5.524543, 51.7690698]}, "properties": {"type": "inleverpunt", "locatieNaam": "BelCompany", "straatNaam": "Heuvel", "straatNr": "8", "postcode": "5341 CW", "plaats": "Oss", "merk": "Stibat", "puntType": "inzamelbak", "materialen": ["batterijen"], "uitbetaling": [], "vrijToegankelijk": false, "gemeenteBeperking": null, "openingstijden": null, "latitude": 51.7690698, "longitude": 5.524543, "bronId": "L015465"}}, {"type": "Feature", "geometry": {"type": "Point", "coordinates": [5.5251605, 51.7691983]}, "properties": {"type": "inleverpunt", "locatieNaam": "Intertoys", "straatNaam": "Heuvel", "straatNr": "19", "postcode": "5341 CV", "plaats": "Oss", "merk": "Stibat", "puntType": "inzamelbak", "materialen": ["batterijen"], "uitbetaling": [], "vrijToegankelijk": false, "gemeenteBeperking": null, "openingstijden": null, "latitude": 51.7691983, "longitude": 5.5251605, "bronId": "L007892"}}, {"type": "Feature", "geometry": {"type": "Point", "coordinates": [5.5243963, 51.7689702]}, "properties": {"type": "inleverpunt", "locatieNaam": "Perry", "straatNaam": "Heuvel", "straatNr": "4", "postcode": "5341 CW", "plaats": "Oss", "merk": "Stibat", "puntType": "inzamelbak", "materialen": ["batterijen"], "uitbetaling": [], "vrijToegankelijk": false, "gemeenteBeperking": null, "openingstijden": null, "latitude": 51.7689702, "longitude": 5.5243963, "bronId": "L022167"}}, {"type": "Feature", "geometry": {"type": "Point", "coordinates": [5.5229395, 51.7685626]}, "properties": {"type": "inleverpunt", "locatieNaam": "Zeeman", "straatNaam": "Kerkstraat", "straatNr": "6", "postcode": "5341 BK", "plaats": "Oss", "merk": "Stibat", "puntType": "inzamelbak", "materialen": ["batterijen"], "uitbetaling": [], "vrijToegankelijk": false, "gemeenteBeperking": null, "openingstijden": null, "latitude": 51.7685626, "longitude": 5.5229395, "bronId": "L020145"}}, {"type": "Feature", "geometry": {"type": "Point", "coordinates": [5.5241655, 51.7688516]}, "properties": {"type": "inleverpunt", "locatieNaam": "Phonestore Oss", "straatNaam": "Heuvelstraat", "straatNr": "20", "postcode": "5341 EA", "plaats": "Oss", "merk": "Stibat", "puntType": "inzamelbak", "materialen": ["batterijen"], "uitbetaling": [], "vrijToegankelijk": false, "gemeenteBeperking": null, "openingstijden": null, "latitude": 51.7688516, "longitude": 5.5241655, "bronId": "L040665"}}, {"type": "Feature", "geometry": {"type": "Point", "coordinates": [5.526899, 51.769557]}, "properties": {"type": "inleverpunt", "locatieNaam": "Expert", "straatNaam": "Hooghuisstraat", "straatNr": "11", "postcode": "5341 CD", "plaats": "Oss", "merk": "Stibat", "puntType": "inzamelbak", "materialen": ["batterijen"], "uitbetaling": [], "vrijToegankelijk": false, "gemeenteBeperking": null, "openingstijden": null, "latitude": 51.769557, "longitude": 5.526899, "bronId": "L012534"}}, {"type": "Feature", "geometry": {"type": "Point", "coordinates": [5.5249282, 51.7690322]}, "properties": {"type": "inleverpunt", "locatieNaam": "Phone House", "straatNaam": "Heuvel", "straatNr": "13", "postcode": "5341 CV", "plaats": "Oss", "merk": "Stibat", "puntType": "inzamelbak", "materialen": ["batterijen"], "uitbetaling": [], "vrijToegankelijk": false, "gemeenteBeperking": null, "openingstijden": null, "latitude": 51.7690322, "longitude": 5.5249282, "bronId": "L022596"}}, {"type": "Feature", "geometry": {"type": "Point", "coordinates": [5.5230527, 51.7685007]}, "properties": {"type": "inleverpunt", "locatieNaam": "Electropoint", "straatNaam": "Kerkstraat", "straatNr": "2", "postcode": "5341 BK", "plaats": "Oss", "merk": "Stibat", "puntType": "inzamelbak", "materialen": ["batterijen"], "uitbetaling": [], "vrijToegankelijk": false, "gemeenteBeperking": null, "openingstijden": null, "latitude": 51.7685007, "longitude": 5.5230527, "bronId": "L016339"}}, {"type": "Feature", "geometry": {"type": "Point", "coordinates": [5.5368023, 51.7721207]}, "properties": {"type": "inleverpunt", "locatieNaam": "Jumbo", "straatNaam": "Kardinaal de Jongstraat", "straatNr": "38", "postcode": "5348 BH", "plaats": "Oss", "merk": "Stibat", "puntType": "inzamelbak", "materialen": ["batterijen"], "uitbetaling": [], "vrijToegankelijk": false, "gemeenteBeperking": null, "openingstijden": null, "latitude": 51.7721207, "longitude": 5.5368023, "bronId": "L040929"}}, {"type": "Feature", "geometry": {"type": "Point", "coordinates": [5.5240467, 51.7686132]}, "properties": {"type": "inleverpunt", "locatieNaam": "Specsavers", "straatNaam": "Heuvelstraat", "straatNr": "13", "postcode": "5341 EA", "plaats": "Oss", "merk": "Stibat", "puntType": "inzamelbak", "materialen": ["batterijen"], "uitbetaling": [], "vrijToegankelijk": false, "gemeenteBeperking": null, "openingstijden": null, "latitude": 51.7686132, "longitude": 5.5240467, "bronId": "L045060"}}, {"type": "Feature", "geometry": {"type": "Point", "coordinates": [5.5239662, 51.7685735]}, "properties": {"type": "inleverpunt", "locatieNaam": "Specsavers", "straatNaam": "Heuvelstraat", "straatNr": "13", "postcode": "5341 EA", "plaats": "Oss", "merk": "Stibat", "puntType": "inzamelbak", "materialen": ["batterijen"], "uitbetaling": [], "vrijToegankelijk": false, "gemeenteBeperking": null, "openingstijden": null, "latitude": 51.7685735, "longitude": 5.5239662, "bronId": "L023150"}}, {"type": "Feature", "geometry": {"type": "Point", "coordinates": [5.5255419, 51.7688859]}, "properties": {"type": "inleverpunt", "locatieNaam": "Bike2go Oss", "straatNaam": "Galerij", "straatNr": "10", "postcode": "5341 CL", "plaats": "Oss", "merk": "Stibat", "puntType": "inzamelbak", "materialen": ["batterijen"], "uitbetaling": [], "vrijToegankelijk": false, "gemeenteBeperking": null, "openingstijden": null, "latitude": 51.7688859, "longitude": 5.5255419, "bronId": "L049481"}}, {"type": "Feature", "geometry": {"type": "Point", "coordinates": [5.5228713, 51.7680631]}, "properties": {"type": "inleverpunt", "locatieNaam": "HEMA Kruisstraat", "straatNaam": "Kruisstraat", "straatNr": "5", "postcode": "5341 HA", "plaats": "Oss", "merk": "Stibat", "puntType": "inzamelbak", "materialen": ["batterijen"], "uitbetaling": [], "vrijToegankelijk": false, "gemeenteBeperking": null, "openingstijden": null, "latitude": 51.7680631, "longitude": 5.5228713, "bronId": "L006826"}}, {"type": "Feature", "geometry": {"type": "Point", "coordinates": [5.5228301, 51.7680172]}, "properties": {"type": "inleverpunt", "locatieNaam": "Prijsmepper", "straatNaam": "Kruisstraat", "straatNr": "5B", "postcode": "5341 HD", "plaats": "Oss", "merk": "Stibat", "puntType": "inzamelbak", "materialen": ["batterijen"], "uitbetaling": [], "vrijToegankelijk": false, "gemeenteBeperking": null, "openingstijden": null, "latitude": 51.7680172, "longitude": 5.5228301, "bronId": "L041618"}}, {"type": "Feature", "geometry": {"type": "Point", "coordinates": [5.5228301, 51.7680172]}, "properties": {"type": "inleverpunt", "locatieNaam": "Wibra", "straatNaam": "Kruisstraat", "straatNr": "5b", "postcode": "5341 HA", "plaats": "Oss", "merk": "Stibat", "puntType": "inzamelbak", "materialen": ["batterijen"], "uitbetaling": [], "vrijToegankelijk": false, "gemeenteBeperking": null, "openingstijden": null, "latitude": 51.7680172, "longitude": 5.5228301, "bronId": "L023012"}}, {"type": "Feature", "geometry": {"type": "Point", "coordinates": [5.5257134, 51.7687254]}, "properties": {"type": "inleverpunt", "locatieNaam": "Phonerepair Oss", "straatNaam": "Galerij", "straatNr": "7", "postcode": "5341 CL", "plaats": "Oss", "merk": "Stibat", "puntType": "inzamelbak", "materialen": ["batterijen"], "uitbetaling": [], "vrijToegankelijk": false, "gemeenteBeperking": null, "openingstijden": null, "latitude": 51.7687254, "longitude": 5.5257134, "bronId": "L048017"}}, {"type": "Feature", "geometry": {"type": "Point", "coordinates": [5.5266656, 51.7688117]}, "properties": {"type": "inleverpunt", "locatieNaam": "Beter Horen", "straatNaam": "Burgwal", "straatNr": "7", "postcode": "5341 CP", "plaats": "Oss", "merk": "Stibat", "puntType": "inzamelbak", "materialen": ["batterijen"], "uitbetaling": [], "vrijToegankelijk": false, "gemeenteBeperking": null, "openingstijden": null, "latitude": 51.7688117, "longitude": 5.5266656, "bronId": "L018261"}}, {"type": "Feature", "geometry": {"type": "Point", "coordinates": [5.5240879, 51.768031]}, "properties": {"type": "inleverpunt", "locatieNaam": "Schoonenberg hoorcomfort", "straatNaam": "Walplein", "straatNr": "6", "postcode": "5341 ED", "plaats": "Oss", "merk": "Stibat", "puntType": "inzamelbak", "materialen": ["batterijen"], "uitbetaling": [], "vrijToegankelijk": false, "gemeenteBeperking": null, "openingstijden": null, "latitude": 51.768031, "longitude": 5.5240879, "bronId": "L019483"}}, {"type": "Feature", "geometry": {"type": "Point", "coordinates": [5.5258738, 51.7684811]}, "properties": {"type": "inleverpunt", "locatieNaam": "Xenos", "straatNaam": "Walstraat", "straatNr": "30", "postcode": "5341 CK", "plaats": "Oss", "merk": "Stibat", "puntType": "inzamelbak", "materialen": ["batterijen"], "uitbetaling": [], "vrijToegankelijk": false, "gemeenteBeperking": null, "openingstijden": null, "latitude": 51.7684811, "longitude": 5.5258738, "bronId": "L036920"}}, {"type": "Feature", "geometry": {"type": "Point", "coordinates": [5.5225182, 51.7673054]}, "properties": {"type": "inleverpunt", "locatieNaam": "Van Boxtel hoorwinkel", "straatNaam": "Kruisstraat", "straatNr": "18a", "postcode": "5341 HD", "plaats": "Oss", "merk": "Stibat", "puntType": "inzamelbak", "materialen": ["batterijen"], "uitbetaling": [], "vrijToegankelijk": false, "gemeenteBeperking": null, "openingstijden": null, "latitude": 51.7673054, "longitude": 5.5225182, "bronId": "L030949"}}, {"type": "Feature", "geometry": {"type": "Point", "coordinates": [5.5270291, 51.7684158]}, "properties": {"type": "inleverpunt", "locatieNaam": "Bike Totaal Hendriks", "straatNaam": "Walstraat", "straatNr": "17", "postcode": "5341 CJ", "plaats": "Oss", "merk": "Stibat", "puntType": "inzamelbak", "materialen": ["batterijen"], "uitbetaling": [], "vrijToegankelijk": false, "gemeenteBeperking": null, "openingstijden": null, "latitude": 51.7684158, "longitude": 5.5270291, "bronId": "L033521"}}, {"type": "Feature", "geometry": {"type": "Point", "coordinates": [5.5223675, 51.7671663]}, "properties": {"type": "inleverpunt", "locatieNaam": "EkoPLaza", "straatNaam": "Kruisstraat", "straatNr": "22", "postcode": "5341 HD", "plaats": "Oss", "merk": "Stibat", "puntType": "inzamelbak", "materialen": ["batterijen"], "uitbetaling": [], "vrijToegankelijk": false, "gemeenteBeperking": null, "openingstijden": null, "latitude": 51.7671663, "longitude": 5.5223675, "bronId": "L045446"}}, {"type": "Feature", "geometry": {"type": "Point", "coordinates": [5.5239335, 51.7669253]}, "properties": {"type": "inleverpunt", "locatieNaam": "Plus", "straatNaam": "Heschepad", "straatNr": "49-51", "postcode": "5341 GS", "plaats": "Oss", "merk": "Stibat", "puntType": "inzamelbak", "materialen": ["batterijen"], "uitbetaling": [], "vrijToegankelijk": false, "gemeenteBeperking": null, "openingstijden": null, "latitude": 51.7669253, "longitude": 5.5239335, "bronId": "L040936"}}, {"type": "Feature", "geometry": {"type": "Point", "coordinates": [5.510958, 51.7592303]}, "properties": {"type": "inleverpunt", "locatieNaam": "KEIJZERS VAN HOORN VOF", "straatNaam": "Willaertstraat", "straatNr": "18-A", "postcode": "5344 AB", "plaats": "Oss", "merk": "Stibat", "puntType": "inzamelbak", "materialen": ["batterijen"], "uitbetaling": [], "vrijToegankelijk": false, "gemeenteBeperking": null, "openingstijden": null, "latitude": 51.7592303, "longitude": 5.510958, "bronId": "L033523"}}, {"type": "Feature", "geometry": {"type": "Point", "coordinates": [5.5686812, 51.7745609]}, "properties": {"type": "inleverpunt", "locatieNaam": "Mado Bikecenter", "straatNaam": "Burgemeester van Erpstraat", "straatNr": "20", "postcode": "5351 AW", "plaats": "Berghem", "merk": "Stibat", "puntType": "inzamelbak", "materialen": ["batterijen"], "uitbetaling": [], "vrijToegankelijk": false, "gemeenteBeperking": null, "openingstijden": null, "latitude": 51.7745609, "longitude": 5.5686812, "bronId": "L042409"}}, {"type": "Feature", "geometry": {"type": "Point", "coordinates": [5.5675999, 51.7740847]}, "properties": {"type": "inleverpunt", "locatieNaam": "Lidl", "straatNaam": "Burgemeester van Erpstraat", "straatNr": "10", "postcode": "5351 AW", "plaats": "Berghem", "merk": "Stibat", "puntType": "inzamelbak", "materialen": ["batterijen"], "uitbetaling": [], "vrijToegankelijk": false, "gemeenteBeperking": null, "openingstijden": null, "latitude": 51.7740847, "longitude": 5.5675999, "bronId": "L048303"}}, {"type": "Feature", "geometry": {"type": "Point", "coordinates": [5.5247996, 51.7618012]}, "properties": {"type": "inleverpunt", "locatieNaam": "Smits en van Zon", "straatNaam": "Wethouder van Eschstraat", "straatNr": "276", "postcode": "5342 AV", "plaats": "Oss", "merk": "Stibat", "puntType": "inzamelbak", "materialen": ["batterijen"], "uitbetaling": [], "vrijToegankelijk": false, "gemeenteBeperking": null, "openingstijden": null, "latitude": 51.7618012, "longitude": 5.5247996, "bronId": "L047432"}}, {"type": "Feature", "geometry": {"type": "Point", "coordinates": [5.5172081, 51.7590083]}, "properties": {"type": "inleverpunt", "locatieNaam": "Bike +", "straatNaam": "Obrechtstraat", "straatNr": "19", "postcode": "5344 AT", "plaats": "Oss", "merk": "Stibat", "puntType": "inzamelbak", "materialen": ["batterijen"], "uitbetaling": [], "vrijToegankelijk": false, "gemeenteBeperking": null, "openingstijden": null, "latitude": 51.7590083, "longitude": 5.5172081, "bronId": "L033524"}}, {"type": "Feature", "geometry": {"type": "Point", "coordinates": [5.5669056, 51.7721467]}, "properties": {"type": "inleverpunt", "locatieNaam": "BOEYEN TWEEWIELERS", "straatNaam": "St. Willibrordusstraat", "straatNr": "25", "postcode": "5351 ED", "plaats": "Berghem", "merk": "Stibat", "puntType": "inzamelbak", "materialen": ["batterijen"], "uitbetaling": [], "vrijToegankelijk": false, "gemeenteBeperking": null, "openingstijden": null, "latitude": 51.7721467, "longitude": 5.5669056, "bronId": "L033525"}}, {"type": "Feature", "geometry": {"type": "Point", "coordinates": [5.5115013, 51.7568667]}, "properties": {"type": "inleverpunt", "locatieNaam": "Total", "straatNaam": "Euterpelaan", "straatNr": "35", "postcode": "5344 CA", "plaats": "Oss", "merk": "Stibat", "puntType": "inzamelbak", "materialen": ["batterijen"], "uitbetaling": [], "vrijToegankelijk": false, "gemeenteBeperking": null, "openingstijden": null, "latitude": 51.7568667, "longitude": 5.5115013, "bronId": "L020979"}}, {"type": "Feature", "geometry": {"type": "Point", "coordinates": [5.5473813, 51.7655914]}, "properties": {"type": "inleverpunt", "locatieNaam": "Boerenbond", "straatNaam": "Parallelweg", "straatNr": "7c", "postcode": "5349 AD", "plaats": "Oss", "merk": "Stibat", "puntType": "inzamelbak", "materialen": ["batterijen"], "uitbetaling": [], "vrijToegankelijk": false, "gemeenteBeperking": null, "openingstijden": null, "latitude": 51.7655914, "longitude": 5.5473813, "bronId": "L017956"}}, {"type": "Feature", "geometry": {"type": "Point", "coordinates": [5.5668072, 51.7710599]}, "properties": {"type": "inleverpunt", "locatieNaam": "Primera", "straatNaam": "Willibrordusstraat", "straatNr": "36", "postcode": "5351 EJ", "plaats": "Berghem", "merk": "Stibat", "puntType": "inzamelbak", "materialen": ["batterijen"], "uitbetaling": [], "vrijToegankelijk": false, "gemeenteBeperking": null, "openingstijden": null, "latitude": 51.7710599, "longitude": 5.5668072, "bronId": "L024013"}}, {"type": "Feature", "geometry": {"type": "Point", "coordinates": [5.5687975, 51.7715773]}, "properties": {"type": "inleverpunt", "locatieNaam": "Jumbo", "straatNaam": "Meester Gielenplein", "straatNr": "1-3", "postcode": "5351 EH", "plaats": "Berghem", "merk": "Stibat", "puntType": "inzamelbak", "materialen": ["batterijen"], "uitbetaling": [], "vrijToegankelijk": false, "gemeenteBeperking": null, "openingstijden": null, "latitude": 51.7715773, "longitude": 5.5687975, "bronId": "L039961"}}, {"type": "Feature", "geometry": {"type": "Point", "coordinates": [5.5664339, 51.7707739]}, "properties": {"type": "inleverpunt", "locatieNaam": "Kruidvat", "straatNaam": "Pastoor van Teteringstraat", "straatNr": "17", "postcode": "5351 EN", "plaats": "Berghem", "merk": "Stibat", "puntType": "inzamelbak", "materialen": ["batterijen"], "uitbetaling": [], "vrijToegankelijk": false, "gemeenteBeperking": null, "openingstijden": null, "latitude": 51.7707739, "longitude": 5.5664339, "bronId": "L039257"}}, {"type": "Feature", "geometry": {"type": "Point", "coordinates": [5.5719007, 51.7719865]}, "properties": {"type": "inleverpunt", "locatieNaam": "D.I.O.", "straatNaam": "Wilhelminasingel", "straatNr": "18", "postcode": "5351 CB", "plaats": "Berghem", "merk": "Stibat", "puntType": "inzamelbak", "materialen": ["batterijen"], "uitbetaling": [], "vrijToegankelijk": false, "gemeenteBeperking": null, "openingstijden": null, "latitude": 51.7719865, "longitude": 5.5719007, "bronId": "L025592"}}, {"type": "Feature", "geometry": {"type": "Point", "coordinates": [5.5000466, 51.7527413]}, "properties": {"type": "inleverpunt", "locatieNaam": "Aldi", "straatNaam": "Dr. Schaepmanlaan", "straatNr": "109", "postcode": "5344 BC", "plaats": "Oss", "merk": "Stibat", "puntType": "inzamelbak", "materialen": ["batterijen"], "uitbetaling": [], "vrijToegankelijk": false, "gemeenteBeperking": null, "openingstijden": null, "latitude": 51.7527413, "longitude": 5.5000466, "bronId": "L041335"}}, {"type": "Feature", "geometry": {"type": "Point", "coordinates": [5.5675343, 51.7703992]}, "properties": {"type": "inleverpunt", "locatieNaam": "6103 Etos", "straatNaam": "St.Willibrordusstraat", "straatNr": "45", "postcode": "5351 EE", "plaats": "Berghem", "merk": "Stibat", "puntType": "inzamelbak", "materialen": ["batterijen"], "uitbetaling": [], "vrijToegankelijk": false, "gemeenteBeperking": null, "openingstijden": null, "latitude": 51.7703992, "longitude": 5.5675343, "bronId": "L022857"}}, {"type": "Feature", "geometry": {"type": "Point", "coordinates": [5.5675343, 51.7703992]}, "properties": {"type": "inleverpunt", "locatieNaam": "8744 Albert Heijn", "straatNaam": "St Willibrordusstraat", "straatNr": "45", "postcode": "5351 EE", "plaats": "Berghem", "merk": "Stibat", "puntType": "inzamelbak", "materialen": ["batterijen"], "uitbetaling": [], "vrijToegankelijk": false, "gemeenteBeperking": null, "openingstijden": null, "latitude": 51.7703992, "longitude": 5.5675343, "bronId": "L007362"}}, {"type": "Feature", "geometry": {"type": "Point", "coordinates": [5.5006912, 51.7527102]}, "properties": {"type": "inleverpunt", "locatieNaam": "1073 Action", "straatNaam": "Dokter Schaepmanlaan", "straatNr": "89", "postcode": "5344 BC", "plaats": "Oss", "merk": "Stibat", "puntType": "inzamelbak", "materialen": ["batterijen"], "uitbetaling": [], "vrijToegankelijk": false, "gemeenteBeperking": null, "openingstijden": null, "latitude": 51.7527102, "longitude": 5.5006912, "bronId": "L019147"}}, {"type": "Feature", "geometry": {"type": "Point", "coordinates": [5.5327339, 51.759939]}, "properties": {"type": "inleverpunt", "locatieNaam": "1065 Action", "straatNaam": "Oude Molenstraat", "straatNr": "12-14", "postcode": "5342 GC", "plaats": "Oss", "merk": "Stibat", "puntType": "inzamelbak", "materialen": ["batterijen"], "uitbetaling": [], "vrijToegankelijk": false, "gemeenteBeperking": null, "openingstijden": null, "latitude": 51.759939, "longitude": 5.5327339, "bronId": "L019466"}}, {"type": "Feature", "geometry": {"type": "Point", "coordinates": [5.5115534, 51.7544639]}, "properties": {"type": "inleverpunt", "locatieNaam": "1222 Albert Heijn", "straatNaam": "Sterrebos", "straatNr": "2", "postcode": "5344 AM", "plaats": "Oss", "merk": "Stibat", "puntType": "inzamelbak", "materialen": ["batterijen"], "uitbetaling": [], "vrijToegankelijk": false, "gemeenteBeperking": null, "openingstijden": null, "latitude": 51.7544639, "longitude": 5.5115534, "bronId": "L006044"}}, {"type": "Feature", "geometry": {"type": "Point", "coordinates": [5.5463691, 51.7631968]}, "properties": {"type": "inleverpunt", "locatieNaam": "vdStad", "straatNaam": "Kantsingel", "straatNr": "16D", "postcode": "5349 AJ", "plaats": "Oss", "merk": "Stibat", "puntType": "inzamelbak", "materialen": ["batterijen"], "uitbetaling": [], "vrijToegankelijk": false, "gemeenteBeperking": null, "openingstijden": null, "latitude": 51.7631968, "longitude": 5.5463691, "bronId": "L045163"}}, {"type": "Feature", "geometry": {"type": "Point", "coordinates": [5.5113611, 51.754047]}, "properties": {"type": "inleverpunt", "locatieNaam": "7335 Etos", "straatNaam": "Sterrebos", "straatNr": "5", "postcode": "5344 AL", "plaats": "Oss", "merk": "Stibat", "puntType": "inzamelbak", "materialen": ["batterijen"], "uitbetaling": [], "vrijToegankelijk": false, "gemeenteBeperking": null, "openingstijden": null, "latitude": 51.754047, "longitude": 5.5113611, "bronId": "L023517"}}, {"type": "Feature", "geometry": {"type": "Point", "coordinates": [5.5469334, 51.7626498]}, "properties": {"type": "inleverpunt", "locatieNaam": "Toolstation", "straatNaam": "Gasstraat Oost", "straatNr": "14a", "postcode": "5349 AV", "plaats": "Oss", "merk": "Stibat", "puntType": "inzamelbak", "materialen": ["batterijen"], "uitbetaling": [], "vrijToegankelijk": false, "gemeenteBeperking": null, "openingstijden": null, "latitude": 51.7626498, "longitude": 5.5469334, "bronId": "L042543"}}, {"type": "Feature", "geometry": {"type": "Point", "coordinates": [5.5120031, 51.7535593]}, "properties": {"type": "inleverpunt", "locatieNaam": "Zeeman", "straatNaam": "Sterrebos", "straatNr": "17-19", "postcode": "5344 AM", "plaats": "Oss", "merk": "Stibat", "puntType": "inzamelbak", "materialen": ["batterijen"], "uitbetaling": [], "vrijToegankelijk": false, "gemeenteBeperking": null, "openingstijden": null, "latitude": 51.7535593, "longitude": 5.5120031, "bronId": "L029267"}}, {"type": "Feature", "geometry": {"type": "Point", "coordinates": [5.5123011, 51.7534677]}, "properties": {"type": "inleverpunt", "locatieNaam": "Kruidvat", "straatNaam": "Sterrebos", "straatNr": "27", "postcode": "5344 AL", "plaats": "Oss", "merk": "Stibat", "puntType": "inzamelbak", "materialen": ["batterijen"], "uitbetaling": [], "vrijToegankelijk": false, "gemeenteBeperking": null, "openingstijden": null, "latitude": 51.7534677, "longitude": 5.5123011, "bronId": "L035086"}}, {"type": "Feature", "geometry": {"type": "Point", "coordinates": [5.5346352, 51.7585651]}, "properties": {"type": "inleverpunt", "locatieNaam": "Lidl", "straatNaam": "Oude Molenstraat", "straatNr": "45", "postcode": "5342 GB", "plaats": "Oss", "merk": "Stibat", "puntType": "inzamelbak", "materialen": ["batterijen"], "uitbetaling": [], "vrijToegankelijk": false, "gemeenteBeperking": null, "openingstijden": null, "latitude": 51.7585651, "longitude": 5.5346352, "bronId": "L019270"}}, {"type": "Feature", "geometry": {"type": "Point", "coordinates": [5.5420407, 51.7603174]}, "properties": {"type": "inleverpunt", "locatieNaam": "Hulpmiddelencentrum (Beenhakker)", "straatNaam": "Industrielaan", "straatNr": "63", "postcode": "5349 AE", "plaats": "Oss", "merk": "Stibat", "puntType": "inzamelbak", "materialen": ["batterijen"], "uitbetaling": [], "vrijToegankelijk": false, "gemeenteBeperking": null, "openingstijden": null, "latitude": 51.7603174, "longitude": 5.5420407, "bronId": "L039931"}}, {"type": "Feature", "geometry": {"type": "Point", "coordinates": [5.4610017, 51.7413251]}, "properties": {"type": "inleverpunt", "locatieNaam": "Kruidvat", "straatNaam": "Dorpstraat", "straatNr": "7", "postcode": "5386 AK", "plaats": "Geffen", "merk": "Stibat", "puntType": "inzamelbak", "materialen": ["batterijen"], "uitbetaling": [], "vrijToegankelijk": false, "gemeenteBeperking": null, "openingstijden": null, "latitude": 51.7413251, "longitude": 5.4610017, "bronId": "L021555"}}, {"type": "Feature", "geometry": {"type": "Point", "coordinates": [5.4623062, 51.7411032]}, "properties": {"type": "inleverpunt", "locatieNaam": "Jumbo", "straatNaam": "Aloysiusplein", "straatNr": "1", "postcode": "5386 BD", "plaats": "Geffen", "merk": "Stibat", "puntType": "inzamelbak", "materialen": ["batterijen"], "uitbetaling": [], "vrijToegankelijk": false, "gemeenteBeperking": null, "openingstijden": null, "latitude": 51.7411032, "longitude": 5.4623062, "bronId": "L037073"}}, {"type": "Feature", "geometry": {"type": "Point", "coordinates": [5.6532775, 51.7971746]}, "properties": {"type": "inleverpunt", "locatieNaam": "De Fietsmaker", "straatNaam": "Kolonel Wilsstraat", "straatNr": "12A", "postcode": "5371 AG", "plaats": "Ravenstein", "merk": "Stibat", "puntType": "inzamelbak", "materialen": ["batterijen"], "uitbetaling": [], "vrijToegankelijk": false, "gemeenteBeperking": null, "openingstijden": null, "latitude": 51.7971746, "longitude": 5.6532775, "bronId": "L039767"}}, {"type": "Feature", "geometry": {"type": "Point", "coordinates": [5.4614185, 51.7394642]}, "properties": {"type": "inleverpunt", "locatieNaam": "Wielerhuis de Meulenreek", "straatNaam": "Tolweg", "straatNr": "1", "postcode": "5386 BZ", "plaats": "Geffen", "merk": "Stibat", "puntType": "inzamelbak", "materialen": ["batterijen"], "uitbetaling": [], "vrijToegankelijk": false, "gemeenteBeperking": null, "openingstijden": null, "latitude": 51.7394642, "longitude": 5.4614185, "bronId": "L033532"}}, {"type": "Feature", "geometry": {"type": "Point", "coordinates": [5.5530853, 51.7566357]}, "properties": {"type": "inleverpunt", "locatieNaam": "Praxis 2410", "straatNaam": "Frankenweg", "straatNr": "61", "postcode": "5349 AP", "plaats": "Oss", "merk": "Stibat", "puntType": "inzamelbak", "materialen": ["batterijen"], "uitbetaling": [], "vrijToegankelijk": false, "gemeenteBeperking": null, "openingstijden": null, "latitude": 51.7566357, "longitude": 5.5530853, "bronId": "L015722"}}, {"type": "Feature", "geometry": {"type": "Point", "coordinates": [5.5548701, 51.7564073]}, "properties": {"type": "inleverpunt", "locatieNaam": "Kwantum", "straatNaam": "Frankenweg", "straatNr": "53", "postcode": "5349 AP", "plaats": "Oss", "merk": "Stibat", "puntType": "inzamelbak", "materialen": ["batterijen"], "uitbetaling": [], "vrijToegankelijk": false, "gemeenteBeperking": null, "openingstijden": null, "latitude": 51.7564073, "longitude": 5.5548701, "bronId": "L017302"}}, {"type": "Feature", "geometry": {"type": "Point", "coordinates": [5.5519017, 51.7554907]}, "properties": {"type": "inleverpunt", "locatieNaam": "Leen Bakker", "straatNaam": "Frankenweg", "straatNr": "49", "postcode": "5349 AP", "plaats": "Oss", "merk": "Stibat", "puntType": "inzamelbak", "materialen": ["batterijen"], "uitbetaling": [], "vrijToegankelijk": false, "gemeenteBeperking": null, "openingstijden": null, "latitude": 51.7554907, "longitude": 5.5519017, "bronId": "L017222"}}, {"type": "Feature", "geometry": {"type": "Point", "coordinates": [5.4685461, 51.7358468]}, "properties": {"type": "inleverpunt", "locatieNaam": "Levix Automatisering B.V.", "straatNaam": "Heesterseweg", "straatNr": "13", "postcode": "5386 KT", "plaats": "Geffen", "merk": "Stibat", "puntType": "inzamelbak", "materialen": ["batterijen"], "uitbetaling": [], "vrijToegankelijk": false, "gemeenteBeperking": null, "openingstijden": null, "latitude": 51.7358468, "longitude": 5.4685461, "bronId": "L038992"}}, {"type": "Feature", "geometry": {"type": "Point", "coordinates": [5.6409719, 51.7717971]}, "properties": {"type": "inleverpunt", "locatieNaam": "PLUS", "straatNaam": "Rogstraat", "straatNr": "6", "postcode": "5373 AT", "plaats": "Herpen", "merk": "Stibat", "puntType": "inzamelbak", "materialen": ["batterijen"], "uitbetaling": [], "vrijToegankelijk": false, "gemeenteBeperking": null, "openingstijden": null, "latitude": 51.7717971, "longitude": 5.6409719, "bronId": "L022549"}}, {"type": "Feature", "geometry": {"type": "Point", "coordinates": [5.6395644, 51.7709798]}, "properties": {"type": "inleverpunt", "locatieNaam": "Ad van den Oever Warenhuis en Installatiewerken BV", "straatNaam": "Rogstraat", "straatNr": "29", "postcode": "5373 AS", "plaats": "Herpen", "merk": "Stibat", "puntType": "inzamelbak", "materialen": ["batterijen"], "uitbetaling": [], "vrijToegankelijk": false, "gemeenteBeperking": null, "openingstijden": null, "latitude": 51.7709798, "longitude": 5.6395644, "bronId": "L011529"}}, {"type": "Feature", "geometry": {"type": "Point", "coordinates": [5.6438171, 51.7726399]}, "properties": {"type": "inleverpunt", "locatieNaam": "Kuijpers Tweewielersbedrijf", "straatNaam": "Brabantstraat", "straatNr": "1A", "postcode": "5373 AR", "plaats": "Herpen", "merk": "Stibat", "puntType": "inzamelbak", "materialen": ["batterijen"], "uitbetaling": [], "vrijToegankelijk": false, "gemeenteBeperking": null, "openingstijden": null, "latitude": 51.7726399, "longitude": 5.6438171, "bronId": "L033527"}}, {"type": "Feature", "geometry": {"type": "Point", "coordinates": [5.6213638, 51.7619675]}, "properties": {"type": "inleverpunt", "locatieNaam": "Vakantiepark Herperduin", "straatNaam": "Schaykseweg", "straatNr": "12", "postcode": "5373 KL", "plaats": "Herpen", "merk": "Stibat", "puntType": "inzamelbak", "materialen": ["batterijen"], "uitbetaling": [], "vrijToegankelijk": false, "gemeenteBeperking": null, "openingstijden": null, "latitude": 51.7619675, "longitude": 5.6213638, "bronId": "L005323"}}, {"type": "Feature", "geometry": {"type": "Polygon", "coordinates": [[[5.465266001777344, 51.726608003736565], [5.466294001778381, 51.72665700373655], [5.466333001778435, 51.72698800373676], [5.466551001778644, 51.7267360037366], [5.466731001778838, 51.72705600373679], [5.490168001802701, 51.73344800374054], [5.503609001816359, 51.73638000374223], [5.507364001820194, 51.737749003743055], [5.5087330018215805, 51.73793000374315], [5.508995001821815, 51.73717900374266], [5.50993800182277, 51.73734200374274], [5.510207001823069, 51.73807700374322], [5.514790001827698, 51.73837400374334], [5.523589001836622, 51.73986100374416], [5.523990001837019, 51.739702003744064], [5.524863001837911, 51.740077003744254], [5.528945001842039, 51.74043500374445], [5.534852001847984, 51.74023800374422], [5.540502001853636, 51.73924800374347], [5.548251001861356, 51.73683700374178], [5.550297001863405, 51.73645400374151], [5.555839001868901, 51.734090003739894], [5.560171001873224, 51.73296900373908], [5.560327001873366, 51.732527003738795], [5.567315001880387, 51.731923003738274], [5.567205001880268, 51.73167400373813], [5.571220001884284, 51.73094000373755], [5.57907400189223, 51.73183100373797], [5.5798150018929595, 51.731359003737644], [5.581150001894308, 51.731499003737724], [5.581858001895032, 51.73170700373787], [5.582281001895504, 51.73304900373875], [5.5799180018931205, 51.73293900373869], [5.577477001890765, 51.735761003740556], [5.576271001889881, 51.744877003746474], [5.596606001910455, 51.747413003747745], [5.597324001911294, 51.75059800374977], [5.602628001916672, 51.75162200375029], [5.605861001919977, 51.75294600375115], [5.607287001921427, 51.75333600375136], [5.607444001921575, 51.75306100375119], [5.611990001926203, 51.75445400375201], [5.614082001928343, 51.75535100375254], [5.615049001929345, 51.756160003753], [5.616459001930723, 51.75501100375227], [5.620679001935008, 51.75603300375282], [5.623128001937493, 51.756417003753064], [5.6235750019379305, 51.75616100375284], [5.625954001940357, 51.7570570037534], [5.626078001940472, 51.75685700375327], [5.634551001949046, 51.757956003753804], [5.635775001950292, 51.75832500375401], [5.633774001948366, 51.76083300375568], [5.641046001955742, 51.76235500375652], [5.641393001956086, 51.762176003756394], [5.645237001959974, 51.76269000375668], [5.645520001960276, 51.763206003757006], [5.64821900196301, 51.76364000375721], [5.648640001963459, 51.76433000375765], [5.652547001967308, 51.76198700375605], [5.660262001974853, 51.75570200375187], [5.6633300019779, 51.754435003751], [5.667280001981796, 51.75222200374947], [5.669965001984864, 51.76260400375606], [5.673674001988777, 51.767704003759356], [5.674861001989982, 51.76804600375951], [5.676276001991294, 51.76477300375741], [5.6779300019928955, 51.762980003756184], [5.680140001995062, 51.76135300375509], [5.686106002000997, 51.75927500375366], [5.688464002003356, 51.75894300375339], [5.690858002005775, 51.759131003753446], [5.692294002007232, 51.759485003753625], [5.696036002011062, 51.761340003754746], [5.699000002014225, 51.76648800375799], [5.701048002016366, 51.76874700375938], [5.702886002018256, 51.770006003760166], [5.7081640020236595, 51.77254600376173], [5.711230002026826, 51.775034003763245], [5.705977002021585, 51.776255003764135], [5.7023090020179605, 51.778144003765455], [5.700207002015911, 51.78011800376676], [5.695699002011589, 51.78625100377077], [5.693248002009185, 51.78805500377199], [5.690128002006105, 51.789726003773126], [5.687236002003231, 51.79078500377386], [5.682895001998896, 51.791767003774574], [5.669855001985809, 51.79271600377546], [5.666959001982914, 51.79321700377587], [5.664066001980036, 51.794186003776495], [5.660208001976226, 51.796226003777925], [5.655287001971399, 51.79983300378032], [5.651741001967961, 51.80343600378272], [5.64939900196573, 51.80703700378506], [5.645888001962455, 51.81423500378972], [5.644216001960836, 51.81603700379091], [5.641008001957679, 51.818039003792265], [5.638113001954803, 51.81902500379295], [5.63376500195045, 51.819664003793456], [5.623611001940217, 51.81914100379328], [5.619261001935856, 51.819630003793655], [5.616365001932978, 51.820607003794365], [5.60768300192439, 51.82471300379717], [5.60333900192008, 51.826375003798326], [5.597545001914319, 51.82816500379957], [5.591749001908528, 51.82943400380048], [5.585947001902701, 51.82962400380072], [5.574334001890953, 51.82788100379981], [5.561150001877684, 51.82782500380001], [5.556882001873368, 51.82725000379972], [5.554121001870553, 51.82623800379912], [5.551813001868175, 51.82468000379816], [5.548629001864788, 51.819803003795094], [5.546738001862828, 51.818196003794085], [5.543832001859854, 51.81688800379332], [5.539479001855449, 51.81622000379298], [5.535130001851088, 51.81666600379334], [5.527884001843861, 51.8184810037946], [5.5206330018365755, 51.818777003794935], [5.517734001833678, 51.81928400379531], [5.514214001830189, 51.82074400379629], [5.508079001824212, 51.826143003799864], [5.503255001819456, 51.828764003801616], [5.498906001815129, 51.83009800380256], [5.496006001812232, 51.83060400380292], [5.493105001809315, 51.83075100380304], [5.490203001806386, 51.83051100380293], [5.485849001801963, 51.82940900380235], [5.481840001797839, 51.82706600380086], [5.479673001795556, 51.82437200379919], [5.477965001793632, 51.81898000379574], [5.476932001792526, 51.817183003794646], [5.475173001790687, 51.815387003793525], [5.472763001788199, 51.813771003792525], [5.469860001785227, 51.812496003791765], [5.465508001780803, 51.81135800379109], [5.458256001773463, 51.81034700379054], [5.448104001763213, 51.80959700379025], [5.442304001757371, 51.80958200379029], [5.436504001751548, 51.80995300379064], [5.4292550017443, 51.81136700379167], [5.4249060017399815, 51.81299600379273], [5.422007001737133, 51.81474900379395], [5.416949001732241, 51.81991000379733], [5.414760001730091, 51.821358003798245], [5.413310001728654, 51.821951003798674], [5.410410001725757, 51.82254500379908], [5.407509001722839, 51.82259100379917], [5.404608001719897, 51.82208800379887], [5.40170600171693, 51.82089300379818], [5.4005020017156795, 51.819913003797524], [5.397136001712113, 51.815419003794716], [5.3944090017092625, 51.812723003793025], [5.383491001697954, 51.80463400378798], [5.376011001690101, 51.79654400378295], [5.369403001683197, 51.79025100377895], [5.3659120016795026, 51.785756003776115], [5.36333500167673, 51.78126200377325], [5.361107001674236, 51.774969003769264], [5.36047200167342, 51.770475003766364], [5.360693001673394, 51.76418300376229], [5.360318001672912, 51.761486003760574], [5.359291001671805, 51.759688003759415], [5.357568001669997, 51.7578900037583], [5.355339001667689, 51.756308003757276], [5.353514001665816, 51.75547700375679], [5.354782001667021, 51.753618003755605], [5.355357001667598, 51.75357700375553], [5.355788001668017, 51.75313600375525], [5.3559050016680665, 51.75143500375415], [5.362718001674931, 51.751354003753995], [5.37403300168641, 51.75324500375506], [5.391263001704044, 51.760074003759286], [5.438816001752153, 51.765030003761765], [5.444026001756956, 51.75331200375415], [5.443647001756477, 51.7507810037525], [5.451399001763864, 51.73968200374523], [5.450539001762986, 51.739377003745], [5.451997001764378, 51.737355003743694], [5.452369001764757, 51.73745200374374], [5.454209001766535, 51.7354680037424], [5.45193000176418, 51.734001003741504], [5.453140001765341, 51.73239300374046], [5.454715001766946, 51.73287000374074], [5.457844001769989, 51.72997500373881], [5.4600740017722655, 51.73070800373926], [5.462592001774709, 51.72819900373761], [5.46318800177522, 51.725866003736094], [5.465266001777344, 51.726608003736565]]]}, "properties": {"type": "boundary", "gemeente": "Oss"}}]}