{"type": "FeatureCollection", "metadata": {"gemeente": "Overbetuwe", "slug": "overbetuwe", "generated_at": "2026-07-28T09:25:50.134599Z", "total_points": 98, "merken": ["StatiegeldNederland", "Stibat", "StichtingOPEN"], "bounds": [5.711138, 51.8756552, 5.877906, 51.9610584]}, "features": [{"type": "Feature", "geometry": {"type": "Point", "coordinates": [5.7128332, 51.9303519]}, "properties": {"type": "inleverpunt", "locatieNaam": "Albert Heijn", "straatNaam": "Beatrixplein", "straatNr": "15", "postcode": "6671 KA", "plaats": "Zetten", "merk": "StatiegeldNederland", "puntType": "automaat", "materialen": ["pet-groot", "pet-klein", "blik", "glas", "krat"], "uitbetaling": ["bonnetje", "donatie"], "vrijToegankelijk": true, "gemeenteBeperking": null, "openingstijden": {"ma": "08:00–21:00", "di": "08:00–21:00", "wo": "08:00–21:00", "do": "08:00–21:00", "vr": "08:00–21:00", "za": "08:00–21:00", "zo": "10:00–20:00"}, "latitude": 51.9303519, "longitude": 5.7128332, "bronId": "252001"}}, {"type": "Feature", "geometry": {"type": "Point", "coordinates": [5.8135463, 51.9610584]}, "properties": {"type": "inleverpunt", "locatieNaam": "Albert Heijn", "straatNaam": "Polenplein", "straatNr": "24A", "postcode": "6665 CN", "plaats": "Driel", "merk": "StatiegeldNederland", "puntType": "automaat", "materialen": ["pet-groot", "pet-klein", "blik", "glas", "krat"], "uitbetaling": ["bonnetje", "donatie"], "vrijToegankelijk": true, "gemeenteBeperking": null, "openingstijden": {"ma": "08:00–20:00", "di": "08:00–20:00", "wo": "08:00–20:00", "do": "08:00–20:00", "vr": "08:00–20:00", "za": "08:00–20:00", "zo": "10:00–19:00"}, "latitude": 51.9610584, "longitude": 5.8135463, "bronId": "252637"}}, {"type": "Feature", "geometry": {"type": "Point", "coordinates": [5.8389899, 51.9193048]}, "properties": {"type": "inleverpunt", "locatieNaam": "Albert Heijn", "straatNaam": "Valburgseweg", "straatNr": "16-20", "postcode": "6661 EV", "plaats": "Elst", "merk": "StatiegeldNederland", "puntType": "automaat", "materialen": ["pet-groot", "pet-klein", "blik", "glas", "krat"], "uitbetaling": ["bonnetje", "donatie"], "vrijToegankelijk": true, "gemeenteBeperking": null, "openingstijden": {"ma": "08:00–21:00", "di": "08:00–21:00", "wo": "08:00–21:00", "do": "08:00–21:00", "vr": "08:00–21:00", "za": "08:00–21:00", "zo": "10:00–20:00"}, "latitude": 51.9193048, "longitude": 5.8389899, "bronId": "252828"}}, {"type": "Feature", "geometry": {"type": "Point", "coordinates": [5.843834, 51.918005]}, "properties": {"type": "inleverpunt", "locatieNaam": "Aldi", "straatNaam": "Europaplein", "straatNr": "2-4", "postcode": "6662 DD", "plaats": "Elst", "merk": "StatiegeldNederland", "puntType": "automaat", "materialen": ["pet-groot", "pet-klein", "blik", "glas", "krat"], "uitbetaling": ["bonnetje"], "vrijToegankelijk": true, "gemeenteBeperking": null, "openingstijden": {"ma": "08:00–20:00", "di": "08:00–20:00", "wo": "08:00–20:00", "do": "08:00–20:00", "vr": "08:00–20:00", "za": "08:00–20:00", "zo": "10:00–18:00"}, "latitude": 51.918005, "longitude": 5.843834, "bronId": "253103"}}, {"type": "Feature", "geometry": {"type": "Point", "coordinates": [5.7112049, 51.9311376]}, "properties": {"type": "inleverpunt", "locatieNaam": "Aldi", "straatNaam": "Hoofdstraat", "straatNr": "21", "postcode": "6671 CD", "plaats": "Zetten", "merk": "StatiegeldNederland", "puntType": "automaat", "materialen": ["pet-groot", "pet-klein", "blik", "glas", "krat"], "uitbetaling": ["bonnetje"], "vrijToegankelijk": true, "gemeenteBeperking": null, "openingstijden": {"ma": "08:00–20:00", "di": "08:00–20:00", "wo": "08:00–20:00", "do": "08:00–20:00", "vr": "08:00–20:00", "za": "08:00–19:00", "zo": "Gesloten"}, "latitude": 51.9311376, "longitude": 5.7112049, "bronId": "253161"}}, {"type": "Feature", "geometry": {"type": "Point", "coordinates": [5.8536217, 51.9135636]}, "properties": {"type": "inleverpunt", "locatieNaam": "Cg 1497 Kraft Heinz", "straatNaam": "Stationsstraat", "straatNr": "50", "postcode": "6662 BC", "plaats": "Elst", "merk": "StatiegeldNederland", "puntType": "balie", "materialen": ["pet-groot", "pet-klein", "blik"], "uitbetaling": [], "vrijToegankelijk": true, "gemeenteBeperking": null, "openingstijden": {"ma": "08:00–17:00", "di": "08:00–17:00", "wo": "08:00–17:00", "do": "09:00–17:00", "vr": "08:00–17:00", "za": "Gesloten", "zo": "Gesloten"}, "latitude": 51.9135636, "longitude": 5.8536217, "bronId": "254049"}}, {"type": "Feature", "geometry": {"type": "Point", "coordinates": [5.8465365, 51.9249255]}, "properties": {"type": "inleverpunt", "locatieNaam": "E.t.v. De Helster", "straatNaam": "Schuberstraat", "straatNr": "5", "postcode": "6661 AW", "plaats": "Elst", "merk": "StatiegeldNederland", "puntType": "balie", "materialen": ["pet-groot", "pet-klein", "blik"], "uitbetaling": [], "vrijToegankelijk": false, "gemeenteBeperking": null, "openingstijden": {"ma": "09:00–22:30", "di": "09:00–22:30", "wo": "09:00–22:30", "do": "09:00–22:30", "vr": "09:00–22:30", "za": "09:00–22:30", "zo": "09:00–22:30"}, "latitude": 51.9249255, "longitude": 5.8465365, "bronId": "254618"}}, {"type": "Feature", "geometry": {"type": "Point", "coordinates": [5.8618583, 51.9162691]}, "properties": {"type": "inleverpunt", "locatieNaam": "Gulf", "straatNaam": "Nieuwe Aamsestraat", "straatNr": "32A", "postcode": "6662 ND", "plaats": "Elst", "merk": "StatiegeldNederland", "puntType": "balie", "materialen": ["pet-groot", "pet-klein", "blik"], "uitbetaling": [], "vrijToegankelijk": true, "gemeenteBeperking": null, "openingstijden": {"ma": "06:00–21:00", "di": "06:00–21:00", "wo": "06:00–21:00", "do": "06:00–21:00", "vr": "06:00–21:00", "za": "07:00–21:00", "zo": "09:00–20:00"}, "latitude": 51.9162691, "longitude": 5.8618583, "bronId": "254908"}}, {"type": "Feature", "geometry": {"type": "Point", "coordinates": [5.8607518, 51.9184864]}, "properties": {"type": "inleverpunt", "locatieNaam": "Het Westeraam", "straatNaam": "Auditorium", "straatNr": "6", "postcode": "6661 TZ", "plaats": "Elst", "merk": "StatiegeldNederland", "puntType": "automaat", "materialen": ["pet-klein", "blik"], "uitbetaling": ["donatie", "tikkie"], "vrijToegankelijk": false, "gemeenteBeperking": null, "openingstijden": null, "latitude": 51.9184864, "longitude": 5.8607518, "bronId": "254983"}}, {"type": "Feature", "geometry": {"type": "Point", "coordinates": [5.743884, 51.910982]}, "properties": {"type": "inleverpunt", "locatieNaam": "Jopie Sales", "straatNaam": "Kweepeer", "straatNr": "42", "postcode": "6674 BT", "plaats": "Herveld", "merk": "StatiegeldNederland", "puntType": "balie", "materialen": ["pet-groot", "pet-klein", "blik"], "uitbetaling": [], "vrijToegankelijk": true, "gemeenteBeperking": null, "openingstijden": null, "latitude": 51.910982, "longitude": 5.743884, "bronId": "255196"}}, {"type": "Feature", "geometry": {"type": "Point", "coordinates": [5.86126, 51.922134]}, "properties": {"type": "inleverpunt", "locatieNaam": "Jumbo", "straatNaam": "Basilica 19 - 21 -", "straatNr": "23", "postcode": "6661 TT", "plaats": "Elst", "merk": "StatiegeldNederland", "puntType": "automaat", "materialen": ["pet-groot", "pet-klein", "blik", "glas", "krat"], "uitbetaling": ["bonnetje", "donatie"], "vrijToegankelijk": true, "gemeenteBeperking": null, "openingstijden": {"ma": "08:00–20:00", "di": "08:00–20:00", "wo": "08:00–20:00", "do": "08:00–20:00", "vr": "08:00–21:00", "za": "08:00–20:00", "zo": "10:00–20:00"}, "latitude": 51.922134, "longitude": 5.86126, "bronId": "255225"}}, {"type": "Feature", "geometry": {"type": "Point", "coordinates": [5.757288, 51.959135]}, "properties": {"type": "inleverpunt", "locatieNaam": "Jumbo", "straatNaam": "Beemdhof", "straatNr": "38", "postcode": "6666 DL", "plaats": "Heteren", "merk": "StatiegeldNederland", "puntType": "automaat", "materialen": ["pet-groot", "pet-klein", "blik", "glas", "krat"], "uitbetaling": ["bonnetje", "donatie"], "vrijToegankelijk": true, "gemeenteBeperking": null, "openingstijden": {"ma": "08:00–20:00", "di": "08:00–20:00", "wo": "08:00–20:00", "do": "08:00–20:00", "vr": "08:00–20:00", "za": "08:00–20:00", "zo": "Gesloten"}, "latitude": 51.959135, "longitude": 5.757288, "bronId": "255227"}}, {"type": "Feature", "geometry": {"type": "Point", "coordinates": [5.842928, 51.917456]}, "properties": {"type": "inleverpunt", "locatieNaam": "Jumbo", "straatNaam": "Europaplein", "straatNr": "22", "postcode": "6662 DD", "plaats": "Elst", "merk": "StatiegeldNederland", "puntType": "automaat", "materialen": ["pet-groot", "pet-klein", "blik", "glas", "krat"], "uitbetaling": ["bonnetje", "donatie"], "vrijToegankelijk": true, "gemeenteBeperking": null, "openingstijden": {"ma": "08:00–20:00", "di": "08:00–20:00", "wo": "08:00–20:00", "do": "08:00–20:00", "vr": "08:00–21:00", "za": "08:00–20:00", "zo": "10:00–20:00"}, "latitude": 51.917456, "longitude": 5.842928, "bronId": "255360"}}, {"type": "Feature", "geometry": {"type": "Point", "coordinates": [5.711857, 51.929334]}, "properties": {"type": "inleverpunt", "locatieNaam": "Jumbo", "straatNaam": "Julianaplein", "straatNr": "8", "postcode": "6671 CA", "plaats": "Zetten", "merk": "StatiegeldNederland", "puntType": "automaat", "materialen": ["pet-groot", "pet-klein", "blik", "glas", "krat"], "uitbetaling": ["bonnetje", "donatie"], "vrijToegankelijk": true, "gemeenteBeperking": null, "openingstijden": {"ma": "08:00–20:00", "di": "08:00–20:00", "wo": "08:00–20:00", "do": "08:00–20:00", "vr": "08:00–21:00", "za": "08:00–20:00", "zo": "Gesloten"}, "latitude": 51.929334, "longitude": 5.711857, "bronId": "255462"}}, {"type": "Feature", "geometry": {"type": "Point", "coordinates": [5.8336, 51.88529]}, "properties": {"type": "inleverpunt", "locatieNaam": "Lidl", "straatNaam": "Stationstraat", "straatNr": "19", "postcode": "6678 AA", "plaats": "Oosterhout", "merk": "StatiegeldNederland", "puntType": "automaat", "materialen": ["pet-groot", "pet-klein", "blik", "glas", "krat"], "uitbetaling": ["bonnetje", "donatie"], "vrijToegankelijk": true, "gemeenteBeperking": null, "openingstijden": {"ma": "08:00–21:00", "di": "08:00–21:00", "wo": "08:00–21:00", "do": "08:00–22:00", "vr": "08:00–22:00", "za": "07:30–21:00", "zo": "10:00–20:00"}, "latitude": 51.88529, "longitude": 5.8336, "bronId": "256398"}}, {"type": "Feature", "geometry": {"type": "Point", "coordinates": [5.8442753, 51.9170689]}, "properties": {"type": "inleverpunt", "locatieNaam": "Medikamente Europaplein - Elst", "straatNaam": "Europaplein", "straatNr": "37", "postcode": "6662 DD", "plaats": "Elst", "merk": "StatiegeldNederland", "puntType": "automaat", "materialen": ["pet-groot", "pet-klein", "blik"], "uitbetaling": ["bonnetje"], "vrijToegankelijk": true, "gemeenteBeperking": null, "openingstijden": null, "latitude": 51.9170689, "longitude": 5.8442753, "bronId": "256749"}}, {"type": "Feature", "geometry": {"type": "Point", "coordinates": [5.7373043, 51.9095667]}, "properties": {"type": "inleverpunt", "locatieNaam": "Plus", "straatNaam": "Het Dorpsplein", "straatNr": "8", "postcode": "6674 BW", "plaats": "Herveld", "merk": "StatiegeldNederland", "puntType": "automaat", "materialen": ["pet-groot", "pet-klein", "blik", "glas", "krat"], "uitbetaling": ["bonnetje"], "vrijToegankelijk": true, "gemeenteBeperking": null, "openingstijden": {"ma": "08:00–20:00", "di": "08:00–20:00", "wo": "08:00–20:00", "do": "08:00–20:00", "vr": "08:00–20:00", "za": "08:00–20:00", "zo": "10:00–18:00"}, "latitude": 51.9095667, "longitude": 5.7373043, "bronId": "257338"}}, {"type": "Feature", "geometry": {"type": "Point", "coordinates": [5.818835, 51.954828]}, "properties": {"type": "inleverpunt", "locatieNaam": "Rksv Driel", "straatNaam": "Dorpsstraat", "straatNr": "13", "postcode": "6665 CB", "plaats": "Driel", "merk": "StatiegeldNederland", "puntType": "balie", "materialen": ["pet-groot", "pet-klein", "blik"], "uitbetaling": [], "vrijToegankelijk": false, "gemeenteBeperking": null, "openingstijden": {"ma": "17:00–01:00", "di": "17:00–01:00", "wo": "17:00–01:00", "do": "17:00–01:00", "vr": "17:00–01:00", "za": "17:00–01:00", "zo": "17:00–01:00"}, "latitude": 51.954828, "longitude": 5.818835, "bronId": "257808"}}, {"type": "Feature", "geometry": {"type": "Point", "coordinates": [5.843476, 51.907587]}, "properties": {"type": "inleverpunt", "locatieNaam": "Sc Elistha", "straatNaam": "De Pas", "straatNr": "5", "postcode": "6662 BK", "plaats": "Elst", "merk": "StatiegeldNederland", "puntType": "balie", "materialen": ["pet-groot", "pet-klein", "blik"], "uitbetaling": [], "vrijToegankelijk": false, "gemeenteBeperking": null, "openingstijden": {"ma": "Gesloten", "di": "18:30–22:00", "wo": "Gesloten", "do": "18:30–22:30", "vr": "Gesloten", "za": "09:00–23:00", "zo": "Gesloten"}, "latitude": 51.907587, "longitude": 5.843476, "bronId": "257962"}}, {"type": "Feature", "geometry": {"type": "Point", "coordinates": [5.8242758, 51.8783242]}, "properties": {"type": "inleverpunt", "locatieNaam": "Schietsportvereniging Schietlust", "straatNaam": "De Halve Trom", "straatNr": "34", "postcode": "6678 BW", "plaats": "Oosterhout", "merk": "StatiegeldNederland", "puntType": "balie", "materialen": ["pet-groot", "pet-klein", "blik"], "uitbetaling": [], "vrijToegankelijk": false, "gemeenteBeperking": null, "openingstijden": null, "latitude": 51.8783242, "longitude": 5.8242758, "bronId": "257980"}}, {"type": "Feature", "geometry": {"type": "Point", "coordinates": [5.877906, 51.933337]}, "properties": {"type": "inleverpunt", "locatieNaam": "Shell", "straatNaam": "Rijksweg A325 OZ", "straatNr": "", "postcode": "6662 MZ", "plaats": "Elst Gld", "merk": "StatiegeldNederland", "puntType": "balie", "materialen": ["pet-groot", "pet-klein", "blik"], "uitbetaling": [], "vrijToegankelijk": true, "gemeenteBeperking": null, "openingstijden": {"ma": "24 uur geopend", "di": "24 uur geopend", "wo": "24 uur geopend", "do": "24 uur geopend", "vr": "24 uur geopend", "za": "24 uur geopend", "zo": "24 uur geopend"}, "latitude": 51.933337, "longitude": 5.877906, "bronId": "258208"}}, {"type": "Feature", "geometry": {"type": "Point", "coordinates": [5.876701, 51.931948]}, "properties": {"type": "inleverpunt", "locatieNaam": "Shell", "straatNaam": "Rijksweg A325 WZ", "straatNr": "", "postcode": "6661 KK", "plaats": "Elst Gld", "merk": "StatiegeldNederland", "puntType": "balie", "materialen": ["pet-groot", "pet-klein", "blik"], "uitbetaling": [], "vrijToegankelijk": true, "gemeenteBeperking": null, "openingstijden": {"ma": "24 uur geopend", "di": "24 uur geopend", "wo": "24 uur geopend", "do": "24 uur geopend", "vr": "24 uur geopend", "za": "24 uur geopend", "zo": "24 uur geopend"}, "latitude": 51.931948, "longitude": 5.876701, "bronId": "258209"}}, {"type": "Feature", "geometry": {"type": "Point", "coordinates": [5.767491, 51.9340089]}, "properties": {"type": "inleverpunt", "locatieNaam": "Spar Express", "straatNaam": "RIJKSWEG A50 WESTZIJDE", "straatNr": "", "postcode": "6660 ZH", "plaats": "Heteren", "merk": "StatiegeldNederland", "puntType": "balie", "materialen": ["pet-groot", "pet-klein", "blik"], "uitbetaling": [], "vrijToegankelijk": true, "gemeenteBeperking": null, "openingstijden": {"ma": "24 uur geopend", "di": "24 uur geopend", "wo": "24 uur geopend", "do": "24 uur geopend", "vr": "24 uur geopend", "za": "24 uur geopend", "zo": "24 uur geopend"}, "latitude": 51.9340089, "longitude": 5.767491, "bronId": "258593"}}, {"type": "Feature", "geometry": {"type": "Point", "coordinates": [5.7920006, 51.9107798]}, "properties": {"type": "inleverpunt", "locatieNaam": "Supermarkt Valburg", "straatNaam": "Tielsestraat", "straatNr": "35", "postcode": "6675 AB", "plaats": "Valburg", "merk": "StatiegeldNederland", "puntType": "automaat", "materialen": ["pet-groot", "pet-klein", "blik"], "uitbetaling": ["bonnetje", "donatie"], "vrijToegankelijk": true, "gemeenteBeperking": null, "openingstijden": null, "latitude": 51.9107798, "longitude": 5.7920006, "bronId": "258783"}}, {"type": "Feature", "geometry": {"type": "Point", "coordinates": [5.8438108, 51.9075389]}, "properties": {"type": "inleverpunt", "locatieNaam": "Sv Spero", "straatNaam": "De Pas", "straatNr": "3", "postcode": "6662 BK", "plaats": "Elst", "merk": "StatiegeldNederland", "puntType": "balie", "materialen": ["pet-groot", "pet-klein", "blik"], "uitbetaling": [], "vrijToegankelijk": false, "gemeenteBeperking": null, "openingstijden": null, "latitude": 51.9075389, "longitude": 5.8438108, "bronId": "258837"}}, {"type": "Feature", "geometry": {"type": "Point", "coordinates": [5.8334157, 51.8865723]}, "properties": {"type": "inleverpunt", "locatieNaam": "T.v. De Hoge Wick", "straatNaam": "Stationsstraat", "straatNr": "21D", "postcode": "6678 AA", "plaats": "Oosterhout", "merk": "StatiegeldNederland", "puntType": "balie", "materialen": ["pet-groot", "pet-klein", "blik"], "uitbetaling": [], "vrijToegankelijk": false, "gemeenteBeperking": null, "openingstijden": {"ma": "09:00–22:30", "di": "09:00–22:30", "wo": "09:00–22:30", "do": "09:00–22:30", "vr": "09:00–22:30", "za": "09:00–22:30", "zo": "09:00–22:30"}, "latitude": 51.8865723, "longitude": 5.8334157, "bronId": "258863"}}, {"type": "Feature", "geometry": {"type": "Point", "coordinates": [5.711204, 51.931137]}, "properties": {"type": "inleverpunt", "locatieNaam": "Aldi Zetten", "straatNaam": "Hoofdstraat", "straatNr": "27", "postcode": "6671 CD", "plaats": "Zetten", "merk": "StichtingOPEN", "puntType": "balie", "materialen": ["batterijen", "elektro-klein", "lampen"], "uitbetaling": [], "vrijToegankelijk": false, "gemeenteBeperking": null, "openingstijden": null, "latitude": 51.931137, "longitude": 5.711204, "bronId": "SP00026864"}}, {"type": "Feature", "geometry": {"type": "Point", "coordinates": [5.71278, 51.930448]}, "properties": {"type": "inleverpunt", "locatieNaam": "8529 Albert Heijn Zetten", "straatNaam": "Beatrixplein", "straatNr": "15", "postcode": "6671 KA", "plaats": "Zetten", "merk": "StichtingOPEN", "puntType": "balie", "materialen": ["batterijen", "elektro-klein", "lampen"], "uitbetaling": [], "vrijToegankelijk": false, "gemeenteBeperking": null, "openingstijden": null, "latitude": 51.930448, "longitude": 5.71278, "bronId": "SP00022741"}}, {"type": "Feature", "geometry": {"type": "Point", "coordinates": [5.71221, 51.92989]}, "properties": {"type": "inleverpunt", "locatieNaam": "Kruidvat Zetten", "straatNaam": "Hoofdstraat", "straatNr": "38", "postcode": "6671 CE", "plaats": "Zetten", "merk": "StichtingOPEN", "puntType": "balie", "materialen": ["batterijen", "lampen"], "uitbetaling": [], "vrijToegankelijk": false, "gemeenteBeperking": null, "openingstijden": null, "latitude": 51.92989, "longitude": 5.71221, "bronId": "SP00029674"}}, {"type": "Feature", "geometry": {"type": "Point", "coordinates": [5.711861, 51.929325]}, "properties": {"type": "inleverpunt", "locatieNaam": "Jumbo Zetten", "straatNaam": "Julianaplein", "straatNr": "8", "postcode": "6671 CA", "plaats": "Zetten", "merk": "StichtingOPEN", "puntType": "balie", "materialen": ["batterijen", "elektro-klein", "lampen"], "uitbetaling": [], "vrijToegankelijk": false, "gemeenteBeperking": null, "openingstijden": null, "latitude": 51.929325, "longitude": 5.711861, "bronId": "SP00025148"}}, {"type": "Feature", "geometry": {"type": "Point", "coordinates": [5.711138, 51.927911]}, "properties": {"type": "inleverpunt", "locatieNaam": "Hubo Zetten", "straatNaam": "Veldstraat", "straatNr": "23", "postcode": "6671 BV", "plaats": "Zetten", "merk": "StichtingOPEN", "puntType": "balie", "materialen": ["elektro-middel", "lampen", "tl-buizen"], "uitbetaling": [], "vrijToegankelijk": false, "gemeenteBeperking": null, "openingstijden": null, "latitude": 51.927911, "longitude": 5.711138, "bronId": "SP00026592"}}, {"type": "Feature", "geometry": {"type": "Point", "coordinates": [5.713271, 51.928996]}, "properties": {"type": "inleverpunt", "locatieNaam": "Weijs Elektro Radio TV Wasmachines", "straatNaam": "Hoofdstraat", "straatNr": "18", "postcode": "6671 CB", "plaats": "Zetten", "merk": "StichtingOPEN", "puntType": "balie", "materialen": ["elektro-klein", "elektro-middel"], "uitbetaling": [], "vrijToegankelijk": false, "gemeenteBeperking": null, "openingstijden": null, "latitude": 51.928996, "longitude": 5.713271, "bronId": "SP00002515"}}, {"type": "Feature", "geometry": {"type": "Point", "coordinates": [5.757772, 51.9606]}, "properties": {"type": "inleverpunt", "locatieNaam": "Hubo Heteren", "straatNaam": "Dorpsstraat", "straatNr": "42", "postcode": "6666 AH", "plaats": "Heteren", "merk": "StichtingOPEN", "puntType": "balie", "materialen": ["lampen", "tl-buizen"], "uitbetaling": [], "vrijToegankelijk": false, "gemeenteBeperking": null, "openingstijden": null, "latitude": 51.9606, "longitude": 5.757772, "bronId": "SP00026085"}}, {"type": "Feature", "geometry": {"type": "Point", "coordinates": [5.757264, 51.959099]}, "properties": {"type": "inleverpunt", "locatieNaam": "Jumbo Heteren", "straatNaam": "Beemdhof", "straatNr": "38", "postcode": "6666 DL", "plaats": "Heteren", "merk": "StichtingOPEN", "puntType": "balie", "materialen": ["batterijen", "lampen"], "uitbetaling": [], "vrijToegankelijk": false, "gemeenteBeperking": null, "openingstijden": null, "latitude": 51.959099, "longitude": 5.757264, "bronId": "SP00025159"}}, {"type": "Feature", "geometry": {"type": "Point", "coordinates": [5.76214, 51.940404]}, "properties": {"type": "inleverpunt", "locatieNaam": "De Witgoedpartner", "straatNaam": "Muskushouwsestraat", "straatNr": "42", "postcode": "6666 MC", "plaats": "Heteren", "merk": "StichtingOPEN", "puntType": "balie", "materialen": ["elektro-groot", "elektro-klein", "elektro-middel"], "uitbetaling": [], "vrijToegankelijk": false, "gemeenteBeperking": null, "openingstijden": null, "latitude": 51.940404, "longitude": 5.76214, "bronId": "SP00021028"}}, {"type": "Feature", "geometry": {"type": "Point", "coordinates": [5.813963, 51.959257]}, "properties": {"type": "inleverpunt", "locatieNaam": "8521 Albert Heijn Driel", "straatNaam": "Casimirstraat", "straatNr": "24a", "postcode": "6665 CN", "plaats": "Driel", "merk": "StichtingOPEN", "puntType": "balie", "materialen": ["batterijen", "elektro-klein", "lampen"], "uitbetaling": [], "vrijToegankelijk": false, "gemeenteBeperking": null, "openingstijden": null, "latitude": 51.959257, "longitude": 5.813963, "bronId": "SP00023319"}}, {"type": "Feature", "geometry": {"type": "Point", "coordinates": [5.787775, 51.918524]}, "properties": {"type": "inleverpunt", "locatieNaam": "Opperman Witgoed", "straatNaam": "Parallelweg-Noord", "straatNr": "5", "postcode": "6675 NC", "plaats": "Valburg", "merk": "StichtingOPEN", "puntType": "balie", "materialen": ["elektro-klein", "elektro-middel"], "uitbetaling": [], "vrijToegankelijk": false, "gemeenteBeperking": null, "openingstijden": null, "latitude": 51.918524, "longitude": 5.787775, "bronId": "SP00032130"}}, {"type": "Feature", "geometry": {"type": "Point", "coordinates": [5.79195, 51.91079]}, "properties": {"type": "inleverpunt", "locatieNaam": "Attent Valburg", "straatNaam": "Tielsestraat", "straatNr": "35", "postcode": "6675 AB", "plaats": "Valburg", "merk": "StichtingOPEN", "puntType": "balie", "materialen": ["batterijen", "elektro-klein", "lampen"], "uitbetaling": [], "vrijToegankelijk": false, "gemeenteBeperking": null, "openingstijden": null, "latitude": 51.91079, "longitude": 5.79195, "bronId": "SP00027331"}}, {"type": "Feature", "geometry": {"type": "Point", "coordinates": [5.838997, 51.91951]}, "properties": {"type": "inleverpunt", "locatieNaam": "8770 Albert Heijn Elst", "straatNaam": "Valburgseweg", "straatNr": "20", "postcode": "6661 EV", "plaats": "Elst", "merk": "StichtingOPEN", "puntType": "balie", "materialen": ["batterijen", "elektro-klein", "lampen"], "uitbetaling": [], "vrijToegankelijk": false, "gemeenteBeperking": null, "openingstijden": null, "latitude": 51.91951, "longitude": 5.838997, "bronId": "SP00022730"}}, {"type": "Feature", "geometry": {"type": "Point", "coordinates": [5.840082, 51.919286]}, "properties": {"type": "inleverpunt", "locatieNaam": "Action Elst 1284", "straatNaam": "Valburgseweg", "straatNr": "16", "postcode": "6661 EV", "plaats": "Elst", "merk": "StichtingOPEN", "puntType": "balie", "materialen": ["batterijen", "lampen"], "uitbetaling": [], "vrijToegankelijk": false, "gemeenteBeperking": null, "openingstijden": null, "latitude": 51.919286, "longitude": 5.840082, "bronId": "SP00007856"}}, {"type": "Feature", "geometry": {"type": "Point", "coordinates": [5.842737, 51.91738]}, "properties": {"type": "inleverpunt", "locatieNaam": "Jumbo Elst", "straatNaam": "Europaplein", "straatNr": "22", "postcode": "6662 DD", "plaats": "Elst", "merk": "StichtingOPEN", "puntType": "balie", "materialen": ["batterijen", "lampen"], "uitbetaling": [], "vrijToegankelijk": false, "gemeenteBeperking": null, "openingstijden": null, "latitude": 51.91738, "longitude": 5.842737, "bronId": "SP00025141"}}, {"type": "Feature", "geometry": {"type": "Point", "coordinates": [5.843834, 51.918005]}, "properties": {"type": "inleverpunt", "locatieNaam": "Aldi Elst", "straatNaam": "Europaplein", "straatNr": "2-4", "postcode": "6662 DD", "plaats": "Elst", "merk": "StichtingOPEN", "puntType": "balie", "materialen": ["batterijen", "elektro-klein", "lampen"], "uitbetaling": [], "vrijToegankelijk": false, "gemeenteBeperking": null, "openingstijden": null, "latitude": 51.918005, "longitude": 5.843834, "bronId": "SP00026848"}}, {"type": "Feature", "geometry": {"type": "Point", "coordinates": [5.845924, 51.918795]}, "properties": {"type": "inleverpunt", "locatieNaam": "Kruidvat Elst", "straatNaam": "Dorpsstraat", "straatNr": "42", "postcode": "6661 EL", "plaats": "Elst", "merk": "StichtingOPEN", "puntType": "balie", "materialen": ["batterijen", "lampen"], "uitbetaling": [], "vrijToegankelijk": false, "gemeenteBeperking": null, "openingstijden": null, "latitude": 51.918795, "longitude": 5.845924, "bronId": "SP00024582"}}, {"type": "Feature", "geometry": {"type": "Point", "coordinates": [5.861077, 51.922203]}, "properties": {"type": "inleverpunt", "locatieNaam": "Jumbo Elst", "straatNaam": "Basilica", "straatNr": "19", "postcode": "6661 TT", "plaats": "Elst", "merk": "StichtingOPEN", "puntType": "balie", "materialen": ["batterijen", "lampen"], "uitbetaling": [], "vrijToegankelijk": false, "gemeenteBeperking": null, "openingstijden": null, "latitude": 51.922203, "longitude": 5.861077, "bronId": "SP00025143"}}, {"type": "Feature", "geometry": {"type": "Point", "coordinates": [5.833348, 51.885201]}, "properties": {"type": "inleverpunt", "locatieNaam": "Lidl Oosterhout", "straatNaam": "Stationsstraat", "straatNr": "19", "postcode": "6678 AA", "plaats": "Oosterhout", "merk": "StichtingOPEN", "puntType": "balie", "materialen": ["batterijen", "lampen"], "uitbetaling": [], "vrijToegankelijk": false, "gemeenteBeperking": null, "openingstijden": null, "latitude": 51.885201, "longitude": 5.833348, "bronId": "SP00025684"}}, {"type": "Feature", "geometry": {"type": "Point", "coordinates": [5.718415, 51.913284]}, "properties": {"type": "inleverpunt", "locatieNaam": "Milieustraat Andelst", "straatNaam": "Engelandstraat", "straatNr": "4", "postcode": "6673 DJ", "plaats": "Andelst", "merk": "StichtingOPEN", "puntType": "milieustraat", "materialen": ["batterijen", "elektro-groot", "elektro-klein", "elektro-middel", "lampen", "tl-buizen"], "uitbetaling": [], "vrijToegankelijk": false, "gemeenteBeperking": ["Overbetuwe"], "openingstijden": null, "latitude": 51.913284, "longitude": 5.718415, "bronId": "SP00003792"}}, {"type": "Feature", "geometry": {"type": "Point", "coordinates": [5.8438, 51.927578]}, "properties": {"type": "inleverpunt", "locatieNaam": "Milieustraat Elst", "straatNaam": "De Korte Helster", "straatNr": "1", "postcode": "6661 AE", "plaats": "Elst", "merk": "StichtingOPEN", "puntType": "milieustraat", "materialen": ["batterijen", "elektro-groot", "elektro-klein", "elektro-middel", "lampen", "tl-buizen"], "uitbetaling": [], "vrijToegankelijk": false, "gemeenteBeperking": ["Overbetuwe"], "openingstijden": null, "latitude": 51.927578, "longitude": 5.8438, "bronId": "SP00001803"}}, {"type": "Feature", "geometry": {"type": "Point", "coordinates": [5.7113467, 51.9310002]}, "properties": {"type": "inleverpunt", "locatieNaam": "Aldi", "straatNaam": "Hoofdstraat", "straatNr": "21", "postcode": "6671 CD", "plaats": "ZETTEN", "merk": "Stibat", "puntType": "inzamelbak", "materialen": ["batterijen"], "uitbetaling": [], "vrijToegankelijk": false, "gemeenteBeperking": null, "openingstijden": null, "latitude": 51.9310002, "longitude": 5.7113467, "bronId": "L048051"}}, {"type": "Feature", "geometry": {"type": "Point", "coordinates": [5.7125613, 51.9306643]}, "properties": {"type": "inleverpunt", "locatieNaam": "Bike Totaal Dik Franken Tweewielers", "straatNaam": "Bakkerstraat", "straatNr": "8", "postcode": "6671 AB", "plaats": "Zetten", "merk": "Stibat", "puntType": "inzamelbak", "materialen": ["batterijen"], "uitbetaling": [], "vrijToegankelijk": false, "gemeenteBeperking": null, "openingstijden": null, "latitude": 51.9306643, "longitude": 5.7125613, "bronId": "L018276"}}, {"type": "Feature", "geometry": {"type": "Point", "coordinates": [5.7122999, 51.9299089]}, "properties": {"type": "inleverpunt", "locatieNaam": "Kruidvat", "straatNaam": "Hoofdstraat", "straatNr": "38", "postcode": "6671 CE", "plaats": "ZETTEN", "merk": "Stibat", "puntType": "inzamelbak", "materialen": ["batterijen"], "uitbetaling": [], "vrijToegankelijk": false, "gemeenteBeperking": null, "openingstijden": null, "latitude": 51.9299089, "longitude": 5.7122999, "bronId": "L041761"}}, {"type": "Feature", "geometry": {"type": "Point", "coordinates": [5.7122858, 51.9298133]}, "properties": {"type": "inleverpunt", "locatieNaam": "Primera", "straatNaam": "Hoofdstraat", "straatNr": "34", "postcode": "6671 CD", "plaats": "ZETTEN", "merk": "Stibat", "puntType": "inzamelbak", "materialen": ["batterijen"], "uitbetaling": [], "vrijToegankelijk": false, "gemeenteBeperking": null, "openingstijden": null, "latitude": 51.9298133, "longitude": 5.7122858, "bronId": "L040718"}}, {"type": "Feature", "geometry": {"type": "Point", "coordinates": [5.7128789, 51.9303394]}, "properties": {"type": "inleverpunt", "locatieNaam": "8529 Albert Heijn", "straatNaam": "Beatrixplein", "straatNr": "15", "postcode": "6671 KA", "plaats": "ZETTEN", "merk": "Stibat", "puntType": "inzamelbak", "materialen": ["batterijen"], "uitbetaling": [], "vrijToegankelijk": false, "gemeenteBeperking": null, "openingstijden": null, "latitude": 51.9303394, "longitude": 5.7128789, "bronId": "L028605"}}, {"type": "Feature", "geometry": {"type": "Point", "coordinates": [5.7118601, 51.9293368]}, "properties": {"type": "inleverpunt", "locatieNaam": "Jumbo", "straatNaam": "Julianaplein", "straatNr": "8", "postcode": "6671 CA", "plaats": "ZETTEN", "merk": "Stibat", "puntType": "inzamelbak", "materialen": ["batterijen"], "uitbetaling": [], "vrijToegankelijk": false, "gemeenteBeperking": null, "openingstijden": null, "latitude": 51.9293368, "longitude": 5.7118601, "bronId": "L031150"}}, {"type": "Feature", "geometry": {"type": "Point", "coordinates": [5.712529, 51.9293945]}, "properties": {"type": "inleverpunt", "locatieNaam": "Kruidvat", "straatNaam": "Hoofdstraat", "straatNr": "30A", "postcode": "6671 CD", "plaats": "ZETTEN", "merk": "Stibat", "puntType": "inzamelbak", "materialen": ["batterijen"], "uitbetaling": [], "vrijToegankelijk": false, "gemeenteBeperking": null, "openingstijden": null, "latitude": 51.9293945, "longitude": 5.712529, "bronId": "L016127"}}, {"type": "Feature", "geometry": {"type": "Point", "coordinates": [5.7127635, 51.9295244]}, "properties": {"type": "inleverpunt", "locatieNaam": "Zeeman", "straatNaam": "Hoofdstraat", "straatNr": "32b", "postcode": "6671 CD", "plaats": "ZETTEN", "merk": "Stibat", "puntType": "inzamelbak", "materialen": ["batterijen"], "uitbetaling": [], "vrijToegankelijk": false, "gemeenteBeperking": null, "openingstijden": null, "latitude": 51.9295244, "longitude": 5.7127635, "bronId": "L020575"}}, {"type": "Feature", "geometry": {"type": "Point", "coordinates": [5.711138, 51.927911]}, "properties": {"type": "inleverpunt", "locatieNaam": "Hubo", "straatNaam": "Veldstraat", "straatNr": "23", "postcode": "6671 BV", "plaats": "ZETTEN", "merk": "Stibat", "puntType": "inzamelbak", "materialen": ["batterijen"], "uitbetaling": [], "vrijToegankelijk": false, "gemeenteBeperking": null, "openingstijden": null, "latitude": 51.927911, "longitude": 5.711138, "bronId": "L040899"}}, {"type": "Feature", "geometry": {"type": "Point", "coordinates": [5.7133351, 51.9291803]}, "properties": {"type": "inleverpunt", "locatieNaam": "HEMA Zetten", "straatNaam": "Hoofdstraat", "straatNr": "20", "postcode": "6671 CD", "plaats": "Zetten", "merk": "Stibat", "puntType": "inzamelbak", "materialen": ["batterijen"], "uitbetaling": [], "vrijToegankelijk": false, "gemeenteBeperking": null, "openingstijden": null, "latitude": 51.9291803, "longitude": 5.7133351, "bronId": "L046874"}}, {"type": "Feature", "geometry": {"type": "Point", "coordinates": [5.7579615, 51.9605501]}, "properties": {"type": "inleverpunt", "locatieNaam": "Hubo", "straatNaam": "Dorpsstraat", "straatNr": "40-42", "postcode": "6666 AH", "plaats": "HETEREN", "merk": "Stibat", "puntType": "inzamelbak", "materialen": ["batterijen"], "uitbetaling": [], "vrijToegankelijk": false, "gemeenteBeperking": null, "openingstijden": null, "latitude": 51.9605501, "longitude": 5.7579615, "bronId": "L008451"}}, {"type": "Feature", "geometry": {"type": "Point", "coordinates": [5.7572647, 51.959099]}, "properties": {"type": "inleverpunt", "locatieNaam": "Jumbo", "straatNaam": "Beemdhof", "straatNr": "38", "postcode": "6666 DL", "plaats": "HETEREN", "merk": "Stibat", "puntType": "inzamelbak", "materialen": ["batterijen"], "uitbetaling": [], "vrijToegankelijk": false, "gemeenteBeperking": null, "openingstijden": null, "latitude": 51.959099, "longitude": 5.7572647, "bronId": "L036545"}}, {"type": "Feature", "geometry": {"type": "Point", "coordinates": [5.7567369, 51.9583349]}, "properties": {"type": "inleverpunt", "locatieNaam": "Digitaal Knooppunt", "straatNaam": "Flessestraat", "straatNr": "36", "postcode": "6666 CR", "plaats": "HETEREN", "merk": "Stibat", "puntType": "inzamelbak", "materialen": ["batterijen"], "uitbetaling": [], "vrijToegankelijk": false, "gemeenteBeperking": null, "openingstijden": null, "latitude": 51.9583349, "longitude": 5.7567369, "bronId": "L025833"}}, {"type": "Feature", "geometry": {"type": "Point", "coordinates": [5.7185217, 51.9133932]}, "properties": {"type": "inleverpunt", "locatieNaam": "Milieustraat Andelst", "straatNaam": "Engelandstraat", "straatNr": "4", "postcode": "6673 DJ", "plaats": "ANDELST", "merk": "Stibat", "puntType": "inzamelbak", "materialen": ["batterijen"], "uitbetaling": [], "vrijToegankelijk": false, "gemeenteBeperking": null, "openingstijden": null, "latitude": 51.9133932, "longitude": 5.7185217, "bronId": "L035821"}}, {"type": "Feature", "geometry": {"type": "Point", "coordinates": [5.7582037, 51.9438949]}, "properties": {"type": "inleverpunt", "locatieNaam": "Distributiecentrum A.S. Watson Benelux / Kruidvat", "straatNaam": "Muskushouwsestraat", "straatNr": "7", "postcode": "6666 MA", "plaats": "HETEREN", "merk": "Stibat", "puntType": "inzamelbak", "materialen": ["batterijen"], "uitbetaling": [], "vrijToegankelijk": false, "gemeenteBeperking": null, "openingstijden": null, "latitude": 51.9438949, "longitude": 5.7582037, "bronId": "L038595"}}, {"type": "Feature", "geometry": {"type": "Point", "coordinates": [5.7762314, 51.9485413]}, "properties": {"type": "inleverpunt", "locatieNaam": "De Overbetuwe", "straatNaam": "Uilenburgsestraat", "straatNr": "3", "postcode": "6666 LA", "plaats": "HETEREN", "merk": "Stibat", "puntType": "inzamelbak", "materialen": ["batterijen"], "uitbetaling": [], "vrijToegankelijk": false, "gemeenteBeperking": null, "openingstijden": null, "latitude": 51.9485413, "longitude": 5.7762314, "bronId": "L008644"}}, {"type": "Feature", "geometry": {"type": "Point", "coordinates": [5.737745, 51.9091718]}, "properties": {"type": "inleverpunt", "locatieNaam": "PLUS", "straatNaam": "Het Dorpsplein", "straatNr": "8", "postcode": "6674 BW", "plaats": "HERVELD", "merk": "Stibat", "puntType": "inzamelbak", "materialen": ["batterijen"], "uitbetaling": [], "vrijToegankelijk": false, "gemeenteBeperking": null, "openingstijden": null, "latitude": 51.9091718, "longitude": 5.737745, "bronId": "L035122"}}, {"type": "Feature", "geometry": {"type": "Point", "coordinates": [5.8133737, 51.9609508]}, "properties": {"type": "inleverpunt", "locatieNaam": "8521 Albert Heijn", "straatNaam": "Polenplein", "straatNr": "24a", "postcode": "6665 CN", "plaats": "DRIEL", "merk": "Stibat", "puntType": "inzamelbak", "materialen": ["batterijen"], "uitbetaling": [], "vrijToegankelijk": false, "gemeenteBeperking": null, "openingstijden": null, "latitude": 51.9609508, "longitude": 5.8133737, "bronId": "L007282"}}, {"type": "Feature", "geometry": {"type": "Point", "coordinates": [5.7919776, 51.9108055]}, "properties": {"type": "inleverpunt", "locatieNaam": "Buurt.Valburg", "straatNaam": "Tielsestraat", "straatNr": "35", "postcode": "6675 AB", "plaats": "VALBURG", "merk": "Stibat", "puntType": "inzamelbak", "materialen": ["batterijen"], "uitbetaling": [], "vrijToegankelijk": false, "gemeenteBeperking": null, "openingstijden": null, "latitude": 51.9108055, "longitude": 5.7919776, "bronId": "L042656"}}, {"type": "Feature", "geometry": {"type": "Point", "coordinates": [5.8438252, 51.9274558]}, "properties": {"type": "inleverpunt", "locatieNaam": "Gemeentewerf Elst", "straatNaam": "Korte Helster", "straatNr": "1", "postcode": "6661 AE", "plaats": "ELST", "merk": "Stibat", "puntType": "inzamelbak", "materialen": ["batterijen"], "uitbetaling": [], "vrijToegankelijk": false, "gemeenteBeperking": null, "openingstijden": null, "latitude": 51.9274558, "longitude": 5.8438252, "bronId": "L035820"}}, {"type": "Feature", "geometry": {"type": "Point", "coordinates": [5.8389424, 51.9193427]}, "properties": {"type": "inleverpunt", "locatieNaam": "8770 Albert Heijn", "straatNaam": "Valburgseweg", "straatNr": "20", "postcode": "6661 EV", "plaats": "ELST GLD", "merk": "Stibat", "puntType": "inzamelbak", "materialen": ["batterijen"], "uitbetaling": [], "vrijToegankelijk": false, "gemeenteBeperking": null, "openingstijden": null, "latitude": 51.9193427, "longitude": 5.8389424, "bronId": "L007602"}}, {"type": "Feature", "geometry": {"type": "Point", "coordinates": [5.8396716, 51.9193143]}, "properties": {"type": "inleverpunt", "locatieNaam": "Beter Horen", "straatNaam": "Valburgseweg", "straatNr": "18A", "postcode": "6661 EV", "plaats": "ELST GLD", "merk": "Stibat", "puntType": "inzamelbak", "materialen": ["batterijen"], "uitbetaling": [], "vrijToegankelijk": false, "gemeenteBeperking": null, "openingstijden": null, "latitude": 51.9193143, "longitude": 5.8396716, "bronId": "L030814"}}, {"type": "Feature", "geometry": {"type": "Point", "coordinates": [5.8400821, 51.9192867]}, "properties": {"type": "inleverpunt", "locatieNaam": "1284 Action", "straatNaam": "Valburgseweg", "straatNr": "16", "postcode": "6661 EV", "plaats": "ELST GLD", "merk": "Stibat", "puntType": "inzamelbak", "materialen": ["batterijen"], "uitbetaling": [], "vrijToegankelijk": false, "gemeenteBeperking": null, "openingstijden": null, "latitude": 51.9192867, "longitude": 5.8400821, "bronId": "L031176"}}, {"type": "Feature", "geometry": {"type": "Point", "coordinates": [5.8402877, 51.9190277]}, "properties": {"type": "inleverpunt", "locatieNaam": "van Dam Tweewielers B.V", "straatNaam": "Valburgseweg", "straatNr": "11", "postcode": "6661 ER", "plaats": "ELST GLD", "merk": "Stibat", "puntType": "inzamelbak", "materialen": ["batterijen"], "uitbetaling": [], "vrijToegankelijk": false, "gemeenteBeperking": null, "openingstijden": null, "latitude": 51.9190277, "longitude": 5.8402877, "bronId": "L049253"}}, {"type": "Feature", "geometry": {"type": "Point", "coordinates": [5.8407931, 51.9192721]}, "properties": {"type": "inleverpunt", "locatieNaam": "Enorm IJzerhandel Janssen", "straatNaam": "Valburgseweg", "straatNr": "6", "postcode": "6661 EV", "plaats": "ELST", "merk": "Stibat", "puntType": "inzamelbak", "materialen": ["batterijen"], "uitbetaling": [], "vrijToegankelijk": false, "gemeenteBeperking": null, "openingstijden": null, "latitude": 51.9192721, "longitude": 5.8407931, "bronId": "L017494"}}, {"type": "Feature", "geometry": {"type": "Point", "coordinates": [5.841986, 51.919168]}, "properties": {"type": "inleverpunt", "locatieNaam": "Hans Anders", "straatNaam": "Dorpsstraat", "straatNr": "88", "postcode": "6661 EP", "plaats": "ELST GLD", "merk": "Stibat", "puntType": "inzamelbak", "materialen": ["batterijen"], "uitbetaling": [], "vrijToegankelijk": false, "gemeenteBeperking": null, "openingstijden": null, "latitude": 51.919168, "longitude": 5.841986, "bronId": "L037801"}}, {"type": "Feature", "geometry": {"type": "Point", "coordinates": [5.8425828, 51.9185352]}, "properties": {"type": "inleverpunt", "locatieNaam": "Intertoys", "straatNaam": "Werenfriedplein", "straatNr": "9", "postcode": "6661 EJ", "plaats": "ELST GLD", "merk": "Stibat", "puntType": "inzamelbak", "materialen": ["batterijen"], "uitbetaling": [], "vrijToegankelijk": false, "gemeenteBeperking": null, "openingstijden": null, "latitude": 51.9185352, "longitude": 5.8425828, "bronId": "L007523"}}, {"type": "Feature", "geometry": {"type": "Point", "coordinates": [5.8441239, 51.9195418]}, "properties": {"type": "inleverpunt", "locatieNaam": "Orbit Elst", "straatNaam": "Kleine Molenstraat", "straatNr": "8d", "postcode": "6661 ED", "plaats": "ELST GLD", "merk": "Stibat", "puntType": "inzamelbak", "materialen": ["batterijen"], "uitbetaling": [], "vrijToegankelijk": false, "gemeenteBeperking": null, "openingstijden": null, "latitude": 51.9195418, "longitude": 5.8441239, "bronId": "L040489"}}, {"type": "Feature", "geometry": {"type": "Point", "coordinates": [5.8435708, 51.9188758]}, "properties": {"type": "inleverpunt", "locatieNaam": "6146 Etos", "straatNaam": "Dorpsstraat", "straatNr": "64", "postcode": "6661 EN", "plaats": "ELST", "merk": "Stibat", "puntType": "inzamelbak", "materialen": ["batterijen"], "uitbetaling": [], "vrijToegankelijk": false, "gemeenteBeperking": null, "openingstijden": null, "latitude": 51.9188758, "longitude": 5.8435708, "bronId": "L022315"}}, {"type": "Feature", "geometry": {"type": "Point", "coordinates": [5.8436145, 51.9186217]}, "properties": {"type": "inleverpunt", "locatieNaam": "DA", "straatNaam": "Dorpsstraat", "straatNr": "79-81", "postcode": "6661 EJ", "plaats": "Elst", "merk": "Stibat", "puntType": "inzamelbak", "materialen": ["batterijen"], "uitbetaling": [], "vrijToegankelijk": false, "gemeenteBeperking": null, "openingstijden": null, "latitude": 51.9186217, "longitude": 5.8436145, "bronId": "L025096"}}, {"type": "Feature", "geometry": {"type": "Point", "coordinates": [5.8427378, 51.9173805]}, "properties": {"type": "inleverpunt", "locatieNaam": "Jumbo", "straatNaam": "Europaplein", "straatNr": "22", "postcode": "6662 DD", "plaats": "ELST GLD", "merk": "Stibat", "puntType": "inzamelbak", "materialen": ["batterijen"], "uitbetaling": [], "vrijToegankelijk": false, "gemeenteBeperking": null, "openingstijden": null, "latitude": 51.9173805, "longitude": 5.8427378, "bronId": "L035407"}}, {"type": "Feature", "geometry": {"type": "Point", "coordinates": [5.8438344, 51.9180054]}, "properties": {"type": "inleverpunt", "locatieNaam": "Aldi", "straatNaam": "Europaplein", "straatNr": "2-4", "postcode": "6662 DD", "plaats": "Elst", "merk": "Stibat", "puntType": "inzamelbak", "materialen": ["batterijen"], "uitbetaling": [], "vrijToegankelijk": false, "gemeenteBeperking": null, "openingstijden": null, "latitude": 51.9180054, "longitude": 5.8438344, "bronId": "L041429"}}, {"type": "Feature", "geometry": {"type": "Point", "coordinates": [5.8437903, 51.9178396]}, "properties": {"type": "inleverpunt", "locatieNaam": "Mantel Tweewielers", "straatNaam": "Halve Morgen", "straatNr": "44", "postcode": "6662 DG", "plaats": "ELST GLD", "merk": "Stibat", "puntType": "inzamelbak", "materialen": ["batterijen"], "uitbetaling": [], "vrijToegankelijk": false, "gemeenteBeperking": null, "openingstijden": null, "latitude": 51.9178396, "longitude": 5.8437903, "bronId": "L033779"}}, {"type": "Feature", "geometry": {"type": "Point", "coordinates": [5.8460324, 51.9187511]}, "properties": {"type": "inleverpunt", "locatieNaam": "Kruidvat", "straatNaam": "Dorpsstraat", "straatNr": "42", "postcode": "6661 EL", "plaats": "ELST", "merk": "Stibat", "puntType": "inzamelbak", "materialen": ["batterijen"], "uitbetaling": [], "vrijToegankelijk": false, "gemeenteBeperking": null, "openingstijden": null, "latitude": 51.9187511, "longitude": 5.8460324, "bronId": "L016413"}}, {"type": "Feature", "geometry": {"type": "Point", "coordinates": [5.8475426, 51.9192156]}, "properties": {"type": "inleverpunt", "locatieNaam": "Primera", "straatNaam": "Dorpsstraat", "straatNr": "32", "postcode": "6661 EL", "plaats": "ELST", "merk": "Stibat", "puntType": "inzamelbak", "materialen": ["batterijen"], "uitbetaling": [], "vrijToegankelijk": false, "gemeenteBeperking": null, "openingstijden": null, "latitude": 51.9192156, "longitude": 5.8475426, "bronId": "L023898"}}, {"type": "Feature", "geometry": {"type": "Point", "coordinates": [5.8472018, 51.9186945]}, "properties": {"type": "inleverpunt", "locatieNaam": "HEMA Elst", "straatNaam": "Dorpstraat", "straatNr": "45", "postcode": "6661 EG", "plaats": "Elst", "merk": "Stibat", "puntType": "inzamelbak", "materialen": ["batterijen"], "uitbetaling": [], "vrijToegankelijk": false, "gemeenteBeperking": null, "openingstijden": null, "latitude": 51.9186945, "longitude": 5.8472018, "bronId": "L046806"}}, {"type": "Feature", "geometry": {"type": "Point", "coordinates": [5.8471842, 51.9186665]}, "properties": {"type": "inleverpunt", "locatieNaam": "Walt-Bikes", "straatNaam": "Dorpsstraat", "straatNr": "49d", "postcode": "6661 EG", "plaats": "ELST GLD", "merk": "Stibat", "puntType": "inzamelbak", "materialen": ["batterijen"], "uitbetaling": [], "vrijToegankelijk": false, "gemeenteBeperking": null, "openingstijden": null, "latitude": 51.9186665, "longitude": 5.8471842, "bronId": "L032439"}}, {"type": "Feature", "geometry": {"type": "Point", "coordinates": [5.8478643, 51.918444]}, "properties": {"type": "inleverpunt", "locatieNaam": "Bruna", "straatNaam": "Dorpsstraat", "straatNr": "33-37", "postcode": "6661 EG", "plaats": "ELST", "merk": "Stibat", "puntType": "inzamelbak", "materialen": ["batterijen"], "uitbetaling": [], "vrijToegankelijk": false, "gemeenteBeperking": null, "openingstijden": null, "latitude": 51.918444, "longitude": 5.8478643, "bronId": "L022158"}}, {"type": "Feature", "geometry": {"type": "Point", "coordinates": [5.8492505, 51.9191617]}, "properties": {"type": "inleverpunt", "locatieNaam": "Expert", "straatNaam": "Dorpsstraat", "straatNr": "7", "postcode": "6661 EE", "plaats": "ELST GLD", "merk": "Stibat", "puntType": "inzamelbak", "materialen": ["batterijen"], "uitbetaling": [], "vrijToegankelijk": false, "gemeenteBeperking": null, "openingstijden": null, "latitude": 51.9191617, "longitude": 5.8492505, "bronId": "L010976"}}, {"type": "Feature", "geometry": {"type": "Point", "coordinates": [5.8498895, 51.9191192]}, "properties": {"type": "inleverpunt", "locatieNaam": "Zeeman", "straatNaam": "Dorpsstraat", "straatNr": "2", "postcode": "6661 EK", "plaats": "Elst", "merk": "Stibat", "puntType": "inzamelbak", "materialen": ["batterijen"], "uitbetaling": [], "vrijToegankelijk": false, "gemeenteBeperking": null, "openingstijden": null, "latitude": 51.9191192, "longitude": 5.8498895, "bronId": "L021997"}}, {"type": "Feature", "geometry": {"type": "Point", "coordinates": [5.8077648, 51.8756552]}, "properties": {"type": "inleverpunt", "locatieNaam": "Camping \"De Grote Altena\"", "straatNaam": "Waaldijk", "straatNr": "39", "postcode": "6678 MC", "plaats": "OOSTERHOUT GLD", "merk": "Stibat", "puntType": "inzamelbak", "materialen": ["batterijen"], "uitbetaling": [], "vrijToegankelijk": false, "gemeenteBeperking": null, "openingstijden": null, "latitude": 51.8756552, "longitude": 5.8077648, "bronId": "L011890"}}, {"type": "Feature", "geometry": {"type": "Point", "coordinates": [5.8286316, 51.8911941]}, "properties": {"type": "inleverpunt", "locatieNaam": "Lidl DC Oosterhout", "straatNaam": "Rietgraaf", "straatNr": "1", "postcode": "6678 PJ", "plaats": "OOSTERHOUT", "merk": "Stibat", "puntType": "inzamelbak", "materialen": ["batterijen"], "uitbetaling": [], "vrijToegankelijk": false, "gemeenteBeperking": null, "openingstijden": null, "latitude": 51.8911941, "longitude": 5.8286316, "bronId": "L043370"}}, {"type": "Feature", "geometry": {"type": "Point", "coordinates": [5.8616482, 51.9220539]}, "properties": {"type": "inleverpunt", "locatieNaam": "Jumbo", "straatNaam": "Basilica", "straatNr": "19", "postcode": "6661 TT", "plaats": "ELST GLD", "merk": "Stibat", "puntType": "inzamelbak", "materialen": ["batterijen"], "uitbetaling": [], "vrijToegankelijk": false, "gemeenteBeperking": null, "openingstijden": null, "latitude": 51.9220539, "longitude": 5.8616482, "bronId": "L035351"}}, {"type": "Feature", "geometry": {"type": "Point", "coordinates": [5.8611736, 51.9160996]}, "properties": {"type": "inleverpunt", "locatieNaam": "Gamma", "straatNaam": "Industrieweg Oost", "straatNr": "2 C", "postcode": "6662 NE", "plaats": "ELST GLD", "merk": "Stibat", "puntType": "inzamelbak", "materialen": ["batterijen"], "uitbetaling": [], "vrijToegankelijk": false, "gemeenteBeperking": null, "openingstijden": null, "latitude": 51.9160996, "longitude": 5.8611736, "bronId": "L022645"}}, {"type": "Feature", "geometry": {"type": "Point", "coordinates": [5.8630549, 51.9158429]}, "properties": {"type": "inleverpunt", "locatieNaam": "2Switch", "straatNaam": "Nieuwe Aamsestraat", "straatNr": "42", "postcode": "6662 NJ", "plaats": "ELST GLD", "merk": "Stibat", "puntType": "inzamelbak", "materialen": ["batterijen"], "uitbetaling": [], "vrijToegankelijk": false, "gemeenteBeperking": null, "openingstijden": null, "latitude": 51.9158429, "longitude": 5.8630549, "bronId": "L041045"}}, {"type": "Feature", "geometry": {"type": "Point", "coordinates": [5.8336529, 51.885174]}, "properties": {"type": "inleverpunt", "locatieNaam": "Lidl", "straatNaam": "Stationsstraat", "straatNr": "19", "postcode": "6678 AA", "plaats": "OOSTERHOUT GLD", "merk": "Stibat", "puntType": "inzamelbak", "materialen": ["batterijen"], "uitbetaling": [], "vrijToegankelijk": false, "gemeenteBeperking": null, "openingstijden": null, "latitude": 51.885174, "longitude": 5.8336529, "bronId": "L035225"}}, {"type": "Feature", "geometry": {"type": "Point", "coordinates": [5.8635274, 51.9064312]}, "properties": {"type": "inleverpunt", "locatieNaam": "Burghouwt", "straatNaam": "Bemmelseweg", "straatNr": "69", "postcode": "6662 PE", "plaats": "ELST GLD", "merk": "Stibat", "puntType": "inzamelbak", "materialen": ["batterijen"], "uitbetaling": [], "vrijToegankelijk": false, "gemeenteBeperking": null, "openingstijden": null, "latitude": 51.9064312, "longitude": 5.8635274, "bronId": "L032055"}}, {"type": "Feature", "geometry": {"type": "Point", "coordinates": [5.8698297, 51.9131864]}, "properties": {"type": "inleverpunt", "locatieNaam": "Toolstation", "straatNaam": "Archimedesweg", "straatNr": "5", "postcode": "6662 PS", "plaats": "ELST GLD", "merk": "Stibat", "puntType": "inzamelbak", "materialen": ["batterijen"], "uitbetaling": [], "vrijToegankelijk": false, "gemeenteBeperking": null, "openingstijden": null, "latitude": 51.9131864, "longitude": 5.8698297, "bronId": "L045875"}}, {"type": "Feature", "geometry": {"type": "Point", "coordinates": [5.8649828, 51.9070007]}, "properties": {"type": "inleverpunt", "locatieNaam": "Welkoop", "straatNaam": "Einsteinweg", "straatNr": "10", "postcode": "6662 PW", "plaats": "ELST GLD", "merk": "Stibat", "puntType": "inzamelbak", "materialen": ["batterijen"], "uitbetaling": [], "vrijToegankelijk": false, "gemeenteBeperking": null, "openingstijden": null, "latitude": 51.9070007, "longitude": 5.8649828, "bronId": "L018908"}}, {"type": "Feature", "geometry": {"type": "Point", "coordinates": [5.8719635, 51.9133629]}, "properties": {"type": "inleverpunt", "locatieNaam": "Intratuin", "straatNaam": "Nieuwe Aamsestraat", "straatNr": "94", "postcode": "6662 NK", "plaats": "ELST GLD", "merk": "Stibat", "puntType": "inzamelbak", "materialen": ["batterijen"], "uitbetaling": [], "vrijToegankelijk": false, "gemeenteBeperking": null, "openingstijden": null, "latitude": 51.9133629, "longitude": 5.8719635, "bronId": "L024542"}}, {"type": "Feature", "geometry": {"type": "Point", "coordinates": [5.8664847, 51.9049729]}, "properties": {"type": "inleverpunt", "locatieNaam": "Vooruit Elst B.V.", "straatNaam": "Marithaime", "straatNr": "5", "postcode": "6662 WD", "plaats": "ELST GLD", "merk": "Stibat", "puntType": "inzamelbak", "materialen": ["batterijen"], "uitbetaling": [], "vrijToegankelijk": false, "gemeenteBeperking": null, "openingstijden": null, "latitude": 51.9049729, "longitude": 5.8664847, "bronId": "L031027"}}, {"type": "Feature", "geometry": {"type": "Polygon", "coordinates": [[[5.720498002040053, 51.88878700383562], [5.726164002045688, 51.88715000383446], [5.730983002050492, 51.88613400383371], [5.74496800206449, 51.88453800383242], [5.751792002071306, 51.88341000383155], [5.7698790020893345, 51.87919500382847], [5.780011002099462, 51.87778500382732], [5.789681002109144, 51.87690400382655], [5.800485002119945, 51.87535600382533], [5.81031400212973, 51.87277300382345], [5.817075002136437, 51.870265003821714], [5.821191002140617, 51.87156100382239], [5.824079002143561, 51.872970003823276], [5.826369002145852, 51.87269800382303], [5.82727300214678, 51.87337700382342], [5.828068002147582, 51.873410003823466], [5.828997002148481, 51.87239500382277], [5.831611002151099, 51.872232003822546], [5.835154002154833, 51.87761900382594], [5.832813002152509, 51.87843500382651], [5.837788002157668, 51.88343400382952], [5.836653002156536, 51.883732003829735], [5.835877002155832, 51.88599700383124], [5.836151002156158, 51.887596003832236], [5.835496002155546, 51.888980003833126], [5.834106002154199, 51.89051300383412], [5.830198002150317, 51.891726003835], [5.830241002150431, 51.89385700383636], [5.838308002158521, 51.89369400383604], [5.856436002176747, 51.89455200383615], [5.8571240021774384, 51.89462100383615], [5.856874002177266, 51.89701200383763], [5.871274002191722, 51.897133003837425], [5.87473800219521, 51.89757100383757], [5.874683002195205, 51.899206003838614], [5.875868002196421, 51.899987003839094], [5.875421002196038, 51.90208400384044], [5.8721420021927475, 51.902005003840465], [5.8731350021938145, 51.904213003841804], [5.873664002194477, 51.90845200384448], [5.8771510021979685, 51.90812700384422], [5.885173002206017, 51.90815600384402], [5.891199002212037, 51.90726400384329], [5.892032002212974, 51.9105210038453], [5.893691002214713, 51.912930003846796], [5.894562002215656, 51.9150580038481], [5.893058002214183, 51.91618600384887], [5.896997002218278, 51.92081000385169], [5.889522002210923, 51.92526500385472], [5.898034002219744, 51.934326003860136], [5.892674002214415, 51.93573200386118], [5.887769002209507, 51.93613500386153], [5.884641002206417, 51.93749100386251], [5.877861002199657, 51.938834003863505], [5.876190002198023, 51.940199003864414], [5.874755002196604, 51.94078600386483], [5.868500002190374, 51.94218400386588], [5.862243002184123, 51.94289000386645], [5.861935002183802, 51.9425040038662], [5.8503940021722896, 51.94451000386779], [5.8496800021715245, 51.942944003866806], [5.838900002160756, 51.94430500386793], [5.837307002159151, 51.94415900386788], [5.837304002159179, 51.9451770038685], [5.829928002151788, 51.94523700386875], [5.828655002150608, 51.94825900387066], [5.8287710021507815, 51.95004000387177], [5.830507002152626, 51.95326600387375], [5.829912002152035, 51.95343200387387], [5.830081002152219, 51.95385300387406], [5.83128200215348, 51.95554800387516], [5.831345002153639, 51.958536003877036], [5.830197002152487, 51.95862400387711], [5.829339002151701, 51.960848003878546], [5.834007002156441, 51.96271500387959], [5.835181002157669, 51.964169003880485], [5.835979002158539, 51.96633100388181], [5.83584600215847, 51.968397003883105], [5.835177002157814, 51.96886000388342], [5.835382002158085, 51.97084900388469], [5.836198002158905, 51.97088700388467], [5.835343002158133, 51.97355900388636], [5.830358002153136, 51.973617003886496], [5.825430002148183, 51.973231003886376], [5.817918002140604, 51.971772003885626], [5.786773002108986, 51.96015900387913], [5.782351002104515, 51.95915400387859], [5.777611002099759, 51.95912700387869], [5.772151002094317, 51.960163003879465], [5.761901002084145, 51.96353100388179], [5.747876002070276, 51.96960900388591], [5.744892002067306, 51.970222003886356], [5.743187002065597, 51.97023500388644], [5.7399170020623025, 51.96987400388624], [5.7307730020530645, 51.96796900388529], [5.728450002050707, 51.96714200388482], [5.723608002045747, 51.96422500388306], [5.7174640020395495, 51.96323800388256], [5.709476002031524, 51.96303100388262], [5.700910002022896, 51.96201300388218], [5.679827002001618, 51.95867100388054], [5.674816001996523, 51.95679500387945], [5.669501001991081, 51.95373300387761], [5.665989001987523, 51.95279900387711], [5.657348001978691, 51.94832600387448], [5.6548010019760735, 51.946544003873434], [5.651716001973026, 51.94803000387441], [5.650452001971738, 51.9474710038741], [5.648284001969457, 51.94446900387225], [5.647607001968782, 51.94462400387236], [5.646329001967373, 51.94107800387015], [5.647023001968044, 51.9403280038697], [5.650616001971719, 51.94226200387083], [5.6527280019738555, 51.94268400387104], [5.653183001974326, 51.94302600387125], [5.654345001975432, 51.9414110038702], [5.661144001982338, 51.943607003871456], [5.663138001984238, 51.94071200386959], [5.665723001986859, 51.94140500386996], [5.667759001988814, 51.93889200386837], [5.659619001980578, 51.937082003867374], [5.660482001981333, 51.93388300386537], [5.659948001980787, 51.93358300386518], [5.660351001981053, 51.92961200386266], [5.664218001984955, 51.93021200386298], [5.670932001991713, 51.93054500386305], [5.688778002009791, 51.93514100386555], [5.6920980020131005, 51.93450200386509], [5.693031002014043, 51.93464800386517], [5.69632200201723, 51.93125100386295], [5.694580002015484, 51.93135000386303], [5.689927002010852, 51.93250600386385], [5.684454002005262, 51.92980000386229], [5.682187002002967, 51.929282003862], [5.678435001999197, 51.92910500386194], [5.6784100019991355, 51.928048003861306], [5.6758100019964575, 51.926153003860165], [5.67763100199822, 51.924288003858926], [5.675767001996314, 51.92329500385839], [5.677068001997582, 51.92220600385767], [5.677092001997591, 51.92175400385737], [5.676009001996481, 51.92111500385699], [5.67748200199795, 51.9207380038567], [5.681211002001609, 51.91832000385513], [5.684808002005256, 51.91933200385566], [5.692803002013334, 51.92071100385639], [5.694854002015415, 51.92137300385673], [5.696278002016828, 51.92085200385639], [5.692195002012642, 51.91839500385496], [5.695205002015622, 51.91713800385407], [5.696845002017205, 51.91528500385289], [5.699790002020126, 51.91425400385216], [5.705938002026095, 51.9082230038482], [5.706411002026503, 51.90633700384703], [5.7053180020253285, 51.90403600384557], [5.706568002026572, 51.90369700384536], [5.707597002027576, 51.90285100384476], [5.708143002028069, 51.90124900384375], [5.706438002026277, 51.89890900384233], [5.706358002026164, 51.89798900384177], [5.706638002026433, 51.89767100384156], [5.708297002028112, 51.89797600384174], [5.709545002029362, 51.8978540038416], [5.711003002030787, 51.89677400384089], [5.7066590020263055, 51.89329200383875], [5.712124002031743, 51.891761003837686], [5.720498002040053, 51.88878700383562]]]}, "properties": {"type": "boundary", "gemeente": "Overbetuwe"}}]}