{"type": "FeatureCollection", "metadata": {"gemeente": "Papendrecht", "slug": "papendrecht", "generated_at": "2026-07-28T10:02:02.095237Z", "total_points": 54, "merken": ["StatiegeldNederland", "Stibat", "StichtingOPEN"], "bounds": [4.6814236, 51.8249685, 4.7313782, 51.8460472]}, "features": [{"type": "Feature", "geometry": {"type": "Point", "coordinates": [4.7019672, 51.8361999]}, "properties": {"type": "inleverpunt", "locatieNaam": "Albert Heijn", "straatNaam": "Espenhof", "straatNr": "20", "postcode": "3355 BM", "plaats": "Papendrecht", "merk": "StatiegeldNederland", "puntType": "automaat", "materialen": ["pet-groot", "pet-klein", "blik", "glas", "krat"], "uitbetaling": ["bonnetje", "donatie"], "vrijToegankelijk": true, "gemeenteBeperking": null, "openingstijden": {"ma": "08:00–22:00", "di": "08:00–22:00", "wo": "08:00–22:00", "do": "08:00–22:00", "vr": "08:00–22:00", "za": "08:00–22:00", "zo": "12:00–16:00"}, "latitude": 51.8361999, "longitude": 4.7019672, "bronId": "252212"}}, {"type": "Feature", "geometry": {"type": "Point", "coordinates": [4.7313782, 51.8330528]}, "properties": {"type": "inleverpunt", "locatieNaam": "Boon‘s Markt", "straatNaam": "Markt van Matena", "straatNr": "18", "postcode": "3356 DL", "plaats": "Papendrecht", "merk": "StatiegeldNederland", "puntType": "automaat", "materialen": ["pet-groot", "pet-klein", "blik", "glas", "krat"], "uitbetaling": ["bonnetje", "donatie"], "vrijToegankelijk": true, "gemeenteBeperking": null, "openingstijden": {"ma": "08:00–20:00", "di": "08:00–20:00", "wo": "08:00–20:00", "do": "08:00–20:00", "vr": "08:00–20:00", "za": "08:00–20:00", "zo": "Gesloten"}, "latitude": 51.8330528, "longitude": 4.7313782, "bronId": "253865"}}, {"type": "Feature", "geometry": {"type": "Point", "coordinates": [4.6846098, 51.8258304]}, "properties": {"type": "inleverpunt", "locatieNaam": "Dirk", "straatNaam": "De Meentpassage", "straatNr": "14", "postcode": "3353 HH", "plaats": "Papendrecht", "merk": "StatiegeldNederland", "puntType": "automaat", "materialen": ["pet-groot", "pet-klein", "blik", "glas", "krat"], "uitbetaling": ["bonnetje", "donatie"], "vrijToegankelijk": true, "gemeenteBeperking": null, "openingstijden": {"ma": "08:00–21:00", "di": "08:00–21:00", "wo": "08:00–21:00", "do": "08:00–21:00", "vr": "08:00–21:00", "za": "08:00–20:00", "zo": "12:00–16:00"}, "latitude": 51.8258304, "longitude": 4.6846098, "bronId": "254459"}}, {"type": "Feature", "geometry": {"type": "Point", "coordinates": [4.684962, 51.83679]}, "properties": {"type": "inleverpunt", "locatieNaam": "Jumbo", "straatNaam": "Jan van Goijenstraat", "straatNr": "5", "postcode": "3351 JM", "plaats": "Papendrecht", "merk": "StatiegeldNederland", "puntType": "automaat", "materialen": ["pet-groot", "pet-klein", "blik", "glas", "krat"], "uitbetaling": ["bonnetje", "donatie"], "vrijToegankelijk": true, "gemeenteBeperking": null, "openingstijden": {"ma": "08:00–21:00", "di": "08:00–21:00", "wo": "08:00–21:00", "do": "08:00–21:00", "vr": "08:00–21:00", "za": "08:00–21:00", "zo": "12:00–16:00"}, "latitude": 51.83679, "longitude": 4.684962, "bronId": "255452"}}, {"type": "Feature", "geometry": {"type": "Point", "coordinates": [4.684061, 51.826161]}, "properties": {"type": "inleverpunt", "locatieNaam": "Jumbo", "straatNaam": "Meent Passage", "straatNr": "4", "postcode": "3353 HH", "plaats": "Papendrecht", "merk": "StatiegeldNederland", "puntType": "automaat", "materialen": ["pet-groot", "pet-klein", "blik", "glas", "krat"], "uitbetaling": ["bonnetje", "donatie"], "vrijToegankelijk": true, "gemeenteBeperking": null, "openingstijden": {"ma": "08:00–21:00", "di": "08:00–21:00", "wo": "08:00–21:00", "do": "08:00–21:00", "vr": "08:00–21:00", "za": "08:00–21:00", "zo": "12:00–16:00"}, "latitude": 51.826161, "longitude": 4.684061, "bronId": "255574"}}, {"type": "Feature", "geometry": {"type": "Point", "coordinates": [4.6857939, 51.8254343]}, "properties": {"type": "inleverpunt", "locatieNaam": "Lidl", "straatNaam": "Overtoompassage", "straatNr": "1", "postcode": "3353 HE", "plaats": "Papendrecht", "merk": "StatiegeldNederland", "puntType": "automaat", "materialen": ["pet-groot", "pet-klein", "blik", "glas", "krat"], "uitbetaling": ["bonnetje", "donatie"], "vrijToegankelijk": true, "gemeenteBeperking": null, "openingstijden": {"ma": "08:00–21:00", "di": "08:00–21:00", "wo": "08:00–21:00", "do": "08:00–21:00", "vr": "08:00–21:00", "za": "08:00–20:00", "zo": "12:00–16:00"}, "latitude": 51.8254343, "longitude": 4.6857939, "bronId": "256325"}}, {"type": "Feature", "geometry": {"type": "Point", "coordinates": [4.6904024, 51.8358975]}, "properties": {"type": "inleverpunt", "locatieNaam": "Markies 6461 Lage Waard Keij", "straatNaam": "Burg. Keijzerweg", "straatNr": "5", "postcode": "3351 JA", "plaats": "Papendrecht", "merk": "StatiegeldNederland", "puntType": "balie", "materialen": ["pet-groot", "pet-klein", "blik"], "uitbetaling": [], "vrijToegankelijk": true, "gemeenteBeperking": null, "openingstijden": {"ma": "07:30–17:00", "di": "07:30–17:00", "wo": "07:30–17:00", "do": "07:30–17:00", "vr": "07:30–17:00", "za": "Gesloten", "zo": "Gesloten"}, "latitude": 51.8358975, "longitude": 4.6904024, "bronId": "256574"}}, {"type": "Feature", "geometry": {"type": "Point", "coordinates": [4.6843344, 51.8328625]}, "properties": {"type": "inleverpunt", "locatieNaam": "Markies 60075 Willem De Zwij", "straatNaam": "Van der Palmstraat", "straatNr": "2", "postcode": "3351 HA", "plaats": "Papendrecht", "merk": "StatiegeldNederland", "puntType": "balie", "materialen": ["pet-groot", "pet-klein", "blik"], "uitbetaling": [], "vrijToegankelijk": true, "gemeenteBeperking": null, "openingstijden": {"ma": "08:00–18:00", "di": "08:00–18:00", "wo": "08:00–18:00", "do": "08:00–18:00", "vr": "08:00–18:00", "za": "Gesloten", "zo": "Gesloten"}, "latitude": 51.8328625, "longitude": 4.6843344, "bronId": "256651"}}, {"type": "Feature", "geometry": {"type": "Point", "coordinates": [4.689647, 51.83262]}, "properties": {"type": "inleverpunt", "locatieNaam": "Shell", "straatNaam": "Veerweg", "straatNr": "152", "postcode": "3353 GW", "plaats": "Papendrecht", "merk": "StatiegeldNederland", "puntType": "balie", "materialen": ["pet-groot", "pet-klein", "blik"], "uitbetaling": [], "vrijToegankelijk": true, "gemeenteBeperking": null, "openingstijden": {"ma": "24 uur geopend", "di": "24 uur geopend", "wo": "24 uur geopend", "do": "24 uur geopend", "vr": "24 uur geopend", "za": "24 uur geopend", "zo": "24 uur geopend"}, "latitude": 51.83262, "longitude": 4.689647, "bronId": "258242"}}, {"type": "Feature", "geometry": {"type": "Point", "coordinates": [4.694125, 51.8249685]}, "properties": {"type": "inleverpunt", "locatieNaam": "ViaTim", "straatNaam": "Dijkstraat", "straatNr": "27", "postcode": "3353 GJ", "plaats": "Papendrecht", "merk": "StatiegeldNederland", "puntType": "balie", "materialen": ["pet-groot", "pet-klein", "blik"], "uitbetaling": ["tikkie"], "vrijToegankelijk": true, "gemeenteBeperking": null, "openingstijden": null, "latitude": 51.8249685, "longitude": 4.694125, "bronId": "259269"}}, {"type": "Feature", "geometry": {"type": "Point", "coordinates": [4.6926531, 51.8315829]}, "properties": {"type": "inleverpunt", "locatieNaam": "ViaTim", "straatNaam": "Jasmijnstraat", "straatNr": "31", "postcode": "3353 CG", "plaats": "Papendrecht", "merk": "StatiegeldNederland", "puntType": "balie", "materialen": ["pet-groot", "pet-klein", "blik"], "uitbetaling": ["tikkie"], "vrijToegankelijk": true, "gemeenteBeperking": null, "openingstijden": null, "latitude": 51.8315829, "longitude": 4.6926531, "bronId": "259349"}}, {"type": "Feature", "geometry": {"type": "Point", "coordinates": [4.725245, 51.832744]}, "properties": {"type": "inleverpunt", "locatieNaam": "MCD Papendrecht", "straatNaam": "Kombuis", "straatNr": "2", "postcode": "3356 DH", "plaats": "Papendrecht", "merk": "StichtingOPEN", "puntType": "balie", "materialen": ["batterijen", "lampen"], "uitbetaling": [], "vrijToegankelijk": false, "gemeenteBeperking": null, "openingstijden": null, "latitude": 51.832744, "longitude": 4.725245, "bronId": "SP00023381"}}, {"type": "Feature", "geometry": {"type": "Point", "coordinates": [4.701265, 51.836876]}, "properties": {"type": "inleverpunt", "locatieNaam": "1593 Albert Heijn Papendrecht", "straatNaam": "Espenhof", "straatNr": "20", "postcode": "3355 BM", "plaats": "Papendrecht", "merk": "StichtingOPEN", "puntType": "balie", "materialen": ["batterijen", "elektro-klein", "lampen"], "uitbetaling": [], "vrijToegankelijk": false, "gemeenteBeperking": null, "openingstijden": null, "latitude": 51.836876, "longitude": 4.701265, "bronId": "SP00022682"}}, {"type": "Feature", "geometry": {"type": "Point", "coordinates": [4.682328, 51.845478]}, "properties": {"type": "inleverpunt", "locatieNaam": "Opnieuw & Co Papendrecht", "straatNaam": "Burgemeester Keijzerweg", "straatNr": "22", "postcode": "3352 AR", "plaats": "Papendrecht", "merk": "StichtingOPEN", "puntType": "balie", "materialen": ["batterijen", "elektro-klein", "elektro-middel", "lampen"], "uitbetaling": [], "vrijToegankelijk": false, "gemeenteBeperking": null, "openingstijden": null, "latitude": 51.845478, "longitude": 4.682328, "bronId": "SP00037433"}}, {"type": "Feature", "geometry": {"type": "Point", "coordinates": [4.682859, 51.844731]}, "properties": {"type": "inleverpunt", "locatieNaam": "Karwei Papendrecht", "straatNaam": "Burgemeester Keizerweg", "straatNr": "24", "postcode": "3352 AR", "plaats": "Papendrecht", "merk": "StichtingOPEN", "puntType": "balie", "materialen": ["elektro-middel", "lampen", "tl-buizen"], "uitbetaling": [], "vrijToegankelijk": false, "gemeenteBeperking": null, "openingstijden": null, "latitude": 51.844731, "longitude": 4.682859, "bronId": "SP00002337"}}, {"type": "Feature", "geometry": {"type": "Point", "coordinates": [4.685608, 51.836486]}, "properties": {"type": "inleverpunt", "locatieNaam": "Electro World Van Eijl", "straatNaam": "Jan van Goijenstraat", "straatNr": "1315", "postcode": "3351 JM", "plaats": "Papendrecht", "merk": "StichtingOPEN", "puntType": "balie", "materialen": ["lampen"], "uitbetaling": [], "vrijToegankelijk": false, "gemeenteBeperking": null, "openingstijden": null, "latitude": 51.836486, "longitude": 4.685608, "bronId": "SP00003834"}}, {"type": "Feature", "geometry": {"type": "Point", "coordinates": [4.685036, 51.836825]}, "properties": {"type": "inleverpunt", "locatieNaam": "Jumbo Papendrecht", "straatNaam": "Jan van Goijenstraat", "straatNr": "5", "postcode": "3351 JM", "plaats": "Papendrecht", "merk": "StichtingOPEN", "puntType": "balie", "materialen": ["batterijen", "lampen"], "uitbetaling": [], "vrijToegankelijk": false, "gemeenteBeperking": null, "openingstijden": null, "latitude": 51.836825, "longitude": 4.685036, "bronId": "SP00025113"}}, {"type": "Feature", "geometry": {"type": "Point", "coordinates": [4.68492, 51.83631]}, "properties": {"type": "inleverpunt", "locatieNaam": "Kruidvat Papendrecht", "straatNaam": "Jan van Goijenstraat", "straatNr": "12", "postcode": "3351 JN", "plaats": "Papendrecht", "merk": "StichtingOPEN", "puntType": "balie", "materialen": ["batterijen", "lampen"], "uitbetaling": [], "vrijToegankelijk": false, "gemeenteBeperking": null, "openingstijden": null, "latitude": 51.83631, "longitude": 4.68492, "bronId": "SP00029519"}}, {"type": "Feature", "geometry": {"type": "Point", "coordinates": [4.6909, 51.831062]}, "properties": {"type": "inleverpunt", "locatieNaam": "Fa.Barend Romijn", "straatNaam": "Meidoornstraat", "straatNr": "1", "postcode": "3353 EC", "plaats": "Papendrecht", "merk": "StichtingOPEN", "puntType": "balie", "materialen": ["elektro-groot", "elektro-klein", "elektro-middel"], "uitbetaling": [], "vrijToegankelijk": false, "gemeenteBeperking": null, "openingstijden": null, "latitude": 51.831062, "longitude": 4.6909, "bronId": "SP00003703"}}, {"type": "Feature", "geometry": {"type": "Point", "coordinates": [4.693893, 51.828101]}, "properties": {"type": "inleverpunt", "locatieNaam": "Kinderboerderij Papenhoeve", "straatNaam": "Admiraal de Ruyterweg", "straatNr": "1A", "postcode": "3354 XA", "plaats": "Papendrecht", "merk": "StichtingOPEN", "puntType": "balie", "materialen": ["elektro-klein"], "uitbetaling": [], "vrijToegankelijk": false, "gemeenteBeperking": null, "openingstijden": null, "latitude": 51.828101, "longitude": 4.693893, "bronId": "SP00031481"}}, {"type": "Feature", "geometry": {"type": "Point", "coordinates": [4.684111, 51.82739]}, "properties": {"type": "inleverpunt", "locatieNaam": "Action Papendrecht 1229", "straatNaam": "P.C. Hooftlaan", "straatNr": "184", "postcode": "3351 ER", "plaats": "Papendrecht", "merk": "StichtingOPEN", "puntType": "balie", "materialen": ["batterijen", "lampen"], "uitbetaling": [], "vrijToegankelijk": false, "gemeenteBeperking": null, "openingstijden": null, "latitude": 51.82739, "longitude": 4.684111, "bronId": "SP00007806"}}, {"type": "Feature", "geometry": {"type": "Point", "coordinates": [4.684801, 51.825955]}, "properties": {"type": "inleverpunt", "locatieNaam": "Dirk Papendrecht", "straatNaam": "Meentpassage", "straatNr": "14", "postcode": "3353 HH", "plaats": "Papendrecht", "merk": "StichtingOPEN", "puntType": "balie", "materialen": ["batterijen", "lampen"], "uitbetaling": [], "vrijToegankelijk": false, "gemeenteBeperking": null, "openingstijden": null, "latitude": 51.825955, "longitude": 4.684801, "bronId": "SP00023413"}}, {"type": "Feature", "geometry": {"type": "Point", "coordinates": [4.68427, 51.82629]}, "properties": {"type": "inleverpunt", "locatieNaam": "Kruidvat Papendrecht", "straatNaam": "Meentpassage", "straatNr": "29", "postcode": "3353 HH", "plaats": "Papendrecht", "merk": "StichtingOPEN", "puntType": "balie", "materialen": ["batterijen", "lampen"], "uitbetaling": [], "vrijToegankelijk": false, "gemeenteBeperking": null, "openingstijden": null, "latitude": 51.82629, "longitude": 4.68427, "bronId": "SP00029499"}}, {"type": "Feature", "geometry": {"type": "Point", "coordinates": [4.684015, 51.826271]}, "properties": {"type": "inleverpunt", "locatieNaam": "Jumbo Papendrecht", "straatNaam": "Meentpassage", "straatNr": "4", "postcode": "3353 HH", "plaats": "Papendrecht", "merk": "StichtingOPEN", "puntType": "balie", "materialen": ["batterijen", "lampen"], "uitbetaling": [], "vrijToegankelijk": false, "gemeenteBeperking": null, "openingstijden": null, "latitude": 51.826271, "longitude": 4.684015, "bronId": "SP00025108"}}, {"type": "Feature", "geometry": {"type": "Point", "coordinates": [4.68406, 51.82611]}, "properties": {"type": "inleverpunt", "locatieNaam": "Xenos Papendrecht", "straatNaam": "Meentpassage", "straatNr": "46", "postcode": "3353 HH", "plaats": "Papendrecht", "merk": "StichtingOPEN", "puntType": "balie", "materialen": ["batterijen", "lampen"], "uitbetaling": [], "vrijToegankelijk": false, "gemeenteBeperking": null, "openingstijden": null, "latitude": 51.82611, "longitude": 4.68406, "bronId": "SP00029949"}}, {"type": "Feature", "geometry": {"type": "Point", "coordinates": [4.698333, 51.827779]}, "properties": {"type": "inleverpunt", "locatieNaam": "Afvalbrengstation Papendrecht", "straatNaam": "Willem Dreeslaan", "straatNr": "4", "postcode": "3354 AW", "plaats": "Papendrecht", "merk": "StichtingOPEN", "puntType": "milieustraat", "materialen": ["batterijen", "elektro-groot", "elektro-klein", "elektro-middel", "lampen", "tl-buizen"], "uitbetaling": [], "vrijToegankelijk": false, "gemeenteBeperking": ["Papendrecht"], "openingstijden": null, "latitude": 51.827779, "longitude": 4.698333, "bronId": "SP00030700"}}, {"type": "Feature", "geometry": {"type": "Point", "coordinates": [4.7015667, 51.8366081]}, "properties": {"type": "inleverpunt", "locatieNaam": "Trekpleister", "straatNaam": "Espenhof", "straatNr": "6", "postcode": "3355 BM", "plaats": "Papendrecht", "merk": "Stibat", "puntType": "inzamelbak", "materialen": ["batterijen"], "uitbetaling": [], "vrijToegankelijk": false, "gemeenteBeperking": null, "openingstijden": null, "latitude": 51.8366081, "longitude": 4.7015667, "bronId": "L016970"}}, {"type": "Feature", "geometry": {"type": "Point", "coordinates": [4.7018608, 51.836201]}, "properties": {"type": "inleverpunt", "locatieNaam": "1593 Albert Heijn", "straatNaam": "Espenhof", "straatNr": "20", "postcode": "3355 BM", "plaats": "Papendrecht", "merk": "Stibat", "puntType": "inzamelbak", "materialen": ["batterijen"], "uitbetaling": [], "vrijToegankelijk": false, "gemeenteBeperking": null, "openingstijden": null, "latitude": 51.836201, "longitude": 4.7018608, "bronId": "L007750"}}, {"type": "Feature", "geometry": {"type": "Point", "coordinates": [4.701299, 51.8363769]}, "properties": {"type": "inleverpunt", "locatieNaam": "Voogt Tweewielers", "straatNaam": "Espenhof", "straatNr": "12", "postcode": "3355 BM", "plaats": "Papendrecht", "merk": "Stibat", "puntType": "inzamelbak", "materialen": ["batterijen"], "uitbetaling": [], "vrijToegankelijk": false, "gemeenteBeperking": null, "openingstijden": null, "latitude": 51.8363769, "longitude": 4.701299, "bronId": "L033149"}}, {"type": "Feature", "geometry": {"type": "Point", "coordinates": [4.6823289, 51.8454789]}, "properties": {"type": "inleverpunt", "locatieNaam": "Opnieuw &amp; Co Papendrecht", "straatNaam": "Burgemeester Keijzerweg", "straatNr": "22", "postcode": "3352 AR", "plaats": "Papendrecht", "merk": "Stibat", "puntType": "inzamelbak", "materialen": ["batterijen"], "uitbetaling": [], "vrijToegankelijk": false, "gemeenteBeperking": null, "openingstijden": null, "latitude": 51.8454789, "longitude": 4.6823289, "bronId": "L031553"}}, {"type": "Feature", "geometry": {"type": "Point", "coordinates": [4.6814236, 51.8460472]}, "properties": {"type": "inleverpunt", "locatieNaam": "Total", "straatNaam": "Burgemeester Keijzerweg", "straatNr": "2", "postcode": "3352 AR", "plaats": "Papendrecht", "merk": "Stibat", "puntType": "inzamelbak", "materialen": ["batterijen"], "uitbetaling": [], "vrijToegankelijk": false, "gemeenteBeperking": null, "openingstijden": null, "latitude": 51.8460472, "longitude": 4.6814236, "bronId": "L020798"}}, {"type": "Feature", "geometry": {"type": "Point", "coordinates": [4.6824759, 51.8445559]}, "properties": {"type": "inleverpunt", "locatieNaam": "Karwei", "straatNaam": "Burg. Keijzerweg", "straatNr": "24", "postcode": "3352 AR", "plaats": "Papendrecht", "merk": "Stibat", "puntType": "inzamelbak", "materialen": ["batterijen"], "uitbetaling": [], "vrijToegankelijk": false, "gemeenteBeperking": null, "openingstijden": null, "latitude": 51.8445559, "longitude": 4.6824759, "bronId": "L005753"}}, {"type": "Feature", "geometry": {"type": "Point", "coordinates": [4.6985836, 51.8278189]}, "properties": {"type": "inleverpunt", "locatieNaam": "Afvalbrengstation Papendrecht", "straatNaam": "Willem Dreeslaan", "straatNr": "4", "postcode": "3354 AW", "plaats": "Papendrecht", "merk": "Stibat", "puntType": "inzamelbak", "materialen": ["batterijen"], "uitbetaling": [], "vrijToegankelijk": false, "gemeenteBeperking": null, "openingstijden": null, "latitude": 51.8278189, "longitude": 4.6985836, "bronId": "L035669"}}, {"type": "Feature", "geometry": {"type": "Point", "coordinates": [4.6855911, 51.8364853]}, "properties": {"type": "inleverpunt", "locatieNaam": "Electro World", "straatNaam": "Jan van Goyenstraat", "straatNr": "15", "postcode": "3351 JM", "plaats": "Papendrecht", "merk": "Stibat", "puntType": "inzamelbak", "materialen": ["batterijen"], "uitbetaling": [], "vrijToegankelijk": false, "gemeenteBeperking": null, "openingstijden": null, "latitude": 51.8364853, "longitude": 4.6855911, "bronId": "L015204"}}, {"type": "Feature", "geometry": {"type": "Point", "coordinates": [4.6850369, 51.836825]}, "properties": {"type": "inleverpunt", "locatieNaam": "Jumbo", "straatNaam": "Jan van Goijenstraat", "straatNr": "5", "postcode": "3351 JM", "plaats": "Papendrecht", "merk": "Stibat", "puntType": "inzamelbak", "materialen": ["batterijen"], "uitbetaling": [], "vrijToegankelijk": false, "gemeenteBeperking": null, "openingstijden": null, "latitude": 51.836825, "longitude": 4.6850369, "bronId": "L035937"}}, {"type": "Feature", "geometry": {"type": "Point", "coordinates": [4.6849293, 51.836276]}, "properties": {"type": "inleverpunt", "locatieNaam": "Kruidvat", "straatNaam": "Jan van Goijenstraat", "straatNr": "12-14-16", "postcode": "3351 JN", "plaats": "Papendrecht", "merk": "Stibat", "puntType": "inzamelbak", "materialen": ["batterijen"], "uitbetaling": [], "vrijToegankelijk": false, "gemeenteBeperking": null, "openingstijden": null, "latitude": 51.836276, "longitude": 4.6849293, "bronId": "L039858"}}, {"type": "Feature", "geometry": {"type": "Point", "coordinates": [4.68558, 51.8259311]}, "properties": {"type": "inleverpunt", "locatieNaam": "Phone Restore", "straatNaam": "Brederodehuis", "straatNr": "6", "postcode": "3353 HD", "plaats": "Papendrecht", "merk": "Stibat", "puntType": "inzamelbak", "materialen": ["batterijen"], "uitbetaling": [], "vrijToegankelijk": false, "gemeenteBeperking": null, "openingstijden": null, "latitude": 51.8259311, "longitude": 4.68558, "bronId": "L039562"}}, {"type": "Feature", "geometry": {"type": "Point", "coordinates": [4.6837938, 51.827354]}, "properties": {"type": "inleverpunt", "locatieNaam": "1229 Action", "straatNaam": "P.C. Hooftlaan", "straatNr": "184", "postcode": "3351 ER", "plaats": "Papendrecht", "merk": "Stibat", "puntType": "inzamelbak", "materialen": ["batterijen"], "uitbetaling": [], "vrijToegankelijk": false, "gemeenteBeperking": null, "openingstijden": null, "latitude": 51.827354, "longitude": 4.6837938, "bronId": "L028179"}}, {"type": "Feature", "geometry": {"type": "Point", "coordinates": [4.6838644, 51.8270332]}, "properties": {"type": "inleverpunt", "locatieNaam": "Wibra", "straatNaam": "Markt", "straatNr": "169", "postcode": "3351 PA", "plaats": "Papendrecht", "merk": "Stibat", "puntType": "inzamelbak", "materialen": ["batterijen"], "uitbetaling": [], "vrijToegankelijk": false, "gemeenteBeperking": null, "openingstijden": null, "latitude": 51.8270332, "longitude": 4.6838644, "bronId": "L045475"}}, {"type": "Feature", "geometry": {"type": "Point", "coordinates": [4.6840334, 51.8268768]}, "properties": {"type": "inleverpunt", "locatieNaam": "Schoonenberg Hoorcomfort", "straatNaam": "Veerpromenade", "straatNr": "101", "postcode": "3351 HM", "plaats": "Papendrecht", "merk": "Stibat", "puntType": "inzamelbak", "materialen": ["batterijen"], "uitbetaling": [], "vrijToegankelijk": false, "gemeenteBeperking": null, "openingstijden": null, "latitude": 51.8268768, "longitude": 4.6840334, "bronId": "L039563"}}, {"type": "Feature", "geometry": {"type": "Point", "coordinates": [4.685179, 51.8258153]}, "properties": {"type": "inleverpunt", "locatieNaam": "Xenos", "straatNaam": "Meentpassage", "straatNr": "46", "postcode": "3353 HH", "plaats": "Papendrecht", "merk": "Stibat", "puntType": "inzamelbak", "materialen": ["batterijen"], "uitbetaling": [], "vrijToegankelijk": false, "gemeenteBeperking": null, "openingstijden": null, "latitude": 51.8258153, "longitude": 4.685179, "bronId": "L036979"}}, {"type": "Feature", "geometry": {"type": "Point", "coordinates": [4.6855588, 51.8253961]}, "properties": {"type": "inleverpunt", "locatieNaam": "Lidl", "straatNaam": "Overtoompassage", "straatNr": "1", "postcode": "3353 HE", "plaats": "Papendrecht", "merk": "Stibat", "puntType": "inzamelbak", "materialen": ["batterijen"], "uitbetaling": [], "vrijToegankelijk": false, "gemeenteBeperking": null, "openingstijden": null, "latitude": 51.8253961, "longitude": 4.6855588, "bronId": "L029447"}}, {"type": "Feature", "geometry": {"type": "Point", "coordinates": [4.6850151, 51.8257717]}, "properties": {"type": "inleverpunt", "locatieNaam": "Primera", "straatNaam": "Meentpassage", "straatNr": "20", "postcode": "3353 HH", "plaats": "Papendrecht", "merk": "Stibat", "puntType": "inzamelbak", "materialen": ["batterijen"], "uitbetaling": [], "vrijToegankelijk": false, "gemeenteBeperking": null, "openingstijden": null, "latitude": 51.8257717, "longitude": 4.6850151, "bronId": "L022626"}}, {"type": "Feature", "geometry": {"type": "Point", "coordinates": [4.685089, 51.825695]}, "properties": {"type": "inleverpunt", "locatieNaam": "Hans Anders", "straatNaam": "Brederodelaan", "straatNr": "112", "postcode": "3353 GG", "plaats": "Papendrecht", "merk": "Stibat", "puntType": "inzamelbak", "materialen": ["batterijen"], "uitbetaling": [], "vrijToegankelijk": false, "gemeenteBeperking": null, "openingstijden": null, "latitude": 51.825695, "longitude": 4.685089, "bronId": "L037897"}}, {"type": "Feature", "geometry": {"type": "Point", "coordinates": [4.6842746, 51.8262964]}, "properties": {"type": "inleverpunt", "locatieNaam": "Kruidvat", "straatNaam": "Meentpassage", "straatNr": "29", "postcode": "3353 HH", "plaats": "Papendrecht", "merk": "Stibat", "puntType": "inzamelbak", "materialen": ["batterijen"], "uitbetaling": [], "vrijToegankelijk": false, "gemeenteBeperking": null, "openingstijden": null, "latitude": 51.8262964, "longitude": 4.6842746, "bronId": "L015955"}}, {"type": "Feature", "geometry": {"type": "Point", "coordinates": [4.6844365, 51.8261268]}, "properties": {"type": "inleverpunt", "locatieNaam": "Bruna", "straatNaam": "Meentpassage", "straatNr": "7", "postcode": "3353 HH", "plaats": "Papendrecht", "merk": "Stibat", "puntType": "inzamelbak", "materialen": ["batterijen"], "uitbetaling": [], "vrijToegankelijk": false, "gemeenteBeperking": null, "openingstijden": null, "latitude": 51.8261268, "longitude": 4.6844365, "bronId": "L023432"}}, {"type": "Feature", "geometry": {"type": "Point", "coordinates": [4.6841311, 51.8263708]}, "properties": {"type": "inleverpunt", "locatieNaam": "7952 Etos", "straatNaam": "Meent Passage", "straatNr": "5", "postcode": "3353 HH", "plaats": "Papendrecht", "merk": "Stibat", "puntType": "inzamelbak", "materialen": ["batterijen"], "uitbetaling": [], "vrijToegankelijk": false, "gemeenteBeperking": null, "openingstijden": null, "latitude": 51.8263708, "longitude": 4.6841311, "bronId": "L024595"}}, {"type": "Feature", "geometry": {"type": "Point", "coordinates": [4.6842866, 51.8262083]}, "properties": {"type": "inleverpunt", "locatieNaam": "Intertoys", "straatNaam": "Meentpassage", "straatNr": "13", "postcode": "3353 HH", "plaats": "Papendrecht", "merk": "Stibat", "puntType": "inzamelbak", "materialen": ["batterijen"], "uitbetaling": [], "vrijToegankelijk": false, "gemeenteBeperking": null, "openingstijden": null, "latitude": 51.8262083, "longitude": 4.6842866, "bronId": "L043518"}}, {"type": "Feature", "geometry": {"type": "Point", "coordinates": [4.6846258, 51.8259021]}, "properties": {"type": "inleverpunt", "locatieNaam": "Dirk", "straatNaam": "Meentpassage", "straatNr": "14", "postcode": "3353 HH", "plaats": "Papendrecht", "merk": "Stibat", "puntType": "inzamelbak", "materialen": ["batterijen"], "uitbetaling": [], "vrijToegankelijk": false, "gemeenteBeperking": null, "openingstijden": null, "latitude": 51.8259021, "longitude": 4.6846258, "bronId": "L011051"}}, {"type": "Feature", "geometry": {"type": "Point", "coordinates": [4.6846535, 51.8258428]}, "properties": {"type": "inleverpunt", "locatieNaam": "HEMA Meentpassage", "straatNaam": "Meentpassage", "straatNr": "58-60", "postcode": "3353 HH", "plaats": "Papendrecht", "merk": "Stibat", "puntType": "inzamelbak", "materialen": ["batterijen"], "uitbetaling": [], "vrijToegankelijk": false, "gemeenteBeperking": null, "openingstijden": null, "latitude": 51.8258428, "longitude": 4.6846535, "bronId": "L005795"}}, {"type": "Feature", "geometry": {"type": "Point", "coordinates": [4.6840642, 51.8261632]}, "properties": {"type": "inleverpunt", "locatieNaam": "Jumbo", "straatNaam": "Meentpassage", "straatNr": "4", "postcode": "3353 HH", "plaats": "Papendrecht", "merk": "Stibat", "puntType": "inzamelbak", "materialen": ["batterijen"], "uitbetaling": [], "vrijToegankelijk": false, "gemeenteBeperking": null, "openingstijden": null, "latitude": 51.8261632, "longitude": 4.6840642, "bronId": "L021225"}}, {"type": "Feature", "geometry": {"type": "Point", "coordinates": [4.6848146, 51.8250729]}, "properties": {"type": "inleverpunt", "locatieNaam": "Foto Schievink", "straatNaam": "Brederodelaan", "straatNr": "17", "postcode": "3353 GG", "plaats": "Papendrecht", "merk": "Stibat", "puntType": "inzamelbak", "materialen": ["batterijen"], "uitbetaling": [], "vrijToegankelijk": false, "gemeenteBeperking": null, "openingstijden": null, "latitude": 51.8250729, "longitude": 4.6848146, "bronId": "L030272"}}, {"type": "Feature", "geometry": {"type": "Point", "coordinates": [4.6830355, 51.8257618]}, "properties": {"type": "inleverpunt", "locatieNaam": "Zeeman", "straatNaam": "Veerpromenade", "straatNr": "19", "postcode": "3351 HM", "plaats": "Papendrecht", "merk": "Stibat", "puntType": "inzamelbak", "materialen": ["batterijen"], "uitbetaling": [], "vrijToegankelijk": false, "gemeenteBeperking": null, "openingstijden": null, "latitude": 51.8257618, "longitude": 4.6830355, "bronId": "L021587"}}, {"type": "Feature", "geometry": {"type": "Point", "coordinates": [4.6814269, 51.8255382]}, "properties": {"type": "inleverpunt", "locatieNaam": "Henry IJzerman Fietsen", "straatNaam": "Westeind", "straatNr": "27", "postcode": "3351 AL", "plaats": "Papendrecht", "merk": "Stibat", "puntType": "inzamelbak", "materialen": ["batterijen"], "uitbetaling": [], "vrijToegankelijk": false, "gemeenteBeperking": null, "openingstijden": null, "latitude": 51.8255382, "longitude": 4.6814269, "bronId": "L045804"}}, {"type": "Feature", "geometry": {"type": "Polygon", "coordinates": [[[4.695377001005494, 51.822448003803586], [4.709097001019356, 51.823358003804216], [4.713857001024146, 51.82329700380415], [4.729639001039988, 51.82216900380343], [4.741410001052741, 51.840776003815336], [4.742764001054116, 51.84100300381546], [4.743395001054833, 51.84272000381658], [4.738654001050103, 51.84357400381714], [4.7378140010493, 51.8444570038177], [4.737264001048844, 51.84646400381895], [4.715333001026513, 51.84134400381569], [4.7113350010224675, 51.84093700381541], [4.711491001022643, 51.84133200381564], [4.706697001017805, 51.84107100381551], [4.693117001004305, 51.84462600381772], [4.688473000999708, 51.84623000381875], [4.681827000993159, 51.84909300382056], [4.681349000992657, 51.84867800382031], [4.681911000993212, 51.84844100382014], [4.68039800099149, 51.844439003817584], [4.672606000983359, 51.83865000381388], [4.6724130009830285, 51.835883003812114], [4.669672000980046, 51.83137400380922], [4.669166000979424, 51.82915100380781], [4.669420000979549, 51.82644200380607], [4.671729000981595, 51.82079100380245], [4.676719000986604, 51.82039600380222], [4.683180000993119, 51.82063300380241], [4.695377001005494, 51.822448003803586]]]}, "properties": {"type": "boundary", "gemeente": "Papendrecht"}}]}