{"type": "FeatureCollection", "metadata": {"gemeente": "Pijnacker-Nootdorp", "slug": "pijnacker-nootdorp", "generated_at": "2026-07-28T09:25:50.134599Z", "total_points": 82, "merken": ["StatiegeldNederland", "Stibat", "StichtingOPEN"], "bounds": [4.387124, 51.9832441, 4.4576635, 52.0519151]}, "features": [{"type": "Feature", "geometry": {"type": "Point", "coordinates": [4.4337006, 52.0194015]}, "properties": {"type": "inleverpunt", "locatieNaam": "Albert Heijn", "straatNaam": "Ackerhof53", "straatNr": "", "postcode": "2641 DZ", "plaats": "Pijnacker", "merk": "StatiegeldNederland", "puntType": "automaat", "materialen": ["pet-groot", "pet-klein", "blik", "glas", "krat"], "uitbetaling": ["bonnetje", "donatie"], "vrijToegankelijk": true, "gemeenteBeperking": null, "openingstijden": {"ma": "08:00–21:00", "di": "08:00–21:00", "wo": "08:00–21:00", "do": "08:00–21:00", "vr": "08:00–21:00", "za": "08:00–21:00", "zo": "08:00–21:00"}, "latitude": 52.0194015, "longitude": 4.4337006, "bronId": "251965"}}, {"type": "Feature", "geometry": {"type": "Point", "coordinates": [4.3905367, 52.0052587]}, "properties": {"type": "inleverpunt", "locatieNaam": "Albert Heijn", "straatNaam": "Gouden Rijderplein", "straatNr": "2", "postcode": "2645 EX", "plaats": "Delfgauw", "merk": "StatiegeldNederland", "puntType": "automaat", "materialen": ["pet-groot", "pet-klein", "blik", "glas", "krat"], "uitbetaling": ["bonnetje", "donatie"], "vrijToegankelijk": true, "gemeenteBeperking": null, "openingstijden": {"ma": "08:00–21:00", "di": "08:00–21:00", "wo": "08:00–21:00", "do": "08:00–21:00", "vr": "08:00–21:00", "za": "08:00–21:00", "zo": "09:00–21:00"}, "latitude": 52.0052587, "longitude": 4.3905367, "bronId": "252252"}}, {"type": "Feature", "geometry": {"type": "Point", "coordinates": [4.4432485, 52.0040949]}, "properties": {"type": "inleverpunt", "locatieNaam": "Albert Heijn", "straatNaam": "Hoefbladplein", "straatNr": "4", "postcode": "2643 KD", "plaats": "Pijnacker", "merk": "StatiegeldNederland", "puntType": "automaat", "materialen": ["pet-groot", "pet-klein", "blik", "glas", "krat"], "uitbetaling": ["bonnetje", "donatie"], "vrijToegankelijk": true, "gemeenteBeperking": null, "openingstijden": {"ma": "08:00–21:00", "di": "08:00–21:00", "wo": "08:00–21:00", "do": "08:00–21:00", "vr": "08:00–21:00", "za": "08:00–21:00", "zo": "08:00–21:00"}, "latitude": 52.0040949, "longitude": 4.4432485, "bronId": "252313"}}, {"type": "Feature", "geometry": {"type": "Point", "coordinates": [4.3916452, 52.0453247]}, "properties": {"type": "inleverpunt", "locatieNaam": "Albert Heijn", "straatNaam": "Langebaan", "straatNr": "6", "postcode": "2632 GC", "plaats": "Nootdorp", "merk": "StatiegeldNederland", "puntType": "automaat", "materialen": ["pet-groot", "pet-klein", "blik", "glas", "krat"], "uitbetaling": ["bonnetje", "donatie"], "vrijToegankelijk": true, "gemeenteBeperking": null, "openingstijden": {"ma": "08:00–21:00", "di": "08:00–21:00", "wo": "08:00–21:00", "do": "08:00–21:00", "vr": "08:00–21:00", "za": "08:00–21:00", "zo": "09:00–21:00"}, "latitude": 52.0453247, "longitude": 4.3916452, "bronId": "252455"}}, {"type": "Feature", "geometry": {"type": "Point", "coordinates": [4.4386217, 52.0130884]}, "properties": {"type": "inleverpunt", "locatieNaam": "Appel 2623 - Gem. Pijnacker", "straatNaam": "Oranjeplein", "straatNr": "1", "postcode": "2641 EZ", "plaats": "Pijnacker", "merk": "StatiegeldNederland", "puntType": "balie", "materialen": ["pet-groot", "pet-klein", "blik"], "uitbetaling": [], "vrijToegankelijk": true, "gemeenteBeperking": null, "openingstijden": {"ma": "08:30–17:00", "di": "08:30–17:00", "wo": "08:30–17:00", "do": "08:30–20:00", "vr": "08:30–17:00", "za": "Gesloten", "zo": "Gesloten"}, "latitude": 52.0130884, "longitude": 4.4386217, "bronId": "253603"}}, {"type": "Feature", "geometry": {"type": "Point", "coordinates": [4.4576635, 52.0176358]}, "properties": {"type": "inleverpunt", "locatieNaam": "Blauw Gele Vendel", "straatNaam": "Hoogseweg", "straatNr": "27", "postcode": "2642 KN", "plaats": "Pijnacker", "merk": "StatiegeldNederland", "puntType": "balie", "materialen": ["pet-groot", "pet-klein", "blik"], "uitbetaling": [], "vrijToegankelijk": false, "gemeenteBeperking": null, "openingstijden": {"ma": "15:30–19:30", "di": "16:30–22:15", "wo": "15:00–19:00", "do": "15:30–20:30", "vr": "16:00–21:00", "za": "08:30–13:30", "zo": "Gesloten"}, "latitude": 52.0176358, "longitude": 4.4576635, "bronId": "253839"}}, {"type": "Feature", "geometry": {"type": "Point", "coordinates": [4.4308581, 52.018533]}, "properties": {"type": "inleverpunt", "locatieNaam": "Dirk", "straatNaam": "Ackershof", "straatNr": "2", "postcode": "2641 DX", "plaats": "Pijnacker", "merk": "StatiegeldNederland", "puntType": "automaat", "materialen": ["pet-groot", "pet-klein", "blik", "glas", "krat"], "uitbetaling": ["bonnetje", "donatie"], "vrijToegankelijk": true, "gemeenteBeperking": null, "openingstijden": {"ma": "07:00–20:00", "di": "07:00–20:00", "wo": "07:00–20:00", "do": "07:00–20:00", "vr": "07:00–21:00", "za": "07:00–20:00", "zo": "09:00–19:00"}, "latitude": 52.018533, "longitude": 4.4308581, "bronId": "254428"}}, {"type": "Feature", "geometry": {"type": "Point", "coordinates": [4.4188539, 52.0171039]}, "properties": {"type": "inleverpunt", "locatieNaam": "Intratuin Pijnacker", "straatNaam": "Rijskade", "straatNr": "1a", "postcode": "2641 NA", "plaats": "Pijnacker", "merk": "StatiegeldNederland", "puntType": "automaat", "materialen": ["pet-groot", "pet-klein", "blik", "krat"], "uitbetaling": ["donatie", "tikkie"], "vrijToegankelijk": true, "gemeenteBeperking": null, "openingstijden": null, "latitude": 52.0171039, "longitude": 4.4188539, "bronId": "255175"}}, {"type": "Feature", "geometry": {"type": "Point", "coordinates": [4.390582, 52.044122]}, "properties": {"type": "inleverpunt", "locatieNaam": "Jumbo", "straatNaam": "Paradeplein", "straatNr": "7", "postcode": "2632 GG", "plaats": "Nootdorp", "merk": "StatiegeldNederland", "puntType": "automaat", "materialen": ["pet-groot", "pet-klein", "blik", "glas", "krat"], "uitbetaling": ["bonnetje", "donatie"], "vrijToegankelijk": true, "gemeenteBeperking": null, "openingstijden": {"ma": "07:30–20:30", "di": "07:30–20:30", "wo": "07:30–20:30", "do": "07:30–20:30", "vr": "07:30–21:00", "za": "07:30–20:30", "zo": "09:00–19:00"}, "latitude": 52.044122, "longitude": 4.390582, "bronId": "255657"}}, {"type": "Feature", "geometry": {"type": "Point", "coordinates": [4.4306502, 52.0159671]}, "properties": {"type": "inleverpunt", "locatieNaam": "Lidl", "straatNaam": "Korteweg", "straatNr": "4", "postcode": "2641 GZ", "plaats": "Pijnacker", "merk": "StatiegeldNederland", "puntType": "automaat", "materialen": ["pet-groot", "pet-klein", "blik", "glas", "krat"], "uitbetaling": ["bonnetje", "donatie"], "vrijToegankelijk": true, "gemeenteBeperking": null, "openingstijden": {"ma": "08:00–21:00", "di": "08:00–21:00", "wo": "08:00–21:00", "do": "08:00–21:00", "vr": "08:00–21:00", "za": "08:00–21:00", "zo": "09:00–20:00"}, "latitude": 52.0159671, "longitude": 4.4306502, "bronId": "256242"}}, {"type": "Feature", "geometry": {"type": "Point", "coordinates": [4.42576, 52.02632]}, "properties": {"type": "inleverpunt", "locatieNaam": "Lidl", "straatNaam": "Nobellaan", "straatNr": "20", "postcode": "2641 XR", "plaats": "Pijnacker", "merk": "StatiegeldNederland", "puntType": "automaat", "materialen": ["pet-groot", "pet-klein", "blik", "glas", "krat"], "uitbetaling": ["bonnetje", "donatie"], "vrijToegankelijk": true, "gemeenteBeperking": null, "openingstijden": {"ma": "08:00–21:00", "di": "08:00–21:00", "wo": "08:00–21:00", "do": "08:00–21:00", "vr": "08:00–21:00", "za": "08:00–21:00", "zo": "09:00–20:00"}, "latitude": 52.02632, "longitude": 4.42576, "bronId": "256308"}}, {"type": "Feature", "geometry": {"type": "Point", "coordinates": [4.39015, 52.04432]}, "properties": {"type": "inleverpunt", "locatieNaam": "Lidl", "straatNaam": "Paradeplein", "straatNr": "17", "postcode": "2632 GG", "plaats": "Nootdorp", "merk": "StatiegeldNederland", "puntType": "automaat", "materialen": ["pet-groot", "pet-klein", "blik", "glas", "krat"], "uitbetaling": ["bonnetje", "donatie"], "vrijToegankelijk": true, "gemeenteBeperking": null, "openingstijden": {"ma": "07:30–21:00", "di": "07:30–21:00", "wo": "07:30–21:00", "do": "07:30–21:00", "vr": "07:30–21:00", "za": "07:30–21:00", "zo": "09:00–20:00"}, "latitude": 52.04432, "longitude": 4.39015, "bronId": "256330"}}, {"type": "Feature", "geometry": {"type": "Point", "coordinates": [4.428335, 52.019385]}, "properties": {"type": "inleverpunt", "locatieNaam": "Plus", "straatNaam": "Hazelaarplein", "straatNr": "1", "postcode": "2641 BD", "plaats": "Pijnacker", "merk": "StatiegeldNederland", "puntType": "automaat", "materialen": ["pet-groot", "pet-klein", "blik", "glas", "krat"], "uitbetaling": ["bonnetje", "donatie"], "vrijToegankelijk": true, "gemeenteBeperking": null, "openingstijden": {"ma": "08:00–21:00", "di": "08:00–21:00", "wo": "08:00–21:00", "do": "08:00–21:00", "vr": "08:00–21:00", "za": "08:00–21:00", "zo": "08:00–19:00"}, "latitude": 52.019385, "longitude": 4.428335, "bronId": "257330"}}, {"type": "Feature", "geometry": {"type": "Point", "coordinates": [4.3916018, 52.0469217]}, "properties": {"type": "inleverpunt", "locatieNaam": "Rkdeo", "straatNaam": "Sportparkweg", "straatNr": "30", "postcode": "2631 GA", "plaats": "Nootdorp", "merk": "StatiegeldNederland", "puntType": "balie", "materialen": ["pet-groot", "pet-klein", "blik"], "uitbetaling": [], "vrijToegankelijk": false, "gemeenteBeperking": null, "openingstijden": null, "latitude": 52.0469217, "longitude": 4.3916018, "bronId": "257801"}}, {"type": "Feature", "geometry": {"type": "Point", "coordinates": [4.3954734, 51.9832441]}, "properties": {"type": "inleverpunt", "locatieNaam": "Spar Express", "straatNaam": "RIJKSWEG A13 OOSTZIJDE", "straatNr": "", "postcode": "2640 AA", "plaats": "Pijnacker", "merk": "StatiegeldNederland", "puntType": "balie", "materialen": ["pet-groot", "pet-klein", "blik"], "uitbetaling": [], "vrijToegankelijk": true, "gemeenteBeperking": null, "openingstijden": {"ma": "24 uur geopend", "di": "24 uur geopend", "wo": "24 uur geopend", "do": "24 uur geopend", "vr": "24 uur geopend", "za": "24 uur geopend", "zo": "24 uur geopend"}, "latitude": 51.9832441, "longitude": 4.3954734, "bronId": "258577"}}, {"type": "Feature", "geometry": {"type": "Point", "coordinates": [4.419395, 52.0242942]}, "properties": {"type": "inleverpunt", "locatieNaam": "Stanislas Pijnacker", "straatNaam": "Sportlaan", "straatNr": "3a", "postcode": "2641 AZ", "plaats": "Pijnacker", "merk": "StatiegeldNederland", "puntType": "automaat", "materialen": ["pet-klein", "blik"], "uitbetaling": [], "vrijToegankelijk": false, "gemeenteBeperking": null, "openingstijden": null, "latitude": 52.0242942, "longitude": 4.419395, "bronId": "258672"}}, {"type": "Feature", "geometry": {"type": "Point", "coordinates": [4.4071359, 52.0451265]}, "properties": {"type": "inleverpunt", "locatieNaam": "Sv Nootdorp", "straatNaam": "De Poort", "straatNr": "8", "postcode": "2631 PT", "plaats": "Nootdorp", "merk": "StatiegeldNederland", "puntType": "balie", "materialen": ["pet-groot", "pet-klein", "blik"], "uitbetaling": [], "vrijToegankelijk": false, "gemeenteBeperking": null, "openingstijden": {"ma": "24 uur geopend", "di": "24 uur geopend", "wo": "24 uur geopend", "do": "24 uur geopend", "vr": "24 uur geopend", "za": "24 uur geopend", "zo": "Gesloten"}, "latitude": 52.0451265, "longitude": 4.4071359, "bronId": "258830"}}, {"type": "Feature", "geometry": {"type": "Point", "coordinates": [4.438515, 52.024772]}, "properties": {"type": "inleverpunt", "locatieNaam": "RoBoWeb computer en laptop specialist", "straatNaam": "Boezemweg", "straatNr": "6a", "postcode": "2641 KH", "plaats": "Pijnacker", "merk": "StichtingOPEN", "puntType": "balie", "materialen": ["batterijen", "elektro-klein"], "uitbetaling": [], "vrijToegankelijk": false, "gemeenteBeperking": null, "openingstijden": null, "latitude": 52.024772, "longitude": 4.438515, "bronId": "SP00022197"}}, {"type": "Feature", "geometry": {"type": "Point", "coordinates": [4.443205, 52.004102]}, "properties": {"type": "inleverpunt", "locatieNaam": "1605 Albert Heijn Pijnacker", "straatNaam": "Hoefbladplein", "straatNr": "4", "postcode": "2643 KD", "plaats": "Pijnacker", "merk": "StichtingOPEN", "puntType": "balie", "materialen": ["batterijen", "elektro-klein", "lampen"], "uitbetaling": [], "vrijToegankelijk": false, "gemeenteBeperking": null, "openingstijden": null, "latitude": 52.004102, "longitude": 4.443205, "bronId": "SP00022791"}}, {"type": "Feature", "geometry": {"type": "Point", "coordinates": [4.436773, 52.027203]}, "properties": {"type": "inleverpunt", "locatieNaam": "Van Dijk Bergschenhoek B.V. te Pijnacker", "straatNaam": "Heulweg", "straatNr": "1", "postcode": "2641 KP", "plaats": "Pijnacker", "merk": "StichtingOPEN", "puntType": "balie", "materialen": ["elektro-middel", "lampen"], "uitbetaling": [], "vrijToegankelijk": false, "gemeenteBeperking": null, "openingstijden": null, "latitude": 52.027203, "longitude": 4.436773, "bronId": "SP00002237"}}, {"type": "Feature", "geometry": {"type": "Point", "coordinates": [4.433989, 52.028596]}, "properties": {"type": "inleverpunt", "locatieNaam": "Verbakel Techniek - bakken", "straatNaam": "Vlielandseweg", "straatNr": "157", "postcode": "2641 PN", "plaats": "Pijnacker", "merk": "StichtingOPEN", "puntType": "balie", "materialen": ["elektro-middel", "lampen"], "uitbetaling": [], "vrijToegankelijk": false, "gemeenteBeperking": null, "openingstijden": null, "latitude": 52.028596, "longitude": 4.433989, "bronId": "SP00002240"}}, {"type": "Feature", "geometry": {"type": "Point", "coordinates": [4.432645, 52.019189]}, "properties": {"type": "inleverpunt", "locatieNaam": "1388 Albert Heijn Pijnacker", "straatNaam": "Ackershof", "straatNr": "53", "postcode": "2641 DZ", "plaats": "Pijnacker", "merk": "StichtingOPEN", "puntType": "balie", "materialen": ["batterijen", "lampen"], "uitbetaling": [], "vrijToegankelijk": false, "gemeenteBeperking": null, "openingstijden": null, "latitude": 52.019189, "longitude": 4.432645, "bronId": "SP00022806"}}, {"type": "Feature", "geometry": {"type": "Point", "coordinates": [4.432, 52.01962]}, "properties": {"type": "inleverpunt", "locatieNaam": "Kruidvat Pijnacker", "straatNaam": "Oostlaan", "straatNr": "21-22", "postcode": "2641 DK", "plaats": "Pijnacker", "merk": "StichtingOPEN", "puntType": "balie", "materialen": ["batterijen", "lampen"], "uitbetaling": [], "vrijToegankelijk": false, "gemeenteBeperking": null, "openingstijden": null, "latitude": 52.01962, "longitude": 4.432, "bronId": "SP00029632"}}, {"type": "Feature", "geometry": {"type": "Point", "coordinates": [4.43066, 52.01863]}, "properties": {"type": "inleverpunt", "locatieNaam": "Dirk Pijnacker", "straatNaam": "Ackershof", "straatNr": "79", "postcode": "2641 BL", "plaats": "Pijnacker", "merk": "StichtingOPEN", "puntType": "balie", "materialen": ["batterijen", "lampen"], "uitbetaling": [], "vrijToegankelijk": false, "gemeenteBeperking": null, "openingstijden": null, "latitude": 52.01863, "longitude": 4.43066, "bronId": "SP00030149"}}, {"type": "Feature", "geometry": {"type": "Point", "coordinates": [4.428091, 52.01922]}, "properties": {"type": "inleverpunt", "locatieNaam": "PLUS Pijnacker", "straatNaam": "Hazelaarplein", "straatNr": "1", "postcode": "2641 BD", "plaats": "Pijnacker", "merk": "StichtingOPEN", "puntType": "balie", "materialen": ["batterijen", "lampen"], "uitbetaling": [], "vrijToegankelijk": false, "gemeenteBeperking": null, "openingstijden": null, "latitude": 52.01922, "longitude": 4.428091, "bronId": "SP00024066"}}, {"type": "Feature", "geometry": {"type": "Point", "coordinates": [4.42761, 52.01801]}, "properties": {"type": "inleverpunt", "locatieNaam": "Lidl Pijnacker", "straatNaam": "Europalaan", "straatNr": "2", "postcode": "2641 RX", "plaats": "Pijnacker", "merk": "StichtingOPEN", "puntType": "balie", "materialen": ["batterijen", "lampen"], "uitbetaling": [], "vrijToegankelijk": false, "gemeenteBeperking": null, "openingstijden": null, "latitude": 52.01801, "longitude": 4.42761, "bronId": "SP00029983"}}, {"type": "Feature", "geometry": {"type": "Point", "coordinates": [4.418915, 52.01716]}, "properties": {"type": "inleverpunt", "locatieNaam": "Intratuin Pijnacker", "straatNaam": "Rijskade", "straatNr": "1a", "postcode": "2641 NA", "plaats": "Pijnacker", "merk": "StichtingOPEN", "puntType": "balie", "materialen": ["elektro-middel", "lampen"], "uitbetaling": [], "vrijToegankelijk": false, "gemeenteBeperking": null, "openingstijden": null, "latitude": 52.01716, "longitude": 4.418915, "bronId": "SP00005563"}}, {"type": "Feature", "geometry": {"type": "Point", "coordinates": [4.392312, 52.044965]}, "properties": {"type": "inleverpunt", "locatieNaam": "Action Nootdorp", "straatNaam": "Korte Baan", "straatNr": "214", "postcode": "2632 GK", "plaats": "Nootdorp", "merk": "StichtingOPEN", "puntType": "balie", "materialen": ["batterijen", "lampen"], "uitbetaling": [], "vrijToegankelijk": false, "gemeenteBeperking": null, "openingstijden": null, "latitude": 52.044965, "longitude": 4.392312, "bronId": "SP00025531"}}, {"type": "Feature", "geometry": {"type": "Point", "coordinates": [4.391097, 52.044922]}, "properties": {"type": "inleverpunt", "locatieNaam": "1405 Albert Heijn Nootdorp", "straatNaam": "Lange Baan", "straatNr": "6", "postcode": "2632 GC", "plaats": "Nootdorp", "merk": "StichtingOPEN", "puntType": "balie", "materialen": ["batterijen", "elektro-klein", "lampen"], "uitbetaling": [], "vrijToegankelijk": false, "gemeenteBeperking": null, "openingstijden": null, "latitude": 52.044922, "longitude": 4.391097, "bronId": "SP00022823"}}, {"type": "Feature", "geometry": {"type": "Point", "coordinates": [4.391008, 52.044832]}, "properties": {"type": "inleverpunt", "locatieNaam": "Kruidvat Nootdorp", "straatNaam": "Lange Baan", "straatNr": "2832", "postcode": "2632 GC", "plaats": "Nootdorp", "merk": "StichtingOPEN", "puntType": "balie", "materialen": ["batterijen", "lampen"], "uitbetaling": [], "vrijToegankelijk": false, "gemeenteBeperking": null, "openingstijden": null, "latitude": 52.044832, "longitude": 4.391008, "bronId": "SP00024639"}}, {"type": "Feature", "geometry": {"type": "Point", "coordinates": [4.390693, 52.044126]}, "properties": {"type": "inleverpunt", "locatieNaam": "Jumbo Nootdorp", "straatNaam": "Paradeplein", "straatNr": "7", "postcode": "2632 GG", "plaats": "Nootdorp", "merk": "StichtingOPEN", "puntType": "balie", "materialen": ["batterijen", "lampen"], "uitbetaling": [], "vrijToegankelijk": false, "gemeenteBeperking": null, "openingstijden": null, "latitude": 52.044126, "longitude": 4.390693, "bronId": "SP00025208"}}, {"type": "Feature", "geometry": {"type": "Point", "coordinates": [4.390379, 52.044425]}, "properties": {"type": "inleverpunt", "locatieNaam": "Lidl Nootdorp", "straatNaam": "Paradeplein", "straatNr": "1719", "postcode": "2632 GG", "plaats": "Nootdorp", "merk": "StichtingOPEN", "puntType": "balie", "materialen": ["batterijen", "lampen"], "uitbetaling": [], "vrijToegankelijk": false, "gemeenteBeperking": null, "openingstijden": null, "latitude": 52.044425, "longitude": 4.390379, "bronId": "SP00025676"}}, {"type": "Feature", "geometry": {"type": "Point", "coordinates": [4.396039, 52.009767]}, "properties": {"type": "inleverpunt", "locatieNaam": "65360 Hubo Delfgauw", "straatNaam": "Delftsestraatweg", "straatNr": "131", "postcode": "2645 AB", "plaats": "Delfgauw", "merk": "StichtingOPEN", "puntType": "balie", "materialen": ["batterijen", "elektro-klein", "lampen"], "uitbetaling": [], "vrijToegankelijk": false, "gemeenteBeperking": null, "openingstijden": null, "latitude": 52.009767, "longitude": 4.396039, "bronId": "SP00005151"}}, {"type": "Feature", "geometry": {"type": "Point", "coordinates": [4.396082, 51.994696]}, "properties": {"type": "inleverpunt", "locatieNaam": "Ahold RDC Pijnacker Delfgauw", "straatNaam": "Laan van Ruyven", "straatNr": "1", "postcode": "2645 EE", "plaats": "Delfgauw", "merk": "StichtingOPEN", "puntType": "balie", "materialen": ["batterijen", "elektro-klein", "lampen"], "uitbetaling": [], "vrijToegankelijk": false, "gemeenteBeperking": null, "openingstijden": null, "latitude": 51.994696, "longitude": 4.396082, "bronId": "SP00023362"}}, {"type": "Feature", "geometry": {"type": "Point", "coordinates": [4.391013, 52.005126]}, "properties": {"type": "inleverpunt", "locatieNaam": "1081 Albert Heijn Delfgauw", "straatNaam": "Gouden Rijderplein", "straatNr": "1", "postcode": "2645 EX", "plaats": "Delfgauw", "merk": "StichtingOPEN", "puntType": "balie", "materialen": ["batterijen", "elektro-klein", "lampen"], "uitbetaling": [], "vrijToegankelijk": false, "gemeenteBeperking": null, "openingstijden": null, "latitude": 52.005126, "longitude": 4.391013, "bronId": "SP00022793"}}, {"type": "Feature", "geometry": {"type": "Point", "coordinates": [4.387124, 52.004951]}, "properties": {"type": "inleverpunt", "locatieNaam": "Ranzijn tuin & dier Delft", "straatNaam": "Rijksstraatweg", "straatNr": "11", "postcode": "2628 GZ", "plaats": "Delft", "merk": "StichtingOPEN", "puntType": "balie", "materialen": ["batterijen", "elektro-klein", "elektro-middel", "lampen"], "uitbetaling": [], "vrijToegankelijk": false, "gemeenteBeperking": null, "openingstijden": null, "latitude": 52.004951, "longitude": 4.387124, "bronId": "SP00007994"}}, {"type": "Feature", "geometry": {"type": "Point", "coordinates": [4.44954, 52.0281466]}, "properties": {"type": "inleverpunt", "locatieNaam": "Bever (Hoofdkantoor)", "straatNaam": "Tochtweg", "straatNr": "4", "postcode": "2642 AP", "plaats": "Pijnacker", "merk": "Stibat", "puntType": "inzamelbak", "materialen": ["batterijen"], "uitbetaling": [], "vrijToegankelijk": false, "gemeenteBeperking": null, "openingstijden": null, "latitude": 52.0281466, "longitude": 4.44954, "bronId": "L019309"}}, {"type": "Feature", "geometry": {"type": "Point", "coordinates": [4.4385153, 52.0247726]}, "properties": {"type": "inleverpunt", "locatieNaam": "RoBoWeb Service Centre", "straatNaam": "Boezemweg", "straatNr": "6a", "postcode": "2641 KH", "plaats": "PIJNACKER", "merk": "Stibat", "puntType": "inzamelbak", "materialen": ["batterijen"], "uitbetaling": [], "vrijToegankelijk": false, "gemeenteBeperking": null, "openingstijden": null, "latitude": 52.0247726, "longitude": 4.4385153, "bronId": "L040411"}}, {"type": "Feature", "geometry": {"type": "Point", "coordinates": [4.443462, 52.0042712]}, "properties": {"type": "inleverpunt", "locatieNaam": "1605 Albert Heijn", "straatNaam": "Hoefbladplein", "straatNr": "4", "postcode": "2643 KD", "plaats": "PIJNACKER", "merk": "Stibat", "puntType": "inzamelbak", "materialen": ["batterijen"], "uitbetaling": [], "vrijToegankelijk": false, "gemeenteBeperking": null, "openingstijden": null, "latitude": 52.0042712, "longitude": 4.443462, "bronId": "L018919"}}, {"type": "Feature", "geometry": {"type": "Point", "coordinates": [4.4431651, 52.0042915]}, "properties": {"type": "inleverpunt", "locatieNaam": "6223 Etos", "straatNaam": "Hoefbladplein", "straatNr": "2", "postcode": "2643 KD", "plaats": "PIJNACKER", "merk": "Stibat", "puntType": "inzamelbak", "materialen": ["batterijen"], "uitbetaling": [], "vrijToegankelijk": false, "gemeenteBeperking": null, "openingstijden": null, "latitude": 52.0042915, "longitude": 4.4431651, "bronId": "L022234"}}, {"type": "Feature", "geometry": {"type": "Point", "coordinates": [4.4364506, 52.0266255]}, "properties": {"type": "inleverpunt", "locatieNaam": "7Digits", "straatNaam": "Boezemweg", "straatNr": "21A", "postcode": "2641 KG", "plaats": "PIJNACKER", "merk": "Stibat", "puntType": "inzamelbak", "materialen": ["batterijen"], "uitbetaling": [], "vrijToegankelijk": false, "gemeenteBeperking": null, "openingstijden": null, "latitude": 52.0266255, "longitude": 4.4364506, "bronId": "L035265"}}, {"type": "Feature", "geometry": {"type": "Point", "coordinates": [4.4424365, 52.004109]}, "properties": {"type": "inleverpunt", "locatieNaam": "Primera", "straatNaam": "Hoefbladplein", "straatNr": "9", "postcode": "2643 KD", "plaats": "PIJNACKER", "merk": "Stibat", "puntType": "inzamelbak", "materialen": ["batterijen"], "uitbetaling": [], "vrijToegankelijk": false, "gemeenteBeperking": null, "openingstijden": null, "latitude": 52.004109, "longitude": 4.4424365, "bronId": "L032206"}}, {"type": "Feature", "geometry": {"type": "Point", "coordinates": [4.4343171, 52.0186893]}, "properties": {"type": "inleverpunt", "locatieNaam": "Michel, uw fietsenmaker", "straatNaam": "Stationsstraat", "straatNr": "51", "postcode": "2641 GJ", "plaats": "PIJNACKER", "merk": "Stibat", "puntType": "inzamelbak", "materialen": ["batterijen"], "uitbetaling": [], "vrijToegankelijk": false, "gemeenteBeperking": null, "openingstijden": null, "latitude": 52.0186893, "longitude": 4.4343171, "bronId": "L038720"}}, {"type": "Feature", "geometry": {"type": "Point", "coordinates": [4.4335263, 52.0194937]}, "properties": {"type": "inleverpunt", "locatieNaam": "6159 Etos", "straatNaam": "Ackershof", "straatNr": "3", "postcode": "2641 DX", "plaats": "PIJNACKER", "merk": "Stibat", "puntType": "inzamelbak", "materialen": ["batterijen"], "uitbetaling": [], "vrijToegankelijk": false, "gemeenteBeperking": null, "openingstijden": null, "latitude": 52.0194937, "longitude": 4.4335263, "bronId": "L024304"}}, {"type": "Feature", "geometry": {"type": "Point", "coordinates": [4.4334751, 52.019341]}, "properties": {"type": "inleverpunt", "locatieNaam": "1388 Albert Heijn", "straatNaam": "Ackershof", "straatNr": "53", "postcode": "2641 DZ", "plaats": "PIJNACKER", "merk": "Stibat", "puntType": "inzamelbak", "materialen": ["batterijen"], "uitbetaling": [], "vrijToegankelijk": false, "gemeenteBeperking": null, "openingstijden": null, "latitude": 52.019341, "longitude": 4.4334751, "bronId": "L006134"}}, {"type": "Feature", "geometry": {"type": "Point", "coordinates": [4.4333321, 52.019395]}, "properties": {"type": "inleverpunt", "locatieNaam": "Reparatiemeester", "straatNaam": "Ackershof", "straatNr": "72", "postcode": "2641 BL", "plaats": "PIJNACKER", "merk": "Stibat", "puntType": "inzamelbak", "materialen": ["batterijen"], "uitbetaling": [], "vrijToegankelijk": false, "gemeenteBeperking": null, "openingstijden": null, "latitude": 52.019395, "longitude": 4.4333321, "bronId": "L037373"}}, {"type": "Feature", "geometry": {"type": "Point", "coordinates": [4.4332573, 52.019543]}, "properties": {"type": "inleverpunt", "locatieNaam": "HEMA Pijnacker", "straatNaam": "Ackershof", "straatNr": "63", "postcode": "2641 BL", "plaats": "Pijnacker", "merk": "Stibat", "puntType": "inzamelbak", "materialen": ["batterijen"], "uitbetaling": [], "vrijToegankelijk": false, "gemeenteBeperking": null, "openingstijden": null, "latitude": 52.019543, "longitude": 4.4332573, "bronId": "L047057"}}, {"type": "Feature", "geometry": {"type": "Point", "coordinates": [4.4329525, 52.0191456]}, "properties": {"type": "inleverpunt", "locatieNaam": "Hans Anders", "straatNaam": "Ackershof", "straatNr": "27", "postcode": "2641 DX", "plaats": "PIJNACKER", "merk": "Stibat", "puntType": "inzamelbak", "materialen": ["batterijen"], "uitbetaling": [], "vrijToegankelijk": false, "gemeenteBeperking": null, "openingstijden": null, "latitude": 52.0191456, "longitude": 4.4329525, "bronId": "L040994"}}, {"type": "Feature", "geometry": {"type": "Point", "coordinates": [4.4329536, 52.0190917]}, "properties": {"type": "inleverpunt", "locatieNaam": "Expert", "straatNaam": "Ackershof", "straatNr": "17", "postcode": "2641 DX", "plaats": "PIJNACKER", "merk": "Stibat", "puntType": "inzamelbak", "materialen": ["batterijen"], "uitbetaling": [], "vrijToegankelijk": false, "gemeenteBeperking": null, "openingstijden": null, "latitude": 52.0190917, "longitude": 4.4329536, "bronId": "L031171"}}, {"type": "Feature", "geometry": {"type": "Point", "coordinates": [4.4325454, 52.0197648]}, "properties": {"type": "inleverpunt", "locatieNaam": "Electro World", "straatNaam": "Oostlaan", "straatNr": "28-29", "postcode": "2641 DL", "plaats": "PIJNACKER", "merk": "Stibat", "puntType": "inzamelbak", "materialen": ["batterijen"], "uitbetaling": [], "vrijToegankelijk": false, "gemeenteBeperking": null, "openingstijden": null, "latitude": 52.0197648, "longitude": 4.4325454, "bronId": "L016045"}}, {"type": "Feature", "geometry": {"type": "Point", "coordinates": [4.4321771, 52.0191906]}, "properties": {"type": "inleverpunt", "locatieNaam": "Bruna", "straatNaam": "Ackershof", "straatNr": "30-32", "postcode": "2641 DX", "plaats": "PIJNACKER", "merk": "Stibat", "puntType": "inzamelbak", "materialen": ["batterijen"], "uitbetaling": [], "vrijToegankelijk": false, "gemeenteBeperking": null, "openingstijden": null, "latitude": 52.0191906, "longitude": 4.4321771, "bronId": "L022121"}}, {"type": "Feature", "geometry": {"type": "Point", "coordinates": [4.4320033, 52.0196227]}, "properties": {"type": "inleverpunt", "locatieNaam": "Kruidvat", "straatNaam": "Oostlaan", "straatNr": "21-22", "postcode": "2641 DK", "plaats": "PIJNACKER", "merk": "Stibat", "puntType": "inzamelbak", "materialen": ["batterijen"], "uitbetaling": [], "vrijToegankelijk": false, "gemeenteBeperking": null, "openingstijden": null, "latitude": 52.0196227, "longitude": 4.4320033, "bronId": "L013937"}}, {"type": "Feature", "geometry": {"type": "Point", "coordinates": [4.4318933, 52.0168899]}, "properties": {"type": "inleverpunt", "locatieNaam": "Th. v.d. Helm sanitair en tegels", "straatNaam": "Kerkweg", "straatNr": "41a", "postcode": "2641 GB", "plaats": "PIJNACKER", "merk": "Stibat", "puntType": "inzamelbak", "materialen": ["batterijen"], "uitbetaling": [], "vrijToegankelijk": false, "gemeenteBeperking": null, "openingstijden": null, "latitude": 52.0168899, "longitude": 4.4318933, "bronId": "L038611"}}, {"type": "Feature", "geometry": {"type": "Point", "coordinates": [4.4309626, 52.0193487]}, "properties": {"type": "inleverpunt", "locatieNaam": "Zeeman", "straatNaam": "Oostlaan", "straatNr": "12", "postcode": "2641 DK", "plaats": "Pijnacker", "merk": "Stibat", "puntType": "inzamelbak", "materialen": ["batterijen"], "uitbetaling": [], "vrijToegankelijk": false, "gemeenteBeperking": null, "openingstijden": null, "latitude": 52.0193487, "longitude": 4.4309626, "bronId": "L020879"}}, {"type": "Feature", "geometry": {"type": "Point", "coordinates": [4.4311193, 52.0184926]}, "properties": {"type": "inleverpunt", "locatieNaam": "Ritel", "straatNaam": "Ackershof", "straatNr": "85", "postcode": "2641 BL", "plaats": "PIJNACKER", "merk": "Stibat", "puntType": "inzamelbak", "materialen": ["batterijen"], "uitbetaling": [], "vrijToegankelijk": false, "gemeenteBeperking": null, "openingstijden": null, "latitude": 52.0184926, "longitude": 4.4311193, "bronId": "L047049"}}, {"type": "Feature", "geometry": {"type": "Point", "coordinates": [4.4306036, 52.0183923]}, "properties": {"type": "inleverpunt", "locatieNaam": "Dirk", "straatNaam": "Ackershof", "straatNr": "79", "postcode": "2641 BL", "plaats": "PIJNACKER", "merk": "Stibat", "puntType": "inzamelbak", "materialen": ["batterijen"], "uitbetaling": [], "vrijToegankelijk": false, "gemeenteBeperking": null, "openingstijden": null, "latitude": 52.0183923, "longitude": 4.4306036, "bronId": "L040061"}}, {"type": "Feature", "geometry": {"type": "Point", "coordinates": [4.4301007, 52.0191459]}, "properties": {"type": "inleverpunt", "locatieNaam": "Roukens Optiek", "straatNaam": "Oostlaan", "straatNr": "2", "postcode": "2641 DK", "plaats": "PIJNACKER", "merk": "Stibat", "puntType": "inzamelbak", "materialen": ["batterijen"], "uitbetaling": [], "vrijToegankelijk": false, "gemeenteBeperking": null, "openingstijden": null, "latitude": 52.0191459, "longitude": 4.4301007, "bronId": "L027048"}}, {"type": "Feature", "geometry": {"type": "Point", "coordinates": [4.4303958, 52.0158176]}, "properties": {"type": "inleverpunt", "locatieNaam": "Lidl", "straatNaam": "Korteweg", "straatNr": "2", "postcode": "2641 GZ", "plaats": "PIJNACKER", "merk": "Stibat", "puntType": "inzamelbak", "materialen": ["batterijen"], "uitbetaling": [], "vrijToegankelijk": false, "gemeenteBeperking": null, "openingstijden": null, "latitude": 52.0158176, "longitude": 4.4303958, "bronId": "L040461"}}, {"type": "Feature", "geometry": {"type": "Point", "coordinates": [4.4294516, 52.0189633]}, "properties": {"type": "inleverpunt", "locatieNaam": "Bike Totaal Wijtman Pijnacker", "straatNaam": "Westlaan", "straatNr": "6", "postcode": "2641 DM", "plaats": "PIJNACKER", "merk": "Stibat", "puntType": "inzamelbak", "materialen": ["batterijen"], "uitbetaling": [], "vrijToegankelijk": false, "gemeenteBeperking": null, "openingstijden": null, "latitude": 52.0189633, "longitude": 4.4294516, "bronId": "L030812"}}, {"type": "Feature", "geometry": {"type": "Point", "coordinates": [4.428396, 52.0193479]}, "properties": {"type": "inleverpunt", "locatieNaam": "PLUS", "straatNaam": "Hazelaarplein", "straatNr": "1", "postcode": "2641 BD", "plaats": "PIJNACKER", "merk": "Stibat", "puntType": "inzamelbak", "materialen": ["batterijen"], "uitbetaling": [], "vrijToegankelijk": false, "gemeenteBeperking": null, "openingstijden": null, "latitude": 52.0193479, "longitude": 4.428396, "bronId": "L021179"}}, {"type": "Feature", "geometry": {"type": "Point", "coordinates": [4.4261504, 52.0258588]}, "properties": {"type": "inleverpunt", "locatieNaam": "Lidl", "straatNaam": "Nobellaan", "straatNr": "20", "postcode": "2641 XR", "plaats": "PIJNACKER", "merk": "Stibat", "puntType": "inzamelbak", "materialen": ["batterijen"], "uitbetaling": [], "vrijToegankelijk": false, "gemeenteBeperking": null, "openingstijden": null, "latitude": 52.0258588, "longitude": 4.4261504, "bronId": "L030552"}}, {"type": "Feature", "geometry": {"type": "Point", "coordinates": [4.4197369, 52.0171794]}, "properties": {"type": "inleverpunt", "locatieNaam": "Intratuin", "straatNaam": "Rijskade", "straatNr": "1a", "postcode": "2641 NA", "plaats": "PIJNACKER", "merk": "Stibat", "puntType": "inzamelbak", "materialen": ["batterijen"], "uitbetaling": [], "vrijToegankelijk": false, "gemeenteBeperking": null, "openingstijden": null, "latitude": 52.0171794, "longitude": 4.4197369, "bronId": "L019730"}}, {"type": "Feature", "geometry": {"type": "Point", "coordinates": [4.4180215, 52.015981]}, "properties": {"type": "inleverpunt", "locatieNaam": "Quartel Modelbouw", "straatNaam": "Delftsestraatweg", "straatNr": "26", "postcode": "2641 NB", "plaats": "PIJNACKER", "merk": "Stibat", "puntType": "inzamelbak", "materialen": ["batterijen"], "uitbetaling": [], "vrijToegankelijk": false, "gemeenteBeperking": null, "openingstijden": null, "latitude": 52.015981, "longitude": 4.4180215, "bronId": "L011006"}}, {"type": "Feature", "geometry": {"type": "Point", "coordinates": [4.4060064, 52.0519151]}, "properties": {"type": "inleverpunt", "locatieNaam": "Yesss Electrical", "straatNaam": "Gildeweg", "straatNr": "10a", "postcode": "2632 BA", "plaats": "NOOTDORP", "merk": "Stibat", "puntType": "inzamelbak", "materialen": ["batterijen"], "uitbetaling": [], "vrijToegankelijk": false, "gemeenteBeperking": null, "openingstijden": null, "latitude": 52.0519151, "longitude": 4.4060064, "bronId": "L039049"}}, {"type": "Feature", "geometry": {"type": "Point", "coordinates": [4.3916682, 52.0464799]}, "properties": {"type": "inleverpunt", "locatieNaam": "Kruidvat", "straatNaam": "Lange Baan", "straatNr": "28-32", "postcode": "2632 GC", "plaats": "NOOTDORP", "merk": "Stibat", "puntType": "inzamelbak", "materialen": ["batterijen"], "uitbetaling": [], "vrijToegankelijk": false, "gemeenteBeperking": null, "openingstijden": null, "latitude": 52.0464799, "longitude": 4.3916682, "bronId": "L014878"}}, {"type": "Feature", "geometry": {"type": "Point", "coordinates": [4.391703, 52.0453166]}, "properties": {"type": "inleverpunt", "locatieNaam": "1405 Albert Heijn", "straatNaam": "Lange Baan", "straatNr": "6", "postcode": "2632 GC", "plaats": "NOOTDORP", "merk": "Stibat", "puntType": "inzamelbak", "materialen": ["batterijen"], "uitbetaling": [], "vrijToegankelijk": false, "gemeenteBeperking": null, "openingstijden": null, "latitude": 52.0453166, "longitude": 4.391703, "bronId": "L007753"}}, {"type": "Feature", "geometry": {"type": "Point", "coordinates": [4.3916725, 52.0451409]}, "properties": {"type": "inleverpunt", "locatieNaam": "Nebo de Fotospecialist Nootdorp", "straatNaam": "Lange Baan", "straatNr": "7", "postcode": "2632 GC", "plaats": "NOOTDORP", "merk": "Stibat", "puntType": "inzamelbak", "materialen": ["batterijen"], "uitbetaling": [], "vrijToegankelijk": false, "gemeenteBeperking": null, "openingstijden": null, "latitude": 52.0451409, "longitude": 4.3916725, "bronId": "L011794"}}, {"type": "Feature", "geometry": {"type": "Point", "coordinates": [4.3915582, 52.0448308]}, "properties": {"type": "inleverpunt", "locatieNaam": "1361 Action", "straatNaam": "Korte Baan", "straatNr": "2-14", "postcode": "2632 GK", "plaats": "NOOTDORP", "merk": "Stibat", "puntType": "inzamelbak", "materialen": ["batterijen"], "uitbetaling": [], "vrijToegankelijk": false, "gemeenteBeperking": null, "openingstijden": null, "latitude": 52.0448308, "longitude": 4.3915582, "bronId": "L038402"}}, {"type": "Feature", "geometry": {"type": "Point", "coordinates": [4.3914228, 52.044969]}, "properties": {"type": "inleverpunt", "locatieNaam": "6352 Etos", "straatNaam": "Lange Baan", "straatNr": "13", "postcode": "2632 GC", "plaats": "NOOTDORP", "merk": "Stibat", "puntType": "inzamelbak", "materialen": ["batterijen"], "uitbetaling": [], "vrijToegankelijk": false, "gemeenteBeperking": null, "openingstijden": null, "latitude": 52.044969, "longitude": 4.3914228, "bronId": "L045391"}}, {"type": "Feature", "geometry": {"type": "Point", "coordinates": [4.3915238, 52.0443795]}, "properties": {"type": "inleverpunt", "locatieNaam": "HEMA Nootdorp", "straatNaam": "Korte Baan", "straatNr": "31", "postcode": "2632 GL", "plaats": "Nootdorp", "merk": "Stibat", "puntType": "inzamelbak", "materialen": ["batterijen"], "uitbetaling": [], "vrijToegankelijk": false, "gemeenteBeperking": null, "openingstijden": null, "latitude": 52.0443795, "longitude": 4.3915238, "bronId": "L046784"}}, {"type": "Feature", "geometry": {"type": "Point", "coordinates": [4.3910645, 52.0450132]}, "properties": {"type": "inleverpunt", "locatieNaam": "Bruna", "straatNaam": "Langebaan", "straatNr": "22-24", "postcode": "2632 GC", "plaats": "NOOTDORP", "merk": "Stibat", "puntType": "inzamelbak", "materialen": ["batterijen"], "uitbetaling": [], "vrijToegankelijk": false, "gemeenteBeperking": null, "openingstijden": null, "latitude": 52.0450132, "longitude": 4.3910645, "bronId": "L022375"}}, {"type": "Feature", "geometry": {"type": "Point", "coordinates": [4.3905855, 52.0441244]}, "properties": {"type": "inleverpunt", "locatieNaam": "Jumbo", "straatNaam": "Paradeplein", "straatNr": "7", "postcode": "2632 GG", "plaats": "NOOTDORP", "merk": "Stibat", "puntType": "inzamelbak", "materialen": ["batterijen"], "uitbetaling": [], "vrijToegankelijk": false, "gemeenteBeperking": null, "openingstijden": null, "latitude": 52.0441244, "longitude": 4.3905855, "bronId": "L028891"}}, {"type": "Feature", "geometry": {"type": "Point", "coordinates": [4.3903634, 52.0444324]}, "properties": {"type": "inleverpunt", "locatieNaam": "Lidl", "straatNaam": "Paradeplein", "straatNr": "17", "postcode": "2632 GG", "plaats": "Nootdorp", "merk": "Stibat", "puntType": "inzamelbak", "materialen": ["batterijen"], "uitbetaling": [], "vrijToegankelijk": false, "gemeenteBeperking": null, "openingstijden": null, "latitude": 52.0444324, "longitude": 4.3903634, "bronId": "L016837"}}, {"type": "Feature", "geometry": {"type": "Point", "coordinates": [4.395808, 52.0097607]}, "properties": {"type": "inleverpunt", "locatieNaam": "Hubo", "straatNaam": "Delftsestraatweg", "straatNr": "131", "postcode": "2645 AB", "plaats": "DELFGAUW", "merk": "Stibat", "puntType": "inzamelbak", "materialen": ["batterijen"], "uitbetaling": [], "vrijToegankelijk": false, "gemeenteBeperking": null, "openingstijden": null, "latitude": 52.0097607, "longitude": 4.395808, "bronId": "L008860"}}, {"type": "Feature", "geometry": {"type": "Point", "coordinates": [4.3887672, 52.0394514]}, "properties": {"type": "inleverpunt", "locatieNaam": "Afvalbrengstation Pijnacker", "straatNaam": "Molenweg", "straatNr": "61", "postcode": "2631 AB", "plaats": "NOOTDORP", "merk": "Stibat", "puntType": "inzamelbak", "materialen": ["batterijen"], "uitbetaling": [], "vrijToegankelijk": false, "gemeenteBeperking": null, "openingstijden": null, "latitude": 52.0394514, "longitude": 4.3887672, "bronId": "L035632"}}, {"type": "Feature", "geometry": {"type": "Point", "coordinates": [4.3948909, 52.009087]}, "properties": {"type": "inleverpunt", "locatieNaam": "Jotronics B.V.", "straatNaam": "Delftsestraatweg", "straatNr": "149", "postcode": "2645 BA", "plaats": "DELFGAUW", "merk": "Stibat", "puntType": "inzamelbak", "materialen": ["batterijen"], "uitbetaling": [], "vrijToegankelijk": false, "gemeenteBeperking": null, "openingstijden": null, "latitude": 52.009087, "longitude": 4.3948909, "bronId": "L024760"}}, {"type": "Feature", "geometry": {"type": "Point", "coordinates": [4.397151, 51.9975427]}, "properties": {"type": "inleverpunt", "locatieNaam": "De Haan", "straatNaam": "Importweg", "straatNr": "1", "postcode": "2645 EC", "plaats": "Delfgauw", "merk": "Stibat", "puntType": "inzamelbak", "materialen": ["batterijen"], "uitbetaling": [], "vrijToegankelijk": false, "gemeenteBeperking": null, "openingstijden": null, "latitude": 51.9975427, "longitude": 4.397151, "bronId": "L044799"}}, {"type": "Feature", "geometry": {"type": "Point", "coordinates": [4.3956317, 51.9970907]}, "properties": {"type": "inleverpunt", "locatieNaam": "Karwei", "straatNaam": "Importweg", "straatNr": "2", "postcode": "2645 EC", "plaats": "DELFGAUW", "merk": "Stibat", "puntType": "inzamelbak", "materialen": ["batterijen"], "uitbetaling": [], "vrijToegankelijk": false, "gemeenteBeperking": null, "openingstijden": null, "latitude": 51.9970907, "longitude": 4.3956317, "bronId": "L005615"}}, {"type": "Feature", "geometry": {"type": "Point", "coordinates": [4.3945443, 51.9967297]}, "properties": {"type": "inleverpunt", "locatieNaam": "Mastermate", "straatNaam": "Importweg", "straatNr": "3", "postcode": "2645 EC", "plaats": "DELFGAUW", "merk": "Stibat", "puntType": "inzamelbak", "materialen": ["batterijen"], "uitbetaling": [], "vrijToegankelijk": false, "gemeenteBeperking": null, "openingstijden": null, "latitude": 51.9967297, "longitude": 4.3945443, "bronId": "L031884"}}, {"type": "Feature", "geometry": {"type": "Point", "coordinates": [4.3914717, 52.0052669]}, "properties": {"type": "inleverpunt", "locatieNaam": "7774 Etos", "straatNaam": "Gouden Rijderplein", "straatNr": "6", "postcode": "2645 EX", "plaats": "DELFGAUW", "merk": "Stibat", "puntType": "inzamelbak", "materialen": ["batterijen"], "uitbetaling": [], "vrijToegankelijk": false, "gemeenteBeperking": null, "openingstijden": null, "latitude": 52.0052669, "longitude": 4.3914717, "bronId": "L024814"}}, {"type": "Feature", "geometry": {"type": "Point", "coordinates": [4.3914047, 52.0052285]}, "properties": {"type": "inleverpunt", "locatieNaam": "1081 Albert Heijn", "straatNaam": "Gouden Rijdenplein", "straatNr": "1", "postcode": "2645 EX", "plaats": "DELFGAUW", "merk": "Stibat", "puntType": "inzamelbak", "materialen": ["batterijen"], "uitbetaling": [], "vrijToegankelijk": false, "gemeenteBeperking": null, "openingstijden": null, "latitude": 52.0052285, "longitude": 4.3914047, "bronId": "L007395"}}, {"type": "Feature", "geometry": {"type": "Point", "coordinates": [4.3871241, 52.0049516]}, "properties": {"type": "inleverpunt", "locatieNaam": "Ranzijn Tuin &amp; Dier", "straatNaam": "Rijksstraatweg", "straatNr": "11", "postcode": "2628 GZ", "plaats": "DELFT", "merk": "Stibat", "puntType": "inzamelbak", "materialen": ["batterijen"], "uitbetaling": [], "vrijToegankelijk": false, "gemeenteBeperking": null, "openingstijden": null, "latitude": 52.0049516, "longitude": 4.3871241, "bronId": "L041979"}}, {"type": "Feature", "geometry": {"type": "Polygon", "coordinates": [[[4.407841000723832, 51.96829400389451], [4.427517000744011, 51.97621000389963], [4.427898000744408, 51.976466003899795], [4.424224000740868, 51.97925700390152], [4.4244460007411135, 51.97961100390175], [4.4257980007424935, 51.98007600390203], [4.447248000764686, 51.99240900390989], [4.4477090007652, 51.993372003910544], [4.452878000770601, 51.99727100391299], [4.451341000769104, 51.99819300391355], [4.449776000767657, 52.00050300391495], [4.458717000776724, 52.002196003916104], [4.458498000776584, 52.003687003917015], [4.458900000777034, 52.004644003917626], [4.457802000775932, 52.004564003917565], [4.457043000775187, 52.0049440039178], [4.45540600077362, 52.00634300391867], [4.455389000773626, 52.00679800391893], [4.455892000774149, 52.00712200391911], [4.456405000774738, 52.00852700392003], [4.457554000775918, 52.00903800392036], [4.4578350007762335, 52.009647003920726], [4.459223000777671, 52.010499003921254], [4.4596900007782, 52.011629003921975], [4.461562000780135, 52.01265100392261], [4.460681000779325, 52.0140450039235], [4.458547000777267, 52.01562100392442], [4.45854500077731, 52.016470003924994], [4.459438000778236, 52.01704500392535], [4.459121000777969, 52.01798500392595], [4.458084000776959, 52.01857600392629], [4.458295000777221, 52.019553003926916], [4.457587000776568, 52.020593003927566], [4.45767100077671, 52.02162200392821], [4.4571460007762065, 52.0220910039285], [4.460385000779507, 52.02304200392907], [4.461304000780475, 52.023889003929625], [4.463566000782764, 52.02424000392987], [4.467324000786596, 52.025408003930615], [4.467993000787286, 52.02578700393085], [4.468602000787961, 52.026979003931565], [4.476790000796427, 52.03168500393459], [4.472816000792777, 52.0380270039385], [4.472225000792197, 52.038252003938624], [4.47195600079197, 52.03903100393912], [4.4715880007915985, 52.0389940039391], [4.47074400079083, 52.04047800394], [4.457644000777589, 52.038619003938756], [4.4569950007769945, 52.039672003939394], [4.456438000776431, 52.039542003939246], [4.450564000771053, 52.04921000394526], [4.432580000753101, 52.05070500394608], [4.430948000751486, 52.0510900039463], [4.425327000745873, 52.05158000394653], [4.404918000725486, 52.05298800394724], [4.401625000722213, 52.05353600394756], [4.398550000719003, 52.05121800394612], [4.394445000715043, 52.05405400394781], [4.393124000713652, 52.05284300394705], [4.39258700071313, 52.05315300394726], [4.391131000711605, 52.051952003946475], [4.3914400007119045, 52.05176100394638], [4.38967600071004, 52.04996100394526], [4.387905000708328, 52.051169003946], [4.372646000692465, 52.04092000393948], [4.379858000699425, 52.035952003936465], [4.386132000705858, 52.03850500393811], [4.386877000706601, 52.03840200393804], [4.387436000707174, 52.03864700393821], [4.3939280007133785, 52.0330540039348], [4.3797350006988, 52.02673300393076], [4.380378000699454, 52.02690400393086], [4.382294000701287, 52.02528800392984], [4.385301000704235, 52.024036003929105], [4.386245000705143, 52.02330800392867], [4.394516000712781, 52.01125600392122], [4.388346000706494, 52.00944800392005], [4.389025000707086, 52.00783100391905], [4.388314000706365, 52.00767100391894], [4.388115000706117, 52.0067700039184], [4.38865600070659, 52.00549400391759], [4.385916000703803, 52.00483500391715], [4.397030000713555, 51.97897400390113], [4.398141000714678, 51.97914900390123], [4.3983970007148985, 51.97841800390074], [4.40115200071766, 51.97834600390074], [4.4033900007196225, 51.9731330038975], [4.404709000720861, 51.97150900389652], [4.405652000721782, 51.97104400389622], [4.407841000723832, 51.96829400389451]]]}, "properties": {"type": "boundary", "gemeente": "Pijnacker-Nootdorp"}}]}