{"type": "FeatureCollection", "metadata": {"gemeente": "Reimerswaal", "slug": "reimerswaal", "generated_at": "2026-09-14T07:32:33.064092Z", "total_points": 43, "merken": ["StatiegeldNederland", "Stibat", "StichtingOPEN"], "bounds": [3.9953971, 51.4163857, 4.18177, 51.4943494]}, "features": [{"type": "Feature", "geometry": {"type": "Point", "coordinates": [4.0492044, 51.491495]}, "properties": {"type": "inleverpunt", "locatieNaam": "Albert Heijn", "straatNaam": "Oude Torenstraat", "straatNr": "37", "postcode": "4401 EH", "plaats": "Yerseke", "merk": "StatiegeldNederland", "puntType": "automaat", "materialen": ["pet-groot", "pet-klein", "blik", "glas", "krat"], "uitbetaling": ["bonnetje", "donatie"], "vrijToegankelijk": true, "gemeenteBeperking": null, "openingstijden": {"ma": "08:00–21:30", "di": "08:00–21:30", "wo": "08:00–21:30", "do": "08:00–21:30", "vr": "08:00–21:30", "za": "08:00–21:30", "zo": "Gesloten"}, "latitude": 51.491495, "longitude": 4.0492044, "bronId": "336160"}}, {"type": "Feature", "geometry": {"type": "Point", "coordinates": [4.0965055, 51.4229025]}, "properties": {"type": "inleverpunt", "locatieNaam": "Albert Heijn To Go", "straatNaam": "VLIETE 1 / RIJKSWEG A58", "straatNr": "1", "postcode": "4413 RX", "plaats": "Krabbendijke", "merk": "StatiegeldNederland", "puntType": "balie", "materialen": ["pet-groot", "pet-klein", "blik"], "uitbetaling": [], "vrijToegankelijk": true, "gemeenteBeperking": null, "openingstijden": {"ma": "06:00–19:00", "di": "06:00–19:00", "wo": "06:00–19:00", "do": "06:00–19:00", "vr": "06:00–19:00", "za": "06:00–19:00", "zo": "06:00–19:00"}, "latitude": 51.4229025, "longitude": 4.0965055, "bronId": "336553"}}, {"type": "Feature", "geometry": {"type": "Point", "coordinates": [4.0427399, 51.4463576]}, "properties": {"type": "inleverpunt", "locatieNaam": "Aldi", "straatNaam": "Sluisweg", "straatNr": "26", "postcode": "4416 RL", "plaats": "Kruiningen", "merk": "StatiegeldNederland", "puntType": "automaat", "materialen": ["pet-groot", "pet-klein", "blik", "glas", "krat"], "uitbetaling": ["bonnetje"], "vrijToegankelijk": true, "gemeenteBeperking": null, "openingstijden": {"ma": "08:00–20:00", "di": "08:00–20:00", "wo": "08:00–20:00", "do": "08:00–20:00", "vr": "08:00–20:00", "za": "08:00–20:00", "zo": "Gesloten"}, "latitude": 51.4463576, "longitude": 4.0427399, "bronId": "336928"}}, {"type": "Feature", "geometry": {"type": "Point", "coordinates": [4.111352, 51.43088]}, "properties": {"type": "inleverpunt", "locatieNaam": "Jumbo", "straatNaam": "Dorpsstraat", "straatNr": "90", "postcode": "4413 CE", "plaats": "Krabbendijke", "merk": "StatiegeldNederland", "puntType": "automaat", "materialen": ["pet-groot", "pet-klein", "blik", "glas", "krat"], "uitbetaling": ["bonnetje"], "vrijToegankelijk": true, "gemeenteBeperking": null, "openingstijden": {"ma": "08:00–20:00", "di": "08:00–20:00", "wo": "08:00–20:00", "do": "08:00–20:00", "vr": "08:00–20:00", "za": "07:30–20:00", "zo": "Gesloten"}, "latitude": 51.43088, "longitude": 4.111352, "bronId": "338967"}}, {"type": "Feature", "geometry": {"type": "Point", "coordinates": [4.0408569, 51.4883594]}, "properties": {"type": "inleverpunt", "locatieNaam": "Korfbalvereniging Volharding", "straatNaam": "Hoogeweg", "straatNr": "2", "postcode": "4401 BT", "plaats": "Yerseke", "merk": "StatiegeldNederland", "puntType": "balie", "materialen": ["pet-groot", "pet-klein", "blik"], "uitbetaling": [], "vrijToegankelijk": false, "gemeenteBeperking": null, "openingstijden": null, "latitude": 51.4883594, "longitude": 4.0408569, "bronId": "339609"}}, {"type": "Feature", "geometry": {"type": "Point", "coordinates": [4.1087011, 51.4338859]}, "properties": {"type": "inleverpunt", "locatieNaam": "L.t.c. De Klappers", "straatNaam": "Oosterscheldestraat", "straatNr": "10A", "postcode": "4413 CT", "plaats": "Krabbendijke", "merk": "StatiegeldNederland", "puntType": "balie", "materialen": ["pet-groot", "pet-klein", "blik"], "uitbetaling": [], "vrijToegankelijk": false, "gemeenteBeperking": null, "openingstijden": {"ma": "08:00–23:00", "di": "08:00–23:00", "wo": "08:00–23:00", "do": "08:00–23:00", "vr": "08:00–23:00", "za": "08:00–23:00", "zo": "08:00–23:00"}, "latitude": 51.4338859, "longitude": 4.1087011, "bronId": "339647"}}, {"type": "Feature", "geometry": {"type": "Point", "coordinates": [4.0328202, 51.4505409]}, "properties": {"type": "inleverpunt", "locatieNaam": "Ltc Kruiningen", "straatNaam": "Meidam", "straatNr": "4A", "postcode": "4416 AJ", "plaats": "Kruiningen", "merk": "StatiegeldNederland", "puntType": "balie", "materialen": ["pet-groot", "pet-klein", "blik"], "uitbetaling": [], "vrijToegankelijk": false, "gemeenteBeperking": null, "openingstijden": {"ma": "08:00–22:00", "di": "08:00–22:00", "wo": "08:00–22:00", "do": "08:00–22:00", "vr": "08:00–22:00", "za": "08:00–22:00", "zo": "08:00–22:00"}, "latitude": 51.4505409, "longitude": 4.0328202, "bronId": "340174"}}, {"type": "Feature", "geometry": {"type": "Point", "coordinates": [4.0062271, 51.4476217]}, "properties": {"type": "inleverpunt", "locatieNaam": "Meermarkt Arie Hak V.O.F. // SPAR HAK", "straatNaam": "Leklaan", "straatNr": "2-4", "postcode": "4417 DA", "plaats": "Hansweert", "merk": "StatiegeldNederland", "puntType": "automaat", "materialen": ["pet-groot", "pet-klein", "blik"], "uitbetaling": [], "vrijToegankelijk": true, "gemeenteBeperking": null, "openingstijden": null, "latitude": 51.4476217, "longitude": 4.0062271, "bronId": "340439"}}, {"type": "Feature", "geometry": {"type": "Point", "coordinates": [4.0347828, 51.4474758]}, "properties": {"type": "inleverpunt", "locatieNaam": "Plus", "straatNaam": "Voorhoute", "straatNr": "1", "postcode": "4416 BS", "plaats": "Kruiningen", "merk": "StatiegeldNederland", "puntType": "automaat", "materialen": ["pet-groot", "pet-klein", "blik", "glas", "krat"], "uitbetaling": ["bonnetje"], "vrijToegankelijk": true, "gemeenteBeperking": null, "openingstijden": {"ma": "08:00–20:00", "di": "08:00–20:00", "wo": "08:00–20:00", "do": "08:00–20:00", "vr": "08:00–20:00", "za": "08:00–18:00", "zo": "Gesloten"}, "latitude": 51.4474758, "longitude": 4.0347828, "bronId": "341296"}}, {"type": "Feature", "geometry": {"type": "Point", "coordinates": [4.181599, 51.416507]}, "properties": {"type": "inleverpunt", "locatieNaam": "Spar", "straatNaam": "Hoofdweg", "straatNr": "25", "postcode": "4411 AN", "plaats": "Rilland", "merk": "StatiegeldNederland", "puntType": "automaat", "materialen": ["pet-groot", "pet-klein", "blik", "glas", "krat"], "uitbetaling": ["bonnetje", "donatie"], "vrijToegankelijk": true, "gemeenteBeperking": null, "openingstijden": {"ma": "08:00–20:00", "di": "08:00–20:00", "wo": "08:00–20:00", "do": "08:00–20:00", "vr": "08:00–20:00", "za": "08:00–18:00", "zo": "Gesloten"}, "latitude": 51.416507, "longitude": 4.181599, "bronId": "342188"}}, {"type": "Feature", "geometry": {"type": "Point", "coordinates": [4.0386831, 51.4877589]}, "properties": {"type": "inleverpunt", "locatieNaam": "Tennis Vereniging Yerseke", "straatNaam": "Hogeweg", "straatNr": "13", "postcode": "4401 BT", "plaats": "Yerseke", "merk": "StatiegeldNederland", "puntType": "balie", "materialen": ["pet-groot", "pet-klein", "blik"], "uitbetaling": [], "vrijToegankelijk": false, "gemeenteBeperking": null, "openingstijden": {"ma": "09:00–23:00", "di": "09:00–23:00", "wo": "09:00–23:00", "do": "09:00–23:00", "vr": "09:00–23:00", "za": "09:00–23:00", "zo": "09:00–23:00"}, "latitude": 51.4877589, "longitude": 4.0386831, "bronId": "342780"}}, {"type": "Feature", "geometry": {"type": "Point", "coordinates": [3.9953971, 51.4514262]}, "properties": {"type": "inleverpunt", "locatieNaam": "V.v. Hansweertse Boys", "straatNaam": "Zijpe", "straatNr": "17", "postcode": "4417 CP", "plaats": "Hansweert", "merk": "StatiegeldNederland", "puntType": "balie", "materialen": ["pet-groot", "pet-klein", "blik"], "uitbetaling": [], "vrijToegankelijk": false, "gemeenteBeperking": null, "openingstijden": null, "latitude": 51.4514262, "longitude": 3.9953971, "bronId": "343034"}}, {"type": "Feature", "geometry": {"type": "Point", "coordinates": [4.0742302, 51.4459252]}, "properties": {"type": "inleverpunt", "locatieNaam": "ViaTim", "straatNaam": "2e Vlietweg", "straatNr": "18B", "postcode": "4415 AG", "plaats": "Oostdijk", "merk": "StatiegeldNederland", "puntType": "balie", "materialen": ["pet-groot", "pet-klein", "blik"], "uitbetaling": ["tikkie"], "vrijToegankelijk": true, "gemeenteBeperking": null, "openingstijden": {"ma": "16:00–21:00", "di": "16:00–21:00", "wo": "16:00–21:00", "do": "16:00–21:00", "vr": "16:00–21:00", "za": "09:00–12:00", "zo": "Gesloten"}, "latitude": 51.4459252, "longitude": 4.0742302, "bronId": "343119"}}, {"type": "Feature", "geometry": {"type": "Point", "coordinates": [4.0687396, 51.4163857]}, "properties": {"type": "inleverpunt", "locatieNaam": "ViaTim", "straatNaam": "Havenstraat", "straatNr": "3", "postcode": "4414 AX", "plaats": "Waarde", "merk": "StatiegeldNederland", "puntType": "balie", "materialen": ["pet-groot", "pet-klein", "blik"], "uitbetaling": ["tikkie"], "vrijToegankelijk": true, "gemeenteBeperking": null, "openingstijden": {"ma": "16:00–21:00", "di": "16:00–21:00", "wo": "16:00–21:00", "do": "16:00–21:00", "vr": "16:00–21:00", "za": "Gesloten", "zo": "Gesloten"}, "latitude": 51.4163857, "longitude": 4.0687396, "bronId": "343286"}}, {"type": "Feature", "geometry": {"type": "Point", "coordinates": [4.18177, 51.416472]}, "properties": {"type": "inleverpunt", "locatieNaam": "Spar Rilland", "straatNaam": "Hoofdweg", "straatNr": "25", "postcode": "4411 AN", "plaats": "Rilland", "merk": "StichtingOPEN", "puntType": "balie", "materialen": ["batterijen", "lampen"], "uitbetaling": [], "vrijToegankelijk": false, "gemeenteBeperking": null, "openingstijden": null, "latitude": 51.416472, "longitude": 4.18177, "bronId": "SP00022369"}}, {"type": "Feature", "geometry": {"type": "Point", "coordinates": [4.049837, 51.492005]}, "properties": {"type": "inleverpunt", "locatieNaam": "Electro World Lamper", "straatNaam": "Dreef", "straatNr": "2", "postcode": "4401 EC", "plaats": "Yerseke", "merk": "StichtingOPEN", "puntType": "balie", "materialen": ["lampen"], "uitbetaling": [], "vrijToegankelijk": false, "gemeenteBeperking": null, "openingstijden": null, "latitude": 51.492005, "longitude": 4.049837, "bronId": "SP00035284"}}, {"type": "Feature", "geometry": {"type": "Point", "coordinates": [4.04864, 51.492573]}, "properties": {"type": "inleverpunt", "locatieNaam": "1476 Albert Heijn Yerseke", "straatNaam": "Oude Torenstraat", "straatNr": "37", "postcode": "4401 EH", "plaats": "Yerseke", "merk": "StichtingOPEN", "puntType": "balie", "materialen": ["batterijen", "elektro-klein", "lampen"], "uitbetaling": [], "vrijToegankelijk": false, "gemeenteBeperking": null, "openingstijden": null, "latitude": 51.492573, "longitude": 4.04864, "bronId": "SP00022574"}}, {"type": "Feature", "geometry": {"type": "Point", "coordinates": [4.113742, 51.430044]}, "properties": {"type": "inleverpunt", "locatieNaam": "Hubo Krabbendijke", "straatNaam": "Dorpsstraat", "straatNr": "46A", "postcode": "4413 BM", "plaats": "Krabbendijke", "merk": "StichtingOPEN", "puntType": "balie", "materialen": ["elektro-middel", "lampen", "tl-buizen"], "uitbetaling": [], "vrijToegankelijk": false, "gemeenteBeperking": null, "openingstijden": null, "latitude": 51.430044, "longitude": 4.113742, "bronId": "SP00020308"}}, {"type": "Feature", "geometry": {"type": "Point", "coordinates": [4.111313, 51.430883]}, "properties": {"type": "inleverpunt", "locatieNaam": "Jumbo Krabbendijke", "straatNaam": "Dorpsstraat", "straatNr": "90", "postcode": "4413 CE", "plaats": "Krabbendijke", "merk": "StichtingOPEN", "puntType": "balie", "materialen": ["batterijen", "lampen"], "uitbetaling": [], "vrijToegankelijk": false, "gemeenteBeperking": null, "openingstijden": null, "latitude": 51.430883, "longitude": 4.111313, "bronId": "SP00024987"}}, {"type": "Feature", "geometry": {"type": "Point", "coordinates": [4.042739, 51.446357]}, "properties": {"type": "inleverpunt", "locatieNaam": "Aldi Kruiningen", "straatNaam": "Sluisweg", "straatNr": "26", "postcode": "4416 RL", "plaats": "Kruiningen", "merk": "StichtingOPEN", "puntType": "balie", "materialen": ["batterijen"], "uitbetaling": [], "vrijToegankelijk": false, "gemeenteBeperking": null, "openingstijden": null, "latitude": 51.446357, "longitude": 4.042739, "bronId": "SP00027134"}}, {"type": "Feature", "geometry": {"type": "Point", "coordinates": [4.03478, 51.44748]}, "properties": {"type": "inleverpunt", "locatieNaam": "Coop Kruiningen", "straatNaam": "Voorhoute", "straatNr": "1", "postcode": "4416 BS", "plaats": "Kruiningen", "merk": "StichtingOPEN", "puntType": "balie", "materialen": ["batterijen", "lampen"], "uitbetaling": [], "vrijToegankelijk": false, "gemeenteBeperking": null, "openingstijden": null, "latitude": 51.44748, "longitude": 4.03478, "bronId": "SP00029834"}}, {"type": "Feature", "geometry": {"type": "Point", "coordinates": [4.033148, 51.439051]}, "properties": {"type": "inleverpunt", "locatieNaam": "Schaap Witgoed", "straatNaam": "Donkervliet", "straatNr": "18", "postcode": "4416 HN", "plaats": "Kruiningen", "merk": "StichtingOPEN", "puntType": "balie", "materialen": ["elektro-klein", "elektro-middel"], "uitbetaling": [], "vrijToegankelijk": false, "gemeenteBeperking": null, "openingstijden": null, "latitude": 51.439051, "longitude": 4.033148, "bronId": "SP00022318"}}, {"type": "Feature", "geometry": {"type": "Point", "coordinates": [4.006222, 51.447563]}, "properties": {"type": "inleverpunt", "locatieNaam": "Spar Hansweert", "straatNaam": "Leklaan", "straatNr": "24", "postcode": "4417 DA", "plaats": "Hansweert", "merk": "StichtingOPEN", "puntType": "balie", "materialen": ["batterijen", "lampen"], "uitbetaling": [], "vrijToegankelijk": false, "gemeenteBeperking": null, "openingstijden": null, "latitude": 51.447563, "longitude": 4.006222, "bronId": "SP00022373"}}, {"type": "Feature", "geometry": {"type": "Point", "coordinates": [4.038012, 51.458281]}, "properties": {"type": "inleverpunt", "locatieNaam": "ZRD - Milieustraat Reimerswaal", "straatNaam": "Stationsweg", "straatNr": "8a", "postcode": "4416 PJ", "plaats": "Kruiningen", "merk": "StichtingOPEN", "puntType": "milieustraat", "materialen": ["batterijen", "elektro-groot", "elektro-klein", "elektro-middel", "lampen", "tl-buizen"], "uitbetaling": [], "vrijToegankelijk": false, "gemeenteBeperking": ["Reimerswaal", "Borsele", "Goes", "Kapelle", "Middelburg", "Veere", "Vlissingen", "Noord-Beveland"], "openingstijden": null, "latitude": 51.458281, "longitude": 4.038012, "bronId": "SP00001452"}}, {"type": "Feature", "geometry": {"type": "Point", "coordinates": [4.1817589, 51.4164659]}, "properties": {"type": "inleverpunt", "locatieNaam": "Spar", "straatNaam": "Hoofdweg", "straatNr": "25", "postcode": "4411 AN", "plaats": "Rilland", "merk": "Stibat", "puntType": "inzamelbak", "materialen": ["batterijen"], "uitbetaling": [], "vrijToegankelijk": false, "gemeenteBeperking": null, "openingstijden": null, "latitude": 51.4164659, "longitude": 4.1817589, "bronId": "L022267"}}, {"type": "Feature", "geometry": {"type": "Point", "coordinates": [4.050314, 51.4943494]}, "properties": {"type": "inleverpunt", "locatieNaam": "Boekhandel Hoekman", "straatNaam": "Noordzandstraat", "straatNr": "34", "postcode": "4401 CG", "plaats": "Yerseke", "merk": "Stibat", "puntType": "inzamelbak", "materialen": ["batterijen"], "uitbetaling": [], "vrijToegankelijk": false, "gemeenteBeperking": null, "openingstijden": null, "latitude": 51.4943494, "longitude": 4.050314, "bronId": "L027176"}}, {"type": "Feature", "geometry": {"type": "Point", "coordinates": [4.0501286, 51.492819]}, "properties": {"type": "inleverpunt", "locatieNaam": "DA", "straatNaam": "Wijngaardstraat", "straatNr": "4-6", "postcode": "4401 CS", "plaats": "Yerseke", "merk": "Stibat", "puntType": "inzamelbak", "materialen": ["batterijen"], "uitbetaling": [], "vrijToegankelijk": false, "gemeenteBeperking": null, "openingstijden": null, "latitude": 51.492819, "longitude": 4.0501286, "bronId": "L026297"}}, {"type": "Feature", "geometry": {"type": "Point", "coordinates": [4.0501286, 51.492819]}, "properties": {"type": "inleverpunt", "locatieNaam": "Novy", "straatNaam": "Wijngaardstraat", "straatNr": "4-6", "postcode": "4401 CS", "plaats": "Yerseke", "merk": "Stibat", "puntType": "inzamelbak", "materialen": ["batterijen"], "uitbetaling": [], "vrijToegankelijk": false, "gemeenteBeperking": null, "openingstijden": null, "latitude": 51.492819, "longitude": 4.0501286, "bronId": "L022816"}}, {"type": "Feature", "geometry": {"type": "Point", "coordinates": [4.0494194, 51.4914714]}, "properties": {"type": "inleverpunt", "locatieNaam": "1476 Albert Heijn", "straatNaam": "Oude Torenstraat", "straatNr": "37", "postcode": "4401 EH", "plaats": "Yerseke", "merk": "Stibat", "puntType": "inzamelbak", "materialen": ["batterijen"], "uitbetaling": [], "vrijToegankelijk": false, "gemeenteBeperking": null, "openingstijden": null, "latitude": 51.4914714, "longitude": 4.0494194, "bronId": "L005940"}}, {"type": "Feature", "geometry": {"type": "Point", "coordinates": [4.0446441, 51.4853284]}, "properties": {"type": "inleverpunt", "locatieNaam": "Zeeuws Zakelijk (Telecom &amp; IT)", "straatNaam": "Grintweg", "straatNr": "34", "postcode": "4401 NE", "plaats": "Yerseke", "merk": "Stibat", "puntType": "inzamelbak", "materialen": ["batterijen"], "uitbetaling": [], "vrijToegankelijk": false, "gemeenteBeperking": null, "openingstijden": null, "latitude": 51.4853284, "longitude": 4.0446441, "bronId": "L046476"}}, {"type": "Feature", "geometry": {"type": "Point", "coordinates": [4.1178015, 51.4284222]}, "properties": {"type": "inleverpunt", "locatieNaam": "Vermare v.o.f.", "straatNaam": "Oostweg", "straatNr": "27", "postcode": "4413 BP", "plaats": "Krabbendijke", "merk": "Stibat", "puntType": "inzamelbak", "materialen": ["batterijen"], "uitbetaling": [], "vrijToegankelijk": false, "gemeenteBeperking": null, "openingstijden": null, "latitude": 51.4284222, "longitude": 4.1178015, "bronId": "L033367"}}, {"type": "Feature", "geometry": {"type": "Point", "coordinates": [4.1126872, 51.4302469]}, "properties": {"type": "inleverpunt", "locatieNaam": "Drogisterij Looyen", "straatNaam": "Dorpsstraat", "straatNr": "59", "postcode": "4413 BL", "plaats": "Krabbendijke", "merk": "Stibat", "puntType": "inzamelbak", "materialen": ["batterijen"], "uitbetaling": [], "vrijToegankelijk": false, "gemeenteBeperking": null, "openingstijden": null, "latitude": 51.4302469, "longitude": 4.1126872, "bronId": "L025806"}}, {"type": "Feature", "geometry": {"type": "Point", "coordinates": [4.1113554, 51.4308825]}, "properties": {"type": "inleverpunt", "locatieNaam": "Jumbo", "straatNaam": "Dorpsstraat", "straatNr": "90", "postcode": "4413 CE", "plaats": "Krabbendijke", "merk": "Stibat", "puntType": "inzamelbak", "materialen": ["batterijen"], "uitbetaling": [], "vrijToegankelijk": false, "gemeenteBeperking": null, "openingstijden": null, "latitude": 51.4308825, "longitude": 4.1113554, "bronId": "L031369"}}, {"type": "Feature", "geometry": {"type": "Point", "coordinates": [4.1092152, 51.4309423]}, "properties": {"type": "inleverpunt", "locatieNaam": "Neels Krabbendijke", "straatNaam": "Dorpsstraat", "straatNr": "87", "postcode": "4413 CD", "plaats": "Krabbendijke", "merk": "Stibat", "puntType": "inzamelbak", "materialen": ["batterijen"], "uitbetaling": [], "vrijToegankelijk": false, "gemeenteBeperking": null, "openingstijden": null, "latitude": 51.4309423, "longitude": 4.1092152, "bronId": "L043826"}}, {"type": "Feature", "geometry": {"type": "Point", "coordinates": [4.107927, 51.4313278]}, "properties": {"type": "inleverpunt", "locatieNaam": "De Looff speelgoed huishoud en kado", "straatNaam": "Dorpsstraat", "straatNr": "95a", "postcode": "4413 CD", "plaats": "Krabbendijke", "merk": "Stibat", "puntType": "inzamelbak", "materialen": ["batterijen"], "uitbetaling": [], "vrijToegankelijk": false, "gemeenteBeperking": null, "openingstijden": null, "latitude": 51.4313278, "longitude": 4.107927, "bronId": "L030523"}}, {"type": "Feature", "geometry": {"type": "Point", "coordinates": [4.1103278, 51.4263845]}, "properties": {"type": "inleverpunt", "locatieNaam": "CS Tuinmachines", "straatNaam": "Zuidweg", "straatNr": "6", "postcode": "4413 NM", "plaats": "Krabbendijke", "merk": "Stibat", "puntType": "inzamelbak", "materialen": ["batterijen"], "uitbetaling": [], "vrijToegankelijk": false, "gemeenteBeperking": null, "openingstijden": null, "latitude": 51.4263845, "longitude": 4.1103278, "bronId": "L043853"}}, {"type": "Feature", "geometry": {"type": "Point", "coordinates": [4.0398514, 51.4634663]}, "properties": {"type": "inleverpunt", "locatieNaam": "Milieustraat Reimerswaal", "straatNaam": "Stationsweg", "straatNr": "8a", "postcode": "4416 PJ", "plaats": "Kruiningen", "merk": "Stibat", "puntType": "inzamelbak", "materialen": ["batterijen"], "uitbetaling": [], "vrijToegankelijk": false, "gemeenteBeperking": null, "openingstijden": null, "latitude": 51.4634663, "longitude": 4.0398514, "bronId": "L035720"}}, {"type": "Feature", "geometry": {"type": "Point", "coordinates": [4.0878518, 51.4253979]}, "properties": {"type": "inleverpunt", "locatieNaam": "5582 Albert Heijn (bij BP tankstation)", "straatNaam": "Rijksweg", "straatNr": "1", "postcode": "4413 RZ", "plaats": "Krabbendijke", "merk": "Stibat", "puntType": "inzamelbak", "materialen": ["batterijen"], "uitbetaling": [], "vrijToegankelijk": false, "gemeenteBeperking": null, "openingstijden": null, "latitude": 51.4253979, "longitude": 4.0878518, "bronId": "L043908"}}, {"type": "Feature", "geometry": {"type": "Point", "coordinates": [4.0427399, 51.4463576]}, "properties": {"type": "inleverpunt", "locatieNaam": "Aldi", "straatNaam": "Sluisweg", "straatNr": "26", "postcode": "4416 RL", "plaats": "Kruiningen", "merk": "Stibat", "puntType": "inzamelbak", "materialen": ["batterijen"], "uitbetaling": [], "vrijToegankelijk": false, "gemeenteBeperking": null, "openingstijden": null, "latitude": 51.4463576, "longitude": 4.0427399, "bronId": "L041277"}}, {"type": "Feature", "geometry": {"type": "Point", "coordinates": [4.0409861, 51.4460709]}, "properties": {"type": "inleverpunt", "locatieNaam": "Knop Tweewielers", "straatNaam": "Slagveldstraat", "straatNr": "58", "postcode": "4416 CC", "plaats": "Kruiningen", "merk": "Stibat", "puntType": "inzamelbak", "materialen": ["batterijen"], "uitbetaling": [], "vrijToegankelijk": false, "gemeenteBeperking": null, "openingstijden": null, "latitude": 51.4460709, "longitude": 4.0409861, "bronId": "L033366"}}, {"type": "Feature", "geometry": {"type": "Point", "coordinates": [4.0332934, 51.4494132]}, "properties": {"type": "inleverpunt", "locatieNaam": "DA", "straatNaam": "Hoofdstraat", "straatNr": "69", "postcode": "4416 AC", "plaats": "Kruiningen", "merk": "Stibat", "puntType": "inzamelbak", "materialen": ["batterijen"], "uitbetaling": [], "vrijToegankelijk": false, "gemeenteBeperking": null, "openingstijden": null, "latitude": 51.4494132, "longitude": 4.0332934, "bronId": "L028398"}}, {"type": "Feature", "geometry": {"type": "Point", "coordinates": [4.0347204, 51.4474143]}, "properties": {"type": "inleverpunt", "locatieNaam": "Plus", "straatNaam": "Voorhoute", "straatNr": "1", "postcode": "4416 BS", "plaats": "Kruiningen", "merk": "Stibat", "puntType": "inzamelbak", "materialen": ["batterijen"], "uitbetaling": [], "vrijToegankelijk": false, "gemeenteBeperking": null, "openingstijden": null, "latitude": 51.4474143, "longitude": 4.0347204, "bronId": "L040870"}}, {"type": "Feature", "geometry": {"type": "Point", "coordinates": [4.0462444, 51.4346833]}, "properties": {"type": "inleverpunt", "locatieNaam": "Mareve B.V. - Camping Den Inkel", "straatNaam": "Blauwhoefseweg", "straatNr": "12", "postcode": "4416 RC", "plaats": "Kruiningen", "merk": "Stibat", "puntType": "inzamelbak", "materialen": ["batterijen"], "uitbetaling": [], "vrijToegankelijk": false, "gemeenteBeperking": null, "openingstijden": null, "latitude": 51.4346833, "longitude": 4.0462444, "bronId": "L011059"}}, {"type": "Feature", "geometry": {"type": "Polygon", "coordinates": [[[4.166301000448698, 51.37782900350683], [4.16952700045198, 51.37820300350712], [4.174901000457491, 51.379702003508264], [4.181705000464531, 51.382732003510355], [4.184813000467718, 51.38361800351099], [4.189028000472009, 51.38413400351145], [4.194417000477567, 51.38629200351292], [4.197865000481091, 51.3870190035135], [4.202387000485688, 51.38749200351388], [4.205208000488541, 51.387530003513916], [4.207332000490669, 51.38717800351369], [4.208916000492209, 51.38601300351295], [4.2110570004940175, 51.37931700350843], [4.213007000495829, 51.37628200350644], [4.2181260005004555, 51.365923003499475], [4.220938000503064, 51.361459003496485], [4.224551000506539, 51.358089003494214], [4.228969000510831, 51.354723003491976], [4.236805000518492, 51.3497550034887], [4.242049000524018, 51.35396700349164], [4.2267460005088475, 51.35975900349538], [4.222066000504364, 51.36451000349855], [4.219928000502404, 51.36832200350108], [4.217577000500321, 51.37388500350486], [4.277425000560955, 51.376035003507], [4.273698000557554, 51.38315000351176], [4.2683820005522035, 51.38354600351198], [4.2663490005503, 51.386541003514004], [4.2686340005526935, 51.38812600351504], [4.269061000553767, 51.400347003523315], [4.264106000549469, 51.413913003532436], [4.263732000549226, 51.416449003534126], [4.266447000552157, 51.41997900353653], [4.27585200056193, 51.42504900354005], [4.230328000519318, 51.48890400358233], [4.133908000421481, 51.47955500357484], [4.1121820004010186, 51.506217003592305], [4.060390000348973, 51.5096320035938], [4.067525000357107, 51.52647200360511], [4.0659120003555165, 51.52710600360547], [4.05992700034954, 51.528128003606085], [4.05794300034762, 51.52956300360701], [4.057067000346752, 51.52982700360718], [4.0557750003454585, 51.53001600360726], [4.053473000343097, 51.52928300360675], [4.051871000341546, 51.530413003607485], [4.047784000337492, 51.5315960036082], [4.045285000334961, 51.531390003608], [4.038240000327945, 51.53286700360888], [4.028403000318174, 51.535440003610425], [4.025366000315129, 51.53567400361056], [4.016723000306505, 51.537231003611446], [4.013080000302893, 51.538244003612036], [4.013668000302308, 51.51745100359823], [4.015659000304125, 51.514041003595985], [4.01738800030578, 51.51245000359497], [4.016120000304428, 51.5111790035941], [4.015205000303493, 51.51092600359395], [4.014280000302414, 51.508357003592195], [4.013593000301677, 51.507588003591664], [4.01197000030003, 51.50737400359148], [4.011286000299313, 51.50686400359112], [4.010483000298505, 51.50689600359112], [4.006377000294234, 51.50458100358956], [4.006094000293966, 51.504839003589694], [4.004731000292591, 51.50484300358971], [4.0061550002921855, 51.472096003567906], [4.007323000292607, 51.45863400355887], [4.005751000291029, 51.45872300355889], [4.003492000288652, 51.45701700355772], [4.002191000287364, 51.45745500355797], [4.000920000286016, 51.45621800355713], [4.000068000285186, 51.456751003557464], [3.999227000284298, 51.45608400355702], [3.9988660002839462, 51.45627300355715], [3.994963000279856, 51.453573003555235], [3.9914510002761032, 51.449803003552695], [3.9882900002730337, 51.451871003554], [3.9853130002700894, 51.45292800355466], [3.9731790002580247, 51.45599100355651], [3.9677120002525306, 51.45632200355664], [3.962999000247743, 51.45569000355613], [3.9558440002405075, 51.45528700355573], [3.949576000234115, 51.454016003554756], [3.9421590002264977, 51.451524003552954], [3.937594000221755, 51.44909800355125], [3.9353740002193986, 51.44698800354979], [3.963209000246056, 51.42201000353353], [4.0197780003030275, 51.420167003533244], [4.048075000329919, 51.38989500351331], [4.1149480003975185, 51.39100500351507], [4.102551000383685, 51.366862003498554], [4.111303000392586, 51.36788100349936], [4.116023000397407, 51.368822003500064], [4.121622000403077, 51.36907900350033], [4.1284960004100135, 51.36887700350028], [4.141024000422756, 51.37043500350153], [4.146652000428512, 51.371688003502435], [4.162874000445191, 51.377024003506264], [4.166301000448698, 51.37782900350683]]]}, "properties": {"type": "boundary", "gemeente": "Reimerswaal"}}]}