{"type": "FeatureCollection", "metadata": {"gemeente": "Rheden", "slug": "rheden", "generated_at": "2026-07-28T19:03:25.026558Z", "total_points": 99, "merken": ["StatiegeldNederland", "Stibat", "StichtingOPEN"], "bounds": [5.9600364, 51.9804799, 6.1089934, 52.063401]}, "features": [{"type": "Feature", "geometry": {"type": "Point", "coordinates": [6.1017552, 52.05044]}, "properties": {"type": "inleverpunt", "locatieNaam": "Albert Heijn", "straatNaam": "Callunaplein", "straatNr": "72", "postcode": "6951 CR", "plaats": "Dieren", "merk": "StatiegeldNederland", "puntType": "automaat", "materialen": ["pet-groot", "pet-klein", "blik", "glas", "krat"], "uitbetaling": ["bonnetje", "donatie"], "vrijToegankelijk": true, "gemeenteBeperking": null, "openingstijden": {"ma": "08:00–22:00", "di": "08:00–22:00", "wo": "08:00–22:00", "do": "08:00–22:00", "vr": "08:00–22:00", "za": "08:00–22:00", "zo": "09:00–20:00"}, "latitude": 52.05044, "longitude": 6.1017552, "bronId": "252087"}}, {"type": "Feature", "geometry": {"type": "Point", "coordinates": [6.0358542, 52.0047175]}, "properties": {"type": "inleverpunt", "locatieNaam": "Albert Heijn", "straatNaam": "Groenestraat", "straatNr": "78", "postcode": "6991 GH", "plaats": "Rheden", "merk": "StatiegeldNederland", "puntType": "automaat", "materialen": ["pet-groot", "pet-klein", "blik", "glas", "krat"], "uitbetaling": ["bonnetje", "donatie"], "vrijToegankelijk": true, "gemeenteBeperking": null, "openingstijden": {"ma": "08:00–21:00", "di": "08:00–21:00", "wo": "08:00–21:00", "do": "08:00–21:00", "vr": "08:00–21:00", "za": "08:00–21:00", "zo": "08:00–21:00"}, "latitude": 52.0047175, "longitude": 6.0358542, "bronId": "252260"}}, {"type": "Feature", "geometry": {"type": "Point", "coordinates": [5.9691433, 51.9960249]}, "properties": {"type": "inleverpunt", "locatieNaam": "Albert Heijn", "straatNaam": "Hoofdstraat", "straatNr": "232", "postcode": "6881 TS", "plaats": "Velp", "merk": "StatiegeldNederland", "puntType": "automaat", "materialen": ["pet-groot", "pet-klein", "blik", "glas", "krat"], "uitbetaling": ["bonnetje", "donatie"], "vrijToegankelijk": true, "gemeenteBeperking": null, "openingstijden": {"ma": "08:00–22:00", "di": "08:00–22:00", "wo": "08:00–22:00", "do": "08:00–22:00", "vr": "08:00–22:00", "za": "08:00–22:00", "zo": "08:00–22:00"}, "latitude": 51.9960249, "longitude": 5.9691433, "bronId": "252329"}}, {"type": "Feature", "geometry": {"type": "Point", "coordinates": [6.1015529, 52.0484988]}, "properties": {"type": "inleverpunt", "locatieNaam": "Aldi", "straatNaam": "Buitensingel", "straatNr": "77", "postcode": "6951 AX", "plaats": "Dieren", "merk": "StatiegeldNederland", "puntType": "automaat", "materialen": ["pet-groot", "pet-klein", "blik", "glas", "krat"], "uitbetaling": ["bonnetje"], "vrijToegankelijk": true, "gemeenteBeperking": null, "openingstijden": {"ma": "08:00–20:00", "di": "08:00–20:00", "wo": "08:00–20:00", "do": "08:00–20:00", "vr": "08:00–20:00", "za": "08:00–20:00", "zo": "10:00–18:00"}, "latitude": 52.0484988, "longitude": 6.1015529, "bronId": "253037"}}, {"type": "Feature", "geometry": {"type": "Point", "coordinates": [5.9802251, 51.9876146]}, "properties": {"type": "inleverpunt", "locatieNaam": "Aldi", "straatNaam": "Churchillplein", "straatNr": "40", "postcode": "6883 EW", "plaats": "Velp", "merk": "StatiegeldNederland", "puntType": "automaat", "materialen": ["pet-groot", "pet-klein", "blik", "glas", "krat"], "uitbetaling": ["bonnetje"], "vrijToegankelijk": true, "gemeenteBeperking": null, "openingstijden": {"ma": "08:00–20:00", "di": "08:00–20:00", "wo": "08:00–20:00", "do": "08:00–20:00", "vr": "08:00–20:00", "za": "08:00–20:00", "zo": "12:00–18:00"}, "latitude": 51.9876146, "longitude": 5.9802251, "bronId": "253048"}}, {"type": "Feature", "geometry": {"type": "Point", "coordinates": [6.0566224, 52.0180333]}, "properties": {"type": "inleverpunt", "locatieNaam": "Appel - 2753 - Gemeente Rheden", "straatNaam": "Hoofdstraat", "straatNr": "3", "postcode": "6994 AB", "plaats": "De Steeg", "merk": "StatiegeldNederland", "puntType": "balie", "materialen": ["pet-groot", "pet-klein", "blik"], "uitbetaling": [], "vrijToegankelijk": true, "gemeenteBeperking": null, "openingstijden": {"ma": "09:00–17:00", "di": "09:00–19:00", "wo": "09:00–17:00", "do": "09:00–17:00", "vr": "09:00–12:30", "za": "Gesloten", "zo": "Gesloten"}, "latitude": 52.0180333, "longitude": 6.0566224, "bronId": "253515"}}, {"type": "Feature", "geometry": {"type": "Point", "coordinates": [5.9851953, 52.0128949]}, "properties": {"type": "inleverpunt", "locatieNaam": "Arnhemsche Hc", "straatNaam": "Beekhuizenseweg", "straatNr": "95", "postcode": "6881 AH", "plaats": "Velp", "merk": "StatiegeldNederland", "puntType": "balie", "materialen": ["pet-groot", "pet-klein", "blik"], "uitbetaling": [], "vrijToegankelijk": false, "gemeenteBeperking": null, "openingstijden": {"ma": "16:00–22:00", "di": "16:00–22:00", "wo": "16:00–20:00", "do": "18:00–23:45", "vr": "15:00–19:00", "za": "09:00–17:00", "zo": "09:00–17:00"}, "latitude": 52.0128949, "longitude": 5.9851953, "bronId": "253750"}}, {"type": "Feature", "geometry": {"type": "Point", "coordinates": [5.9834427, 51.9881721]}, "properties": {"type": "inleverpunt", "locatieNaam": "Astrum College", "straatNaam": "Gruttostraat", "straatNr": "10", "postcode": "6883 CN", "plaats": "Velp", "merk": "StatiegeldNederland", "puntType": "automaat", "materialen": ["pet-klein", "blik"], "uitbetaling": [], "vrijToegankelijk": false, "gemeenteBeperking": null, "openingstijden": null, "latitude": 51.9881721, "longitude": 5.9834427, "bronId": "253760"}}, {"type": "Feature", "geometry": {"type": "Point", "coordinates": [6.030149, 52.0021861]}, "properties": {"type": "inleverpunt", "locatieNaam": "Dekamarkt", "straatNaam": "Zwarteweg", "straatNr": "40-54", "postcode": "6991 EJ", "plaats": "Rheden", "merk": "StatiegeldNederland", "puntType": "automaat", "materialen": ["pet-groot", "pet-klein", "blik", "glas", "krat"], "uitbetaling": ["bonnetje"], "vrijToegankelijk": true, "gemeenteBeperking": null, "openingstijden": {"ma": "08:00–21:00", "di": "08:00–21:00", "wo": "08:00–21:00", "do": "08:00–21:00", "vr": "08:00–21:00", "za": "08:00–21:00", "zo": "12:00–19:00"}, "latitude": 52.0021861, "longitude": 6.030149, "bronId": "254412"}}, {"type": "Feature", "geometry": {"type": "Point", "coordinates": [6.1012107, 52.0499046]}, "properties": {"type": "inleverpunt", "locatieNaam": "Ekoplaza", "straatNaam": "WILHELMINAWEG", "straatNr": "49", "postcode": "6951 BN", "plaats": "Dieren", "merk": "StatiegeldNederland", "puntType": "balie", "materialen": ["pet-groot", "pet-klein", "blik"], "uitbetaling": [], "vrijToegankelijk": true, "gemeenteBeperking": null, "openingstijden": {"ma": "08:30–19:00", "di": "08:30–19:00", "wo": "08:30–19:00", "do": "08:30–19:00", "vr": "08:30–19:00", "za": "08:30–19:00", "zo": "Gesloten"}, "latitude": 52.0499046, "longitude": 6.1012107, "bronId": "254703"}}, {"type": "Feature", "geometry": {"type": "Point", "coordinates": [6.099568, 52.051378]}, "properties": {"type": "inleverpunt", "locatieNaam": "Jumbo", "straatNaam": "Diderna", "straatNr": "44", "postcode": "6951 CW", "plaats": "Dieren", "merk": "StatiegeldNederland", "puntType": "automaat", "materialen": ["pet-groot", "pet-klein", "blik", "glas", "krat"], "uitbetaling": ["bonnetje", "donatie"], "vrijToegankelijk": true, "gemeenteBeperking": null, "openingstijden": {"ma": "08:00–20:00", "di": "08:00–20:00", "wo": "08:00–20:00", "do": "08:00–20:00", "vr": "08:00–20:00", "za": "08:00–20:00", "zo": "10:00–19:00"}, "latitude": 52.051378, "longitude": 6.099568, "bronId": "255315"}}, {"type": "Feature", "geometry": {"type": "Point", "coordinates": [5.9717162, 51.9916379]}, "properties": {"type": "inleverpunt", "locatieNaam": "Jumbo", "straatNaam": "IJsselstraat", "straatNr": "30", "postcode": "6882 LG", "plaats": "Velp", "merk": "StatiegeldNederland", "puntType": "automaat", "materialen": ["pet-groot", "pet-klein", "blik", "glas", "krat"], "uitbetaling": ["bonnetje", "donatie"], "vrijToegankelijk": true, "gemeenteBeperking": null, "openingstijden": {"ma": "08:00–21:00", "di": "08:00–21:00", "wo": "08:00–21:00", "do": "08:00–21:00", "vr": "08:00–21:00", "za": "08:00–21:00", "zo": "10:00–19:00"}, "latitude": 51.9916379, "longitude": 5.9717162, "bronId": "255440"}}, {"type": "Feature", "geometry": {"type": "Point", "coordinates": [6.10025, 52.05154]}, "properties": {"type": "inleverpunt", "locatieNaam": "Lidl", "straatNaam": "Diderna", "straatNr": "13", "postcode": "6951 CW", "plaats": "Dieren", "merk": "StatiegeldNederland", "puntType": "automaat", "materialen": ["pet-groot", "pet-klein", "blik", "glas", "krat"], "uitbetaling": ["bonnetje", "donatie"], "vrijToegankelijk": true, "gemeenteBeperking": null, "openingstijden": {"ma": "08:00–21:00", "di": "08:00–21:00", "wo": "08:00–21:00", "do": "08:00–21:00", "vr": "08:00–21:00", "za": "08:00–21:00", "zo": "12:00–19:00"}, "latitude": 52.05154, "longitude": 6.10025, "bronId": "256126"}}, {"type": "Feature", "geometry": {"type": "Point", "coordinates": [5.9641547, 51.9945435]}, "properties": {"type": "inleverpunt", "locatieNaam": "Lidl", "straatNaam": "Nordlaan", "straatNr": "33", "postcode": "6881 RM", "plaats": "Velp", "merk": "StatiegeldNederland", "puntType": "automaat", "materialen": ["pet-groot", "pet-klein", "blik", "glas", "krat"], "uitbetaling": ["bonnetje", "donatie"], "vrijToegankelijk": true, "gemeenteBeperking": null, "openingstijden": {"ma": "08:00–21:00", "di": "08:00–21:00", "wo": "08:00–21:00", "do": "08:00–21:00", "vr": "08:00–21:00", "za": "08:00–21:00", "zo": "09:00–19:00"}, "latitude": 51.9945435, "longitude": 5.9641547, "bronId": "256313"}}, {"type": "Feature", "geometry": {"type": "Point", "coordinates": [6.1017767, 52.0416545]}, "properties": {"type": "inleverpunt", "locatieNaam": "Markies 6698 Rhedens Dieren", "straatNaam": "Doesburgsedijk", "straatNr": "7", "postcode": "6953 AK", "plaats": "Dieren", "merk": "StatiegeldNederland", "puntType": "balie", "materialen": ["pet-groot", "pet-klein", "blik"], "uitbetaling": [], "vrijToegankelijk": true, "gemeenteBeperking": null, "openingstijden": {"ma": "07:30–17:00", "di": "07:30–17:00", "wo": "07:30–17:00", "do": "07:30–17:00", "vr": "07:30–18:00", "za": "Gesloten", "zo": "Gesloten"}, "latitude": 52.0416545, "longitude": 6.1017767, "bronId": "256587"}}, {"type": "Feature", "geometry": {"type": "Point", "coordinates": [5.9600364, 51.9931598]}, "properties": {"type": "inleverpunt", "locatieNaam": "Markies 6939 Yuverta", "straatNaam": "Larensteinselaan", "straatNr": "26b", "postcode": "6882 CT", "plaats": "Velp", "merk": "StatiegeldNederland", "puntType": "balie", "materialen": ["pet-groot", "pet-klein", "blik"], "uitbetaling": [], "vrijToegankelijk": true, "gemeenteBeperking": null, "openingstijden": {"ma": "08:00–17:00", "di": "08:00–17:00", "wo": "08:00–17:00", "do": "08:00–17:00", "vr": "08:00–17:00", "za": "Gesloten", "zo": "Gesloten"}, "latitude": 51.9931598, "longitude": 5.9600364, "bronId": "256608"}}, {"type": "Feature", "geometry": {"type": "Point", "coordinates": [6.0834784, 52.0580734]}, "properties": {"type": "inleverpunt", "locatieNaam": "Mixed Hockeyclub Dieren", "straatNaam": "Imboslaan", "straatNr": "2A", "postcode": "6952 JP", "plaats": "Dieren", "merk": "StatiegeldNederland", "puntType": "balie", "materialen": ["pet-groot", "pet-klein", "blik"], "uitbetaling": [], "vrijToegankelijk": false, "gemeenteBeperking": null, "openingstijden": null, "latitude": 52.0580734, "longitude": 6.0834784, "bronId": "256793"}}, {"type": "Feature", "geometry": {"type": "Point", "coordinates": [5.9731896, 51.9962965]}, "properties": {"type": "inleverpunt", "locatieNaam": "Odin Velp", "straatNaam": "Parkstraat", "straatNr": "2", "postcode": "6881 JE", "plaats": "Velp", "merk": "StatiegeldNederland", "puntType": "balie", "materialen": ["pet-groot", "pet-klein", "blik"], "uitbetaling": [], "vrijToegankelijk": true, "gemeenteBeperking": null, "openingstijden": {"ma": "08:30–18:00", "di": "08:30–18:00", "wo": "08:30–18:00", "do": "08:30–18:00", "vr": "08:30–18:00", "za": "08:30–17:30", "zo": "Gesloten"}, "latitude": 51.9962965, "longitude": 5.9731896, "bronId": "256983"}}, {"type": "Feature", "geometry": {"type": "Point", "coordinates": [6.0294614, 51.9994278]}, "properties": {"type": "inleverpunt", "locatieNaam": "Openluchtbad Rheden", "straatNaam": "Ijsselsingel", "straatNr": "7", "postcode": "6991 ZP", "plaats": "Rheden", "merk": "StatiegeldNederland", "puntType": "automaat", "materialen": ["pet-klein", "blik"], "uitbetaling": [], "vrijToegankelijk": false, "gemeenteBeperking": null, "openingstijden": {"ma": "08:00–17:00", "di": "08:00–17:00", "wo": "08:00–17:00", "do": "08:00–17:00", "vr": "08:00–17:00", "za": "09:00–16:00", "zo": "Gesloten"}, "latitude": 51.9994278, "longitude": 6.0294614, "bronId": "257099"}}, {"type": "Feature", "geometry": {"type": "Point", "coordinates": [5.9801862, 51.9872541]}, "properties": {"type": "inleverpunt", "locatieNaam": "Plus", "straatNaam": "Churchillplein", "straatNr": "42", "postcode": "6883 EW", "plaats": "Velp", "merk": "StatiegeldNederland", "puntType": "automaat", "materialen": ["pet-groot", "pet-klein", "blik", "glas", "krat"], "uitbetaling": ["bonnetje"], "vrijToegankelijk": true, "gemeenteBeperking": null, "openingstijden": {"ma": "08:00–21:00", "di": "08:00–21:00", "wo": "08:00–21:00", "do": "08:00–21:00", "vr": "08:00–21:00", "za": "08:00–21:00", "zo": "09:00–19:00"}, "latitude": 51.9872541, "longitude": 5.9801862, "bronId": "257232"}}, {"type": "Feature", "geometry": {"type": "Point", "coordinates": [6.091191, 52.063401]}, "properties": {"type": "inleverpunt", "locatieNaam": "Spar", "straatNaam": "Cederlaan", "straatNr": "25", "postcode": "6951 MN", "plaats": "Dieren", "merk": "StatiegeldNederland", "puntType": "automaat", "materialen": ["pet-groot", "pet-klein", "blik", "glas", "krat"], "uitbetaling": ["bonnetje", "donatie"], "vrijToegankelijk": true, "gemeenteBeperking": null, "openingstijden": {"ma": "07:30–20:00", "di": "07:30–20:00", "wo": "07:30–20:00", "do": "07:30–20:00", "vr": "07:30–20:00", "za": "07:30–20:00", "zo": "09:00–18:00"}, "latitude": 52.063401, "longitude": 6.091191, "bronId": "258320"}}, {"type": "Feature", "geometry": {"type": "Point", "coordinates": [5.9815986, 51.9969601]}, "properties": {"type": "inleverpunt", "locatieNaam": "Spar Express", "straatNaam": "ZUTPHENSESTRAATWEG", "straatNr": "25", "postcode": "6881 WN", "plaats": "Velp", "merk": "StatiegeldNederland", "puntType": "balie", "materialen": ["pet-groot", "pet-klein", "blik"], "uitbetaling": [], "vrijToegankelijk": true, "gemeenteBeperking": null, "openingstijden": {"ma": "06:00–21:00", "di": "06:00–21:00", "wo": "06:00–21:00", "do": "06:00–21:00", "vr": "06:00–21:00", "za": "07:00–21:00", "zo": "08:00–21:00"}, "latitude": 51.9969601, "longitude": 5.9815986, "bronId": "258620"}}, {"type": "Feature", "geometry": {"type": "Point", "coordinates": [6.0247787, 52.0004829]}, "properties": {"type": "inleverpunt", "locatieNaam": "Sportcombinatie Rheden", "straatNaam": "IJsselsingel", "straatNr": "91", "postcode": "6991 ZR", "plaats": "Rheden", "merk": "StatiegeldNederland", "puntType": "balie", "materialen": ["pet-groot", "pet-klein", "blik"], "uitbetaling": [], "vrijToegankelijk": false, "gemeenteBeperking": null, "openingstijden": null, "latitude": 52.0004829, "longitude": 6.0247787, "bronId": "258638"}}, {"type": "Feature", "geometry": {"type": "Point", "coordinates": [6.0840172, 52.0554426]}, "properties": {"type": "inleverpunt", "locatieNaam": "Vv Dieren", "straatNaam": "Kolonieweg", "straatNr": "7", "postcode": "6952 GZ", "plaats": "Dieren", "merk": "StatiegeldNederland", "puntType": "balie", "materialen": ["pet-groot", "pet-klein", "blik"], "uitbetaling": [], "vrijToegankelijk": false, "gemeenteBeperking": null, "openingstijden": {"ma": "09:00–22:00", "di": "09:00–22:00", "wo": "09:00–22:00", "do": "09:00–22:00", "vr": "09:00–22:00", "za": "09:00–20:00", "zo": "09:00–18:00"}, "latitude": 52.0554426, "longitude": 6.0840172, "bronId": "259769"}}, {"type": "Feature", "geometry": {"type": "Point", "coordinates": [5.96913, 51.99601]}, "properties": {"type": "inleverpunt", "locatieNaam": "1024 Albert Heijn Velp", "straatNaam": "Hoofdstraat", "straatNr": "232", "postcode": "6881 TS", "plaats": "Velp", "merk": "StichtingOPEN", "puntType": "balie", "materialen": ["batterijen", "elektro-klein", "lampen"], "uitbetaling": [], "vrijToegankelijk": false, "gemeenteBeperking": null, "openingstijden": null, "latitude": 51.99601, "longitude": 5.96913, "bronId": "SP00022789"}}, {"type": "Feature", "geometry": {"type": "Point", "coordinates": [5.969633, 51.995995]}, "properties": {"type": "inleverpunt", "locatieNaam": "Kruidvat Velp", "straatNaam": "Hoofdstraat", "straatNr": "226", "postcode": "6881 TR", "plaats": "Velp", "merk": "StichtingOPEN", "puntType": "balie", "materialen": ["batterijen", "lampen"], "uitbetaling": [], "vrijToegankelijk": false, "gemeenteBeperking": null, "openingstijden": null, "latitude": 51.995995, "longitude": 5.969633, "bronId": "SP00024610"}}, {"type": "Feature", "geometry": {"type": "Point", "coordinates": [5.974723, 51.995194]}, "properties": {"type": "inleverpunt", "locatieNaam": "Action Velp 1158", "straatNaam": "Den Heuvel", "straatNr": "52", "postcode": "6881 VE", "plaats": "Velp", "merk": "StichtingOPEN", "puntType": "balie", "materialen": ["batterijen", "lampen"], "uitbetaling": [], "vrijToegankelijk": false, "gemeenteBeperking": null, "openingstijden": null, "latitude": 51.995194, "longitude": 5.974723, "bronId": "SP00007742"}}, {"type": "Feature", "geometry": {"type": "Point", "coordinates": [5.973189, 51.991387]}, "properties": {"type": "inleverpunt", "locatieNaam": "Jumbo Velp", "straatNaam": "IJsselstraat", "straatNr": "30", "postcode": "6882 LG", "plaats": "Velp", "merk": "StichtingOPEN", "puntType": "balie", "materialen": ["batterijen", "lampen"], "uitbetaling": [], "vrijToegankelijk": false, "gemeenteBeperking": null, "openingstijden": null, "latitude": 51.991387, "longitude": 5.973189, "bronId": "SP00025176"}}, {"type": "Feature", "geometry": {"type": "Point", "coordinates": [5.980117, 51.987626]}, "properties": {"type": "inleverpunt", "locatieNaam": "Aldi Velp", "straatNaam": "Churchillplein", "straatNr": "40", "postcode": "6883 EW", "plaats": "Velp", "merk": "StichtingOPEN", "puntType": "balie", "materialen": ["batterijen", "elektro-klein", "lampen"], "uitbetaling": [], "vrijToegankelijk": false, "gemeenteBeperking": null, "openingstijden": null, "latitude": 51.987626, "longitude": 5.980117, "bronId": "SP00026948"}}, {"type": "Feature", "geometry": {"type": "Point", "coordinates": [6.030152, 52.002272]}, "properties": {"type": "inleverpunt", "locatieNaam": "Dekamarkt Rheden", "straatNaam": "Zwarteweg", "straatNr": "4054", "postcode": "6991 EJ", "plaats": "Rheden", "merk": "StichtingOPEN", "puntType": "balie", "materialen": ["batterijen", "lampen"], "uitbetaling": [], "vrijToegankelijk": false, "gemeenteBeperking": null, "openingstijden": null, "latitude": 52.002272, "longitude": 6.030152, "bronId": "SP00023644"}}, {"type": "Feature", "geometry": {"type": "Point", "coordinates": [6.034442, 52.005807]}, "properties": {"type": "inleverpunt", "locatieNaam": "Elderman", "straatNaam": "Groenestraat", "straatNr": "54", "postcode": "6991 GG", "plaats": "Rheden", "merk": "StichtingOPEN", "puntType": "balie", "materialen": ["batterijen", "elektro-klein", "elektro-middel", "lampen", "tl-buizen"], "uitbetaling": [], "vrijToegankelijk": false, "gemeenteBeperking": null, "openingstijden": null, "latitude": 52.005807, "longitude": 6.034442, "bronId": "SP00002538"}}, {"type": "Feature", "geometry": {"type": "Point", "coordinates": [6.034737, 52.005958]}, "properties": {"type": "inleverpunt", "locatieNaam": "Expert Rheden B.V.", "straatNaam": "Groenestraat", "straatNr": "45", "postcode": "6991 GC", "plaats": "Rheden", "merk": "StichtingOPEN", "puntType": "balie", "materialen": ["elektro-middel", "lampen"], "uitbetaling": [], "vrijToegankelijk": false, "gemeenteBeperking": null, "openingstijden": null, "latitude": 52.005958, "longitude": 6.034737, "bronId": "SP00001995"}}, {"type": "Feature", "geometry": {"type": "Point", "coordinates": [6.035865, 52.004698]}, "properties": {"type": "inleverpunt", "locatieNaam": "8545 Albert Heijn Rheden", "straatNaam": "Groenestraat", "straatNr": "78", "postcode": "6991 GH", "plaats": "Rheden", "merk": "StichtingOPEN", "puntType": "balie", "materialen": ["batterijen", "elektro-klein", "lampen"], "uitbetaling": [], "vrijToegankelijk": false, "gemeenteBeperking": null, "openingstijden": null, "latitude": 52.004698, "longitude": 6.035865, "bronId": "SP00022792"}}, {"type": "Feature", "geometry": {"type": "Point", "coordinates": [6.03912, 52.00789]}, "properties": {"type": "inleverpunt", "locatieNaam": "Kruidvat Rheden", "straatNaam": "Veerweg", "straatNr": "53-55", "postcode": "6991 GL", "plaats": "Rheden", "merk": "StichtingOPEN", "puntType": "balie", "materialen": ["batterijen", "lampen"], "uitbetaling": [], "vrijToegankelijk": false, "gemeenteBeperking": null, "openingstijden": null, "latitude": 52.00789, "longitude": 6.03912, "bronId": "SP00029488"}}, {"type": "Feature", "geometry": {"type": "Point", "coordinates": [6.091185, 52.063385]}, "properties": {"type": "inleverpunt", "locatieNaam": "Spar Dieren", "straatNaam": "Cederlaan", "straatNr": "25", "postcode": "6951 MN", "plaats": "Dieren", "merk": "StichtingOPEN", "puntType": "balie", "materialen": ["batterijen", "lampen"], "uitbetaling": [], "vrijToegankelijk": false, "gemeenteBeperking": null, "openingstijden": null, "latitude": 52.063385, "longitude": 6.091185, "bronId": "SP00022421"}}, {"type": "Feature", "geometry": {"type": "Point", "coordinates": [6.09971, 52.0513]}, "properties": {"type": "inleverpunt", "locatieNaam": "Jumbo Dieren", "straatNaam": "Diderna", "straatNr": "44", "postcode": "6951 CW", "plaats": "Dieren", "merk": "StichtingOPEN", "puntType": "balie", "materialen": ["batterijen", "elektro-klein", "lampen"], "uitbetaling": [], "vrijToegankelijk": false, "gemeenteBeperking": null, "openingstijden": null, "latitude": 52.0513, "longitude": 6.09971, "bronId": "SP00029902"}}, {"type": "Feature", "geometry": {"type": "Point", "coordinates": [6.100306, 52.050989]}, "properties": {"type": "inleverpunt", "locatieNaam": "Kruidvat Dieren", "straatNaam": "Diderna", "straatNr": "6", "postcode": "6951 CW", "plaats": "Dieren", "merk": "StichtingOPEN", "puntType": "balie", "materialen": ["batterijen", "lampen"], "uitbetaling": [], "vrijToegankelijk": false, "gemeenteBeperking": null, "openingstijden": null, "latitude": 52.050989, "longitude": 6.100306, "bronId": "SP00024856"}}, {"type": "Feature", "geometry": {"type": "Point", "coordinates": [6.100989, 52.050413]}, "properties": {"type": "inleverpunt", "locatieNaam": "Action Dieren", "straatNaam": "Callunaplein", "straatNr": "43", "postcode": "6941 CN", "plaats": "Dieren", "merk": "StichtingOPEN", "puntType": "balie", "materialen": ["batterijen", "elektro-klein", "lampen"], "uitbetaling": [], "vrijToegankelijk": false, "gemeenteBeperking": null, "openingstijden": null, "latitude": 52.050413, "longitude": 6.100989, "bronId": "SP00034283"}}, {"type": "Feature", "geometry": {"type": "Point", "coordinates": [6.101052, 52.050461]}, "properties": {"type": "inleverpunt", "locatieNaam": "Coop Dieren", "straatNaam": "Callunaplein", "straatNr": "43", "postcode": "6951 CN", "plaats": "Dieren", "merk": "StichtingOPEN", "puntType": "balie", "materialen": ["batterijen", "lampen"], "uitbetaling": [], "vrijToegankelijk": false, "gemeenteBeperking": null, "openingstijden": null, "latitude": 52.050461, "longitude": 6.101052, "bronId": "SP00024316"}}, {"type": "Feature", "geometry": {"type": "Point", "coordinates": [6.100927, 52.048333]}, "properties": {"type": "inleverpunt", "locatieNaam": "Aldi Dieren", "straatNaam": "Buitensingel", "straatNr": "77", "postcode": "6951 AX", "plaats": "Dieren", "merk": "StichtingOPEN", "puntType": "balie", "materialen": ["batterijen", "elektro-klein", "lampen"], "uitbetaling": [], "vrijToegankelijk": false, "gemeenteBeperking": null, "openingstijden": null, "latitude": 52.048333, "longitude": 6.100927, "bronId": "SP00026936"}}, {"type": "Feature", "geometry": {"type": "Point", "coordinates": [6.102147, 52.050637]}, "properties": {"type": "inleverpunt", "locatieNaam": "1471 Albert Heijn Dieren", "straatNaam": "Callunaplein", "straatNr": "72", "postcode": "6951 CR", "plaats": "Dieren", "merk": "StichtingOPEN", "puntType": "balie", "materialen": ["batterijen", "elektro-klein", "lampen"], "uitbetaling": [], "vrijToegankelijk": false, "gemeenteBeperking": null, "openingstijden": null, "latitude": 52.050637, "longitude": 6.102147, "bronId": "SP00022827"}}, {"type": "Feature", "geometry": {"type": "Point", "coordinates": [6.102764, 52.04857]}, "properties": {"type": "inleverpunt", "locatieNaam": "Expert Dieren", "straatNaam": "Wilhelminaweg", "straatNr": "30", "postcode": "6951 BP", "plaats": "Dieren", "merk": "StichtingOPEN", "puntType": "balie", "materialen": ["elektro-middel", "lampen"], "uitbetaling": [], "vrijToegankelijk": false, "gemeenteBeperking": null, "openingstijden": null, "latitude": 52.04857, "longitude": 6.102764, "bronId": "SP00038665"}}, {"type": "Feature", "geometry": {"type": "Point", "coordinates": [6.10833, 52.052146]}, "properties": {"type": "inleverpunt", "locatieNaam": "Praxis Dieren - 2036", "straatNaam": "Spankerenseweg", "straatNr": "50", "postcode": "6951 CH", "plaats": "Dieren", "merk": "StichtingOPEN", "puntType": "balie", "materialen": ["batterijen", "elektro-middel", "lampen", "tl-buizen"], "uitbetaling": [], "vrijToegankelijk": false, "gemeenteBeperking": null, "openingstijden": null, "latitude": 52.052146, "longitude": 6.10833, "bronId": "SP00004577"}}, {"type": "Feature", "geometry": {"type": "Point", "coordinates": [6.106533, 52.041109]}, "properties": {"type": "inleverpunt", "locatieNaam": "ETB J. Hettelaar", "straatNaam": "Lagestraat", "straatNr": "21", "postcode": "6953 BB", "plaats": "Dieren", "merk": "StichtingOPEN", "puntType": "balie", "materialen": ["lampen"], "uitbetaling": [], "vrijToegankelijk": false, "gemeenteBeperking": null, "openingstijden": null, "latitude": 52.041109, "longitude": 6.106533, "bronId": "SP00002537"}}, {"type": "Feature", "geometry": {"type": "Point", "coordinates": [6.108133, 52.053523]}, "properties": {"type": "inleverpunt", "locatieNaam": "Kringloopwinkel 2Switch Dieren", "straatNaam": "Spankerenseweg", "straatNr": "58A", "postcode": "6951 CH", "plaats": "Dieren", "merk": "StichtingOPEN", "puntType": "milieustraat", "materialen": ["batterijen", "elektro-groot", "elektro-klein", "elektro-middel", "lampen", "tl-buizen"], "uitbetaling": [], "vrijToegankelijk": false, "gemeenteBeperking": ["Rheden"], "openingstijden": null, "latitude": 52.053523, "longitude": 6.108133, "bronId": "SP00027520"}}, {"type": "Feature", "geometry": {"type": "Point", "coordinates": [5.963162, 51.9943049]}, "properties": {"type": "inleverpunt", "locatieNaam": "Pedaleur Bikes", "straatNaam": "Nordlaan", "straatNr": "32", "postcode": "6881 RN", "plaats": "Velp Gld", "merk": "Stibat", "puntType": "inzamelbak", "materialen": ["batterijen"], "uitbetaling": [], "vrijToegankelijk": false, "gemeenteBeperking": null, "openingstijden": null, "latitude": 51.9943049, "longitude": 5.963162, "bronId": "L033823"}}, {"type": "Feature", "geometry": {"type": "Point", "coordinates": [5.9640805, 51.9943993]}, "properties": {"type": "inleverpunt", "locatieNaam": "Lidl", "straatNaam": "Nordlaan", "straatNr": "33", "postcode": "6881 RM", "plaats": "Velp Gld", "merk": "Stibat", "puntType": "inzamelbak", "materialen": ["batterijen"], "uitbetaling": [], "vrijToegankelijk": false, "gemeenteBeperking": null, "openingstijden": null, "latitude": 51.9943993, "longitude": 5.9640805, "bronId": "L032140"}}, {"type": "Feature", "geometry": {"type": "Point", "coordinates": [5.9690349, 51.9959096]}, "properties": {"type": "inleverpunt", "locatieNaam": "1024 Albert Heijn", "straatNaam": "Hoofdstraat", "straatNr": "232", "postcode": "6881 TS", "plaats": "Velp Gld", "merk": "Stibat", "puntType": "inzamelbak", "materialen": ["batterijen"], "uitbetaling": [], "vrijToegankelijk": false, "gemeenteBeperking": null, "openingstijden": null, "latitude": 51.9959096, "longitude": 5.9690349, "bronId": "L006724"}}, {"type": "Feature", "geometry": {"type": "Point", "coordinates": [5.9689397, 51.9956176]}, "properties": {"type": "inleverpunt", "locatieNaam": "Beter Horen", "straatNaam": "Hoofdstraat", "straatNr": "127", "postcode": "6881 TG", "plaats": "Velp Gld", "merk": "Stibat", "puntType": "inzamelbak", "materialen": ["batterijen"], "uitbetaling": [], "vrijToegankelijk": false, "gemeenteBeperking": null, "openingstijden": null, "latitude": 51.9956176, "longitude": 5.9689397, "bronId": "L018335"}}, {"type": "Feature", "geometry": {"type": "Point", "coordinates": [5.9697761, 51.9975631]}, "properties": {"type": "inleverpunt", "locatieNaam": "Lentink \"de Fietsspecialist\"", "straatNaam": "Rozendaalselaan", "straatNr": "25", "postcode": "6881 KZ", "plaats": "Velp Gld", "merk": "Stibat", "puntType": "inzamelbak", "materialen": ["batterijen"], "uitbetaling": [], "vrijToegankelijk": false, "gemeenteBeperking": null, "openingstijden": null, "latitude": 51.9975631, "longitude": 5.9697761, "bronId": "L033822"}}, {"type": "Feature", "geometry": {"type": "Point", "coordinates": [5.9696156, 51.995939]}, "properties": {"type": "inleverpunt", "locatieNaam": "Kruidvat", "straatNaam": "Hoofdstraat", "straatNr": "226", "postcode": "6881 TR", "plaats": "Velp Gld", "merk": "Stibat", "puntType": "inzamelbak", "materialen": ["batterijen"], "uitbetaling": [], "vrijToegankelijk": false, "gemeenteBeperking": null, "openingstijden": null, "latitude": 51.995939, "longitude": 5.9696156, "bronId": "L014449"}}, {"type": "Feature", "geometry": {"type": "Point", "coordinates": [5.9699172, 51.9959505]}, "properties": {"type": "inleverpunt", "locatieNaam": "The Read Shop", "straatNaam": "Hoofdstraat", "straatNr": "220", "postcode": "6881 TR", "plaats": "Velp Gld", "merk": "Stibat", "puntType": "inzamelbak", "materialen": ["batterijen"], "uitbetaling": [], "vrijToegankelijk": false, "gemeenteBeperking": null, "openingstijden": null, "latitude": 51.9959505, "longitude": 5.9699172, "bronId": "L024611"}}, {"type": "Feature", "geometry": {"type": "Point", "coordinates": [5.9709177, 51.9956413]}, "properties": {"type": "inleverpunt", "locatieNaam": "6020 Etos", "straatNaam": "Hoofdstraat", "straatNr": "77", "postcode": "6881 TD", "plaats": "Velp Gld", "merk": "Stibat", "puntType": "inzamelbak", "materialen": ["batterijen"], "uitbetaling": [], "vrijToegankelijk": false, "gemeenteBeperking": null, "openingstijden": null, "latitude": 51.9956413, "longitude": 5.9709177, "bronId": "L024702"}}, {"type": "Feature", "geometry": {"type": "Point", "coordinates": [5.9715161, 51.9957097]}, "properties": {"type": "inleverpunt", "locatieNaam": "Schoonenberg Hoorcomfort", "straatNaam": "Hoofdstraat", "straatNr": "69", "postcode": "6881 TC", "plaats": "Velp Gld", "merk": "Stibat", "puntType": "inzamelbak", "materialen": ["batterijen"], "uitbetaling": [], "vrijToegankelijk": false, "gemeenteBeperking": null, "openingstijden": null, "latitude": 51.9957097, "longitude": 5.9715161, "bronId": "L020344"}}, {"type": "Feature", "geometry": {"type": "Point", "coordinates": [5.9759968, 52.0039367]}, "properties": {"type": "inleverpunt", "locatieNaam": "Winkel in zorgcentrum de Biesdel", "straatNaam": "Biesdelselaan", "straatNr": "89", "postcode": "6881 CD", "plaats": "Velp Gld", "merk": "Stibat", "puntType": "inzamelbak", "materialen": ["batterijen"], "uitbetaling": [], "vrijToegankelijk": false, "gemeenteBeperking": null, "openingstijden": null, "latitude": 52.0039367, "longitude": 5.9759968, "bronId": "L024809"}}, {"type": "Feature", "geometry": {"type": "Point", "coordinates": [5.9717161, 51.9916403]}, "properties": {"type": "inleverpunt", "locatieNaam": "Jumbo", "straatNaam": "IJsselstraat", "straatNr": "30", "postcode": "6882 LG", "plaats": "Velp Gld", "merk": "Stibat", "puntType": "inzamelbak", "materialen": ["batterijen"], "uitbetaling": [], "vrijToegankelijk": false, "gemeenteBeperking": null, "openingstijden": null, "latitude": 51.9916403, "longitude": 5.9717161, "bronId": "L029905"}}, {"type": "Feature", "geometry": {"type": "Point", "coordinates": [5.9738434, 51.9962097]}, "properties": {"type": "inleverpunt", "locatieNaam": "Ringfoto", "straatNaam": "Hoofdstraat", "straatNr": "164", "postcode": "6881 TL", "plaats": "Velp Gld", "merk": "Stibat", "puntType": "inzamelbak", "materialen": ["batterijen"], "uitbetaling": [], "vrijToegankelijk": false, "gemeenteBeperking": null, "openingstijden": null, "latitude": 51.9962097, "longitude": 5.9738434, "bronId": "L030748"}}, {"type": "Feature", "geometry": {"type": "Point", "coordinates": [5.974062, 51.9955361]}, "properties": {"type": "inleverpunt", "locatieNaam": "HEMA Overtuin", "straatNaam": "Overtuin", "straatNr": "3", "postcode": "6881 TT", "plaats": "Velp Gld", "merk": "Stibat", "puntType": "inzamelbak", "materialen": ["batterijen"], "uitbetaling": [], "vrijToegankelijk": false, "gemeenteBeperking": null, "openingstijden": null, "latitude": 51.9955361, "longitude": 5.974062, "bronId": "L006168"}}, {"type": "Feature", "geometry": {"type": "Point", "coordinates": [5.9742418, 51.9956561]}, "properties": {"type": "inleverpunt", "locatieNaam": "Telecombinatie", "straatNaam": "De Overtuin", "straatNr": "1", "postcode": "6881 TT", "plaats": "Velp Gld", "merk": "Stibat", "puntType": "inzamelbak", "materialen": ["batterijen"], "uitbetaling": [], "vrijToegankelijk": false, "gemeenteBeperking": null, "openingstijden": null, "latitude": 51.9956561, "longitude": 5.9742418, "bronId": "L041843"}}, {"type": "Feature", "geometry": {"type": "Point", "coordinates": [5.9746561, 51.9951607]}, "properties": {"type": "inleverpunt", "locatieNaam": "1158 Action", "straatNaam": "Den Heuvel", "straatNr": "52", "postcode": "6881 VE", "plaats": "Velp Gld", "merk": "Stibat", "puntType": "inzamelbak", "materialen": ["batterijen"], "uitbetaling": [], "vrijToegankelijk": false, "gemeenteBeperking": null, "openingstijden": null, "latitude": 51.9951607, "longitude": 5.9746561, "bronId": "L017829"}}, {"type": "Feature", "geometry": {"type": "Point", "coordinates": [5.9779908, 51.9961681]}, "properties": {"type": "inleverpunt", "locatieNaam": "Techshop Velp", "straatNaam": "Hoofdstraat", "straatNr": "17A", "postcode": "6881 TA", "plaats": "Velp Gld", "merk": "Stibat", "puntType": "inzamelbak", "materialen": ["batterijen"], "uitbetaling": [], "vrijToegankelijk": false, "gemeenteBeperking": null, "openingstijden": null, "latitude": 51.9961681, "longitude": 5.9779908, "bronId": "L030706"}}, {"type": "Feature", "geometry": {"type": "Point", "coordinates": [5.9793291, 51.9971305]}, "properties": {"type": "inleverpunt", "locatieNaam": "Winkel in zorgcentrum Schoonoord", "straatNaam": "Nieuw-Schoonoord", "straatNr": "1", "postcode": "6881 TV", "plaats": "Velp Gld", "merk": "Stibat", "puntType": "inzamelbak", "materialen": ["batterijen"], "uitbetaling": [], "vrijToegankelijk": false, "gemeenteBeperking": null, "openingstijden": null, "latitude": 51.9971305, "longitude": 5.9793291, "bronId": "L025902"}}, {"type": "Feature", "geometry": {"type": "Point", "coordinates": [5.9798844, 51.9963465]}, "properties": {"type": "inleverpunt", "locatieNaam": "Winkel in zorgcentrum 't Jagthuis", "straatNaam": "Hoofdstraat", "straatNr": "1", "postcode": "6881 TA", "plaats": "Velp Gld", "merk": "Stibat", "puntType": "inzamelbak", "materialen": ["batterijen"], "uitbetaling": [], "vrijToegankelijk": false, "gemeenteBeperking": null, "openingstijden": null, "latitude": 51.9963465, "longitude": 5.9798844, "bronId": "L027065"}}, {"type": "Feature", "geometry": {"type": "Point", "coordinates": [5.9781969, 51.9887023]}, "properties": {"type": "inleverpunt", "locatieNaam": "Winkel in zorgcentrum Lorentzhuis", "straatNaam": "Rijnstraat", "straatNr": "1", "postcode": "6882 LR", "plaats": "Velp Gld", "merk": "Stibat", "puntType": "inzamelbak", "materialen": ["batterijen"], "uitbetaling": [], "vrijToegankelijk": false, "gemeenteBeperking": null, "openingstijden": null, "latitude": 51.9887023, "longitude": 5.9781969, "bronId": "L026241"}}, {"type": "Feature", "geometry": {"type": "Point", "coordinates": [5.9816601, 51.996829]}, "properties": {"type": "inleverpunt", "locatieNaam": "Esso", "straatNaam": "Zutphensestraatweg", "straatNr": "25", "postcode": "6881 WN", "plaats": "Velp Gld", "merk": "Stibat", "puntType": "inzamelbak", "materialen": ["batterijen"], "uitbetaling": [], "vrijToegankelijk": false, "gemeenteBeperking": null, "openingstijden": null, "latitude": 51.996829, "longitude": 5.9816601, "bronId": "L027069"}}, {"type": "Feature", "geometry": {"type": "Point", "coordinates": [5.9784882, 51.9847908]}, "properties": {"type": "inleverpunt", "locatieNaam": "Esso", "straatNaam": "President Kennedylaan", "straatNr": "108a", "postcode": "6883 AX", "plaats": "Velp Gld", "merk": "Stibat", "puntType": "inzamelbak", "materialen": ["batterijen"], "uitbetaling": [], "vrijToegankelijk": false, "gemeenteBeperking": null, "openingstijden": null, "latitude": 51.9847908, "longitude": 5.9784882, "bronId": "L027311"}}, {"type": "Feature", "geometry": {"type": "Point", "coordinates": [5.9802493, 51.9876964]}, "properties": {"type": "inleverpunt", "locatieNaam": "Aldi", "straatNaam": "Churchillplein", "straatNr": "40", "postcode": "6883 EW", "plaats": "Velp", "merk": "Stibat", "puntType": "inzamelbak", "materialen": ["batterijen"], "uitbetaling": [], "vrijToegankelijk": false, "gemeenteBeperking": null, "openingstijden": null, "latitude": 51.9876964, "longitude": 5.9802493, "bronId": "L041443"}}, {"type": "Feature", "geometry": {"type": "Point", "coordinates": [5.9801862, 51.9872541]}, "properties": {"type": "inleverpunt", "locatieNaam": "Plus", "straatNaam": "Churchillplein", "straatNr": "42", "postcode": "6883 EW", "plaats": "Velp", "merk": "Stibat", "puntType": "inzamelbak", "materialen": ["batterijen"], "uitbetaling": [], "vrijToegankelijk": false, "gemeenteBeperking": null, "openingstijden": null, "latitude": 51.9872541, "longitude": 5.9801862, "bronId": "L045969"}}, {"type": "Feature", "geometry": {"type": "Point", "coordinates": [5.9846303, 51.9943331]}, "properties": {"type": "inleverpunt", "locatieNaam": "Winkel in zorgcentrum Oosterwolde", "straatNaam": "MIDDELHAGENHOF", "straatNr": "1", "postcode": "6883 JK", "plaats": "Velp Gld", "merk": "Stibat", "puntType": "inzamelbak", "materialen": ["batterijen"], "uitbetaling": [], "vrijToegankelijk": false, "gemeenteBeperking": null, "openingstijden": null, "latitude": 51.9943331, "longitude": 5.9846303, "bronId": "L027492"}}, {"type": "Feature", "geometry": {"type": "Point", "coordinates": [5.9850844, 51.9804799]}, "properties": {"type": "inleverpunt", "locatieNaam": "CoopCodis U.A.", "straatNaam": "Markweg", "straatNr": "8", "postcode": "6883 JM", "plaats": "Velp Gld", "merk": "Stibat", "puntType": "inzamelbak", "materialen": ["batterijen"], "uitbetaling": [], "vrijToegankelijk": false, "gemeenteBeperking": null, "openingstijden": null, "latitude": 51.9804799, "longitude": 5.9850844, "bronId": "L010876"}}, {"type": "Feature", "geometry": {"type": "Point", "coordinates": [6.0249129, 52.0157921]}, "properties": {"type": "inleverpunt", "locatieNaam": "VeluweActief/Oversteegen Rheden", "straatNaam": "Heuvenseweg", "straatNr": "5a", "postcode": "6991 JE", "plaats": "Rheden", "merk": "Stibat", "puntType": "inzamelbak", "materialen": ["batterijen"], "uitbetaling": [], "vrijToegankelijk": false, "gemeenteBeperking": null, "openingstijden": null, "latitude": 52.0157921, "longitude": 6.0249129, "bronId": "L036499"}}, {"type": "Feature", "geometry": {"type": "Point", "coordinates": [6.0302827, 52.0024645]}, "properties": {"type": "inleverpunt", "locatieNaam": "Dekamarkt", "straatNaam": "Zwarteweg", "straatNr": "40-54", "postcode": "6991 EJ", "plaats": "Rheden", "merk": "Stibat", "puntType": "inzamelbak", "materialen": ["batterijen"], "uitbetaling": [], "vrijToegankelijk": false, "gemeenteBeperking": null, "openingstijden": null, "latitude": 52.0024645, "longitude": 6.0302827, "bronId": "L008531"}}, {"type": "Feature", "geometry": {"type": "Point", "coordinates": [6.0347705, 52.0059683]}, "properties": {"type": "inleverpunt", "locatieNaam": "Expert", "straatNaam": "Groenestraat", "straatNr": "45", "postcode": "6991 GC", "plaats": "Rheden", "merk": "Stibat", "puntType": "inzamelbak", "materialen": ["batterijen"], "uitbetaling": [], "vrijToegankelijk": false, "gemeenteBeperking": null, "openingstijden": null, "latitude": 52.0059683, "longitude": 6.0347705, "bronId": "L008372"}}, {"type": "Feature", "geometry": {"type": "Point", "coordinates": [6.0349497, 52.0057642]}, "properties": {"type": "inleverpunt", "locatieNaam": "ROELE FIETSEN", "straatNaam": "Groenestraat", "straatNr": "51", "postcode": "6991 GC", "plaats": "Rheden", "merk": "Stibat", "puntType": "inzamelbak", "materialen": ["batterijen"], "uitbetaling": [], "vrijToegankelijk": false, "gemeenteBeperking": null, "openingstijden": null, "latitude": 52.0057642, "longitude": 6.0349497, "bronId": "L033845"}}, {"type": "Feature", "geometry": {"type": "Point", "coordinates": [6.0351255, 52.0057158]}, "properties": {"type": "inleverpunt", "locatieNaam": "Kruidvat", "straatNaam": "Groenestraat", "straatNr": "53-55", "postcode": "6991 GL", "plaats": "Rheden", "merk": "Stibat", "puntType": "inzamelbak", "materialen": ["batterijen"], "uitbetaling": [], "vrijToegankelijk": false, "gemeenteBeperking": null, "openingstijden": null, "latitude": 52.0057158, "longitude": 6.0351255, "bronId": "L015292"}}, {"type": "Feature", "geometry": {"type": "Point", "coordinates": [6.0358686, 52.0047007]}, "properties": {"type": "inleverpunt", "locatieNaam": "8545 Albert Heijn", "straatNaam": "Groenestraat", "straatNr": "78", "postcode": "6991 GH", "plaats": "Rheden", "merk": "Stibat", "puntType": "inzamelbak", "materialen": ["batterijen"], "uitbetaling": [], "vrijToegankelijk": false, "gemeenteBeperking": null, "openingstijden": null, "latitude": 52.0047007, "longitude": 6.0358686, "bronId": "L006998"}}, {"type": "Feature", "geometry": {"type": "Point", "coordinates": [6.0911964, 52.0633716]}, "properties": {"type": "inleverpunt", "locatieNaam": "Spar", "straatNaam": "Cederlaan", "straatNr": "25", "postcode": "6951 MN", "plaats": "Dieren", "merk": "Stibat", "puntType": "inzamelbak", "materialen": ["batterijen"], "uitbetaling": [], "vrijToegankelijk": false, "gemeenteBeperking": null, "openingstijden": null, "latitude": 52.0633716, "longitude": 6.0911964, "bronId": "L009160"}}, {"type": "Feature", "geometry": {"type": "Point", "coordinates": [6.0989205, 52.0498653]}, "properties": {"type": "inleverpunt", "locatieNaam": "Backwood Music", "straatNaam": "Faberstraat", "straatNr": "9", "postcode": "6951 BJ", "plaats": "Dieren", "merk": "Stibat", "puntType": "inzamelbak", "materialen": ["batterijen"], "uitbetaling": [], "vrijToegankelijk": false, "gemeenteBeperking": null, "openingstijden": null, "latitude": 52.0498653, "longitude": 6.0989205, "bronId": "L026339"}}, {"type": "Feature", "geometry": {"type": "Point", "coordinates": [6.0997114, 52.0513882]}, "properties": {"type": "inleverpunt", "locatieNaam": "Jumbo", "straatNaam": "Diderna", "straatNr": "44", "postcode": "6951 CW", "plaats": "Dieren", "merk": "Stibat", "puntType": "inzamelbak", "materialen": ["batterijen"], "uitbetaling": [], "vrijToegankelijk": false, "gemeenteBeperking": null, "openingstijden": null, "latitude": 52.0513882, "longitude": 6.0997114, "bronId": "L040874"}}, {"type": "Feature", "geometry": {"type": "Point", "coordinates": [6.0995388, 52.0496521]}, "properties": {"type": "inleverpunt", "locatieNaam": "Mijn Horen", "straatNaam": "Piersonstraat", "straatNr": "5", "postcode": "6951 BD", "plaats": "Dieren", "merk": "Stibat", "puntType": "inzamelbak", "materialen": ["batterijen"], "uitbetaling": [], "vrijToegankelijk": false, "gemeenteBeperking": null, "openingstijden": null, "latitude": 52.0496521, "longitude": 6.0995388, "bronId": "L045585"}}, {"type": "Feature", "geometry": {"type": "Point", "coordinates": [6.1000283, 52.0506268]}, "properties": {"type": "inleverpunt", "locatieNaam": "Fietsen &amp; Zo", "straatNaam": "Semmelweisstraat", "straatNr": "1a", "postcode": "6951 CS", "plaats": "Dieren", "merk": "Stibat", "puntType": "inzamelbak", "materialen": ["batterijen"], "uitbetaling": [], "vrijToegankelijk": false, "gemeenteBeperking": null, "openingstijden": null, "latitude": 52.0506268, "longitude": 6.1000283, "bronId": "L033836"}}, {"type": "Feature", "geometry": {"type": "Point", "coordinates": [6.1003106, 52.0511665]}, "properties": {"type": "inleverpunt", "locatieNaam": "Kruidvat", "straatNaam": "Diderna", "straatNr": "6a", "postcode": "6951 CW", "plaats": "Dieren", "merk": "Stibat", "puntType": "inzamelbak", "materialen": ["batterijen"], "uitbetaling": [], "vrijToegankelijk": false, "gemeenteBeperking": null, "openingstijden": null, "latitude": 52.0511665, "longitude": 6.1003106, "bronId": "L015244"}}, {"type": "Feature", "geometry": {"type": "Point", "coordinates": [6.1003664, 52.0513302]}, "properties": {"type": "inleverpunt", "locatieNaam": "Lidl", "straatNaam": "Diderna", "straatNr": "13", "postcode": "6951 CW", "plaats": "Dieren", "merk": "Stibat", "puntType": "inzamelbak", "materialen": ["batterijen"], "uitbetaling": [], "vrijToegankelijk": false, "gemeenteBeperking": null, "openingstijden": null, "latitude": 52.0513302, "longitude": 6.1003664, "bronId": "L041773"}}, {"type": "Feature", "geometry": {"type": "Point", "coordinates": [6.1004778, 52.050102]}, "properties": {"type": "inleverpunt", "locatieNaam": "Hans Anders", "straatNaam": "Callunaplein", "straatNr": "1", "postcode": "6951 CM", "plaats": "Dieren", "merk": "Stibat", "puntType": "inzamelbak", "materialen": ["batterijen"], "uitbetaling": [], "vrijToegankelijk": false, "gemeenteBeperking": null, "openingstijden": null, "latitude": 52.050102, "longitude": 6.1004778, "bronId": "L041025"}}, {"type": "Feature", "geometry": {"type": "Point", "coordinates": [6.1008399, 52.0503219]}, "properties": {"type": "inleverpunt", "locatieNaam": "1430 Action", "straatNaam": "Callunaplein", "straatNr": "43", "postcode": "6951 CM", "plaats": "Dieren", "merk": "Stibat", "puntType": "inzamelbak", "materialen": ["batterijen"], "uitbetaling": [], "vrijToegankelijk": false, "gemeenteBeperking": null, "openingstijden": null, "latitude": 52.0503219, "longitude": 6.1008399, "bronId": "L045808"}}, {"type": "Feature", "geometry": {"type": "Point", "coordinates": [6.1009842, 52.0505]}, "properties": {"type": "inleverpunt", "locatieNaam": "7808 Etos", "straatNaam": "Callunaplein", "straatNr": "55", "postcode": "6951 CN", "plaats": "Dieren", "merk": "Stibat", "puntType": "inzamelbak", "materialen": ["batterijen"], "uitbetaling": [], "vrijToegankelijk": false, "gemeenteBeperking": null, "openingstijden": null, "latitude": 52.0505, "longitude": 6.1009842, "bronId": "L038740"}}, {"type": "Feature", "geometry": {"type": "Point", "coordinates": [6.101026, 52.050732]}, "properties": {"type": "inleverpunt", "locatieNaam": "Modern Phone", "straatNaam": "Callunaplein", "straatNr": "67", "postcode": "6951 CN", "plaats": "Dieren", "merk": "Stibat", "puntType": "inzamelbak", "materialen": ["batterijen"], "uitbetaling": [], "vrijToegankelijk": false, "gemeenteBeperking": null, "openingstijden": null, "latitude": 52.050732, "longitude": 6.101026, "bronId": "L040075"}}, {"type": "Feature", "geometry": {"type": "Point", "coordinates": [6.1011465, 52.049708]}, "properties": {"type": "inleverpunt", "locatieNaam": "Primera", "straatNaam": "Callunaplein", "straatNr": "2", "postcode": "6951 CP", "plaats": "Dieren", "merk": "Stibat", "puntType": "inzamelbak", "materialen": ["batterijen"], "uitbetaling": [], "vrijToegankelijk": false, "gemeenteBeperking": null, "openingstijden": null, "latitude": 52.049708, "longitude": 6.1011465, "bronId": "L023090"}}, {"type": "Feature", "geometry": {"type": "Point", "coordinates": [6.1013538, 52.0508213]}, "properties": {"type": "inleverpunt", "locatieNaam": "Boekhandel Dieren", "straatNaam": "Callunaplein", "straatNr": "108", "postcode": "6951 CR", "plaats": "Dieren", "merk": "Stibat", "puntType": "inzamelbak", "materialen": ["batterijen"], "uitbetaling": [], "vrijToegankelijk": false, "gemeenteBeperking": null, "openingstijden": null, "latitude": 52.0508213, "longitude": 6.1013538, "bronId": "L038358"}}, {"type": "Feature", "geometry": {"type": "Point", "coordinates": [6.1009279, 52.0483338]}, "properties": {"type": "inleverpunt", "locatieNaam": "Aldi", "straatNaam": "Buitensingel", "straatNr": "77", "postcode": "6951 AX", "plaats": "Dieren", "merk": "Stibat", "puntType": "inzamelbak", "materialen": ["batterijen"], "uitbetaling": [], "vrijToegankelijk": false, "gemeenteBeperking": null, "openingstijden": null, "latitude": 52.0483338, "longitude": 6.1009279, "bronId": "L041446"}}, {"type": "Feature", "geometry": {"type": "Point", "coordinates": [6.1016008, 52.0509574]}, "properties": {"type": "inleverpunt", "locatieNaam": "HEMA Callunaplein", "straatNaam": "Callunaplein", "straatNr": "88", "postcode": "6951 CR", "plaats": "Dieren", "merk": "Stibat", "puntType": "inzamelbak", "materialen": ["batterijen"], "uitbetaling": [], "vrijToegankelijk": false, "gemeenteBeperking": null, "openingstijden": null, "latitude": 52.0509574, "longitude": 6.1016008, "bronId": "L007509"}}, {"type": "Feature", "geometry": {"type": "Point", "coordinates": [6.1017762, 52.0507563]}, "properties": {"type": "inleverpunt", "locatieNaam": "Wibra", "straatNaam": "Callunaplein", "straatNr": "82-84", "postcode": "6951 CR", "plaats": "Dieren", "merk": "Stibat", "puntType": "inzamelbak", "materialen": ["batterijen"], "uitbetaling": [], "vrijToegankelijk": false, "gemeenteBeperking": null, "openingstijden": null, "latitude": 52.0507563, "longitude": 6.1017762, "bronId": "L024336"}}, {"type": "Feature", "geometry": {"type": "Point", "coordinates": [6.1019483, 52.0504256]}, "properties": {"type": "inleverpunt", "locatieNaam": "1471 Albert Heijn", "straatNaam": "Callunaplein", "straatNr": "72", "postcode": "6951 CR", "plaats": "Dieren", "merk": "Stibat", "puntType": "inzamelbak", "materialen": ["batterijen"], "uitbetaling": [], "vrijToegankelijk": false, "gemeenteBeperking": null, "openingstijden": null, "latitude": 52.0504256, "longitude": 6.1019483, "bronId": "L007412"}}, {"type": "Feature", "geometry": {"type": "Point", "coordinates": [6.1027648, 52.0485709]}, "properties": {"type": "inleverpunt", "locatieNaam": "Expert", "straatNaam": "Wilhelminaweg", "straatNr": "30", "postcode": "6951 BP", "plaats": "Dieren", "merk": "Stibat", "puntType": "inzamelbak", "materialen": ["batterijen"], "uitbetaling": [], "vrijToegankelijk": false, "gemeenteBeperking": null, "openingstijden": null, "latitude": 52.0485709, "longitude": 6.1027648, "bronId": "L008749"}}, {"type": "Feature", "geometry": {"type": "Point", "coordinates": [6.1046144, 52.0465138]}, "properties": {"type": "inleverpunt", "locatieNaam": "Zeeman", "straatNaam": "Wilhelminaweg", "straatNr": "50-52", "postcode": "6951 BP", "plaats": "Dieren", "merk": "Stibat", "puntType": "inzamelbak", "materialen": ["batterijen"], "uitbetaling": [], "vrijToegankelijk": false, "gemeenteBeperking": null, "openingstijden": null, "latitude": 52.0465138, "longitude": 6.1046144, "bronId": "L020564"}}, {"type": "Feature", "geometry": {"type": "Point", "coordinates": [6.1081589, 52.0522412]}, "properties": {"type": "inleverpunt", "locatieNaam": "Praxis 2036", "straatNaam": "Spankerenseweg", "straatNr": "50", "postcode": "6951 CH", "plaats": "Dieren", "merk": "Stibat", "puntType": "inzamelbak", "materialen": ["batterijen"], "uitbetaling": [], "vrijToegankelijk": false, "gemeenteBeperking": null, "openingstijden": null, "latitude": 52.0522412, "longitude": 6.1081589, "bronId": "L014545"}}, {"type": "Feature", "geometry": {"type": "Point", "coordinates": [6.1089005, 52.0559481]}, "properties": {"type": "inleverpunt", "locatieNaam": "Frontline Handbike", "straatNaam": "Kanaaldijk", "straatNr": "98", "postcode": "6956 AX", "plaats": "Spankeren", "merk": "Stibat", "puntType": "inzamelbak", "materialen": ["batterijen"], "uitbetaling": [], "vrijToegankelijk": false, "gemeenteBeperking": null, "openingstijden": null, "latitude": 52.0559481, "longitude": 6.1089005, "bronId": "L048931"}}, {"type": "Feature", "geometry": {"type": "Point", "coordinates": [6.1086817, 52.053499]}, "properties": {"type": "inleverpunt", "locatieNaam": "2switch", "straatNaam": "Spankerenseweg", "straatNr": "58a", "postcode": "6951 CH", "plaats": "Dieren", "merk": "Stibat", "puntType": "inzamelbak", "materialen": ["batterijen"], "uitbetaling": [], "vrijToegankelijk": false, "gemeenteBeperking": null, "openingstijden": null, "latitude": 52.053499, "longitude": 6.1086817, "bronId": "L034582"}}, {"type": "Feature", "geometry": {"type": "Point", "coordinates": [6.1089934, 52.0485794]}, "properties": {"type": "inleverpunt", "locatieNaam": "Riesewijk Dieren BV", "straatNaam": "Molenweg", "straatNr": "16A", "postcode": "6953 CT", "plaats": "Dieren", "merk": "Stibat", "puntType": "inzamelbak", "materialen": ["batterijen"], "uitbetaling": [], "vrijToegankelijk": false, "gemeenteBeperking": null, "openingstijden": null, "latitude": 52.0485794, "longitude": 6.1089934, "bronId": "L033837"}}, {"type": "Feature", "geometry": {"type": "Polygon", "coordinates": [[[6.076708002403098, 52.0847160039487], [6.076102002402575, 52.08749800395048], [6.06828100239478, 52.088246003951156], [6.065978002392469, 52.087819003951005], [6.058499002384924, 52.085323003949675], [6.050346002376657, 52.08122500394737], [6.044924002371191, 52.07964100394657], [6.038415002364552, 52.075018003943924], [6.030994002357023, 52.07118400394175], [6.0280260023539896, 52.069020003940494], [6.023738002349655, 52.06728200393956], [6.009643002335522, 52.06600200393919], [6.006085002331972, 52.066349003939486], [6.006180002331966, 52.06276400393728], [6.005336002331004, 52.05888800393492], [6.003769002329367, 52.05657400393348], [6.000161002325697, 52.05438500393229], [5.998216002323741, 52.054058003932155], [5.989027002314581, 52.055073003933], [5.983291002308837, 52.05492800393307], [5.977959002303487, 52.054390003932895], [5.981650002306992, 52.0480880039289], [5.987063002312202, 52.04120900392448], [5.990185002315144, 52.035172003920664], [5.995805002320503, 52.02622000391494], [5.994125002318771, 52.02450100391395], [5.988656002313229, 52.02228500391271], [5.984835002309335, 52.019898003911315], [5.980882002305346, 52.018803003910755], [5.980461002304914, 52.01840500391052], [5.979181002303575, 52.016482003909346], [5.980010002304366, 52.01524800390857], [5.978884002303055, 52.00907100390475], [5.977948002302058, 52.00712000390355], [5.976218002300293, 52.005963003902906], [5.976197002300242, 52.00503600390233], [5.974708002298686, 52.00291000390106], [5.9630860022869685, 52.00031800389974], [5.957799002281694, 52.000876003900245], [5.9515260022753775, 51.99963800389962], [5.953613002277327, 51.99500200389668], [5.953969002277669, 51.99457100389639], [5.95443800227814, 51.994725003896505], [5.955797002279441, 51.992678003895186], [5.959674002283221, 51.98928200389298], [5.965645002289109, 51.98631100389094], [5.975512002298911, 51.98358900388898], [5.980523002303867, 51.98151700388757], [5.985008002308278, 51.97889800388578], [5.990340002313487, 51.97440600388284], [5.9965590023197715, 51.97627500388383], [6.000301002323585, 51.97845500388506], [6.003831002327278, 51.9838670038884], [6.006446002330113, 51.99113400389285], [6.008363002332095, 51.9932790038941], [6.011318002335113, 51.995275003895244], [6.014741002338581, 51.99670400389608], [6.016650002340502, 51.997057003896224], [6.0196790023435325, 51.99700300389613], [6.023983002347816, 51.99605100389539], [6.026450002350277, 51.99582500389522], [6.028645002352476, 51.99592900389518], [6.032501002356366, 51.99690100389567], [6.037141002361083, 51.99935900389707], [6.041383002365376, 52.001095003898044], [6.042936002366959, 52.002107003898615], [6.044616002368697, 52.00398900389973], [6.045749002369934, 52.007556003901946], [6.04803000237228, 52.00977600390322], [6.058896002383288, 52.01446700390586], [6.0630440023874534, 52.01502400390604], [6.066209002390611, 52.01470600390576], [6.072745002397084, 52.012456003904155], [6.07606200240036, 52.01092100390313], [6.077852002402103, 52.0093660039021], [6.0787890024029885, 52.00746900390087], [6.078690002402846, 52.005938003899935], [6.077588002401668, 52.00325600389832], [6.078334002402345, 52.00082700389679], [6.083576002407438, 51.99554900389333], [6.085002002408837, 51.994561003892656], [6.08791900241172, 51.993430003891895], [6.092060002415849, 51.992768003891356], [6.0953750024191695, 51.99298700389135], [6.103429002427271, 51.99452000389209], [6.109475002433369, 51.99634100389302], [6.112282002436252, 51.998975003894586], [6.113815002437906, 52.00331800389725], [6.114768002438893, 52.00456700389796], [6.116286002440434, 52.005421003898476], [6.119888002444066, 52.006360003898955], [6.122339002446544, 52.007353003899475], [6.12437200244861, 52.008619003900215], [6.12596000245024, 52.01012700390108], [6.127400002451753, 52.01271400390267], [6.127639002452104, 52.01670400390516], [6.128716002453227, 52.01841100390612], [6.13072600245529, 52.020344003907326], [6.131980002456609, 52.02274000390876], [6.132268002456964, 52.025168003910224], [6.131643002456406, 52.0275400039117], [6.12951300245436, 52.03047500391361], [6.126326002451236, 52.032802003915165], [6.123285002448235, 52.034115003916085], [6.116848002441849, 52.03588100391738], [6.113301002438351, 52.037670003918535], [6.111265002436384, 52.04010400392016], [6.110916002436113, 52.042958003921925], [6.111605002436854, 52.044699003922965], [6.113134002438433, 52.046613003924136], [6.118165002443565, 52.05028600392625], [6.122290002447739, 52.052262003927325], [6.130328002455847, 52.054942003928744], [6.135848002461442, 52.05783100393035], [6.1374690024630985, 52.05918100393114], [6.135353002461, 52.059734003931545], [6.136425002462089, 52.060392003931895], [6.135751002461459, 52.062059003932966], [6.1325410024582485, 52.061860003932935], [6.132226002457958, 52.062744003933496], [6.128820002454557, 52.062799003933605], [6.129195002454964, 52.06396900393437], [6.1281030024538845, 52.064356003934606], [6.122769002448523, 52.06323000393407], [6.119881002445739, 52.06696100393646], [6.121021002446921, 52.06857600393743], [6.12045200244636, 52.06875400393757], [6.115699002441599, 52.06823100393739], [6.113971002439962, 52.07158300393953], [6.11282900243885, 52.07248600394009], [6.11149200243752, 52.07268100394027], [6.111790002437814, 52.072668003940244], [6.1105830024366465, 52.074018003941134], [6.109226002435315, 52.07489300394172], [6.102954002429123, 52.077571003943504], [6.103423002429606, 52.07814400394389], [6.081355002407676, 52.08229600394713], [6.080750002407114, 52.08383300394809], [6.077691002404049, 52.083526003947966], [6.0790200024053815, 52.08366400394805], [6.078728002405115, 52.084583003948595], [6.076708002403098, 52.0847160039487]]]}, "properties": {"type": "boundary", "gemeente": "Rheden"}}]}