{"type": "FeatureCollection", "metadata": {"gemeente": "Ridderkerk", "slug": "ridderkerk", "generated_at": "2026-07-28T10:02:02.095237Z", "total_points": 83, "merken": ["StatiegeldNederland", "Stibat", "StichtingOPEN"], "bounds": [4.557314, 51.8560662, 4.6286437, 51.8943254]}, "features": [{"type": "Feature", "geometry": {"type": "Point", "coordinates": [4.6051212, 51.8842332]}, "properties": {"type": "inleverpunt", "locatieNaam": "Albert Heijn", "straatNaam": "Dillenburgplein", "straatNr": "5", "postcode": "2983 CB", "plaats": "Ridderkerk", "merk": "StatiegeldNederland", "puntType": "automaat", "materialen": ["pet-groot", "pet-klein", "blik", "glas", "krat"], "uitbetaling": ["bonnetje", "donatie"], "vrijToegankelijk": true, "gemeenteBeperking": null, "openingstijden": {"ma": "08:00–22:00", "di": "08:00–22:00", "wo": "08:00–22:00", "do": "08:00–22:00", "vr": "08:00–22:00", "za": "08:00–22:00", "zo": "Gesloten"}, "latitude": 51.8842332, "longitude": 4.6051212, "bronId": "252161"}}, {"type": "Feature", "geometry": {"type": "Point", "coordinates": [4.5982194, 51.8701333]}, "properties": {"type": "inleverpunt", "locatieNaam": "Albert Heijn", "straatNaam": "Ridderhof", "straatNr": "25", "postcode": "2981 ET", "plaats": "Ridderkerk", "merk": "StatiegeldNederland", "puntType": "automaat", "materialen": ["pet-groot", "pet-klein", "blik", "glas", "krat"], "uitbetaling": ["bonnetje", "donatie"], "vrijToegankelijk": true, "gemeenteBeperking": null, "openingstijden": {"ma": "08:00–22:00", "di": "08:00–22:00", "wo": "08:00–22:00", "do": "08:00–22:00", "vr": "07:00–22:00", "za": "07:00–22:00", "zo": "Gesloten"}, "latitude": 51.8701333, "longitude": 4.5982194, "bronId": "252669"}}, {"type": "Feature", "geometry": {"type": "Point", "coordinates": [4.5865866, 51.8737861]}, "properties": {"type": "inleverpunt", "locatieNaam": "Aldi", "straatNaam": "Olmenlaan", "straatNr": "14-22", "postcode": "2982 CP", "plaats": "Ridderkerk", "merk": "StatiegeldNederland", "puntType": "automaat", "materialen": ["pet-groot", "pet-klein", "blik", "glas", "krat"], "uitbetaling": ["bonnetje"], "vrijToegankelijk": true, "gemeenteBeperking": null, "openingstijden": {"ma": "08:00–20:00", "di": "08:00–20:00", "wo": "08:00–20:00", "do": "08:00–20:00", "vr": "08:00–20:00", "za": "08:00–18:00", "zo": "Gesloten"}, "latitude": 51.8737861, "longitude": 4.5865866, "bronId": "253292"}}, {"type": "Feature", "geometry": {"type": "Point", "coordinates": [4.5996586, 51.8719695]}, "properties": {"type": "inleverpunt", "locatieNaam": "Appel -2725-gem.ridderkerk", "straatNaam": "Koningsplein", "straatNr": "1", "postcode": "2981 EA", "plaats": "Ridderkerk", "merk": "StatiegeldNederland", "puntType": "balie", "materialen": ["pet-groot", "pet-klein", "blik"], "uitbetaling": [], "vrijToegankelijk": true, "gemeenteBeperking": null, "openingstijden": {"ma": "24 uur geopend", "di": "24 uur geopend", "wo": "24 uur geopend", "do": "24 uur geopend", "vr": "24 uur geopend", "za": "24 uur geopend", "zo": "24 uur geopend"}, "latitude": 51.8719695, "longitude": 4.5996586, "bronId": "253525"}}, {"type": "Feature", "geometry": {"type": "Point", "coordinates": [4.5574909, 51.8646024]}, "properties": {"type": "inleverpunt", "locatieNaam": "Appel 2681 Waterschap Hd", "straatNaam": "Handelsweg", "straatNr": "100", "postcode": "2988 DC", "plaats": "Ridderkerk", "merk": "StatiegeldNederland", "puntType": "balie", "materialen": ["pet-groot", "pet-klein", "blik"], "uitbetaling": [], "vrijToegankelijk": true, "gemeenteBeperking": null, "openingstijden": {"ma": "08:00–17:30", "di": "08:00–17:30", "wo": "08:00–17:30", "do": "08:00–17:30", "vr": "08:00–17:30", "za": "Gesloten", "zo": "Gesloten"}, "latitude": 51.8646024, "longitude": 4.5574909, "bronId": "253631"}}, {"type": "Feature", "geometry": {"type": "Point", "coordinates": [4.6028888, 51.862635]}, "properties": {"type": "inleverpunt", "locatieNaam": "Boons markt", "straatNaam": "Genestetstraat", "straatNr": "56", "postcode": "2985 CG", "plaats": "Ridderkerk", "merk": "StatiegeldNederland", "puntType": "automaat", "materialen": ["pet-groot", "pet-klein", "blik", "glas", "krat"], "uitbetaling": ["bonnetje", "donatie"], "vrijToegankelijk": true, "gemeenteBeperking": null, "openingstijden": {"ma": "08:00–20:00", "di": "08:00–20:00", "wo": "08:00–20:00", "do": "08:00–20:00", "vr": "08:00–20:00", "za": "08:00–20:00", "zo": "Gesloten"}, "latitude": 51.862635, "longitude": 4.6028888, "bronId": "253883"}}, {"type": "Feature", "geometry": {"type": "Point", "coordinates": [4.604272, 51.8709009]}, "properties": {"type": "inleverpunt", "locatieNaam": "Dirk", "straatNaam": "Havenstraat", "straatNr": "9", "postcode": "2984 AC", "plaats": "Ridderkerk", "merk": "StatiegeldNederland", "puntType": "automaat", "materialen": ["pet-groot", "pet-klein", "blik", "glas", "krat"], "uitbetaling": ["bonnetje", "donatie"], "vrijToegankelijk": true, "gemeenteBeperking": null, "openingstijden": {"ma": "07:00–21:00", "di": "07:00–21:00", "wo": "07:00–21:00", "do": "07:00–21:00", "vr": "07:00–21:00", "za": "07:00–20:00", "zo": "Gesloten"}, "latitude": 51.8709009, "longitude": 4.604272, "bronId": "254476"}}, {"type": "Feature", "geometry": {"type": "Point", "coordinates": [4.5804325, 51.8932222]}, "properties": {"type": "inleverpunt", "locatieNaam": "Dirk", "straatNaam": "Vechtstraat", "straatNr": "5E", "postcode": "2987 CX", "plaats": "Ridderkerk", "merk": "StatiegeldNederland", "puntType": "automaat", "materialen": ["pet-groot", "pet-klein", "blik", "glas", "krat"], "uitbetaling": ["bonnetje", "donatie"], "vrijToegankelijk": true, "gemeenteBeperking": null, "openingstijden": {"ma": "08:00–21:00", "di": "08:00–21:00", "wo": "08:00–21:00", "do": "08:00–21:00", "vr": "08:00–21:00", "za": "08:00–21:00", "zo": "Gesloten"}, "latitude": 51.8932222, "longitude": 4.5804325, "bronId": "254558"}}, {"type": "Feature", "geometry": {"type": "Point", "coordinates": [4.5804325, 51.8932222]}, "properties": {"type": "inleverpunt", "locatieNaam": "Dirk", "straatNaam": "Vechtstraat", "straatNr": "5E", "postcode": "2987 CX", "plaats": "Ridderkerk/Bolnes", "merk": "StatiegeldNederland", "puntType": "automaat", "materialen": ["blik"], "uitbetaling": ["bonnetje", "donatie"], "vrijToegankelijk": true, "gemeenteBeperking": null, "openingstijden": {"ma": "08:00–21:00", "di": "08:00–21:00", "wo": "08:00–21:00", "do": "08:00–21:00", "vr": "08:00–21:00", "za": "08:00–21:00", "zo": "Gesloten"}, "latitude": 51.8932222, "longitude": 4.5804325, "bronId": "254559"}}, {"type": "Feature", "geometry": {"type": "Point", "coordinates": [4.5991765, 51.8807116]}, "properties": {"type": "inleverpunt", "locatieNaam": "Gemini B/K", "straatNaam": "Prinses Margrietstraat", "straatNr": "163", "postcode": "2983 ED", "plaats": "Ridderkerk", "merk": "StatiegeldNederland", "puntType": "automaat", "materialen": ["pet-klein", "blik"], "uitbetaling": ["donatie", "tikkie"], "vrijToegankelijk": true, "gemeenteBeperking": null, "openingstijden": null, "latitude": 51.8807116, "longitude": 4.5991765, "bronId": "254850"}}, {"type": "Feature", "geometry": {"type": "Point", "coordinates": [4.5914552, 51.8765388]}, "properties": {"type": "inleverpunt", "locatieNaam": "Gemini mavo/havo/vwo", "straatNaam": "Sportlaan", "straatNr": "16", "postcode": "2982 SN", "plaats": "Ridderkerk", "merk": "StatiegeldNederland", "puntType": "automaat", "materialen": ["pet-klein", "blik"], "uitbetaling": ["donatie", "tikkie"], "vrijToegankelijk": true, "gemeenteBeperking": null, "openingstijden": null, "latitude": 51.8765388, "longitude": 4.5914552, "bronId": "254851"}}, {"type": "Feature", "geometry": {"type": "Point", "coordinates": [4.60128, 51.868761]}, "properties": {"type": "inleverpunt", "locatieNaam": "Jumbo", "straatNaam": "Ridderhof", "straatNr": "72", "postcode": "2981 ET", "plaats": "Ridderkerk", "merk": "StatiegeldNederland", "puntType": "automaat", "materialen": ["pet-groot", "pet-klein", "blik", "glas", "krat"], "uitbetaling": ["bonnetje", "donatie"], "vrijToegankelijk": true, "gemeenteBeperking": null, "openingstijden": {"ma": "08:00–21:00", "di": "08:00–21:00", "wo": "08:00–21:00", "do": "08:00–21:00", "vr": "08:00–21:00", "za": "08:00–21:00", "zo": "Gesloten"}, "latitude": 51.868761, "longitude": 4.60128, "bronId": "255710"}}, {"type": "Feature", "geometry": {"type": "Point", "coordinates": [4.58097, 51.89275]}, "properties": {"type": "inleverpunt", "locatieNaam": "Lidl", "straatNaam": "Amerstraat", "straatNr": "2", "postcode": "2987 CA", "plaats": "Ridderkerk/Bolnes", "merk": "StatiegeldNederland", "puntType": "automaat", "materialen": ["pet-groot", "pet-klein", "blik", "glas", "krat"], "uitbetaling": ["bonnetje", "donatie"], "vrijToegankelijk": true, "gemeenteBeperking": null, "openingstijden": {"ma": "08:00–21:00", "di": "08:00–21:00", "wo": "08:00–21:00", "do": "08:00–21:00", "vr": "08:00–21:00", "za": "08:00–21:00", "zo": "Gesloten"}, "latitude": 51.89275, "longitude": 4.58097, "bronId": "256061"}}, {"type": "Feature", "geometry": {"type": "Point", "coordinates": [4.60055, 51.8688]}, "properties": {"type": "inleverpunt", "locatieNaam": "Lidl", "straatNaam": "Ridderhof", "straatNr": "61", "postcode": "2981 ET", "plaats": "Ridderkerk", "merk": "StatiegeldNederland", "puntType": "automaat", "materialen": ["pet-groot", "pet-klein", "blik", "glas", "krat"], "uitbetaling": ["bonnetje", "donatie"], "vrijToegankelijk": true, "gemeenteBeperking": null, "openingstijden": {"ma": "07:00–21:00", "di": "07:00–21:00", "wo": "07:00–21:00", "do": "07:00–21:00", "vr": "07:00–21:00", "za": "07:00–21:00", "zo": "Gesloten"}, "latitude": 51.8688, "longitude": 4.60055, "bronId": "256359"}}, {"type": "Feature", "geometry": {"type": "Point", "coordinates": [4.6184741, 51.8652797]}, "properties": {"type": "inleverpunt", "locatieNaam": "Plus", "straatNaam": "Vlietplein", "straatNr": "193", "postcode": "2986 GM", "plaats": "Ridderkerk", "merk": "StatiegeldNederland", "puntType": "automaat", "materialen": ["pet-groot", "pet-klein", "blik", "glas", "krat"], "uitbetaling": ["bonnetje"], "vrijToegankelijk": true, "gemeenteBeperking": null, "openingstijden": {"ma": "08:00–20:00", "di": "08:00–20:00", "wo": "08:00–20:00", "do": "08:00–20:00", "vr": "08:00–21:00", "za": "08:00–20:00", "zo": "Gesloten"}, "latitude": 51.8652797, "longitude": 4.6184741, "bronId": "257572"}}, {"type": "Feature", "geometry": {"type": "Point", "coordinates": [4.596612, 51.8643185]}, "properties": {"type": "inleverpunt", "locatieNaam": "Shell", "straatNaam": "Burg de Zeeuwstraat", "straatNr": "3", "postcode": "2985 AA", "plaats": "Ridderkerk", "merk": "StatiegeldNederland", "puntType": "balie", "materialen": ["pet-groot", "pet-klein", "blik"], "uitbetaling": [], "vrijToegankelijk": true, "gemeenteBeperking": null, "openingstijden": {"ma": "24 uur geopend", "di": "24 uur geopend", "wo": "24 uur geopend", "do": "24 uur geopend", "vr": "24 uur geopend", "za": "24 uur geopend", "zo": "24 uur geopend"}, "latitude": 51.8643185, "longitude": 4.596612, "bronId": "258041"}}, {"type": "Feature", "geometry": {"type": "Point", "coordinates": [4.617146, 51.879428]}, "properties": {"type": "inleverpunt", "locatieNaam": "Van Pelt Recycling B.V.", "straatNaam": "Klompenmakerstraat", "straatNr": "10", "postcode": "2984 BB", "plaats": "Ridderkerk", "merk": "StichtingOPEN", "puntType": "balie", "materialen": ["elektro-groot", "elektro-klein", "elektro-middel"], "uitbetaling": [], "vrijToegankelijk": false, "gemeenteBeperking": null, "openingstijden": null, "latitude": 51.879428, "longitude": 4.617146, "bronId": "SP00032806"}}, {"type": "Feature", "geometry": {"type": "Point", "coordinates": [4.616637, 51.876676]}, "properties": {"type": "inleverpunt", "locatieNaam": "224 - Isero Ridderkerk", "straatNaam": "Brouwerstraat", "straatNr": "36", "postcode": "2984 AR", "plaats": "Ridderkerk", "merk": "StichtingOPEN", "puntType": "balie", "materialen": ["elektro-klein", "lampen", "tl-buizen"], "uitbetaling": [], "vrijToegankelijk": false, "gemeenteBeperking": null, "openingstijden": null, "latitude": 51.876676, "longitude": 4.616637, "bronId": "SP00032815"}}, {"type": "Feature", "geometry": {"type": "Point", "coordinates": [4.605933, 51.884646]}, "properties": {"type": "inleverpunt", "locatieNaam": "Kruidvat Ridderkerk", "straatNaam": "Dillenburgplein", "straatNr": "1618", "postcode": "2983 CC", "plaats": "Ridderkerk", "merk": "StichtingOPEN", "puntType": "balie", "materialen": ["batterijen", "lampen"], "uitbetaling": [], "vrijToegankelijk": false, "gemeenteBeperking": null, "openingstijden": null, "latitude": 51.884646, "longitude": 4.605933, "bronId": "SP00024570"}}, {"type": "Feature", "geometry": {"type": "Point", "coordinates": [4.605119, 51.884227]}, "properties": {"type": "inleverpunt", "locatieNaam": "4063 Albert Heijn Ridderkerk", "straatNaam": "Dillenburgplein", "straatNr": "519", "postcode": "2983 CB", "plaats": "Ridderkerk", "merk": "StichtingOPEN", "puntType": "balie", "materialen": ["batterijen", "lampen"], "uitbetaling": [], "vrijToegankelijk": false, "gemeenteBeperking": null, "openingstijden": null, "latitude": 51.884227, "longitude": 4.605119, "bronId": "SP00023311"}}, {"type": "Feature", "geometry": {"type": "Point", "coordinates": [4.620321, 51.866002]}, "properties": {"type": "inleverpunt", "locatieNaam": "Action Ridderkerk", "straatNaam": "Voorn", "straatNr": "47", "postcode": "2986 JA", "plaats": "Ridderkerk", "merk": "StichtingOPEN", "puntType": "balie", "materialen": ["batterijen", "elektro-klein", "lampen"], "uitbetaling": [], "vrijToegankelijk": false, "gemeenteBeperking": null, "openingstijden": null, "latitude": 51.866002, "longitude": 4.620321, "bronId": "SP00033222"}}, {"type": "Feature", "geometry": {"type": "Point", "coordinates": [4.607674, 51.870408]}, "properties": {"type": "inleverpunt", "locatieNaam": "Opnieuw & Co Ridderkerk", "straatNaam": "Voorzand", "straatNr": "24", "postcode": "2984 BH", "plaats": "Ridderkerk", "merk": "StichtingOPEN", "puntType": "balie", "materialen": ["batterijen", "elektro-groot", "elektro-klein", "elektro-middel", "lampen"], "uitbetaling": [], "vrijToegankelijk": false, "gemeenteBeperking": null, "openingstijden": null, "latitude": 51.870408, "longitude": 4.607674, "bronId": "SP00037428"}}, {"type": "Feature", "geometry": {"type": "Point", "coordinates": [4.606769, 51.870153]}, "properties": {"type": "inleverpunt", "locatieNaam": "GAMMA Ridderkerk", "straatNaam": "Gieterijstraat", "straatNr": "20", "postcode": "2984 AB", "plaats": "Ridderkerk", "merk": "StichtingOPEN", "puntType": "balie", "materialen": ["batterijen", "elektro-middel", "lampen", "tl-buizen"], "uitbetaling": [], "vrijToegankelijk": false, "gemeenteBeperking": null, "openingstijden": null, "latitude": 51.870153, "longitude": 4.606769, "bronId": "SP00000704"}}, {"type": "Feature", "geometry": {"type": "Point", "coordinates": [4.604234, 51.870902]}, "properties": {"type": "inleverpunt", "locatieNaam": "Dirk Ridderkerk", "straatNaam": "Havenstraat", "straatNr": "9", "postcode": "2984 AC", "plaats": "Ridderkerk", "merk": "StichtingOPEN", "puntType": "balie", "materialen": ["batterijen", "lampen"], "uitbetaling": [], "vrijToegankelijk": false, "gemeenteBeperking": null, "openingstijden": null, "latitude": 51.870902, "longitude": 4.604234, "bronId": "SP00023421"}}, {"type": "Feature", "geometry": {"type": "Point", "coordinates": [4.600068, 51.870662]}, "properties": {"type": "inleverpunt", "locatieNaam": "Kruidvat Ridderkerk", "straatNaam": "Baljuwstraat", "straatNr": "1", "postcode": "2981 DC", "plaats": "Ridderkerk", "merk": "StichtingOPEN", "puntType": "balie", "materialen": ["batterijen", "lampen"], "uitbetaling": [], "vrijToegankelijk": false, "gemeenteBeperking": null, "openingstijden": null, "latitude": 51.870662, "longitude": 4.600068, "bronId": "SP00024565"}}, {"type": "Feature", "geometry": {"type": "Point", "coordinates": [4.58096, 51.89275]}, "properties": {"type": "inleverpunt", "locatieNaam": "Lidl Ridderkerk", "straatNaam": "Amerstraat", "straatNr": "2", "postcode": "2987 CA", "plaats": "Ridderkerk", "merk": "StichtingOPEN", "puntType": "balie", "materialen": ["batterijen", "lampen"], "uitbetaling": [], "vrijToegankelijk": false, "gemeenteBeperking": null, "openingstijden": null, "latitude": 51.89275, "longitude": 4.58096, "bronId": "SP00030003"}}, {"type": "Feature", "geometry": {"type": "Point", "coordinates": [4.580427, 51.893186]}, "properties": {"type": "inleverpunt", "locatieNaam": "Dirk Ridderkerk", "straatNaam": "Vechtstraat", "straatNr": "1a", "postcode": "2987 CX", "plaats": "Ridderkerk", "merk": "StichtingOPEN", "puntType": "balie", "materialen": ["batterijen", "lampen"], "uitbetaling": [], "vrijToegankelijk": false, "gemeenteBeperking": null, "openingstijden": null, "latitude": 51.893186, "longitude": 4.580427, "bronId": "SP00023424"}}, {"type": "Feature", "geometry": {"type": "Point", "coordinates": [4.580755, 51.892747]}, "properties": {"type": "inleverpunt", "locatieNaam": "Kruidvat Ridderkerk", "straatNaam": "Amerstraat", "straatNr": "14", "postcode": "2987 CA", "plaats": "Ridderkerk", "merk": "StichtingOPEN", "puntType": "balie", "materialen": ["batterijen", "lampen"], "uitbetaling": [], "vrijToegankelijk": false, "gemeenteBeperking": null, "openingstijden": null, "latitude": 51.892747, "longitude": 4.580755, "bronId": "SP00024575"}}, {"type": "Feature", "geometry": {"type": "Point", "coordinates": [4.598847, 51.870057]}, "properties": {"type": "inleverpunt", "locatieNaam": "1134 Albert Heijn Ridderkerk", "straatNaam": "Ridderhof", "straatNr": "25", "postcode": "2981 ET", "plaats": "Ridderkerk", "merk": "StichtingOPEN", "puntType": "balie", "materialen": ["batterijen", "elektro-klein", "lampen"], "uitbetaling": [], "vrijToegankelijk": false, "gemeenteBeperking": null, "openingstijden": null, "latitude": 51.870057, "longitude": 4.598847, "bronId": "SP00022699"}}, {"type": "Feature", "geometry": {"type": "Point", "coordinates": [4.600029, 51.868453]}, "properties": {"type": "inleverpunt", "locatieNaam": "Action Ridderkerk", "straatNaam": "Ridderstraat", "straatNr": "2", "postcode": "2981 HA", "plaats": "Ridderkerk", "merk": "StichtingOPEN", "puntType": "balie", "materialen": ["batterijen", "lampen"], "uitbetaling": [], "vrijToegankelijk": false, "gemeenteBeperking": null, "openingstijden": null, "latitude": 51.868453, "longitude": 4.600029, "bronId": "SP00025552"}}, {"type": "Feature", "geometry": {"type": "Point", "coordinates": [4.598571, 51.870082]}, "properties": {"type": "inleverpunt", "locatieNaam": "Jumbo Ridderkerk", "straatNaam": "Ridderhof", "straatNr": "72", "postcode": "2981 ET", "plaats": "Ridderkerk", "merk": "StichtingOPEN", "puntType": "balie", "materialen": ["batterijen", "elektro-klein", "lampen"], "uitbetaling": [], "vrijToegankelijk": false, "gemeenteBeperking": null, "openingstijden": null, "latitude": 51.870082, "longitude": 4.598571, "bronId": "SP00025126"}}, {"type": "Feature", "geometry": {"type": "Point", "coordinates": [4.606319, 51.858736]}, "properties": {"type": "inleverpunt", "locatieNaam": "Kinderboerderij de Dierenhof", "straatNaam": "Oosterparkweg", "straatNr": "17", "postcode": "2986 AJ", "plaats": "Ridderkerk", "merk": "StichtingOPEN", "puntType": "balie", "materialen": ["elektro-klein"], "uitbetaling": [], "vrijToegankelijk": false, "gemeenteBeperking": null, "openingstijden": null, "latitude": 51.858736, "longitude": 4.606319, "bronId": "SP00005450"}}, {"type": "Feature", "geometry": {"type": "Point", "coordinates": [4.586526, 51.873803]}, "properties": {"type": "inleverpunt", "locatieNaam": "Aldi Ridderkerk", "straatNaam": "Olmenlaan", "straatNr": "14-22", "postcode": "2982 CP", "plaats": "Ridderkerk", "merk": "StichtingOPEN", "puntType": "balie", "materialen": ["batterijen", "elektro-klein", "lampen"], "uitbetaling": [], "vrijToegankelijk": false, "gemeenteBeperking": null, "openingstijden": null, "latitude": 51.873803, "longitude": 4.586526, "bronId": "SP00027227"}}, {"type": "Feature", "geometry": {"type": "Point", "coordinates": [4.557314, 51.874567]}, "properties": {"type": "inleverpunt", "locatieNaam": "Koninklijke Oosterberg B.V.", "straatNaam": "Florijnstraat", "straatNr": "83", "postcode": "2988 CL", "plaats": "Ridderkerk", "merk": "StichtingOPEN", "puntType": "balie", "materialen": ["lampen", "tl-buizen"], "uitbetaling": [], "vrijToegankelijk": false, "gemeenteBeperking": null, "openingstijden": null, "latitude": 51.874567, "longitude": 4.557314, "bronId": "SP00032448"}}, {"type": "Feature", "geometry": {"type": "Point", "coordinates": [4.6153673, 51.884629]}, "properties": {"type": "inleverpunt", "locatieNaam": "Picnic", "straatNaam": "Ringdijk", "straatNr": "366", "postcode": "2983 GR", "plaats": "Ridderkerk", "merk": "Stibat", "puntType": "inzamelbak", "materialen": ["batterijen"], "uitbetaling": [], "vrijToegankelijk": false, "gemeenteBeperking": null, "openingstijden": null, "latitude": 51.884629, "longitude": 4.6153673, "bronId": "L043733"}}, {"type": "Feature", "geometry": {"type": "Point", "coordinates": [4.6167926, 51.8769988]}, "properties": {"type": "inleverpunt", "locatieNaam": "Isero Ridderkerk", "straatNaam": "Brouwerstraat", "straatNr": "36", "postcode": "2984 AR", "plaats": "Ridderkerk", "merk": "Stibat", "puntType": "inzamelbak", "materialen": ["batterijen"], "uitbetaling": [], "vrijToegankelijk": false, "gemeenteBeperking": null, "openingstijden": null, "latitude": 51.8769988, "longitude": 4.6167926, "bronId": "L030379"}}, {"type": "Feature", "geometry": {"type": "Point", "coordinates": [4.610127, 51.8838603]}, "properties": {"type": "inleverpunt", "locatieNaam": "Moerkerken Tweewielers", "straatNaam": "Churchillplein", "straatNr": "10", "postcode": "2983 EB", "plaats": "Ridderkerk", "merk": "Stibat", "puntType": "inzamelbak", "materialen": ["batterijen"], "uitbetaling": [], "vrijToegankelijk": false, "gemeenteBeperking": null, "openingstijden": null, "latitude": 51.8838603, "longitude": 4.610127, "bronId": "L033056"}}, {"type": "Feature", "geometry": {"type": "Point", "coordinates": [4.6061256, 51.8842652]}, "properties": {"type": "inleverpunt", "locatieNaam": "Kruidvat", "straatNaam": "Dillenburgplein", "straatNr": "16-18", "postcode": "2983 CC", "plaats": "Ridderkerk", "merk": "Stibat", "puntType": "inzamelbak", "materialen": ["batterijen"], "uitbetaling": [], "vrijToegankelijk": false, "gemeenteBeperking": null, "openingstijden": null, "latitude": 51.8842652, "longitude": 4.6061256, "bronId": "L014014"}}, {"type": "Feature", "geometry": {"type": "Point", "coordinates": [4.6058606, 51.8844702]}, "properties": {"type": "inleverpunt", "locatieNaam": "Uw Eigen Drogist", "straatNaam": "Dillenburgplein", "straatNr": "12", "postcode": "2983 CC", "plaats": "Ridderkerk", "merk": "Stibat", "puntType": "inzamelbak", "materialen": ["batterijen"], "uitbetaling": [], "vrijToegankelijk": false, "gemeenteBeperking": null, "openingstijden": null, "latitude": 51.8844702, "longitude": 4.6058606, "bronId": "L014455"}}, {"type": "Feature", "geometry": {"type": "Point", "coordinates": [4.6054451, 51.8839889]}, "properties": {"type": "inleverpunt", "locatieNaam": "2237 Albert Heijn", "straatNaam": "Dillenburgplein", "straatNr": "5-19", "postcode": "2983 CB", "plaats": "Ridderkerk", "merk": "Stibat", "puntType": "inzamelbak", "materialen": ["batterijen"], "uitbetaling": [], "vrijToegankelijk": false, "gemeenteBeperking": null, "openingstijden": null, "latitude": 51.8839889, "longitude": 4.6054451, "bronId": "L032271"}}, {"type": "Feature", "geometry": {"type": "Point", "coordinates": [4.6203215, 51.8660027]}, "properties": {"type": "inleverpunt", "locatieNaam": "1433 Action", "straatNaam": "Voorn", "straatNr": "47", "postcode": "2986 JA", "plaats": "Ridderkerk", "merk": "Stibat", "puntType": "inzamelbak", "materialen": ["batterijen"], "uitbetaling": [], "vrijToegankelijk": false, "gemeenteBeperking": null, "openingstijden": null, "latitude": 51.8660027, "longitude": 4.6203215, "bronId": "L045185"}}, {"type": "Feature", "geometry": {"type": "Point", "coordinates": [4.6286437, 51.8560662]}, "properties": {"type": "inleverpunt", "locatieNaam": "Shell", "straatNaam": "Rijksweg A15", "straatNr": "ZZ", "postcode": "2989 AT", "plaats": "Ridderkerk", "merk": "Stibat", "puntType": "inzamelbak", "materialen": ["batterijen"], "uitbetaling": [], "vrijToegankelijk": false, "gemeenteBeperking": null, "openingstijden": null, "latitude": 51.8560662, "longitude": 4.6286437, "bronId": "L025338"}}, {"type": "Feature", "geometry": {"type": "Point", "coordinates": [4.6196407, 51.8649816]}, "properties": {"type": "inleverpunt", "locatieNaam": "2WIELERS", "straatNaam": "Vlietplein", "straatNr": "5-6", "postcode": "2986 GH", "plaats": "Ridderkerk", "merk": "Stibat", "puntType": "inzamelbak", "materialen": ["batterijen"], "uitbetaling": [], "vrijToegankelijk": false, "gemeenteBeperking": null, "openingstijden": null, "latitude": 51.8649816, "longitude": 4.6196407, "bronId": "L033057"}}, {"type": "Feature", "geometry": {"type": "Point", "coordinates": [4.6187625, 51.8654019]}, "properties": {"type": "inleverpunt", "locatieNaam": "Primera", "straatNaam": "Vlietplein", "straatNr": "238", "postcode": "2986 GM", "plaats": "Ridderkerk", "merk": "Stibat", "puntType": "inzamelbak", "materialen": ["batterijen"], "uitbetaling": [], "vrijToegankelijk": false, "gemeenteBeperking": null, "openingstijden": null, "latitude": 51.8654019, "longitude": 4.6187625, "bronId": "L027841"}}, {"type": "Feature", "geometry": {"type": "Point", "coordinates": [4.6183285, 51.8653212]}, "properties": {"type": "inleverpunt", "locatieNaam": "Plus", "straatNaam": "Vlietplein", "straatNr": "191-197", "postcode": "2986 GM", "plaats": "Ridderkerk", "merk": "Stibat", "puntType": "inzamelbak", "materialen": ["batterijen"], "uitbetaling": [], "vrijToegankelijk": false, "gemeenteBeperking": null, "openingstijden": null, "latitude": 51.8653212, "longitude": 4.6183285, "bronId": "L045436"}}, {"type": "Feature", "geometry": {"type": "Point", "coordinates": [4.6059072, 51.8750954]}, "properties": {"type": "inleverpunt", "locatieNaam": "Esso", "straatNaam": "Rotterdamseweg", "straatNr": "15", "postcode": "2984 CA", "plaats": "Ridderkerk", "merk": "Stibat", "puntType": "inzamelbak", "materialen": ["batterijen"], "uitbetaling": [], "vrijToegankelijk": false, "gemeenteBeperking": null, "openingstijden": null, "latitude": 51.8750954, "longitude": 4.6059072, "bronId": "L025583"}}, {"type": "Feature", "geometry": {"type": "Point", "coordinates": [4.6076744, 51.870408]}, "properties": {"type": "inleverpunt", "locatieNaam": "Opnieuw &amp; Co Ridderkerk", "straatNaam": "Voorzand", "straatNr": "24", "postcode": "2984 BH", "plaats": "Ridderkerk", "merk": "Stibat", "puntType": "inzamelbak", "materialen": ["batterijen"], "uitbetaling": [], "vrijToegankelijk": false, "gemeenteBeperking": null, "openingstijden": null, "latitude": 51.870408, "longitude": 4.6076744, "bronId": "L039666"}}, {"type": "Feature", "geometry": {"type": "Point", "coordinates": [4.6049348, 51.8720627]}, "properties": {"type": "inleverpunt", "locatieNaam": "Fietsvoordeelshop Ridderkerk", "straatNaam": "Nijverheidstraat", "straatNr": "2-4", "postcode": "2984 AH", "plaats": "Ridderkerk", "merk": "Stibat", "puntType": "inzamelbak", "materialen": ["batterijen"], "uitbetaling": [], "vrijToegankelijk": false, "gemeenteBeperking": null, "openingstijden": null, "latitude": 51.8720627, "longitude": 4.6049348, "bronId": "L045600"}}, {"type": "Feature", "geometry": {"type": "Point", "coordinates": [4.6062547, 51.8701359]}, "properties": {"type": "inleverpunt", "locatieNaam": "Gamma", "straatNaam": "Gieterijstraat", "straatNr": "20", "postcode": "2984 AB", "plaats": "Ridderkerk", "merk": "Stibat", "puntType": "inzamelbak", "materialen": ["batterijen"], "uitbetaling": [], "vrijToegankelijk": false, "gemeenteBeperking": null, "openingstijden": null, "latitude": 51.8701359, "longitude": 4.6062547, "bronId": "L007342"}}, {"type": "Feature", "geometry": {"type": "Point", "coordinates": [4.6042375, 51.8709045]}, "properties": {"type": "inleverpunt", "locatieNaam": "Dirk", "straatNaam": "Havenstraat", "straatNr": "9", "postcode": "2984 AC", "plaats": "Ridderkerk", "merk": "Stibat", "puntType": "inzamelbak", "materialen": ["batterijen"], "uitbetaling": [], "vrijToegankelijk": false, "gemeenteBeperking": null, "openingstijden": null, "latitude": 51.8709045, "longitude": 4.6042375, "bronId": "L012029"}}, {"type": "Feature", "geometry": {"type": "Point", "coordinates": [4.5848551, 51.8943254]}, "properties": {"type": "inleverpunt", "locatieNaam": "De Haan", "straatNaam": "Benedenrijweg", "straatNr": "184", "postcode": "2987 VB", "plaats": "Ridderkerk", "merk": "Stibat", "puntType": "inzamelbak", "materialen": ["batterijen"], "uitbetaling": [], "vrijToegankelijk": false, "gemeenteBeperking": null, "openingstijden": null, "latitude": 51.8943254, "longitude": 4.5848551, "bronId": "L044831"}}, {"type": "Feature", "geometry": {"type": "Point", "coordinates": [4.6005918, 51.8709611]}, "properties": {"type": "inleverpunt", "locatieNaam": "Struijk Audiciens", "straatNaam": "Schoutstraat", "straatNr": "6", "postcode": "2981 EZ", "plaats": "Ridderkerk", "merk": "Stibat", "puntType": "inzamelbak", "materialen": ["batterijen"], "uitbetaling": [], "vrijToegankelijk": false, "gemeenteBeperking": null, "openingstijden": null, "latitude": 51.8709611, "longitude": 4.6005918, "bronId": "L028370"}}, {"type": "Feature", "geometry": {"type": "Point", "coordinates": [4.6006688, 51.8703774]}, "properties": {"type": "inleverpunt", "locatieNaam": "DOUGLAS", "straatNaam": "St. Jorisplein", "straatNr": "61", "postcode": "2981 GD", "plaats": "Ridderkerk", "merk": "Stibat", "puntType": "inzamelbak", "materialen": ["batterijen"], "uitbetaling": [], "vrijToegankelijk": false, "gemeenteBeperking": null, "openingstijden": null, "latitude": 51.8703774, "longitude": 4.6006688, "bronId": "L049198"}}, {"type": "Feature", "geometry": {"type": "Point", "coordinates": [4.6007355, 51.870216]}, "properties": {"type": "inleverpunt", "locatieNaam": "HEMA St. Jorisplein", "straatNaam": "St. Jorisplein", "straatNr": "58", "postcode": "2981 GD", "plaats": "Ridderkerk", "merk": "Stibat", "puntType": "inzamelbak", "materialen": ["batterijen"], "uitbetaling": [], "vrijToegankelijk": false, "gemeenteBeperking": null, "openingstijden": null, "latitude": 51.870216, "longitude": 4.6007355, "bronId": "L006202"}}, {"type": "Feature", "geometry": {"type": "Point", "coordinates": [4.6000219, 51.871009]}, "properties": {"type": "inleverpunt", "locatieNaam": "Xenos", "straatNaam": "Koningshof", "straatNr": "95", "postcode": "2981 DA", "plaats": "Ridderkerk", "merk": "Stibat", "puntType": "inzamelbak", "materialen": ["batterijen"], "uitbetaling": [], "vrijToegankelijk": false, "gemeenteBeperking": null, "openingstijden": null, "latitude": 51.871009, "longitude": 4.6000219, "bronId": "L036971"}}, {"type": "Feature", "geometry": {"type": "Point", "coordinates": [4.6000481, 51.8709545]}, "properties": {"type": "inleverpunt", "locatieNaam": "Smartphone reparatie Ridderkerk", "straatNaam": "Schoutstraat", "straatNr": "12", "postcode": "2981 EZ", "plaats": "Ridderkerk", "merk": "Stibat", "puntType": "inzamelbak", "materialen": ["batterijen"], "uitbetaling": [], "vrijToegankelijk": false, "gemeenteBeperking": null, "openingstijden": null, "latitude": 51.8709545, "longitude": 4.6000481, "bronId": "L047979"}}, {"type": "Feature", "geometry": {"type": "Point", "coordinates": [4.600263, 51.8706622]}, "properties": {"type": "inleverpunt", "locatieNaam": "Kruidvat", "straatNaam": "Baljuwstraat", "straatNr": "1", "postcode": "2981 DC", "plaats": "Ridderkerk", "merk": "Stibat", "puntType": "inzamelbak", "materialen": ["batterijen"], "uitbetaling": [], "vrijToegankelijk": false, "gemeenteBeperking": null, "openingstijden": null, "latitude": 51.8706622, "longitude": 4.600263, "bronId": "L014327"}}, {"type": "Feature", "geometry": {"type": "Point", "coordinates": [4.6000123, 51.8707303]}, "properties": {"type": "inleverpunt", "locatieNaam": "Schoonenberg Hoorcomfort", "straatNaam": "Koningshof", "straatNr": "103", "postcode": "2981 DA", "plaats": "Ridderkerk", "merk": "Stibat", "puntType": "inzamelbak", "materialen": ["batterijen"], "uitbetaling": [], "vrijToegankelijk": false, "gemeenteBeperking": null, "openingstijden": null, "latitude": 51.8707303, "longitude": 4.6000123, "bronId": "L019817"}}, {"type": "Feature", "geometry": {"type": "Point", "coordinates": [4.6000123, 51.8707303]}, "properties": {"type": "inleverpunt", "locatieNaam": "Schoonenberg", "straatNaam": "Koningshof", "straatNr": "103", "postcode": "2981 DA", "plaats": "Ridderkerk", "merk": "Stibat", "puntType": "inzamelbak", "materialen": ["batterijen"], "uitbetaling": [], "vrijToegankelijk": false, "gemeenteBeperking": null, "openingstijden": null, "latitude": 51.8707303, "longitude": 4.6000123, "bronId": "L048128"}}, {"type": "Feature", "geometry": {"type": "Point", "coordinates": [4.600147, 51.870489]}, "properties": {"type": "inleverpunt", "locatieNaam": "Hans Anders", "straatNaam": "St. Jorisplein", "straatNr": "67", "postcode": "2981 GD", "plaats": "Ridderkerk", "merk": "Stibat", "puntType": "inzamelbak", "materialen": ["batterijen"], "uitbetaling": [], "vrijToegankelijk": false, "gemeenteBeperking": null, "openingstijden": null, "latitude": 51.870489, "longitude": 4.600147, "bronId": "L037901"}}, {"type": "Feature", "geometry": {"type": "Point", "coordinates": [4.600533, 51.8700147]}, "properties": {"type": "inleverpunt", "locatieNaam": "Zeeman", "straatNaam": "St. Jorisplein", "straatNr": "56", "postcode": "2981 GD", "plaats": "Ridderkerk", "merk": "Stibat", "puntType": "inzamelbak", "materialen": ["batterijen"], "uitbetaling": [], "vrijToegankelijk": false, "gemeenteBeperking": null, "openingstijden": null, "latitude": 51.8700147, "longitude": 4.600533, "bronId": "L038248"}}, {"type": "Feature", "geometry": {"type": "Point", "coordinates": [4.6003438, 51.8700404]}, "properties": {"type": "inleverpunt", "locatieNaam": "Telecombinatie 2 Tel", "straatNaam": "St. Jorisplein", "straatNr": "74", "postcode": "2981 GD", "plaats": "Ridderkerk", "merk": "Stibat", "puntType": "inzamelbak", "materialen": ["batterijen"], "uitbetaling": [], "vrijToegankelijk": false, "gemeenteBeperking": null, "openingstijden": null, "latitude": 51.8700404, "longitude": 4.6003438, "bronId": "L037345"}}, {"type": "Feature", "geometry": {"type": "Point", "coordinates": [4.6006261, 51.8696738]}, "properties": {"type": "inleverpunt", "locatieNaam": "ANWB", "straatNaam": "Sint Jorisplein", "straatNr": "10A", "postcode": "2981 GB", "plaats": "Ridderkerk", "merk": "Stibat", "puntType": "inzamelbak", "materialen": ["batterijen"], "uitbetaling": [], "vrijToegankelijk": false, "gemeenteBeperking": null, "openingstijden": null, "latitude": 51.8696738, "longitude": 4.6006261, "bronId": "L044617"}}, {"type": "Feature", "geometry": {"type": "Point", "coordinates": [4.5997265, 51.8706227]}, "properties": {"type": "inleverpunt", "locatieNaam": "Phone House", "straatNaam": "Koningshof", "straatNr": "110", "postcode": "2981 DA", "plaats": "Ridderkerk", "merk": "Stibat", "puntType": "inzamelbak", "materialen": ["batterijen"], "uitbetaling": [], "vrijToegankelijk": false, "gemeenteBeperking": null, "openingstijden": null, "latitude": 51.8706227, "longitude": 4.5997265, "bronId": "L023788"}}, {"type": "Feature", "geometry": {"type": "Point", "coordinates": [4.5997126, 51.8705866]}, "properties": {"type": "inleverpunt", "locatieNaam": "BelCompany", "straatNaam": "Koningshof", "straatNr": "112", "postcode": "2981 DA", "plaats": "Ridderkerk", "merk": "Stibat", "puntType": "inzamelbak", "materialen": ["batterijen"], "uitbetaling": [], "vrijToegankelijk": false, "gemeenteBeperking": null, "openingstijden": null, "latitude": 51.8705866, "longitude": 4.5997126, "bronId": "L023308"}}, {"type": "Feature", "geometry": {"type": "Point", "coordinates": [4.5995711, 51.8703732]}, "properties": {"type": "inleverpunt", "locatieNaam": "Beter Horen", "straatNaam": "Sint Jorisplein", "straatNr": "47", "postcode": "2981 GC", "plaats": "Ridderkerk", "merk": "Stibat", "puntType": "inzamelbak", "materialen": ["batterijen"], "uitbetaling": [], "vrijToegankelijk": false, "gemeenteBeperking": null, "openingstijden": null, "latitude": 51.8703732, "longitude": 4.5995711, "bronId": "L027689"}}, {"type": "Feature", "geometry": {"type": "Point", "coordinates": [4.5809656, 51.8927515]}, "properties": {"type": "inleverpunt", "locatieNaam": "Lidl", "straatNaam": "Amerstraat", "straatNr": "2", "postcode": "2987 CA", "plaats": "Ridderkerk", "merk": "Stibat", "puntType": "inzamelbak", "materialen": ["batterijen"], "uitbetaling": [], "vrijToegankelijk": false, "gemeenteBeperking": null, "openingstijden": null, "latitude": 51.8927515, "longitude": 4.5809656, "bronId": "L016505"}}, {"type": "Feature", "geometry": {"type": "Point", "coordinates": [4.5807553, 51.8927478]}, "properties": {"type": "inleverpunt", "locatieNaam": "Kruidvat", "straatNaam": "Amerstraat", "straatNr": "14", "postcode": "2987 CA", "plaats": "Ridderkerk", "merk": "Stibat", "puntType": "inzamelbak", "materialen": ["batterijen"], "uitbetaling": [], "vrijToegankelijk": false, "gemeenteBeperking": null, "openingstijden": null, "latitude": 51.8927478, "longitude": 4.5807553, "bronId": "L016076"}}, {"type": "Feature", "geometry": {"type": "Point", "coordinates": [4.5801204, 51.8934647]}, "properties": {"type": "inleverpunt", "locatieNaam": "Dirk", "straatNaam": "Vechtstraat", "straatNr": "1a", "postcode": "2987 CX", "plaats": "Ridderkerk", "merk": "Stibat", "puntType": "inzamelbak", "materialen": ["batterijen"], "uitbetaling": [], "vrijToegankelijk": false, "gemeenteBeperking": null, "openingstijden": null, "latitude": 51.8934647, "longitude": 4.5801204, "bronId": "L012807"}}, {"type": "Feature", "geometry": {"type": "Point", "coordinates": [4.5990687, 51.870043]}, "properties": {"type": "inleverpunt", "locatieNaam": "Primera", "straatNaam": "Ridderhof", "straatNr": "29A", "postcode": "2981 ET", "plaats": "Ridderkerk", "merk": "Stibat", "puntType": "inzamelbak", "materialen": ["batterijen"], "uitbetaling": [], "vrijToegankelijk": false, "gemeenteBeperking": null, "openingstijden": null, "latitude": 51.870043, "longitude": 4.5990687, "bronId": "L022694"}}, {"type": "Feature", "geometry": {"type": "Point", "coordinates": [4.5992293, 51.8698352]}, "properties": {"type": "inleverpunt", "locatieNaam": "Phone Direct", "straatNaam": "Ridderhof", "straatNr": "34", "postcode": "2981 ET", "plaats": "Ridderkerk", "merk": "Stibat", "puntType": "inzamelbak", "materialen": ["batterijen"], "uitbetaling": [], "vrijToegankelijk": false, "gemeenteBeperking": null, "openingstijden": null, "latitude": 51.8698352, "longitude": 4.5992293, "bronId": "L035480"}}, {"type": "Feature", "geometry": {"type": "Point", "coordinates": [4.5988505, 51.8700595]}, "properties": {"type": "inleverpunt", "locatieNaam": "1134 Albert Heijn", "straatNaam": "Ridderhof", "straatNr": "25", "postcode": "2981 ET", "plaats": "Ridderkerk", "merk": "Stibat", "puntType": "inzamelbak", "materialen": ["batterijen"], "uitbetaling": [], "vrijToegankelijk": false, "gemeenteBeperking": null, "openingstijden": null, "latitude": 51.8700595, "longitude": 4.5988505, "bronId": "L005803"}}, {"type": "Feature", "geometry": {"type": "Point", "coordinates": [4.5990564, 51.8697621]}, "properties": {"type": "inleverpunt", "locatieNaam": "Specsavers", "straatNaam": "Ridderhof", "straatNr": "19", "postcode": "2981 ET", "plaats": "Ridderkerk", "merk": "Stibat", "puntType": "inzamelbak", "materialen": ["batterijen"], "uitbetaling": [], "vrijToegankelijk": false, "gemeenteBeperking": null, "openingstijden": null, "latitude": 51.8697621, "longitude": 4.5990564, "bronId": "L041887"}}, {"type": "Feature", "geometry": {"type": "Point", "coordinates": [4.5987171, 51.8700655]}, "properties": {"type": "inleverpunt", "locatieNaam": "Lidl", "straatNaam": "Ridderhof", "straatNr": "61", "postcode": "2981 ET", "plaats": "Ridderkerk", "merk": "Stibat", "puntType": "inzamelbak", "materialen": ["batterijen"], "uitbetaling": [], "vrijToegankelijk": false, "gemeenteBeperking": null, "openingstijden": null, "latitude": 51.8700655, "longitude": 4.5987171, "bronId": "L044330"}}, {"type": "Feature", "geometry": {"type": "Point", "coordinates": [4.5802201, 51.8925567]}, "properties": {"type": "inleverpunt", "locatieNaam": "Wibra", "straatNaam": "Vechtstraat", "straatNr": "11-15", "postcode": "2987 CX", "plaats": "Ridderkerk", "merk": "Stibat", "puntType": "inzamelbak", "materialen": ["batterijen"], "uitbetaling": [], "vrijToegankelijk": false, "gemeenteBeperking": null, "openingstijden": null, "latitude": 51.8925567, "longitude": 4.5802201, "bronId": "L022020"}}, {"type": "Feature", "geometry": {"type": "Point", "coordinates": [4.599403, 51.8691913]}, "properties": {"type": "inleverpunt", "locatieNaam": "6286 Etos", "straatNaam": "Ridderhof", "straatNr": "81", "postcode": "2981 ET", "plaats": "Ridderkerk", "merk": "Stibat", "puntType": "inzamelbak", "materialen": ["batterijen"], "uitbetaling": [], "vrijToegankelijk": false, "gemeenteBeperking": null, "openingstijden": null, "latitude": 51.8691913, "longitude": 4.599403, "bronId": "L025937"}}, {"type": "Feature", "geometry": {"type": "Point", "coordinates": [4.599403, 51.8691913]}, "properties": {"type": "inleverpunt", "locatieNaam": "Intertoys", "straatNaam": "Ridderhof", "straatNr": "64", "postcode": "2981 ET", "plaats": "Ridderkerk", "merk": "Stibat", "puntType": "inzamelbak", "materialen": ["batterijen"], "uitbetaling": [], "vrijToegankelijk": false, "gemeenteBeperking": null, "openingstijden": null, "latitude": 51.8691913, "longitude": 4.599403, "bronId": "L006924"}}, {"type": "Feature", "geometry": {"type": "Point", "coordinates": [4.599403, 51.8691913]}, "properties": {"type": "inleverpunt", "locatieNaam": "Jumbo", "straatNaam": "Ridderhof", "straatNr": "72", "postcode": "2981 ET", "plaats": "Ridderkerk", "merk": "Stibat", "puntType": "inzamelbak", "materialen": ["batterijen"], "uitbetaling": [], "vrijToegankelijk": false, "gemeenteBeperking": null, "openingstijden": null, "latitude": 51.8691913, "longitude": 4.599403, "bronId": "L021115"}}, {"type": "Feature", "geometry": {"type": "Point", "coordinates": [4.5983789, 51.8699792]}, "properties": {"type": "inleverpunt", "locatieNaam": "1351 Action", "straatNaam": "Ridderhof", "straatNr": "62-70", "postcode": "2981 ET", "plaats": "Ridderkerk", "merk": "Stibat", "puntType": "inzamelbak", "materialen": ["batterijen"], "uitbetaling": [], "vrijToegankelijk": false, "gemeenteBeperking": null, "openingstijden": null, "latitude": 51.8699792, "longitude": 4.5983789, "bronId": "L038734"}}, {"type": "Feature", "geometry": {"type": "Point", "coordinates": [4.6028977, 51.8626418]}, "properties": {"type": "inleverpunt", "locatieNaam": "Boon's Markt", "straatNaam": "De Genestetstraat", "straatNr": "36-38", "postcode": "2985 CG", "plaats": "Ridderkerk", "merk": "Stibat", "puntType": "inzamelbak", "materialen": ["batterijen"], "uitbetaling": [], "vrijToegankelijk": false, "gemeenteBeperking": null, "openingstijden": null, "latitude": 51.8626418, "longitude": 4.6028977, "bronId": "L039445"}}, {"type": "Feature", "geometry": {"type": "Point", "coordinates": [4.586526, 51.8738032]}, "properties": {"type": "inleverpunt", "locatieNaam": "Aldi", "straatNaam": "Olmenlaan", "straatNr": "14-22", "postcode": "2982 CP", "plaats": "Ridderkerk", "merk": "Stibat", "puntType": "inzamelbak", "materialen": ["batterijen"], "uitbetaling": [], "vrijToegankelijk": false, "gemeenteBeperking": null, "openingstijden": null, "latitude": 51.8738032, "longitude": 4.586526, "bronId": "L041201"}}, {"type": "Feature", "geometry": {"type": "Point", "coordinates": [4.557314, 51.8745671]}, "properties": {"type": "inleverpunt", "locatieNaam": "Isero Ridderkerk Cornelisland", "straatNaam": "Florijnstraat", "straatNr": "85", "postcode": "2988 CL", "plaats": "Ridderkerk", "merk": "Stibat", "puntType": "inzamelbak", "materialen": ["batterijen"], "uitbetaling": [], "vrijToegankelijk": false, "gemeenteBeperking": null, "openingstijden": null, "latitude": 51.8745671, "longitude": 4.557314, "bronId": "L043305"}}, {"type": "Feature", "geometry": {"type": "Point", "coordinates": [4.5577789, 51.8663858]}, "properties": {"type": "inleverpunt", "locatieNaam": "Van der Valk Ridderkerk", "straatNaam": "Krommeweg", "straatNr": "1", "postcode": "2988 CB", "plaats": "Ridderkerk", "merk": "Stibat", "puntType": "inzamelbak", "materialen": ["batterijen"], "uitbetaling": [], "vrijToegankelijk": false, "gemeenteBeperking": null, "openingstijden": null, "latitude": 51.8663858, "longitude": 4.5577789, "bronId": "L035262"}}, {"type": "Feature", "geometry": {"type": "Polygon", "coordinates": [[[4.60006800091034, 51.83875200381373], [4.604885000915672, 51.848386003819854], [4.606605000917405, 51.84839400381993], [4.608157000918995, 51.8489920038203], [4.608288000919149, 51.84941400382052], [4.612501000923451, 51.85058800382133], [4.618715000929735, 51.85123800382174], [4.621482000932578, 51.85237000382249], [4.623422000934596, 51.85373100382338], [4.627319000938565, 51.85465300382398], [4.629918000941139, 51.85379300382342], [4.633441000944511, 51.850276003821214], [4.635425000946498, 51.850101003821095], [4.636516000947575, 51.849662003820825], [4.638876000950021, 51.85111100382174], [4.641679000952962, 51.85354500382331], [4.644025000955379, 51.85463200382404], [4.64733100095883, 51.85712200382559], [4.6428340009544495, 51.860016003827404], [4.639022000950793, 51.8636400038297], [4.6352610009473105, 51.869711003833565], [4.633984000946071, 51.87059600383413], [4.631069000943325, 51.874308003836504], [4.62434400093703, 51.88366600384238], [4.619249000932143, 51.88844200384543], [4.619572000932522, 51.88952300384609], [4.60433100091732, 51.89207700384767], [4.5936230009066765, 51.894600003849185], [4.590797000903897, 51.89584900385001], [4.58302000089635, 51.90121300385335], [4.580227000893591, 51.90222100385402], [4.576328000889712, 51.90303200385444], [4.575906000889198, 51.90125300385335], [4.576086000889276, 51.899257003852085], [4.570421000882778, 51.88360300384215], [4.569146000881221, 51.87818000383869], [4.561590000873621, 51.8782320038387], [4.554806000866661, 51.87553100383693], [4.549253000861004, 51.87420100383607], [4.5644660008752656, 51.85376800382318], [4.564106000874889, 51.853473003822984], [4.564982000875759, 51.85328600382285], [4.565247000875988, 51.85251400382232], [4.565961000876683, 51.85208600382211], [4.5699710008807495, 51.85262100382244], [4.5713050008819485, 51.849852003820686], [4.571058000881559, 51.84711700381892], [4.585362000895724, 51.84251500381604], [4.60006800091034, 51.83875200381373]]]}, "properties": {"type": "boundary", "gemeente": "Ridderkerk"}}]}