{"type": "FeatureCollection", "metadata": {"gemeente": "Rijssen-Holten", "slug": "rijssen-holten", "generated_at": "2026-08-08T19:45:12.276026Z", "total_points": 94, "merken": ["StatiegeldNederland", "Stibat", "StichtingOPEN"], "bounds": [6.3528335, 52.2527135, 6.5445224, 52.3226771]}, "features": [{"type": "Feature", "geometry": {"type": "Point", "coordinates": [6.4055667, 52.2711799]}, "properties": {"type": "inleverpunt", "locatieNaam": "Albert Heijn", "straatNaam": "Larenseweg 102 D", "straatNr": "", "postcode": "7451 EN", "plaats": "Holten", "merk": "StatiegeldNederland", "puntType": "automaat", "materialen": ["pet-groot", "pet-klein", "blik", "glas", "krat"], "uitbetaling": ["bonnetje", "donatie"], "vrijToegankelijk": true, "gemeenteBeperking": null, "openingstijden": {"ma": "07:00–22:00", "di": "07:00–22:00", "wo": "07:00–22:00", "do": "07:00–22:00", "vr": "07:00–22:00", "za": "07:00–22:00", "zo": "13:00–18:00"}, "latitude": 52.2711799, "longitude": 6.4055667, "bronId": "268681"}}, {"type": "Feature", "geometry": {"type": "Point", "coordinates": [6.5208604, 52.311867]}, "properties": {"type": "inleverpunt", "locatieNaam": "Albert Heijn", "straatNaam": "Stationsdwarsweg", "straatNr": "19", "postcode": "7461 AR", "plaats": "Rijssen", "merk": "StatiegeldNederland", "puntType": "automaat", "materialen": ["pet-groot", "pet-klein", "blik", "glas", "krat"], "uitbetaling": ["bonnetje", "donatie"], "vrijToegankelijk": true, "gemeenteBeperking": null, "openingstijden": {"ma": "08:00–22:00", "di": "08:00–22:00", "wo": "08:00–22:00", "do": "08:00–22:00", "vr": "08:00–22:00", "za": "08:00–22:00", "zo": "Gesloten"}, "latitude": 52.311867, "longitude": 6.5208604, "bronId": "268984"}}, {"type": "Feature", "geometry": {"type": "Point", "coordinates": [6.4306931, 52.2527135]}, "properties": {"type": "inleverpunt", "locatieNaam": "Albert Heijn To Go", "straatNaam": "Rijksweg A1 Nr.", "straatNr": "5", "postcode": "7451 NX", "plaats": "Holten", "merk": "StatiegeldNederland", "puntType": "balie", "materialen": ["pet-groot", "pet-klein", "blik"], "uitbetaling": [], "vrijToegankelijk": true, "gemeenteBeperking": null, "openingstijden": {"ma": "24 uur geopend", "di": "24 uur geopend", "wo": "24 uur geopend", "do": "24 uur geopend", "vr": "24 uur geopend", "za": "24 uur geopend", "zo": "24 uur geopend"}, "latitude": 52.2527135, "longitude": 6.4306931, "bronId": "269194"}}, {"type": "Feature", "geometry": {"type": "Point", "coordinates": [6.5208143, 52.3030007]}, "properties": {"type": "inleverpunt", "locatieNaam": "Medikamente die Grenze", "straatNaam": "Arend Baanstraat", "straatNr": "20", "postcode": "7461 DV", "plaats": "Rijssen", "merk": "StatiegeldNederland", "puntType": "automaat", "materialen": ["pet-groot", "pet-klein", "blik"], "uitbetaling": ["bonnetje"], "vrijToegankelijk": true, "gemeenteBeperking": null, "openingstijden": null, "latitude": 52.3030007, "longitude": 6.5208143, "bronId": "273148"}}, {"type": "Feature", "geometry": {"type": "Point", "coordinates": [6.5233962, 52.3096745]}, "properties": {"type": "inleverpunt", "locatieNaam": "Aldi", "straatNaam": "Watermolen", "straatNr": "2", "postcode": "7461 AZ", "plaats": "Rijssen", "merk": "StatiegeldNederland", "puntType": "automaat", "materialen": ["pet-groot", "pet-klein", "blik", "glas", "krat"], "uitbetaling": ["bonnetje"], "vrijToegankelijk": true, "gemeenteBeperking": null, "openingstijden": {"ma": "08:00–20:00", "di": "08:00–20:00", "wo": "08:00–20:00", "do": "08:00–20:00", "vr": "08:00–20:00", "za": "08:00–20:00", "zo": "Gesloten"}, "latitude": 52.3096745, "longitude": 6.5233962, "bronId": "269652"}}, {"type": "Feature", "geometry": {"type": "Point", "coordinates": [6.4219355, 52.2827791]}, "properties": {"type": "inleverpunt", "locatieNaam": "Aldi", "straatNaam": "Zwarte Pad", "straatNr": "14", "postcode": "7451 BJ", "plaats": "Holten", "merk": "StatiegeldNederland", "puntType": "automaat", "materialen": ["pet-groot", "pet-klein", "blik", "glas", "krat"], "uitbetaling": ["bonnetje"], "vrijToegankelijk": true, "gemeenteBeperking": null, "openingstijden": {"ma": "08:00–20:00", "di": "08:00–20:00", "wo": "08:00–20:00", "do": "08:00–20:00", "vr": "08:00–20:00", "za": "08:00–20:00", "zo": "13:00–18:00"}, "latitude": 52.2827791, "longitude": 6.4219355, "bronId": "269694"}}, {"type": "Feature", "geometry": {"type": "Point", "coordinates": [6.517974, 52.3076622]}, "properties": {"type": "inleverpunt", "locatieNaam": "Bakker Bart Rijssen", "straatNaam": "Haarstraat", "straatNr": "47", "postcode": "7462 AK", "plaats": "Rijssen", "merk": "StatiegeldNederland", "puntType": "automaat", "materialen": ["pet-klein", "blik"], "uitbetaling": ["donatie"], "vrijToegankelijk": true, "gemeenteBeperking": null, "openingstijden": null, "latitude": 52.3076622, "longitude": 6.517974, "bronId": "270025"}}, {"type": "Feature", "geometry": {"type": "Point", "coordinates": [6.5180798, 52.3064306]}, "properties": {"type": "inleverpunt", "locatieNaam": "Dirk", "straatNaam": "‘T Hogepad", "straatNr": "1-60", "postcode": "7462 TB", "plaats": "Rijssen", "merk": "StatiegeldNederland", "puntType": "automaat", "materialen": ["blik"], "uitbetaling": ["bonnetje", "donatie"], "vrijToegankelijk": true, "gemeenteBeperking": null, "openingstijden": {"ma": "08:00–20:00", "di": "08:00–20:00", "wo": "08:00–20:00", "do": "08:00–21:00", "vr": "08:00–21:00", "za": "08:00–20:00", "zo": "Gesloten"}, "latitude": 52.3064306, "longitude": 6.5180798, "bronId": "270853"}}, {"type": "Feature", "geometry": {"type": "Point", "coordinates": [6.5180798, 52.3064306]}, "properties": {"type": "inleverpunt", "locatieNaam": "Dirk", "straatNaam": "Hogepad", "straatNr": "1-60", "postcode": "7462 TB", "plaats": "Rijssen", "merk": "StatiegeldNederland", "puntType": "automaat", "materialen": ["pet-groot", "pet-klein", "blik", "glas", "krat"], "uitbetaling": ["bonnetje", "donatie"], "vrijToegankelijk": true, "gemeenteBeperking": null, "openingstijden": {"ma": "08:00–20:00", "di": "08:00–20:00", "wo": "08:00–20:00", "do": "08:00–21:00", "vr": "08:00–21:00", "za": "08:00–20:00", "zo": "Gesloten"}, "latitude": 52.3064306, "longitude": 6.5180798, "bronId": "270914"}}, {"type": "Feature", "geometry": {"type": "Point", "coordinates": [6.520921, 52.310702]}, "properties": {"type": "inleverpunt", "locatieNaam": "Jumbo", "straatNaam": "Boomkamp", "straatNr": "32-34", "postcode": "7461 AX", "plaats": "Rijssen", "merk": "StatiegeldNederland", "puntType": "automaat", "materialen": ["pet-groot", "pet-klein", "blik", "glas", "krat"], "uitbetaling": ["bonnetje", "donatie"], "vrijToegankelijk": true, "gemeenteBeperking": null, "openingstijden": {"ma": "08:00–21:00", "di": "08:00–21:00", "wo": "08:00–21:00", "do": "08:00–21:00", "vr": "08:00–21:00", "za": "08:00–21:00", "zo": "Gesloten"}, "latitude": 52.310702, "longitude": 6.520921, "bronId": "271677"}}, {"type": "Feature", "geometry": {"type": "Point", "coordinates": [6.496097, 52.312822]}, "properties": {"type": "inleverpunt", "locatieNaam": "Jumbo", "straatNaam": "Laan Oud-Indiëgangers", "straatNr": "5", "postcode": "7463 CH", "plaats": "Rijssen", "merk": "StatiegeldNederland", "puntType": "automaat", "materialen": ["pet-groot", "pet-klein", "blik", "glas", "krat"], "uitbetaling": ["bonnetje", "donatie"], "vrijToegankelijk": true, "gemeenteBeperking": null, "openingstijden": {"ma": "08:00–21:00", "di": "08:00–21:00", "wo": "08:00–21:00", "do": "08:00–21:00", "vr": "08:00–21:00", "za": "08:00–21:00", "zo": "Gesloten"}, "latitude": 52.312822, "longitude": 6.496097, "bronId": "271957"}}, {"type": "Feature", "geometry": {"type": "Point", "coordinates": [6.4472222, 52.2866667]}, "properties": {"type": "inleverpunt", "locatieNaam": "Landal Twenhaarsveld 4812", "straatNaam": "LANDUWERWEG", "straatNr": "19", "postcode": "7451 SP", "plaats": "Holten", "merk": "StatiegeldNederland", "puntType": "balie", "materialen": ["pet-groot", "pet-klein", "blik"], "uitbetaling": [], "vrijToegankelijk": true, "gemeenteBeperking": null, "openingstijden": null, "latitude": 52.2866667, "longitude": 6.4472222, "bronId": "272462"}}, {"type": "Feature", "geometry": {"type": "Point", "coordinates": [6.4510609, 52.2873908]}, "properties": {"type": "inleverpunt", "locatieNaam": "Landal Twenhaarsveld", "straatNaam": "Landuwerweg", "straatNr": "17", "postcode": "7451 SP", "plaats": "Holten", "merk": "StatiegeldNederland", "puntType": "automaat", "materialen": ["pet-groot", "pet-klein", "blik"], "uitbetaling": ["bonnetje", "donatie", "tikkie"], "vrijToegankelijk": true, "gemeenteBeperking": null, "openingstijden": null, "latitude": 52.2873908, "longitude": 6.4510609, "bronId": "272464"}}, {"type": "Feature", "geometry": {"type": "Point", "coordinates": [6.5417123, 52.3010506]}, "properties": {"type": "inleverpunt", "locatieNaam": "Markies 6190 Reggensteijn Ca", "straatNaam": "Cattelaar", "straatNr": "2", "postcode": "7461 PK", "plaats": "Rijssen", "merk": "StatiegeldNederland", "puntType": "balie", "materialen": ["pet-groot", "pet-klein", "blik"], "uitbetaling": [], "vrijToegankelijk": true, "gemeenteBeperking": null, "openingstijden": {"ma": "07:00–17:00", "di": "07:00–17:00", "wo": "07:00–17:00", "do": "07:00–17:00", "vr": "07:00–17:00", "za": "Gesloten", "zo": "Gesloten"}, "latitude": 52.3010506, "longitude": 6.5417123, "bronId": "273008"}}, {"type": "Feature", "geometry": {"type": "Point", "coordinates": [6.5192005, 52.3029367]}, "properties": {"type": "inleverpunt", "locatieNaam": "Nettorama", "straatNaam": "H.J. Van Opstallstraat", "straatNr": "18-24", "postcode": "7462 DM", "plaats": "Rijssen", "merk": "StatiegeldNederland", "puntType": "automaat", "materialen": ["pet-groot", "pet-klein", "blik", "glas", "krat"], "uitbetaling": ["bonnetje"], "vrijToegankelijk": true, "gemeenteBeperking": null, "openingstijden": {"ma": "08:00–20:00", "di": "08:00–20:00", "wo": "08:00–20:00", "do": "08:00–21:00", "vr": "08:00–21:00", "za": "08:00–20:00", "zo": "Gesloten"}, "latitude": 52.3029367, "longitude": 6.5192005, "bronId": "273319"}}, {"type": "Feature", "geometry": {"type": "Point", "coordinates": [6.5094894, 52.303958]}, "properties": {"type": "inleverpunt", "locatieNaam": "Plus", "straatNaam": "Beatrixplein", "straatNr": "10", "postcode": "7462 GN", "plaats": "Rijssen", "merk": "StatiegeldNederland", "puntType": "automaat", "materialen": ["pet-groot", "pet-klein", "blik", "glas", "krat"], "uitbetaling": ["bonnetje", "donatie"], "vrijToegankelijk": true, "gemeenteBeperking": null, "openingstijden": {"ma": "08:00–20:00", "di": "08:00–20:00", "wo": "08:00–20:00", "do": "08:00–21:00", "vr": "08:00–21:00", "za": "08:00–20:00", "zo": "Gesloten"}, "latitude": 52.303958, "longitude": 6.5094894, "bronId": "273652"}}, {"type": "Feature", "geometry": {"type": "Point", "coordinates": [6.4207769, 52.2821332]}, "properties": {"type": "inleverpunt", "locatieNaam": "Plus", "straatNaam": "Dorpsstraat", "straatNr": "20", "postcode": "7451 BV", "plaats": "Holten", "merk": "StatiegeldNederland", "puntType": "automaat", "materialen": ["pet-groot", "pet-klein", "blik", "glas", "krat"], "uitbetaling": ["bonnetje"], "vrijToegankelijk": true, "gemeenteBeperking": null, "openingstijden": {"ma": "08:00–21:00", "di": "08:00–21:00", "wo": "08:00–21:00", "do": "08:00–21:00", "vr": "08:00–21:00", "za": "08:00–20:00", "zo": "13:00–18:00"}, "latitude": 52.2821332, "longitude": 6.4207769, "bronId": "273732"}}, {"type": "Feature", "geometry": {"type": "Point", "coordinates": [6.5070499, 52.2992895]}, "properties": {"type": "inleverpunt", "locatieNaam": "Psv De Oosterhoffruiters", "straatNaam": "Brekeldlaan", "straatNr": "18", "postcode": "7462 PA", "plaats": "Rijssen", "merk": "StatiegeldNederland", "puntType": "balie", "materialen": ["pet-groot", "pet-klein", "blik"], "uitbetaling": [], "vrijToegankelijk": false, "gemeenteBeperking": null, "openingstijden": {"ma": "09:00–22:00", "di": "09:00–22:00", "wo": "09:00–22:00", "do": "09:00–22:00", "vr": "09:00–22:00", "za": "07:30–19:00", "zo": "Gesloten"}, "latitude": 52.2992895, "longitude": 6.5070499, "bronId": "274190"}}, {"type": "Feature", "geometry": {"type": "Point", "coordinates": [6.5268993, 52.3024974]}, "properties": {"type": "inleverpunt", "locatieNaam": "S.v. Tubantia", "straatNaam": "Nieuwlandsweg", "straatNr": "5", "postcode": "7461 VP", "plaats": "Rijssen", "merk": "StatiegeldNederland", "puntType": "balie", "materialen": ["pet-groot", "pet-klein", "blik"], "uitbetaling": [], "vrijToegankelijk": false, "gemeenteBeperking": null, "openingstijden": null, "latitude": 52.3024974, "longitude": 6.5268993, "bronId": "274394"}}, {"type": "Feature", "geometry": {"type": "Point", "coordinates": [6.437789, 52.255506]}, "properties": {"type": "inleverpunt", "locatieNaam": "Shell", "straatNaam": "Rijksweg A1 NZ", "straatNr": "", "postcode": "7451 ND", "plaats": "Holten", "merk": "StatiegeldNederland", "puntType": "balie", "materialen": ["pet-groot", "pet-klein", "blik"], "uitbetaling": [], "vrijToegankelijk": true, "gemeenteBeperking": null, "openingstijden": {"ma": "24 uur geopend", "di": "24 uur geopend", "wo": "24 uur geopend", "do": "24 uur geopend", "vr": "24 uur geopend", "za": "24 uur geopend", "zo": "24 uur geopend"}, "latitude": 52.255506, "longitude": 6.437789, "bronId": "274616"}}, {"type": "Feature", "geometry": {"type": "Point", "coordinates": [6.5445224, 52.3006855]}, "properties": {"type": "inleverpunt", "locatieNaam": "Stichting Tennispark Het Opbroek", "straatNaam": "Opbroekweg", "straatNr": "40", "postcode": "7461 PH", "plaats": "Rijssen", "merk": "StatiegeldNederland", "puntType": "balie", "materialen": ["pet-groot", "pet-klein", "blik"], "uitbetaling": [], "vrijToegankelijk": false, "gemeenteBeperking": null, "openingstijden": {"ma": "08:00–23:00", "di": "08:00–23:00", "wo": "08:00–23:00", "do": "08:00–23:00", "vr": "08:00–23:00", "za": "08:00–23:00", "zo": "08:00–23:00"}, "latitude": 52.3006855, "longitude": 6.5445224, "bronId": "275197"}}, {"type": "Feature", "geometry": {"type": "Point", "coordinates": [6.4631333, 52.3008951]}, "properties": {"type": "inleverpunt", "locatieNaam": "Tuincentrum Veeneslagen B.V.", "straatNaam": "Holterstraatweg 170 A", "straatNr": "", "postcode": "7462 TZ", "plaats": "Rijssen", "merk": "StatiegeldNederland", "puntType": "automaat", "materialen": ["pet-groot", "pet-klein", "blik"], "uitbetaling": ["tikkie"], "vrijToegankelijk": true, "gemeenteBeperking": null, "openingstijden": {"ma": "24 uur geopend", "di": "24 uur geopend", "wo": "24 uur geopend", "do": "24 uur geopend", "vr": "24 uur geopend", "za": "24 uur geopend", "zo": "24 uur geopend"}, "latitude": 52.3008951, "longitude": 6.4631333, "bronId": "275559"}}, {"type": "Feature", "geometry": {"type": "Point", "coordinates": [6.5066408, 52.3022422]}, "properties": {"type": "inleverpunt", "locatieNaam": "ViaTim", "straatNaam": "Prins Bernhardstraat", "straatNr": "58", "postcode": "7462 GV", "plaats": "Rijssen", "merk": "StatiegeldNederland", "puntType": "balie", "materialen": ["pet-groot", "pet-klein", "blik"], "uitbetaling": ["tikkie"], "vrijToegankelijk": true, "gemeenteBeperking": null, "openingstijden": {"ma": "16:00–20:00", "di": "16:00–20:00", "wo": "16:00–20:00", "do": "16:00–20:00", "vr": "16:00–20:00", "za": "10:00–18:00", "zo": "Gesloten"}, "latitude": 52.3022422, "longitude": 6.5066408, "bronId": "275938"}}, {"type": "Feature", "geometry": {"type": "Point", "coordinates": [6.420798, 52.282491]}, "properties": {"type": "inleverpunt", "locatieNaam": "8743 Albert Heijn Holten", "straatNaam": "Dorpsstraat", "straatNr": "17", "postcode": "7451 BR", "plaats": "Holten", "merk": "StichtingOPEN", "puntType": "balie", "materialen": ["batterijen", "elektro-klein", "lampen"], "uitbetaling": [], "vrijToegankelijk": false, "gemeenteBeperking": null, "openingstijden": null, "latitude": 52.282491, "longitude": 6.420798, "bronId": "SP00022985"}}, {"type": "Feature", "geometry": {"type": "Point", "coordinates": [6.422463, 52.280845]}, "properties": {"type": "inleverpunt", "locatieNaam": "VOF van Bruggen", "straatNaam": "Kerkstraat", "straatNr": "10", "postcode": "7451 BM", "plaats": "Holten", "merk": "StichtingOPEN", "puntType": "balie", "materialen": ["elektro-klein", "elektro-middel"], "uitbetaling": [], "vrijToegankelijk": false, "gemeenteBeperking": null, "openingstijden": null, "latitude": 52.280845, "longitude": 6.422463, "bronId": "SP00001295"}}, {"type": "Feature", "geometry": {"type": "Point", "coordinates": [6.421997, 52.282766]}, "properties": {"type": "inleverpunt", "locatieNaam": "Kruidvat Holten", "straatNaam": "Zwartepad", "straatNr": "12", "postcode": "7451 BJ", "plaats": "Holten", "merk": "StichtingOPEN", "puntType": "balie", "materialen": ["batterijen", "lampen"], "uitbetaling": [], "vrijToegankelijk": false, "gemeenteBeperking": null, "openingstijden": null, "latitude": 52.282766, "longitude": 6.421997, "bronId": "SP00024728"}}, {"type": "Feature", "geometry": {"type": "Point", "coordinates": [6.421999, 52.282841]}, "properties": {"type": "inleverpunt", "locatieNaam": "Aldi Holten", "straatNaam": "Zwartepad", "straatNr": "14", "postcode": "7451 BJ", "plaats": "Holten", "merk": "StichtingOPEN", "puntType": "balie", "materialen": ["batterijen", "elektro-klein", "lampen"], "uitbetaling": [], "vrijToegankelijk": false, "gemeenteBeperking": null, "openingstijden": null, "latitude": 52.282841, "longitude": 6.421999, "bronId": "SP00026991"}}, {"type": "Feature", "geometry": {"type": "Point", "coordinates": [6.49632, 52.31268]}, "properties": {"type": "inleverpunt", "locatieNaam": "Jumbo Rijssen", "straatNaam": "Laan oud-Indiëgangers", "straatNr": "18", "postcode": "7463 CH", "plaats": "Rijssen", "merk": "StichtingOPEN", "puntType": "balie", "materialen": ["batterijen", "elektro-klein", "lampen"], "uitbetaling": [], "vrijToegankelijk": false, "gemeenteBeperking": null, "openingstijden": null, "latitude": 52.31268, "longitude": 6.49632, "bronId": "SP00029906"}}, {"type": "Feature", "geometry": {"type": "Point", "coordinates": [6.509489, 52.303958]}, "properties": {"type": "inleverpunt", "locatieNaam": "PLUS Rijssen", "straatNaam": "Beatrixplein", "straatNr": "10", "postcode": "7462 GN", "plaats": "Rijssen", "merk": "StichtingOPEN", "puntType": "balie", "materialen": ["batterijen", "lampen"], "uitbetaling": [], "vrijToegankelijk": false, "gemeenteBeperking": null, "openingstijden": null, "latitude": 52.303958, "longitude": 6.509489, "bronId": "SP00023991"}}, {"type": "Feature", "geometry": {"type": "Point", "coordinates": [6.516096, 52.306686]}, "properties": {"type": "inleverpunt", "locatieNaam": "Dirk Rijssen", "straatNaam": "Hogepad", "straatNr": "160", "postcode": "7462 TA", "plaats": "Rijssen", "merk": "StichtingOPEN", "puntType": "balie", "materialen": ["batterijen", "lampen"], "uitbetaling": [], "vrijToegankelijk": false, "gemeenteBeperking": null, "openingstijden": null, "latitude": 52.306686, "longitude": 6.516096, "bronId": "SP00023470"}}, {"type": "Feature", "geometry": {"type": "Point", "coordinates": [6.51946, 52.30289]}, "properties": {"type": "inleverpunt", "locatieNaam": "Coop Rijssen", "straatNaam": "Hendrik Jan van Opstallstraat", "straatNr": "18", "postcode": "7462 DM", "plaats": "Rijssen", "merk": "StichtingOPEN", "puntType": "balie", "materialen": ["batterijen", "lampen"], "uitbetaling": [], "vrijToegankelijk": false, "gemeenteBeperking": null, "openingstijden": null, "latitude": 52.30289, "longitude": 6.51946, "bronId": "SP00029807"}}, {"type": "Feature", "geometry": {"type": "Point", "coordinates": [6.51999, 52.30947]}, "properties": {"type": "inleverpunt", "locatieNaam": "Kruidvat Rijssen", "straatNaam": "Boomkamp", "straatNr": "30", "postcode": "7461 AX", "plaats": "Rijssen", "merk": "StichtingOPEN", "puntType": "balie", "materialen": ["batterijen", "lampen"], "uitbetaling": [], "vrijToegankelijk": false, "gemeenteBeperking": null, "openingstijden": null, "latitude": 52.30947, "longitude": 6.51999, "bronId": "SP00029590"}}, {"type": "Feature", "geometry": {"type": "Point", "coordinates": [6.520956, 52.310292]}, "properties": {"type": "inleverpunt", "locatieNaam": "Action Rijssen", "straatNaam": "Boomkamp", "straatNr": "32a", "postcode": "7461 AX", "plaats": "Rijssen", "merk": "StichtingOPEN", "puntType": "balie", "materialen": ["batterijen", "lampen"], "uitbetaling": [], "vrijToegankelijk": false, "gemeenteBeperking": null, "openingstijden": null, "latitude": 52.310292, "longitude": 6.520956, "bronId": "SP00025503"}}, {"type": "Feature", "geometry": {"type": "Point", "coordinates": [6.520886, 52.310671]}, "properties": {"type": "inleverpunt", "locatieNaam": "Jumbo Rijssen", "straatNaam": "Boomkamp", "straatNr": "34", "postcode": "7461 AX", "plaats": "Rijssen", "merk": "StichtingOPEN", "puntType": "balie", "materialen": ["batterijen", "lampen"], "uitbetaling": [], "vrijToegankelijk": false, "gemeenteBeperking": null, "openingstijden": null, "latitude": 52.310671, "longitude": 6.520886, "bronId": "SP00025432"}}, {"type": "Feature", "geometry": {"type": "Point", "coordinates": [6.521499, 52.30997]}, "properties": {"type": "inleverpunt", "locatieNaam": "1609 Albert Heijn Rijssen", "straatNaam": "Watermolen", "straatNr": "2", "postcode": "7461 AZ", "plaats": "Rijssen", "merk": "StichtingOPEN", "puntType": "balie", "materialen": ["batterijen", "elektro-klein", "lampen"], "uitbetaling": [], "vrijToegankelijk": false, "gemeenteBeperking": null, "openingstijden": null, "latitude": 52.30997, "longitude": 6.521499, "bronId": "SP00023002"}}, {"type": "Feature", "geometry": {"type": "Point", "coordinates": [6.519471, 52.316425]}, "properties": {"type": "inleverpunt", "locatieNaam": "KARWEI Rijssen", "straatNaam": "Galvanistraat", "straatNr": "11a", "postcode": "7461 JC", "plaats": "Rijssen", "merk": "StichtingOPEN", "puntType": "balie", "materialen": ["elektro-middel", "lampen", "tl-buizen"], "uitbetaling": [], "vrijToegankelijk": false, "gemeenteBeperking": null, "openingstijden": null, "latitude": 52.316425, "longitude": 6.519471, "bronId": "SP00000664"}}, {"type": "Feature", "geometry": {"type": "Point", "coordinates": [6.541533, 52.297845]}, "properties": {"type": "inleverpunt", "locatieNaam": "2 - Bouwmaat Rijssen Compact", "straatNaam": "Enterstraat", "straatNr": "198", "postcode": "7461 PE", "plaats": "Rijssen", "merk": "StichtingOPEN", "puntType": "balie", "materialen": ["batterijen", "elektro-klein", "lampen", "tl-buizen"], "uitbetaling": [], "vrijToegankelijk": false, "gemeenteBeperking": null, "openingstijden": null, "latitude": 52.297845, "longitude": 6.541533, "bronId": "SP00033362"}}, {"type": "Feature", "geometry": {"type": "Point", "coordinates": [6.541424, 52.299186]}, "properties": {"type": "inleverpunt", "locatieNaam": "GAMMA Rijssen", "straatNaam": "Enterstraat", "straatNr": "196a", "postcode": "7461 PE", "plaats": "Rijssen", "merk": "StichtingOPEN", "puntType": "balie", "materialen": ["batterijen", "elektro-klein", "lampen", "tl-buizen"], "uitbetaling": [], "vrijToegankelijk": false, "gemeenteBeperking": null, "openingstijden": null, "latitude": 52.299186, "longitude": 6.541424, "bronId": "SP00000705"}}, {"type": "Feature", "geometry": {"type": "Point", "coordinates": [6.441883, 52.282083]}, "properties": {"type": "inleverpunt", "locatieNaam": "Kringloop Deventer", "straatNaam": "Schreursweg", "straatNr": "6A", "postcode": "7451 RG", "plaats": "Holten", "merk": "StichtingOPEN", "puntType": "milieustraat", "materialen": ["batterijen", "elektro-groot", "elektro-klein", "elektro-middel", "lampen", "tl-buizen"], "uitbetaling": [], "vrijToegankelijk": false, "gemeenteBeperking": ["Rijssen-Holten"], "openingstijden": null, "latitude": 52.282083, "longitude": 6.441883, "bronId": "SP00005601"}}, {"type": "Feature", "geometry": {"type": "Point", "coordinates": [6.393245, 52.277211]}, "properties": {"type": "inleverpunt", "locatieNaam": "Afvalbrengpunt Holten", "straatNaam": "Montageweg", "straatNr": "14", "postcode": "7451 PN", "plaats": "Holten", "merk": "StichtingOPEN", "puntType": "milieustraat", "materialen": ["batterijen", "elektro-groot", "elektro-klein", "elektro-middel", "lampen", "tl-buizen"], "uitbetaling": [], "vrijToegankelijk": false, "gemeenteBeperking": ["Rijssen-Holten"], "openingstijden": null, "latitude": 52.277211, "longitude": 6.393245, "bronId": "SP00000310"}}, {"type": "Feature", "geometry": {"type": "Point", "coordinates": [6.509788, 52.313672]}, "properties": {"type": "inleverpunt", "locatieNaam": "Afvalbrengpunt Rijssen", "straatNaam": "Nijverheidsstraat", "straatNr": "17a", "postcode": "7461 AD", "plaats": "Rijssen", "merk": "StichtingOPEN", "puntType": "milieustraat", "materialen": ["batterijen", "elektro-groot", "elektro-klein", "elektro-middel", "lampen", "tl-buizen"], "uitbetaling": [], "vrijToegankelijk": false, "gemeenteBeperking": ["Rijssen-Holten"], "openingstijden": null, "latitude": 52.313672, "longitude": 6.509788, "bronId": "SP00005176"}}, {"type": "Feature", "geometry": {"type": "Point", "coordinates": [6.3528335, 52.2746519]}, "properties": {"type": "inleverpunt", "locatieNaam": "Uw Groene Vakwinkel", "straatNaam": "Deventerweg", "straatNr": "79", "postcode": "7451 MC", "plaats": "Holten", "merk": "Stibat", "puntType": "inzamelbak", "materialen": ["batterijen"], "uitbetaling": [], "vrijToegankelijk": false, "gemeenteBeperking": null, "openingstijden": null, "latitude": 52.2746519, "longitude": 6.3528335, "bronId": "L045856"}}, {"type": "Feature", "geometry": {"type": "Point", "coordinates": [6.3950038, 52.2783665]}, "properties": {"type": "inleverpunt", "locatieNaam": "Afvalbrengpunt locatie Holten", "straatNaam": "Montageweg", "straatNr": "14", "postcode": "7451 PN", "plaats": "Holten", "merk": "Stibat", "puntType": "inzamelbak", "materialen": ["batterijen"], "uitbetaling": [], "vrijToegankelijk": false, "gemeenteBeperking": null, "openingstijden": null, "latitude": 52.2783665, "longitude": 6.3950038, "bronId": "L035849"}}, {"type": "Feature", "geometry": {"type": "Point", "coordinates": [6.4051442, 52.2808772]}, "properties": {"type": "inleverpunt", "locatieNaam": "Hubo", "straatNaam": "Aaltinksweg", "straatNr": "16", "postcode": "7451 DX", "plaats": "Holten", "merk": "Stibat", "puntType": "inzamelbak", "materialen": ["batterijen"], "uitbetaling": [], "vrijToegankelijk": false, "gemeenteBeperking": null, "openingstijden": null, "latitude": 52.2808772, "longitude": 6.4051442, "bronId": "L041986"}}, {"type": "Feature", "geometry": {"type": "Point", "coordinates": [6.4120782, 52.2747179]}, "properties": {"type": "inleverpunt", "locatieNaam": "8743 Albert Heijn", "straatNaam": "Larenseweg", "straatNr": "102 D", "postcode": "7451 EN", "plaats": "Holten", "merk": "Stibat", "puntType": "inzamelbak", "materialen": ["batterijen"], "uitbetaling": [], "vrijToegankelijk": false, "gemeenteBeperking": null, "openingstijden": null, "latitude": 52.2747179, "longitude": 6.4120782, "bronId": "L006430"}}, {"type": "Feature", "geometry": {"type": "Point", "coordinates": [6.4207769, 52.2821332]}, "properties": {"type": "inleverpunt", "locatieNaam": "Plus", "straatNaam": "Dorpsstraat", "straatNr": "20", "postcode": "7451 BV", "plaats": "Holten", "merk": "Stibat", "puntType": "inzamelbak", "materialen": ["batterijen"], "uitbetaling": [], "vrijToegankelijk": false, "gemeenteBeperking": null, "openingstijden": null, "latitude": 52.2821332, "longitude": 6.4207769, "bronId": "L047578"}}, {"type": "Feature", "geometry": {"type": "Point", "coordinates": [6.4211761, 52.281484]}, "properties": {"type": "inleverpunt", "locatieNaam": "Bike Totaal Bloemendal", "straatNaam": "Smidsbelt", "straatNr": "9", "postcode": "7451 BL", "plaats": "Holten", "merk": "Stibat", "puntType": "inzamelbak", "materialen": ["batterijen"], "uitbetaling": [], "vrijToegankelijk": false, "gemeenteBeperking": null, "openingstijden": null, "latitude": 52.281484, "longitude": 6.4211761, "bronId": "L037227"}}, {"type": "Feature", "geometry": {"type": "Point", "coordinates": [6.4217429, 52.2822065]}, "properties": {"type": "inleverpunt", "locatieNaam": "Primera", "straatNaam": "Dorpsstraat", "straatNr": "21", "postcode": "7451 BR", "plaats": "Holten", "merk": "Stibat", "puntType": "inzamelbak", "materialen": ["batterijen"], "uitbetaling": [], "vrijToegankelijk": false, "gemeenteBeperking": null, "openingstijden": null, "latitude": 52.2822065, "longitude": 6.4217429, "bronId": "L040250"}}, {"type": "Feature", "geometry": {"type": "Point", "coordinates": [6.4218783, 52.2821483]}, "properties": {"type": "inleverpunt", "locatieNaam": "CombiFoto", "straatNaam": "Dorpsstraat", "straatNr": "19", "postcode": "7451 BR", "plaats": "Holten", "merk": "Stibat", "puntType": "inzamelbak", "materialen": ["batterijen"], "uitbetaling": [], "vrijToegankelijk": false, "gemeenteBeperking": null, "openingstijden": null, "latitude": 52.2821483, "longitude": 6.4218783, "bronId": "L009200"}}, {"type": "Feature", "geometry": {"type": "Point", "coordinates": [6.42193, 52.2829123]}, "properties": {"type": "inleverpunt", "locatieNaam": "HEMA Holten", "straatNaam": "Zwartepad", "straatNr": "16", "postcode": "7451 BJ", "plaats": "Holten", "merk": "Stibat", "puntType": "inzamelbak", "materialen": ["batterijen"], "uitbetaling": [], "vrijToegankelijk": false, "gemeenteBeperking": null, "openingstijden": null, "latitude": 52.2829123, "longitude": 6.42193, "bronId": "L047000"}}, {"type": "Feature", "geometry": {"type": "Point", "coordinates": [6.4225181, 52.2815375]}, "properties": {"type": "inleverpunt", "locatieNaam": "DA-drogisterij Wedda", "straatNaam": "Dorpsstraat", "straatNr": "10", "postcode": "7451 BT", "plaats": "Holten", "merk": "Stibat", "puntType": "inzamelbak", "materialen": ["batterijen"], "uitbetaling": [], "vrijToegankelijk": false, "gemeenteBeperking": null, "openingstijden": null, "latitude": 52.2815375, "longitude": 6.4225181, "bronId": "L025490"}}, {"type": "Feature", "geometry": {"type": "Point", "coordinates": [6.4219999, 52.2828414]}, "properties": {"type": "inleverpunt", "locatieNaam": "Aldi", "straatNaam": "Zwartepad", "straatNr": "14", "postcode": "7451 BJ", "plaats": "Holten", "merk": "Stibat", "puntType": "inzamelbak", "materialen": ["batterijen"], "uitbetaling": [], "vrijToegankelijk": false, "gemeenteBeperking": null, "openingstijden": null, "latitude": 52.2828414, "longitude": 6.4219999, "bronId": "L041480"}}, {"type": "Feature", "geometry": {"type": "Point", "coordinates": [6.4221346, 52.2827936]}, "properties": {"type": "inleverpunt", "locatieNaam": "Kruidvat", "straatNaam": "Zwartepad", "straatNr": "12", "postcode": "7451 BJ", "plaats": "Holten", "merk": "Stibat", "puntType": "inzamelbak", "materialen": ["batterijen"], "uitbetaling": [], "vrijToegankelijk": false, "gemeenteBeperking": null, "openingstijden": null, "latitude": 52.2827936, "longitude": 6.4221346, "bronId": "L032391"}}, {"type": "Feature", "geometry": {"type": "Point", "coordinates": [6.4226353, 52.283985]}, "properties": {"type": "inleverpunt", "locatieNaam": "Jan Stam Fietsverhuur", "straatNaam": "Waagweg", "straatNr": "1", "postcode": "7451 AZ", "plaats": "Holten", "merk": "Stibat", "puntType": "inzamelbak", "materialen": ["batterijen"], "uitbetaling": [], "vrijToegankelijk": false, "gemeenteBeperking": null, "openingstijden": null, "latitude": 52.283985, "longitude": 6.4226353, "bronId": "L033932"}}, {"type": "Feature", "geometry": {"type": "Point", "coordinates": [6.4252652, 52.2801471]}, "properties": {"type": "inleverpunt", "locatieNaam": "Autobedrijf Stukker", "straatNaam": "Oranjestraat", "straatNr": "30", "postcode": "7451 CC", "plaats": "Holten", "merk": "Stibat", "puntType": "inzamelbak", "materialen": ["batterijen"], "uitbetaling": [], "vrijToegankelijk": false, "gemeenteBeperking": null, "openingstijden": null, "latitude": 52.2801471, "longitude": 6.4252652, "bronId": "L025411"}}, {"type": "Feature", "geometry": {"type": "Point", "coordinates": [6.4472227, 52.2865833]}, "properties": {"type": "inleverpunt", "locatieNaam": "Landal Twenhaarsveld", "straatNaam": "Landuwerweg", "straatNr": "17", "postcode": "7451 SP", "plaats": "Holten", "merk": "Stibat", "puntType": "inzamelbak", "materialen": ["batterijen"], "uitbetaling": [], "vrijToegankelijk": false, "gemeenteBeperking": null, "openingstijden": null, "latitude": 52.2865833, "longitude": 6.4472227, "bronId": "L008836"}}, {"type": "Feature", "geometry": {"type": "Point", "coordinates": [6.4592393, 52.2944654]}, "properties": {"type": "inleverpunt", "locatieNaam": "Recreatiepark de Prins", "straatNaam": "Wildweg", "straatNr": "2", "postcode": "7451 RN", "plaats": "Holten", "merk": "Stibat", "puntType": "inzamelbak", "materialen": ["batterijen"], "uitbetaling": [], "vrijToegankelijk": false, "gemeenteBeperking": null, "openingstijden": null, "latitude": 52.2944654, "longitude": 6.4592393, "bronId": "L004081"}}, {"type": "Feature", "geometry": {"type": "Point", "coordinates": [6.4927435, 52.3043807]}, "properties": {"type": "inleverpunt", "locatieNaam": "Welkoop", "straatNaam": "Holterstraatweg", "straatNr": "170b", "postcode": "7462 TZ", "plaats": "Rijssen", "merk": "Stibat", "puntType": "inzamelbak", "materialen": ["batterijen"], "uitbetaling": [], "vrijToegankelijk": false, "gemeenteBeperking": null, "openingstijden": null, "latitude": 52.3043807, "longitude": 6.4927435, "bronId": "L039208"}}, {"type": "Feature", "geometry": {"type": "Point", "coordinates": [6.4947002, 52.3127892]}, "properties": {"type": "inleverpunt", "locatieNaam": "Jumbo", "straatNaam": "Laan oud-Indiegangers", "straatNr": "5", "postcode": "7463 CH", "plaats": "Rijssen", "merk": "Stibat", "puntType": "inzamelbak", "materialen": ["batterijen"], "uitbetaling": [], "vrijToegankelijk": false, "gemeenteBeperking": null, "openingstijden": null, "latitude": 52.3127892, "longitude": 6.4947002, "bronId": "L040220"}}, {"type": "Feature", "geometry": {"type": "Point", "coordinates": [6.5061477, 52.3049352]}, "properties": {"type": "inleverpunt", "locatieNaam": "Bike Totaal Bloemendal - Rijssen", "straatNaam": "Banisweg", "straatNr": "3", "postcode": "7462 HW", "plaats": "Ryssen", "merk": "Stibat", "puntType": "inzamelbak", "materialen": ["batterijen"], "uitbetaling": [], "vrijToegankelijk": false, "gemeenteBeperking": null, "openingstijden": null, "latitude": 52.3049352, "longitude": 6.5061477, "bronId": "L048786"}}, {"type": "Feature", "geometry": {"type": "Point", "coordinates": [6.5061796, 52.3049325]}, "properties": {"type": "inleverpunt", "locatieNaam": "Bike Totaal Bloemendal", "straatNaam": "Banisweg", "straatNr": "3", "postcode": "7462 HW", "plaats": "Rijssen", "merk": "Stibat", "puntType": "inzamelbak", "materialen": ["batterijen"], "uitbetaling": [], "vrijToegankelijk": false, "gemeenteBeperking": null, "openingstijden": null, "latitude": 52.3049325, "longitude": 6.5061796, "bronId": "L033936"}}, {"type": "Feature", "geometry": {"type": "Point", "coordinates": [6.5029414, 52.3153847]}, "properties": {"type": "inleverpunt", "locatieNaam": "Raab Karcher", "straatNaam": "Nijverdalseweg", "straatNr": "123", "postcode": "7461 AG", "plaats": "Rijssen", "merk": "Stibat", "puntType": "inzamelbak", "materialen": ["batterijen"], "uitbetaling": [], "vrijToegankelijk": false, "gemeenteBeperking": null, "openingstijden": null, "latitude": 52.3153847, "longitude": 6.5029414, "bronId": "L043784"}}, {"type": "Feature", "geometry": {"type": "Point", "coordinates": [6.5093659, 52.3039146]}, "properties": {"type": "inleverpunt", "locatieNaam": "PLUS", "straatNaam": "Beatrixplein", "straatNr": "10", "postcode": "7462 GN", "plaats": "Rijssen", "merk": "Stibat", "puntType": "inzamelbak", "materialen": ["batterijen"], "uitbetaling": [], "vrijToegankelijk": false, "gemeenteBeperking": null, "openingstijden": null, "latitude": 52.3039146, "longitude": 6.5093659, "bronId": "L027236"}}, {"type": "Feature", "geometry": {"type": "Point", "coordinates": [6.5067204, 52.3124559]}, "properties": {"type": "inleverpunt", "locatieNaam": "Afvalbrengpunt locatie Rijssen", "straatNaam": "Nijverheidsstraat", "straatNr": "17a", "postcode": "7461 AD", "plaats": "Rijssen", "merk": "Stibat", "puntType": "inzamelbak", "materialen": ["batterijen"], "uitbetaling": [], "vrijToegankelijk": false, "gemeenteBeperking": null, "openingstijden": null, "latitude": 52.3124559, "longitude": 6.5067204, "bronId": "L035850"}}, {"type": "Feature", "geometry": {"type": "Point", "coordinates": [6.5105858, 52.304147]}, "properties": {"type": "inleverpunt", "locatieNaam": "Harry van Olst Tweewielers", "straatNaam": "Blinde Banisweg", "straatNr": "46", "postcode": "7462 VJ", "plaats": "Rijssen", "merk": "Stibat", "puntType": "inzamelbak", "materialen": ["batterijen"], "uitbetaling": [], "vrijToegankelijk": false, "gemeenteBeperking": null, "openingstijden": null, "latitude": 52.304147, "longitude": 6.5105858, "bronId": "L025719"}}, {"type": "Feature", "geometry": {"type": "Point", "coordinates": [6.5042366, 52.3226771]}, "properties": {"type": "inleverpunt", "locatieNaam": "Reparo", "straatNaam": "Kalanderstraat", "straatNr": "10d", "postcode": "7461 JM", "plaats": "Rijssen", "merk": "Stibat", "puntType": "inzamelbak", "materialen": ["batterijen"], "uitbetaling": [], "vrijToegankelijk": false, "gemeenteBeperking": null, "openingstijden": null, "latitude": 52.3226771, "longitude": 6.5042366, "bronId": "L040319"}}, {"type": "Feature", "geometry": {"type": "Point", "coordinates": [6.5169915, 52.3053585]}, "properties": {"type": "inleverpunt", "locatieNaam": "Jan Aolbert b.v.", "straatNaam": "Esstraat", "straatNr": "55", "postcode": "7462 EA", "plaats": "Rijssen", "merk": "Stibat", "puntType": "inzamelbak", "materialen": ["batterijen"], "uitbetaling": [], "vrijToegankelijk": false, "gemeenteBeperking": null, "openingstijden": null, "latitude": 52.3053585, "longitude": 6.5169915, "bronId": "L046101"}}, {"type": "Feature", "geometry": {"type": "Point", "coordinates": [6.5180719, 52.3067331]}, "properties": {"type": "inleverpunt", "locatieNaam": "Zeeman", "straatNaam": "Hogepad", "straatNr": "1-75", "postcode": "7462 TA", "plaats": "Rijssen", "merk": "Stibat", "puntType": "inzamelbak", "materialen": ["batterijen"], "uitbetaling": [], "vrijToegankelijk": false, "gemeenteBeperking": null, "openingstijden": null, "latitude": 52.3067331, "longitude": 6.5180719, "bronId": "L019426"}}, {"type": "Feature", "geometry": {"type": "Point", "coordinates": [6.5182019, 52.3065375]}, "properties": {"type": "inleverpunt", "locatieNaam": "Dirk", "straatNaam": "Hogepad", "straatNr": "1-60", "postcode": "7462 TA", "plaats": "Rijssen", "merk": "Stibat", "puntType": "inzamelbak", "materialen": ["batterijen"], "uitbetaling": [], "vrijToegankelijk": false, "gemeenteBeperking": null, "openingstijden": null, "latitude": 52.3065375, "longitude": 6.5182019, "bronId": "L013480"}}, {"type": "Feature", "geometry": {"type": "Point", "coordinates": [6.5183441, 52.3078451]}, "properties": {"type": "inleverpunt", "locatieNaam": "The Read Shop", "straatNaam": "Haarstraat", "straatNr": "44", "postcode": "7462 AR", "plaats": "Rijssen", "merk": "Stibat", "puntType": "inzamelbak", "materialen": ["batterijen"], "uitbetaling": [], "vrijToegankelijk": false, "gemeenteBeperking": null, "openingstijden": null, "latitude": 52.3078451, "longitude": 6.5183441, "bronId": "L023540"}}, {"type": "Feature", "geometry": {"type": "Point", "coordinates": [6.5208235, 52.3029562]}, "properties": {"type": "inleverpunt", "locatieNaam": "Aldi", "straatNaam": "Arend Baanstraat", "straatNr": "20", "postcode": "7461 DV", "plaats": "Rijssen", "merk": "Stibat", "puntType": "inzamelbak", "materialen": ["batterijen"], "uitbetaling": [], "vrijToegankelijk": false, "gemeenteBeperking": null, "openingstijden": null, "latitude": 52.3029562, "longitude": 6.5208235, "bronId": "L044392"}}, {"type": "Feature", "geometry": {"type": "Point", "coordinates": [6.5196704, 52.307721]}, "properties": {"type": "inleverpunt", "locatieNaam": "Phone House", "straatNaam": "Haarstraat", "straatNr": "17", "postcode": "7462 AK", "plaats": "Rijssen", "merk": "Stibat", "puntType": "inzamelbak", "materialen": ["batterijen"], "uitbetaling": [], "vrijToegankelijk": false, "gemeenteBeperking": null, "openingstijden": null, "latitude": 52.307721, "longitude": 6.5196704, "bronId": "L022739"}}, {"type": "Feature", "geometry": {"type": "Point", "coordinates": [6.5201629, 52.3077074]}, "properties": {"type": "inleverpunt", "locatieNaam": "Kruidvat", "straatNaam": "Haarstraat", "straatNr": "7", "postcode": "7462 AK", "plaats": "Rijssen", "merk": "Stibat", "puntType": "inzamelbak", "materialen": ["batterijen"], "uitbetaling": [], "vrijToegankelijk": false, "gemeenteBeperking": null, "openingstijden": null, "latitude": 52.3077074, "longitude": 6.5201629, "bronId": "L014532"}}, {"type": "Feature", "geometry": {"type": "Point", "coordinates": [6.5202627, 52.3080352]}, "properties": {"type": "inleverpunt", "locatieNaam": "Welcom bij Molenkamp", "straatNaam": "Haarstraat", "straatNr": "8", "postcode": "7462 AP", "plaats": "Rijssen", "merk": "Stibat", "puntType": "inzamelbak", "materialen": ["batterijen"], "uitbetaling": [], "vrijToegankelijk": false, "gemeenteBeperking": null, "openingstijden": null, "latitude": 52.3080352, "longitude": 6.5202627, "bronId": "L038576"}}, {"type": "Feature", "geometry": {"type": "Point", "coordinates": [6.5209702, 52.3069282]}, "properties": {"type": "inleverpunt", "locatieNaam": "Thuiskantoor", "straatNaam": "Bouwstraat", "straatNr": "8", "postcode": "7462 AZ", "plaats": "Rijssen", "merk": "Stibat", "puntType": "inzamelbak", "materialen": ["batterijen"], "uitbetaling": [], "vrijToegankelijk": false, "gemeenteBeperking": null, "openingstijden": null, "latitude": 52.3069282, "longitude": 6.5209702, "bronId": "L027771"}}, {"type": "Feature", "geometry": {"type": "Point", "coordinates": [6.5208517, 52.3076398]}, "properties": {"type": "inleverpunt", "locatieNaam": "DA", "straatNaam": "Haarstraat", "straatNr": "3b", "postcode": "7462 AK", "plaats": "Rijssen", "merk": "Stibat", "puntType": "inzamelbak", "materialen": ["batterijen"], "uitbetaling": [], "vrijToegankelijk": false, "gemeenteBeperking": null, "openingstijden": null, "latitude": 52.3076398, "longitude": 6.5208517, "bronId": "L025136"}}, {"type": "Feature", "geometry": {"type": "Point", "coordinates": [6.5207756, 52.3080213]}, "properties": {"type": "inleverpunt", "locatieNaam": "7964 Etos", "straatNaam": "Haarstraat", "straatNr": "2 C", "postcode": "7462 AP", "plaats": "Rijssen", "merk": "Stibat", "puntType": "inzamelbak", "materialen": ["batterijen"], "uitbetaling": [], "vrijToegankelijk": false, "gemeenteBeperking": null, "openingstijden": null, "latitude": 52.3080213, "longitude": 6.5207756, "bronId": "L027813"}}, {"type": "Feature", "geometry": {"type": "Point", "coordinates": [6.5215044, 52.3064025]}, "properties": {"type": "inleverpunt", "locatieNaam": "Schoonenberg Hoorcomfort", "straatNaam": "Elsenerstraat", "straatNr": "32", "postcode": "7461 DP", "plaats": "Rijssen", "merk": "Stibat", "puntType": "inzamelbak", "materialen": ["batterijen"], "uitbetaling": [], "vrijToegankelijk": false, "gemeenteBeperking": null, "openingstijden": null, "latitude": 52.3064025, "longitude": 6.5215044, "bronId": "L019872"}}, {"type": "Feature", "geometry": {"type": "Point", "coordinates": [6.5209458, 52.3077197]}, "properties": {"type": "inleverpunt", "locatieNaam": "HEMA Haarstraat", "straatNaam": "Haarstraat", "straatNr": "23A-25", "postcode": "7462 AK", "plaats": "Rijssen", "merk": "Stibat", "puntType": "inzamelbak", "materialen": ["batterijen"], "uitbetaling": [], "vrijToegankelijk": false, "gemeenteBeperking": null, "openingstijden": null, "latitude": 52.3077197, "longitude": 6.5209458, "bronId": "L007707"}}, {"type": "Feature", "geometry": {"type": "Point", "coordinates": [6.5218329, 52.3058361]}, "properties": {"type": "inleverpunt", "locatieNaam": "Stegeman Hoortechniek", "straatNaam": "Elsenerstraat", "straatNr": "38", "postcode": "7461 DP", "plaats": "Rijssen", "merk": "Stibat", "puntType": "inzamelbak", "materialen": ["batterijen"], "uitbetaling": [], "vrijToegankelijk": false, "gemeenteBeperking": null, "openingstijden": null, "latitude": 52.3058361, "longitude": 6.5218329, "bronId": "L030650"}}, {"type": "Feature", "geometry": {"type": "Point", "coordinates": [6.521307, 52.307585]}, "properties": {"type": "inleverpunt", "locatieNaam": "Hans Anders", "straatNaam": "Schild", "straatNr": "9", "postcode": "7461 DD", "plaats": "Rijssen", "merk": "Stibat", "puntType": "inzamelbak", "materialen": ["batterijen"], "uitbetaling": [], "vrijToegankelijk": false, "gemeenteBeperking": null, "openingstijden": null, "latitude": 52.307585, "longitude": 6.521307, "bronId": "L037902"}}, {"type": "Feature", "geometry": {"type": "Point", "coordinates": [6.5219455, 52.3062971]}, "properties": {"type": "inleverpunt", "locatieNaam": "Intertoys", "straatNaam": "Elsenerstraat", "straatNr": "31", "postcode": "7461 DM", "plaats": "Rijssen", "merk": "Stibat", "puntType": "inzamelbak", "materialen": ["batterijen"], "uitbetaling": [], "vrijToegankelijk": false, "gemeenteBeperking": null, "openingstijden": null, "latitude": 52.3062971, "longitude": 6.5219455, "bronId": "L008255"}}, {"type": "Feature", "geometry": {"type": "Point", "coordinates": [6.5212368, 52.3082776]}, "properties": {"type": "inleverpunt", "locatieNaam": "Prijsmepper", "straatNaam": "Grotestraat", "straatNr": "3", "postcode": "7461 KE", "plaats": "Rijssen", "merk": "Stibat", "puntType": "inzamelbak", "materialen": ["batterijen"], "uitbetaling": [], "vrijToegankelijk": false, "gemeenteBeperking": null, "openingstijden": null, "latitude": 52.3082776, "longitude": 6.5212368, "bronId": "L036334"}}, {"type": "Feature", "geometry": {"type": "Point", "coordinates": [6.5209491, 52.3102218]}, "properties": {"type": "inleverpunt", "locatieNaam": "Kruidvat", "straatNaam": "Boomkamp", "straatNr": "30", "postcode": "7461 AX", "plaats": "Rijssen", "merk": "Stibat", "puntType": "inzamelbak", "materialen": ["batterijen"], "uitbetaling": [], "vrijToegankelijk": false, "gemeenteBeperking": null, "openingstijden": null, "latitude": 52.3102218, "longitude": 6.5209491, "bronId": "L037276"}}, {"type": "Feature", "geometry": {"type": "Point", "coordinates": [6.5209567, 52.3102923]}, "properties": {"type": "inleverpunt", "locatieNaam": "1134 Action", "straatNaam": "Boomkamp", "straatNr": "32a", "postcode": "7461 AX", "plaats": "Rijssen", "merk": "Stibat", "puntType": "inzamelbak", "materialen": ["batterijen"], "uitbetaling": [], "vrijToegankelijk": false, "gemeenteBeperking": null, "openingstijden": null, "latitude": 52.3102923, "longitude": 6.5209567, "bronId": "L019156"}}, {"type": "Feature", "geometry": {"type": "Point", "coordinates": [6.5209028, 52.3107077]}, "properties": {"type": "inleverpunt", "locatieNaam": "Jumbo", "straatNaam": "Boomkamp", "straatNr": "34", "postcode": "7461 AX", "plaats": "Rijssen", "merk": "Stibat", "puntType": "inzamelbak", "materialen": ["batterijen"], "uitbetaling": [], "vrijToegankelijk": false, "gemeenteBeperking": null, "openingstijden": null, "latitude": 52.3107077, "longitude": 6.5209028, "bronId": "L032528"}}, {"type": "Feature", "geometry": {"type": "Point", "coordinates": [6.5208604, 52.311867]}, "properties": {"type": "inleverpunt", "locatieNaam": "1609 Albert Heijn", "straatNaam": "Stationsdwarsweg", "straatNr": "19", "postcode": "7461 AR", "plaats": "Rijssen", "merk": "Stibat", "puntType": "inzamelbak", "materialen": ["batterijen"], "uitbetaling": [], "vrijToegankelijk": false, "gemeenteBeperking": null, "openingstijden": null, "latitude": 52.311867, "longitude": 6.5208604, "bronId": "L005949"}}, {"type": "Feature", "geometry": {"type": "Point", "coordinates": [6.5227276, 52.3086587]}, "properties": {"type": "inleverpunt", "locatieNaam": "Xenos", "straatNaam": "Grotestraat", "straatNr": "20", "postcode": "7461 KG", "plaats": "Rijssen", "merk": "Stibat", "puntType": "inzamelbak", "materialen": ["batterijen"], "uitbetaling": [], "vrijToegankelijk": false, "gemeenteBeperking": null, "openingstijden": null, "latitude": 52.3086587, "longitude": 6.5227276, "bronId": "L037020"}}, {"type": "Feature", "geometry": {"type": "Point", "coordinates": [6.5195767, 52.3164385]}, "properties": {"type": "inleverpunt", "locatieNaam": "Karwei", "straatNaam": "Galvanistraat", "straatNr": "11a", "postcode": "7461 JC", "plaats": "Rijssen", "merk": "Stibat", "puntType": "inzamelbak", "materialen": ["batterijen"], "uitbetaling": [], "vrijToegankelijk": false, "gemeenteBeperking": null, "openingstijden": null, "latitude": 52.3164385, "longitude": 6.5195767, "bronId": "L007853"}}, {"type": "Feature", "geometry": {"type": "Point", "coordinates": [6.5234141, 52.3089323]}, "properties": {"type": "inleverpunt", "locatieNaam": "Wibra", "straatNaam": "Grotestraat", "straatNr": "34", "postcode": "7461 KG", "plaats": "Rijssen", "merk": "Stibat", "puntType": "inzamelbak", "materialen": ["batterijen"], "uitbetaling": [], "vrijToegankelijk": false, "gemeenteBeperking": null, "openingstijden": null, "latitude": 52.3089323, "longitude": 6.5234141, "bronId": "L023051"}}, {"type": "Feature", "geometry": {"type": "Point", "coordinates": [6.523293, 52.3092241]}, "properties": {"type": "inleverpunt", "locatieNaam": "CombiFoto", "straatNaam": "Grotestraat", "straatNr": "39-41", "postcode": "7461 KE", "plaats": "Rijssen", "merk": "Stibat", "puntType": "inzamelbak", "materialen": ["batterijen"], "uitbetaling": [], "vrijToegankelijk": false, "gemeenteBeperking": null, "openingstijden": null, "latitude": 52.3092241, "longitude": 6.523293, "bronId": "L008684"}}, {"type": "Feature", "geometry": {"type": "Point", "coordinates": [6.5233962, 52.3096745]}, "properties": {"type": "inleverpunt", "locatieNaam": "Aldi", "straatNaam": "Watermolen", "straatNr": "2", "postcode": "7461 AZ", "plaats": "Rijssen", "merk": "Stibat", "puntType": "inzamelbak", "materialen": ["batterijen"], "uitbetaling": [], "vrijToegankelijk": false, "gemeenteBeperking": null, "openingstijden": null, "latitude": 52.3096745, "longitude": 6.5233962, "bronId": "L041481"}}, {"type": "Feature", "geometry": {"type": "Point", "coordinates": [6.5213769, 52.3183613]}, "properties": {"type": "inleverpunt", "locatieNaam": "Mark Nijmeijer Fietsreparatie", "straatNaam": "Fahrenheitstraat", "straatNr": "20", "postcode": "7461 JA", "plaats": "Rijssen", "merk": "Stibat", "puntType": "inzamelbak", "materialen": ["batterijen"], "uitbetaling": [], "vrijToegankelijk": false, "gemeenteBeperking": null, "openingstijden": null, "latitude": 52.3183613, "longitude": 6.5213769, "bronId": "L030580"}}, {"type": "Feature", "geometry": {"type": "Point", "coordinates": [6.5408553, 52.2999326]}, "properties": {"type": "inleverpunt", "locatieNaam": "Gamma", "straatNaam": "Enterstraat", "straatNr": "196a", "postcode": "7461 PE", "plaats": "Rijssen", "merk": "Stibat", "puntType": "inzamelbak", "materialen": ["batterijen"], "uitbetaling": [], "vrijToegankelijk": false, "gemeenteBeperking": null, "openingstijden": null, "latitude": 52.2999326, "longitude": 6.5408553, "bronId": "L007172"}}, {"type": "Feature", "geometry": {"type": "Polygon", "coordinates": [[[6.416422002745565, 52.242166004032825], [6.426226002755449, 52.24886200403646], [6.4284860027576824, 52.24820300403599], [6.431821002761055, 52.250902004037485], [6.43005700275931, 52.2513420040378], [6.429685002758949, 52.25169800403803], [6.439043002768306, 52.25473000403951], [6.441490002770776, 52.25659700404054], [6.447812002777081, 52.257843004041], [6.461797002791082, 52.26340300404376], [6.471002002800311, 52.26768600404596], [6.471231002800572, 52.26931000404692], [6.47207700280142, 52.26971900404716], [6.477157002806505, 52.271920004048276], [6.477641002806986, 52.271856004048225], [6.485260002814604, 52.27460600404957], [6.489782002819108, 52.27557000404994], [6.4900300028193625, 52.27591500405015], [6.504465002833758, 52.27963800405178], [6.507202002836478, 52.27994800405186], [6.508705002837989, 52.28084600405232], [6.51568700284494, 52.28217900405285], [6.51726400284652, 52.28304800405329], [6.518395002847636, 52.28281900405312], [6.521962002851186, 52.28338600405333], [6.525813002855008, 52.28349900405322], [6.5328310028619505, 52.282838004052536], [6.534890002863996, 52.28299200405255], [6.535795002864886, 52.28270400405235], [6.541562002870608, 52.28268300405208], [6.541547002870582, 52.28226700405181], [6.554009002882957, 52.28331300405195], [6.549963002879033, 52.287802004054804], [6.552266002881459, 52.295147004059075], [6.553378002882557, 52.29492500405892], [6.553533002882753, 52.296999004060126], [6.551096002880559, 52.30829600406694], [6.549573002879114, 52.31187400406913], [6.549008002878561, 52.31217100406931], [6.5490300028785935, 52.312655004069605], [6.545089002874796, 52.31837500407316], [6.539652002869364, 52.31580300407187], [6.538041002867761, 52.315524004071754], [6.535841002865583, 52.31564100407191], [6.536213002865953, 52.315703004071906], [6.535928002865675, 52.315914004072056], [6.532846002862639, 52.316775004072746], [6.528502002858443, 52.3222380040761], [6.527763002857724, 52.32302200407663], [6.526091002856081, 52.323775004077156], [6.524878002854917, 52.32567700407829], [6.523931002853964, 52.32485900407788], [6.524120002854133, 52.32401200407737], [6.523138002853156, 52.323834004077305], [6.518164002848238, 52.32438100407786], [6.517908002848001, 52.325174004078306], [6.499327002829553, 52.32352200407807], [6.468189002798745, 52.326462004081066], [6.4609200027914016, 52.320059004077535], [6.45501200278556, 52.32080200407823], [6.429733002760576, 52.32506200408175], [6.421896002752819, 52.32569000408241], [6.402035002733059, 52.323140004081736], [6.356016002687272, 52.31821900408049], [6.349614002680836, 52.314642004078586], [6.341194002672348, 52.309078004075594], [6.326530002657608, 52.3016320040717], [6.328842002659429, 52.28110300405939], [6.337643002668085, 52.277310004056794], [6.338079002668507, 52.2768310040565], [6.339542002669954, 52.27649200405623], [6.347462002677747, 52.273015004053875], [6.348867002679116, 52.27205900405326], [6.350066002680303, 52.271760004053036], [6.350538002680766, 52.27144900405285], [6.348857002679057, 52.26989200405196], [6.350832002681007, 52.269254004051504], [6.352020002682224, 52.270889004052435], [6.354884002685032, 52.26920100405135], [6.352843002682983, 52.26835000405088], [6.3553760026854755, 52.26726600405015], [6.35671800268683, 52.26812800405063], [6.363488002693465, 52.264209004048034], [6.363062002693036, 52.26401000404794], [6.3645430026944885, 52.263157004047365], [6.364834002694786, 52.263433004047506], [6.370775002700611, 52.26000600404524], [6.372897002702743, 52.26100000404576], [6.376722002706491, 52.258752004044275], [6.377194002706965, 52.25893800404435], [6.37722200270694, 52.256649004043], [6.374810002704536, 52.25629800404286], [6.3747960027045165, 52.25606700404275], [6.374880002704578, 52.25513600404219], [6.377317002706983, 52.25432600404158], [6.376343002705967, 52.25219300404035], [6.376542002706146, 52.251349004039824], [6.377169002706757, 52.2508520040395], [6.376721002706297, 52.25021000403914], [6.377879002707441, 52.24985400403891], [6.381225002710712, 52.24739700403732], [6.380778002710254, 52.24681400403697], [6.38185200271131, 52.24632200403665], [6.383411002712805, 52.24401600403518], [6.385963002715321, 52.24310900403454], [6.390661002719976, 52.242503004034006], [6.39901100272829, 52.243245004034144], [6.4026190027318775, 52.24327200403401], [6.4055480027347755, 52.24291600403368], [6.41105000274025, 52.243046004033566], [6.416422002745565, 52.242166004032825]]]}, "properties": {"type": "boundary", "gemeente": "Rijssen-Holten"}}]}