{"type": "FeatureCollection", "metadata": {"gemeente": "Sint-Michielsgestel", "slug": "sint-michielsgestel", "generated_at": "2026-09-14T07:32:33.064092Z", "total_points": 44, "merken": ["StatiegeldNederland", "Stibat", "StichtingOPEN"], "bounds": [5.3428891, 51.6118648, 5.410535, 51.6794359]}, "features": [{"type": "Feature", "geometry": {"type": "Point", "coordinates": [5.3496956, 51.6380777]}, "properties": {"type": "inleverpunt", "locatieNaam": "Albert Heijn", "straatNaam": "Kloosterpad", "straatNr": "3", "postcode": "5271 AX", "plaats": "Sint Michelsgestel", "merk": "StatiegeldNederland", "puntType": "automaat", "materialen": ["pet-groot", "pet-klein", "blik", "glas", "krat"], "uitbetaling": ["bonnetje", "donatie"], "vrijToegankelijk": true, "gemeenteBeperking": null, "openingstijden": {"ma": "08:00–21:00", "di": "08:00–21:00", "wo": "08:00–21:00", "do": "08:00–21:00", "vr": "08:00–21:00", "za": "08:00–21:00", "zo": "09:00–19:00"}, "latitude": 51.6380777, "longitude": 5.3496956, "bronId": "335978"}}, {"type": "Feature", "geometry": {"type": "Point", "coordinates": [5.3543465, 51.6432384]}, "properties": {"type": "inleverpunt", "locatieNaam": "Aldi", "straatNaam": "Oude Schoolstraat", "straatNr": "6", "postcode": "5271 AN", "plaats": "Sint Michielsgestel", "merk": "StatiegeldNederland", "puntType": "automaat", "materialen": ["pet-groot", "pet-klein", "blik", "glas", "krat"], "uitbetaling": ["bonnetje"], "vrijToegankelijk": true, "gemeenteBeperking": null, "openingstijden": {"ma": "08:00–20:00", "di": "08:00–20:00", "wo": "08:00–20:00", "do": "08:00–20:00", "vr": "08:00–20:00", "za": "08:00–20:00", "zo": "10:00–18:00"}, "latitude": 51.6432384, "longitude": 5.3543465, "bronId": "336868"}}, {"type": "Feature", "geometry": {"type": "Point", "coordinates": [5.398052, 51.6780662]}, "properties": {"type": "inleverpunt", "locatieNaam": "Aldi", "straatNaam": "Runweg", "straatNr": "12", "postcode": "5258 BN", "plaats": "Berlicum (Nb)", "merk": "StatiegeldNederland", "puntType": "automaat", "materialen": ["pet-groot", "pet-klein", "blik", "glas", "krat"], "uitbetaling": ["bonnetje"], "vrijToegankelijk": true, "gemeenteBeperking": null, "openingstijden": {"ma": "08:00–20:00", "di": "08:00–20:00", "wo": "08:00–20:00", "do": "08:00–20:00", "vr": "08:00–20:00", "za": "08:00–20:00", "zo": "09:00–18:00"}, "latitude": 51.6780662, "longitude": 5.398052, "bronId": "336911"}}, {"type": "Feature", "geometry": {"type": "Point", "coordinates": [5.3558845, 51.6118648]}, "properties": {"type": "inleverpunt", "locatieNaam": "Gemondse Tennis Vereniging", "straatNaam": "Kaal Hoefsteeg", "straatNr": "6", "postcode": "5291 PD", "plaats": "Gemonde", "merk": "StatiegeldNederland", "puntType": "balie", "materialen": ["pet-groot", "pet-klein", "blik"], "uitbetaling": [], "vrijToegankelijk": false, "gemeenteBeperking": null, "openingstijden": null, "latitude": 51.6118648, "longitude": 5.3558845, "bronId": "338403"}}, {"type": "Feature", "geometry": {"type": "Point", "coordinates": [5.3501125, 51.6390482]}, "properties": {"type": "inleverpunt", "locatieNaam": "Jumbo", "straatNaam": "Kloosterpad", "straatNr": "9", "postcode": "5271 AX", "plaats": "Sint-Michielsgestel", "merk": "StatiegeldNederland", "puntType": "automaat", "materialen": ["pet-groot", "pet-klein", "blik", "glas", "krat"], "uitbetaling": ["bonnetje", "donatie"], "vrijToegankelijk": true, "gemeenteBeperking": null, "openingstijden": {"ma": "08:00–21:00", "di": "08:00–21:00", "wo": "08:00–21:00", "do": "08:00–21:00", "vr": "08:00–21:00", "za": "08:00–21:00", "zo": "09:00–19:00"}, "latitude": 51.6390482, "longitude": 5.3501125, "bronId": "339125"}}, {"type": "Feature", "geometry": {"type": "Point", "coordinates": [5.369435, 51.660613]}, "properties": {"type": "inleverpunt", "locatieNaam": "Jumbo", "straatNaam": "Maaskantje 29 -", "straatNr": "31", "postcode": "5271 XD", "plaats": "Den Dungen", "merk": "StatiegeldNederland", "puntType": "automaat", "materialen": ["pet-groot", "pet-klein", "blik", "glas", "krat"], "uitbetaling": ["bonnetje"], "vrijToegankelijk": true, "gemeenteBeperking": null, "openingstijden": {"ma": "07:00–21:00", "di": "07:00–21:00", "wo": "07:00–21:00", "do": "07:00–21:00", "vr": "07:00–21:00", "za": "07:00–21:00", "zo": "09:00–20:00"}, "latitude": 51.660613, "longitude": 5.369435, "bronId": "339187"}}, {"type": "Feature", "geometry": {"type": "Point", "coordinates": [5.4003331, 51.6789063]}, "properties": {"type": "inleverpunt", "locatieNaam": "Jumbo", "straatNaam": "Mercuriusplein", "straatNr": "67", "postcode": "5258 AW", "plaats": "Berlicum", "merk": "StatiegeldNederland", "puntType": "automaat", "materialen": ["pet-groot", "pet-klein", "blik", "glas", "krat"], "uitbetaling": ["bonnetje", "donatie"], "vrijToegankelijk": true, "gemeenteBeperking": null, "openingstijden": {"ma": "08:00–20:00", "di": "08:00–20:00", "wo": "08:00–20:00", "do": "08:00–20:00", "vr": "08:00–21:00", "za": "08:00–20:00", "zo": "09:00–19:00"}, "latitude": 51.6789063, "longitude": 5.4003331, "bronId": "339217"}}, {"type": "Feature", "geometry": {"type": "Point", "coordinates": [5.39842, 51.67942]}, "properties": {"type": "inleverpunt", "locatieNaam": "Lidl", "straatNaam": "Mercuriusplein", "straatNr": "30", "postcode": "5258 AX", "plaats": "Berlicum", "merk": "StatiegeldNederland", "puntType": "automaat", "materialen": ["pet-groot", "pet-klein", "blik", "glas", "krat"], "uitbetaling": ["bonnetje", "donatie"], "vrijToegankelijk": true, "gemeenteBeperking": null, "openingstijden": {"ma": "08:00–20:00", "di": "08:00–20:00", "wo": "08:00–20:00", "do": "08:00–20:00", "vr": "08:00–21:00", "za": "08:00–20:00", "zo": "09:00–19:00"}, "latitude": 51.67942, "longitude": 5.39842, "bronId": "339947"}}, {"type": "Feature", "geometry": {"type": "Point", "coordinates": [5.3509429, 51.6352346]}, "properties": {"type": "inleverpunt", "locatieNaam": "Mhc De Dommel", "straatNaam": "Vliertstraat", "straatNr": "8", "postcode": "5261 EL", "plaats": "Vught", "merk": "StatiegeldNederland", "puntType": "balie", "materialen": ["pet-groot", "pet-klein", "blik"], "uitbetaling": [], "vrijToegankelijk": false, "gemeenteBeperking": null, "openingstijden": null, "latitude": 51.6352346, "longitude": 5.3509429, "bronId": "340460"}}, {"type": "Feature", "geometry": {"type": "Point", "coordinates": [5.3448967, 51.6357667]}, "properties": {"type": "inleverpunt", "locatieNaam": "Optisport Zwembad Zegenwerp", "straatNaam": "Esscheweg", "straatNr": "5", "postcode": "5271 NB", "plaats": "Sint Michielsgestel", "merk": "StatiegeldNederland", "puntType": "balie", "materialen": ["pet-groot", "pet-klein", "blik"], "uitbetaling": [], "vrijToegankelijk": false, "gemeenteBeperking": null, "openingstijden": null, "latitude": 51.6357667, "longitude": 5.3448967, "bronId": "340803"}}, {"type": "Feature", "geometry": {"type": "Point", "coordinates": [5.397915, 51.679224]}, "properties": {"type": "inleverpunt", "locatieNaam": "Kruidvat Berlicum", "straatNaam": "Mercuriusplein", "straatNr": "3", "postcode": "5258 AX", "plaats": "Berlicum", "merk": "StichtingOPEN", "puntType": "balie", "materialen": ["batterijen", "lampen"], "uitbetaling": [], "vrijToegankelijk": false, "gemeenteBeperking": null, "openingstijden": null, "latitude": 51.679224, "longitude": 5.397915, "bronId": "SP00024532"}}, {"type": "Feature", "geometry": {"type": "Point", "coordinates": [5.399679, 51.679109]}, "properties": {"type": "inleverpunt", "locatieNaam": "Jumbo Berlicum", "straatNaam": "Mercuriusplein", "straatNr": "67", "postcode": "5258 AW", "plaats": "Berlicum", "merk": "StichtingOPEN", "puntType": "balie", "materialen": ["batterijen", "lampen"], "uitbetaling": [], "vrijToegankelijk": false, "gemeenteBeperking": null, "openingstijden": null, "latitude": 51.679109, "longitude": 5.399679, "bronId": "SP00025068"}}, {"type": "Feature", "geometry": {"type": "Point", "coordinates": [5.40189, 51.67671]}, "properties": {"type": "inleverpunt", "locatieNaam": "Albert Heijn Sint-Michielsgestel", "straatNaam": "Kloosterpad", "straatNr": "3", "postcode": "5271 AX", "plaats": "Sint-Michielsgestel", "merk": "StichtingOPEN", "puntType": "balie", "materialen": ["batterijen", "elektro-klein", "lampen"], "uitbetaling": [], "vrijToegankelijk": false, "gemeenteBeperking": null, "openingstijden": null, "latitude": 51.67671, "longitude": 5.40189, "bronId": "SP00027319"}}, {"type": "Feature", "geometry": {"type": "Point", "coordinates": [5.410535, 51.671151]}, "properties": {"type": "inleverpunt", "locatieNaam": "Boerenbond Berlicum", "straatNaam": "Milrooijseweg", "straatNr": "49", "postcode": "5258 KG", "plaats": "Berlicum NB", "merk": "StichtingOPEN", "puntType": "balie", "materialen": ["elektro-middel", "lampen", "tl-buizen"], "uitbetaling": [], "vrijToegankelijk": false, "gemeenteBeperking": null, "openingstijden": null, "latitude": 51.671151, "longitude": 5.410535, "bronId": "SP00006449"}}, {"type": "Feature", "geometry": {"type": "Point", "coordinates": [5.369343, 51.660561]}, "properties": {"type": "inleverpunt", "locatieNaam": "Jumbo Sint-Michielsgestel", "straatNaam": "Maaskantje", "straatNr": "29", "postcode": "5271 XD", "plaats": "Sint-Michielsgestel", "merk": "StichtingOPEN", "puntType": "balie", "materialen": ["batterijen", "lampen"], "uitbetaling": [], "vrijToegankelijk": false, "gemeenteBeperking": null, "openingstijden": null, "latitude": 51.660561, "longitude": 5.369343, "bronId": "SP00025064"}}, {"type": "Feature", "geometry": {"type": "Point", "coordinates": [5.360762, 51.65369]}, "properties": {"type": "inleverpunt", "locatieNaam": "Toon Schuurmans Witgoed & Electronica", "straatNaam": "Hoogstraat", "straatNr": "29", "postcode": "5271 SW", "plaats": "Sint Michielsgestel", "merk": "StichtingOPEN", "puntType": "balie", "materialen": ["elektro-klein", "elektro-middel"], "uitbetaling": [], "vrijToegankelijk": false, "gemeenteBeperking": null, "openingstijden": null, "latitude": 51.65369, "longitude": 5.360762, "bronId": "SP00022199"}}, {"type": "Feature", "geometry": {"type": "Point", "coordinates": [5.359479, 51.650793]}, "properties": {"type": "inleverpunt", "locatieNaam": "Praxis St. Michielsgestel - 2293", "straatNaam": "Hoogstraat", "straatNr": "30B", "postcode": "5271 SW", "plaats": "Sint-Michielsgestel", "merk": "StichtingOPEN", "puntType": "balie", "materialen": ["batterijen", "elektro-klein", "elektro-middel", "lampen", "tl-buizen"], "uitbetaling": [], "vrijToegankelijk": false, "gemeenteBeperking": null, "openingstijden": null, "latitude": 51.650793, "longitude": 5.359479, "bronId": "SP00005981"}}, {"type": "Feature", "geometry": {"type": "Point", "coordinates": [5.35422, 51.643201]}, "properties": {"type": "inleverpunt", "locatieNaam": "Aldi St. Michielsgestel", "straatNaam": "Oude schoolstraat", "straatNr": "6", "postcode": "5271 AN", "plaats": "St. Michielsgestel", "merk": "StichtingOPEN", "puntType": "balie", "materialen": ["batterijen", "elektro-klein", "lampen"], "uitbetaling": [], "vrijToegankelijk": false, "gemeenteBeperking": null, "openingstijden": null, "latitude": 51.643201, "longitude": 5.35422, "bronId": "SP00026797"}}, {"type": "Feature", "geometry": {"type": "Point", "coordinates": [5.352645, 51.641578]}, "properties": {"type": "inleverpunt", "locatieNaam": "Jumbo Sint-Michielsgestel", "straatNaam": "Nieuwstraat", "straatNr": "40", "postcode": "5271 AD", "plaats": "Sint-Michielsgestel", "merk": "StichtingOPEN", "puntType": "balie", "materialen": ["batterijen", "lampen"], "uitbetaling": [], "vrijToegankelijk": false, "gemeenteBeperking": null, "openingstijden": null, "latitude": 51.641578, "longitude": 5.352645, "bronId": "SP00025057"}}, {"type": "Feature", "geometry": {"type": "Point", "coordinates": [5.353539, 51.639931]}, "properties": {"type": "inleverpunt", "locatieNaam": "Van Der Wal Fotografie", "straatNaam": "Spijt", "straatNr": "17", "postcode": "5271 BA", "plaats": "Sint Michielsgestel", "merk": "StichtingOPEN", "puntType": "balie", "materialen": ["elektro-klein"], "uitbetaling": [], "vrijToegankelijk": false, "gemeenteBeperking": null, "openingstijden": null, "latitude": 51.639931, "longitude": 5.353539, "bronId": "SP00027513"}}, {"type": "Feature", "geometry": {"type": "Point", "coordinates": [5.351711, 51.639068]}, "properties": {"type": "inleverpunt", "locatieNaam": "Kruidvat Sint-Michielsgestel", "straatNaam": "Nieuwstraat", "straatNr": "68", "postcode": "5271 AD", "plaats": "Sint-Michielsgestel", "merk": "StichtingOPEN", "puntType": "balie", "materialen": ["batterijen", "lampen"], "uitbetaling": [], "vrijToegankelijk": false, "gemeenteBeperking": null, "openingstijden": null, "latitude": 51.639068, "longitude": 5.351711, "bronId": "SP00024527"}}, {"type": "Feature", "geometry": {"type": "Point", "coordinates": [5.3975956, 51.6794359]}, "properties": {"type": "inleverpunt", "locatieNaam": "HEMA Berlicum", "straatNaam": "Hoogstraat", "straatNr": "133", "postcode": "5258 BC", "plaats": "Berlicum", "merk": "Stibat", "puntType": "inzamelbak", "materialen": ["batterijen"], "uitbetaling": [], "vrijToegankelijk": false, "gemeenteBeperking": null, "openingstijden": null, "latitude": 51.6794359, "longitude": 5.3975956, "bronId": "L046983"}}, {"type": "Feature", "geometry": {"type": "Point", "coordinates": [5.3991637, 51.6792162]}, "properties": {"type": "inleverpunt", "locatieNaam": "Fotoshop Berlicum", "straatNaam": "Mercuriusplein", "straatNr": "56", "postcode": "5258 AX", "plaats": "Berlicum Nb", "merk": "Stibat", "puntType": "inzamelbak", "materialen": ["batterijen"], "uitbetaling": [], "vrijToegankelijk": false, "gemeenteBeperking": null, "openingstijden": null, "latitude": 51.6792162, "longitude": 5.3991637, "bronId": "L013045"}}, {"type": "Feature", "geometry": {"type": "Point", "coordinates": [5.3980188, 51.6790826]}, "properties": {"type": "inleverpunt", "locatieNaam": "Kruidvat", "straatNaam": "Mercuriusplein", "straatNr": "3", "postcode": "5258 AX", "plaats": "Berlicum", "merk": "Stibat", "puntType": "inzamelbak", "materialen": ["batterijen"], "uitbetaling": [], "vrijToegankelijk": false, "gemeenteBeperking": null, "openingstijden": null, "latitude": 51.6790826, "longitude": 5.3980188, "bronId": "L014536"}}, {"type": "Feature", "geometry": {"type": "Point", "coordinates": [5.397988, 51.6790624]}, "properties": {"type": "inleverpunt", "locatieNaam": "Zeeman", "straatNaam": "Mercuriusplein", "straatNr": "51-52", "postcode": "5258 AX", "plaats": "Berlicum", "merk": "Stibat", "puntType": "inzamelbak", "materialen": ["batterijen"], "uitbetaling": [], "vrijToegankelijk": false, "gemeenteBeperking": null, "openingstijden": null, "latitude": 51.6790624, "longitude": 5.397988, "bronId": "L019509"}}, {"type": "Feature", "geometry": {"type": "Point", "coordinates": [5.4002848, 51.6789025]}, "properties": {"type": "inleverpunt", "locatieNaam": "Jumbo", "straatNaam": "Mercuriusplein", "straatNr": "67", "postcode": "5258 AW", "plaats": "Berlicum Nb", "merk": "Stibat", "puntType": "inzamelbak", "materialen": ["batterijen"], "uitbetaling": [], "vrijToegankelijk": false, "gemeenteBeperking": null, "openingstijden": null, "latitude": 51.6789025, "longitude": 5.4002848, "bronId": "L031087"}}, {"type": "Feature", "geometry": {"type": "Point", "coordinates": [5.4009591, 51.6784968]}, "properties": {"type": "inleverpunt", "locatieNaam": "Drogisterij Henk van der Doelen", "straatNaam": "Kerkwijk", "straatNr": "7", "postcode": "5258 KA", "plaats": "Berlicum Nb", "merk": "Stibat", "puntType": "inzamelbak", "materialen": ["batterijen"], "uitbetaling": [], "vrijToegankelijk": false, "gemeenteBeperking": null, "openingstijden": null, "latitude": 51.6784968, "longitude": 5.4009591, "bronId": "L025607"}}, {"type": "Feature", "geometry": {"type": "Point", "coordinates": [5.4047649, 51.6788481]}, "properties": {"type": "inleverpunt", "locatieNaam": "FIETS &amp; ZO BERLICUM", "straatNaam": "Pastoor van den Boomstraat", "straatNr": "15a", "postcode": "5258 GB", "plaats": "Berlicum Nb", "merk": "Stibat", "puntType": "inzamelbak", "materialen": ["batterijen"], "uitbetaling": [], "vrijToegankelijk": false, "gemeenteBeperking": null, "openingstijden": null, "latitude": 51.6788481, "longitude": 5.4047649, "bronId": "L047336"}}, {"type": "Feature", "geometry": {"type": "Point", "coordinates": [5.3949283, 51.6763783]}, "properties": {"type": "inleverpunt", "locatieNaam": "Aldi", "straatNaam": "Runweg", "straatNr": "12", "postcode": "5258 BN", "plaats": "Berlicum Nb", "merk": "Stibat", "puntType": "inzamelbak", "materialen": ["batterijen"], "uitbetaling": [], "vrijToegankelijk": false, "gemeenteBeperking": null, "openingstijden": null, "latitude": 51.6763783, "longitude": 5.3949283, "bronId": "L044488"}}, {"type": "Feature", "geometry": {"type": "Point", "coordinates": [5.3955595, 51.6763132]}, "properties": {"type": "inleverpunt", "locatieNaam": "Milieustraat Berlicum", "straatNaam": "Runweg", "straatNr": "25", "postcode": "5258 BK", "plaats": "Berlicum", "merk": "Stibat", "puntType": "inzamelbak", "materialen": ["batterijen"], "uitbetaling": [], "vrijToegankelijk": false, "gemeenteBeperking": null, "openingstijden": null, "latitude": 51.6763132, "longitude": 5.3955595, "bronId": "L035756"}}, {"type": "Feature", "geometry": {"type": "Point", "coordinates": [5.4055866, 51.6753359]}, "properties": {"type": "inleverpunt", "locatieNaam": "Tweewielers Guus van Buuren", "straatNaam": "Kerkwijk", "straatNr": "70", "postcode": "5258 KD", "plaats": "Berlicum", "merk": "Stibat", "puntType": "inzamelbak", "materialen": ["batterijen"], "uitbetaling": [], "vrijToegankelijk": false, "gemeenteBeperking": null, "openingstijden": null, "latitude": 51.6753359, "longitude": 5.4055866, "bronId": "L031623"}}, {"type": "Feature", "geometry": {"type": "Point", "coordinates": [5.3914521, 51.6740135]}, "properties": {"type": "inleverpunt", "locatieNaam": "van Santvoort Service Berlicum", "straatNaam": "Runweg", "straatNr": "30", "postcode": "5258 BN", "plaats": "Berlicum Nb", "merk": "Stibat", "puntType": "inzamelbak", "materialen": ["batterijen"], "uitbetaling": [], "vrijToegankelijk": false, "gemeenteBeperking": null, "openingstijden": null, "latitude": 51.6740135, "longitude": 5.3914521, "bronId": "L021496"}}, {"type": "Feature", "geometry": {"type": "Point", "coordinates": [5.3702038, 51.6700636]}, "properties": {"type": "inleverpunt", "locatieNaam": "Goossens Tweewielers", "straatNaam": "Litserstraat", "straatNr": "65", "postcode": "5275 BT", "plaats": "Den Dungen", "merk": "Stibat", "puntType": "inzamelbak", "materialen": ["batterijen"], "uitbetaling": [], "vrijToegankelijk": false, "gemeenteBeperking": null, "openingstijden": null, "latitude": 51.6700636, "longitude": 5.3702038, "bronId": "L033510"}}, {"type": "Feature", "geometry": {"type": "Point", "coordinates": [5.4101814, 51.6710108]}, "properties": {"type": "inleverpunt", "locatieNaam": "Boerenbond", "straatNaam": "Milrooijseweg", "straatNr": "49", "postcode": "5258 KG", "plaats": "Berlicum Nb", "merk": "Stibat", "puntType": "inzamelbak", "materialen": ["batterijen"], "uitbetaling": [], "vrijToegankelijk": false, "gemeenteBeperking": null, "openingstijden": null, "latitude": 51.6710108, "longitude": 5.4101814, "bronId": "L029307"}}, {"type": "Feature", "geometry": {"type": "Point", "coordinates": [5.3693435, 51.6605615]}, "properties": {"type": "inleverpunt", "locatieNaam": "Jumbo", "straatNaam": "Maaskantje", "straatNr": "29", "postcode": "5271 XD", "plaats": "St Michielsgestel", "merk": "Stibat", "puntType": "inzamelbak", "materialen": ["batterijen"], "uitbetaling": [], "vrijToegankelijk": false, "gemeenteBeperking": null, "openingstijden": null, "latitude": 51.6605615, "longitude": 5.3693435, "bronId": "L005559"}}, {"type": "Feature", "geometry": {"type": "Point", "coordinates": [5.3594797, 51.6507938]}, "properties": {"type": "inleverpunt", "locatieNaam": "Praxis 2293", "straatNaam": "Hoogstraat", "straatNr": "30b", "postcode": "5271 SW", "plaats": "St Michielsgestel", "merk": "Stibat", "puntType": "inzamelbak", "materialen": ["batterijen"], "uitbetaling": [], "vrijToegankelijk": false, "gemeenteBeperking": null, "openingstijden": null, "latitude": 51.6507938, "longitude": 5.3594797, "bronId": "L040719"}}, {"type": "Feature", "geometry": {"type": "Point", "coordinates": [5.3542204, 51.6432018]}, "properties": {"type": "inleverpunt", "locatieNaam": "Aldi", "straatNaam": "Oude schoolstraat", "straatNr": "6", "postcode": "5271 AN", "plaats": "St. Michielsgestel", "merk": "Stibat", "puntType": "inzamelbak", "materialen": ["batterijen"], "uitbetaling": [], "vrijToegankelijk": false, "gemeenteBeperking": null, "openingstijden": null, "latitude": 51.6432018, "longitude": 5.3542204, "bronId": "L041330"}}, {"type": "Feature", "geometry": {"type": "Point", "coordinates": [5.353144, 51.6396234]}, "properties": {"type": "inleverpunt", "locatieNaam": "Rijwielhandel Coen van Buuren", "straatNaam": "Spijt", "straatNr": "10", "postcode": "5271 BC", "plaats": "Sint-Michielsgestel", "merk": "Stibat", "puntType": "inzamelbak", "materialen": ["batterijen"], "uitbetaling": [], "vrijToegankelijk": false, "gemeenteBeperking": null, "openingstijden": null, "latitude": 51.6396234, "longitude": 5.353144, "bronId": "L030347"}}, {"type": "Feature", "geometry": {"type": "Point", "coordinates": [5.3428891, 51.6388426]}, "properties": {"type": "inleverpunt", "locatieNaam": "Buuren Fietscomfort", "straatNaam": "Campanulastraat", "straatNr": "5", "postcode": "5271 GX", "plaats": "Sint-Michielsgestel", "merk": "Stibat", "puntType": "inzamelbak", "materialen": ["batterijen"], "uitbetaling": [], "vrijToegankelijk": false, "gemeenteBeperking": null, "openingstijden": null, "latitude": 51.6388426, "longitude": 5.3428891, "bronId": "L033509"}}, {"type": "Feature", "geometry": {"type": "Point", "coordinates": [5.3489065, 51.6385541]}, "properties": {"type": "inleverpunt", "locatieNaam": "Primera", "straatNaam": "Torenstraat", "straatNr": "82", "postcode": "5271 GA", "plaats": "St Michielsgestel", "merk": "Stibat", "puntType": "inzamelbak", "materialen": ["batterijen"], "uitbetaling": [], "vrijToegankelijk": false, "gemeenteBeperking": null, "openingstijden": null, "latitude": 51.6385541, "longitude": 5.3489065, "bronId": "L022080"}}, {"type": "Feature", "geometry": {"type": "Point", "coordinates": [5.34956, 51.638057]}, "properties": {"type": "inleverpunt", "locatieNaam": "1545 Albert Heijn", "straatNaam": "Kloosterpad", "straatNr": "3", "postcode": "5271 AX", "plaats": "Sint Michielsgestel", "merk": "Stibat", "puntType": "inzamelbak", "materialen": ["batterijen"], "uitbetaling": [], "vrijToegankelijk": false, "gemeenteBeperking": null, "openingstijden": null, "latitude": 51.638057, "longitude": 5.34956, "bronId": "L006057"}}, {"type": "Feature", "geometry": {"type": "Point", "coordinates": [5.349782, 51.6387439]}, "properties": {"type": "inleverpunt", "locatieNaam": "HEMA St.-Michielsgestel", "straatNaam": "Kloosterpad", "straatNr": "7", "postcode": "5271 AX", "plaats": "Sint-Michielsgestel", "merk": "Stibat", "puntType": "inzamelbak", "materialen": ["batterijen"], "uitbetaling": [], "vrijToegankelijk": false, "gemeenteBeperking": null, "openingstijden": null, "latitude": 51.6387439, "longitude": 5.349782, "bronId": "L047059"}}, {"type": "Feature", "geometry": {"type": "Point", "coordinates": [5.3498424, 51.638818]}, "properties": {"type": "inleverpunt", "locatieNaam": "Jumbo", "straatNaam": "Kloosterpad", "straatNr": "9", "postcode": "5271 AX", "plaats": "Sint Michielsgestel", "merk": "Stibat", "puntType": "inzamelbak", "materialen": ["batterijen"], "uitbetaling": [], "vrijToegankelijk": false, "gemeenteBeperking": null, "openingstijden": null, "latitude": 51.638818, "longitude": 5.3498424, "bronId": "L045472"}}, {"type": "Feature", "geometry": {"type": "Point", "coordinates": [5.3571256, 51.6200021]}, "properties": {"type": "inleverpunt", "locatieNaam": "Uw Vakzaak Schellekens", "straatNaam": "Dorpsstraat", "straatNr": "39", "postcode": "5293 AL", "plaats": "Gemonde", "merk": "Stibat", "puntType": "inzamelbak", "materialen": ["batterijen"], "uitbetaling": [], "vrijToegankelijk": false, "gemeenteBeperking": null, "openingstijden": null, "latitude": 51.6200021, "longitude": 5.3571256, "bronId": "L010250"}}, {"type": "Feature", "geometry": {"type": "Polygon", "coordinates": [[[5.360219001666521, 51.601753003656526], [5.374895001681345, 51.601803003656364], [5.38558200169222, 51.603936003657616], [5.389495001696227, 51.60533900365851], [5.394857001701664, 51.60584200365875], [5.390716001697711, 51.611780003662716], [5.392415001699449, 51.612361003663075], [5.3909590016980244, 51.61351200366386], [5.390523001697615, 51.614329003664395], [5.391088001698271, 51.61650400366581], [5.388420001695629, 51.61784600366675], [5.389221001696517, 51.619877003668066], [5.388947001696298, 51.621343003669026], [5.385917001693221, 51.6209060036688], [5.384509001691895, 51.62336000367041], [5.3858590016932695, 51.62363600367058], [5.383853001691261, 51.6240860036709], [5.384455001691923, 51.625467003671794], [5.387467001694977, 51.62574800367192], [5.3833760016909205, 51.62772200367331], [5.384078001691656, 51.62838800367373], [5.383211001690784, 51.62848600367378], [5.383285001690983, 51.631604003675825], [5.379904001687612, 51.63266800367658], [5.374998001682696, 51.63369300367729], [5.371065001678699, 51.63296300367688], [5.371573001679268, 51.63441300367781], [5.371361001679164, 51.63722600367967], [5.37302000168083, 51.63698700367948], [5.377077001684983, 51.63850200368043], [5.378849001686779, 51.63867800368053], [5.383071001691025, 51.63823900368015], [5.383262001691231, 51.638589003680394], [5.380089001688051, 51.63918800368088], [5.379454001687442, 51.63995000368135], [5.377892001685846, 51.63949500368105], [5.3752960016832425, 51.63999000368144], [5.371868001679861, 51.64193100368276], [5.3759630016840445, 51.64323500368352], [5.375439001683564, 51.644450003684355], [5.376242001684383, 51.64463000368445], [5.377169001685275, 51.64353900368375], [5.379592001687743, 51.6441520036841], [5.379070001687272, 51.645551003685064], [5.379899001688114, 51.64570600368511], [5.37808600168632, 51.64664500368575], [5.379138001687412, 51.64736700368622], [5.3799440016881865, 51.64637500368553], [5.380797001689044, 51.64626900368546], [5.384192001692455, 51.645906003685184], [5.385250001693545, 51.646482003685584], [5.38575200169404, 51.646153003685335], [5.390535001698848, 51.6455960036849], [5.395589001703971, 51.64622400368524], [5.396155001704508, 51.64532100368464], [5.40004200170848, 51.64656700368539], [5.402118001710631, 51.648014003686335], [5.402282001710786, 51.64775900368615], [5.405960001714521, 51.648312003686435], [5.405884001714519, 51.6502050036877], [5.410883001719573, 51.650482003687785], [5.412297001720992, 51.65030300368768], [5.412564001721289, 51.65098500368807], [5.411056001719783, 51.651375003688386], [5.411081001719859, 51.65269200368928], [5.412636001721431, 51.652780003689294], [5.412570001721378, 51.653087003689464], [5.413475001722314, 51.653746003689896], [5.411265001720092, 51.65397000369008], [5.411426001720273, 51.65445800369039], [5.415096001723964, 51.65407900369011], [5.4146440017235715, 51.65570300369118], [5.421452001730376, 51.65405500368998], [5.422230001731144, 51.65359400368966], [5.422503001731435, 51.65401400368995], [5.423390001732323, 51.653783003689774], [5.4276530017367035, 51.65584500369107], [5.428493001737578, 51.65656400369152], [5.429885001739086, 51.659237003693235], [5.431638001740916, 51.660850003694264], [5.431605001740976, 51.66322300369585], [5.4329110017423305, 51.66430700369652], [5.4394110017489155, 51.66487400369681], [5.445035001754567, 51.6642440036963], [5.44563100175525, 51.66641700369771], [5.448827001758592, 51.669552003699664], [5.456873001767398, 51.68759100371132], [5.45271900176324, 51.68847500371197], [5.451679001762128, 51.68675100371083], [5.445167001755627, 51.68858100371215], [5.447547001758274, 51.694960003716275], [5.445043001755763, 51.69531600371651], [5.441353001752016, 51.6946560037162], [5.442993001753731, 51.69628000371718], [5.442457001753197, 51.696463003717334], [5.4433500017541405, 51.69761800371808], [5.439495001750292, 51.6986580037188], [5.439330001750194, 51.700434003719934], [5.428452001739266, 51.70148400372079], [5.406209001716739, 51.69908600371957], [5.397715001708149, 51.6984890037193], [5.3953060017057295, 51.69871800371945], [5.385191001695615, 51.70100100372111], [5.374030001684324, 51.700088003720666], [5.372732001682987, 51.69944900372026], [5.371545001681733, 51.69796900371931], [5.366829001676933, 51.69690800371871], [5.362030001672162, 51.69860000371987], [5.359272001669382, 51.69868200371993], [5.360301001670373, 51.697535003719196], [5.363596001673463, 51.691542003715234], [5.366354001676106, 51.688029003712906], [5.373479001683025, 51.68117200370832], [5.377110001686596, 51.67880200370673], [5.376429001685893, 51.67843100370653], [5.372357001681851, 51.68012800370769], [5.367721001677203, 51.68080700370818], [5.366926001676389, 51.680572003708065], [5.357351001666787, 51.68200300370911], [5.357024001666419, 51.6810660037085], [5.352784001662155, 51.68141800370879], [5.352127001661476, 51.68101900370851], [5.350939001660125, 51.677145003706045], [5.35596200166507, 51.67400400370393], [5.353878001662931, 51.67314200370336], [5.354613001663648, 51.67250700370297], [5.352932001661924, 51.67181400370253], [5.353693001662663, 51.67107300370203], [5.3439600016526985, 51.667446003699794], [5.344139001652871, 51.66727000369968], [5.34148600165015, 51.666186003698996], [5.342302001650945, 51.665425003698466], [5.338883001647437, 51.66399700369762], [5.327475001636297, 51.67336700370386], [5.320284001628933, 51.670700003702215], [5.3113340016198025, 51.668287003700755], [5.309394001617838, 51.66810500370069], [5.30633900161469, 51.666408003699594], [5.303971001612262, 51.66554800369902], [5.3038160016120335, 51.663766003697894], [5.304344001612526, 51.66267100369721], [5.3067220016148475, 51.660777003695905], [5.310943001619029, 51.65881800369455], [5.311739001619804, 51.65812900369409], [5.312574001620483, 51.653946003691374], [5.314510001622376, 51.65247200369038], [5.316877001624758, 51.65224100369021], [5.31914900162696, 51.64998000368868], [5.319740001627362, 51.64509900368549], [5.31871900162626, 51.643353003684346], [5.318671001626162, 51.642054003683526], [5.319558001626915, 51.63849100368115], [5.320887001628223, 51.63764400368059], [5.3211910016285, 51.636962003680125], [5.320425001627675, 51.635655003679304], [5.317732001624918, 51.634634003678634], [5.338405001645293, 51.62212700367017], [5.343995001650969, 51.622983003670676], [5.3433840016503, 51.62155600366975], [5.3418930016487405, 51.620241003668916], [5.343364001650122, 51.61760700366717], [5.343177001649904, 51.61686800366669], [5.341274001647941, 51.61582000366604], [5.340468001647079, 51.61459000366521], [5.339048001645615, 51.61386100366478], [5.334863001641381, 51.61364000366467], [5.33213100163852, 51.61113600366304], [5.332152001638527, 51.61075200366281], [5.3330400016394135, 51.61047900366264], [5.332949001639294, 51.609780003662166], [5.334339001640684, 51.60945700366192], [5.334979001641302, 51.60869800366143], [5.333833001640116, 51.60807700366102], [5.331995001638279, 51.60848700366132], [5.331938001638172, 51.60728200366053], [5.334522001640732, 51.605993003659655], [5.3358600016419695, 51.603134003657786], [5.340834001647041, 51.6043500036585], [5.341386001647487, 51.60146800365656], [5.342835001648901, 51.60022400365576], [5.345867001652062, 51.60273800365739], [5.350985001657279, 51.60396600365808], [5.352929001659112, 51.60069100365592], [5.360219001666521, 51.601753003656526]]]}, "properties": {"type": "boundary", "gemeente": "Sint-Michielsgestel"}}]}