{"type": "FeatureCollection", "metadata": {"gemeente": "Sluis", "slug": "sluis", "generated_at": "2026-07-28T09:25:50.134599Z", "total_points": 100, "merken": ["StatiegeldNederland", "Stibat", "StichtingOPEN"], "bounds": [3.3727255, 51.2475782, 3.6145721, 51.4045563]}, "features": [{"type": "Feature", "geometry": {"type": "Point", "coordinates": [3.4838889, 51.3255556]}, "properties": {"type": "inleverpunt", "locatieNaam": "Albert Heijn", "straatNaam": "Torenweidelaan", "straatNr": "2", "postcode": "4501 AK", "plaats": "Oostburg", "merk": "StatiegeldNederland", "puntType": "automaat", "materialen": ["pet-groot", "pet-klein", "blik", "glas", "krat"], "uitbetaling": ["bonnetje", "donatie"], "vrijToegankelijk": true, "gemeenteBeperking": null, "openingstijden": {"ma": "08:00–22:00", "di": "08:00–22:00", "wo": "08:00–22:00", "do": "08:00–22:00", "vr": "08:00–22:00", "za": "08:00–22:00", "zo": "09:00–21:00"}, "latitude": 51.3255556, "longitude": 3.4838889, "bronId": "252817"}}, {"type": "Feature", "geometry": {"type": "Point", "coordinates": [3.4833565, 51.3259863]}, "properties": {"type": "inleverpunt", "locatieNaam": "Aldi", "straatNaam": "Veerhoeklaan", "straatNr": "5A", "postcode": "4501 AE", "plaats": "Oostburg", "merk": "StatiegeldNederland", "puntType": "automaat", "materialen": ["pet-groot", "pet-klein", "blik", "glas", "krat"], "uitbetaling": ["bonnetje"], "vrijToegankelijk": true, "gemeenteBeperking": null, "openingstijden": {"ma": "07:00–20:00", "di": "07:00–20:00", "wo": "07:00–20:00", "do": "07:00–20:00", "vr": "07:00–20:00", "za": "07:00–20:00", "zo": "10:00–17:00"}, "latitude": 51.3259863, "longitude": 3.4833565, "bronId": "253408"}}, {"type": "Feature", "geometry": {"type": "Point", "coordinates": [3.3893892, 51.3061914]}, "properties": {"type": "inleverpunt", "locatieNaam": "Ipea Sluis", "straatNaam": "Nieuwstraat", "straatNr": "47", "postcode": "4524 EC", "plaats": "Sluis", "merk": "StatiegeldNederland", "puntType": "automaat", "materialen": ["pet-groot", "pet-klein", "blik"], "uitbetaling": ["bonnetje", "donatie", "tikkie"], "vrijToegankelijk": true, "gemeenteBeperking": null, "openingstijden": {"ma": "08:00–19:30", "di": "08:00–19:30", "wo": "08:00–19:30", "do": "08:00–19:30", "vr": "08:00–19:30", "za": "08:00–19:30", "zo": "10:00–18:00"}, "latitude": 51.3061914, "longitude": 3.3893892, "bronId": "255180"}}, {"type": "Feature", "geometry": {"type": "Point", "coordinates": [3.548912, 51.395932]}, "properties": {"type": "inleverpunt", "locatieNaam": "Jumbo", "straatNaam": "Burg. Van Zuijenstraat", "straatNr": "79", "postcode": "4511 GL", "plaats": "Breskens", "merk": "StatiegeldNederland", "puntType": "automaat", "materialen": ["pet-groot", "pet-klein", "blik", "glas", "krat"], "uitbetaling": ["bonnetje", "donatie"], "vrijToegankelijk": true, "gemeenteBeperking": null, "openingstijden": {"ma": "08:00–21:00", "di": "08:00–21:00", "wo": "08:00–21:00", "do": "08:00–21:00", "vr": "08:00–21:00", "za": "08:00–21:00", "zo": "08:00–21:00"}, "latitude": 51.395932, "longitude": 3.548912, "bronId": "255261"}}, {"type": "Feature", "geometry": {"type": "Point", "coordinates": [3.491134, 51.325611]}, "properties": {"type": "inleverpunt", "locatieNaam": "Jumbo", "straatNaam": "Langestraat", "straatNr": "1", "postcode": "4501 BR", "plaats": "Oostburg", "merk": "StatiegeldNederland", "puntType": "automaat", "materialen": ["pet-groot", "pet-klein", "blik", "glas", "krat"], "uitbetaling": ["bonnetje"], "vrijToegankelijk": true, "gemeenteBeperking": null, "openingstijden": {"ma": "08:00–20:00", "di": "08:00–20:00", "wo": "08:00–20:00", "do": "08:00–20:00", "vr": "08:00–20:00", "za": "08:00–20:00", "zo": "08:00–18:00"}, "latitude": 51.325611, "longitude": 3.491134, "bronId": "255526"}}, {"type": "Feature", "geometry": {"type": "Point", "coordinates": [3.380112, 51.309789]}, "properties": {"type": "inleverpunt", "locatieNaam": "Jumbo", "straatNaam": "Sint Annastraat", "straatNr": "41", "postcode": "4524 JB", "plaats": "Sluis", "merk": "StatiegeldNederland", "puntType": "automaat", "materialen": ["pet-groot", "pet-klein", "blik", "glas", "krat"], "uitbetaling": ["bonnetje", "donatie"], "vrijToegankelijk": true, "gemeenteBeperking": null, "openingstijden": {"ma": "08:00–20:00", "di": "08:00–20:00", "wo": "08:00–20:00", "do": "08:00–20:00", "vr": "08:00–20:00", "za": "08:00–20:00", "zo": "08:00–19:00"}, "latitude": 51.309789, "longitude": 3.380112, "bronId": "255746"}}, {"type": "Feature", "geometry": {"type": "Point", "coordinates": [3.4914135, 51.3244377]}, "properties": {"type": "inleverpunt", "locatieNaam": "Lidl", "straatNaam": "Langestraat", "straatNr": "46-48", "postcode": "4501 BS", "plaats": "Oostburg", "merk": "StatiegeldNederland", "puntType": "automaat", "materialen": ["pet-groot", "pet-klein", "blik", "glas", "krat"], "uitbetaling": ["bonnetje", "donatie"], "vrijToegankelijk": true, "gemeenteBeperking": null, "openingstijden": {"ma": "08:00–21:00", "di": "08:00–21:00", "wo": "08:00–21:00", "do": "08:00–21:00", "vr": "08:00–21:00", "za": "08:00–21:00", "zo": "08:00–19:00"}, "latitude": 51.3244377, "longitude": 3.4914135, "bronId": "256252"}}, {"type": "Feature", "geometry": {"type": "Point", "coordinates": [3.3908885, 51.3750813]}, "properties": {"type": "inleverpunt", "locatieNaam": "Noordzee Residence Cadzand-Bad", "straatNaam": "Cavelot", "straatNr": "1", "postcode": "4532 GD", "plaats": "Cadzand-bad", "merk": "StatiegeldNederland", "puntType": "automaat", "materialen": ["pet-groot", "pet-klein", "blik"], "uitbetaling": ["bonnetje", "donatie"], "vrijToegankelijk": true, "gemeenteBeperking": null, "openingstijden": null, "latitude": 51.3750813, "longitude": 3.3908885, "bronId": "256933"}}, {"type": "Feature", "geometry": {"type": "Point", "coordinates": [3.534103, 51.401074]}, "properties": {"type": "inleverpunt", "locatieNaam": "Parkshop Schoneveld", "straatNaam": "Schoneveld", "straatNr": "1", "postcode": "4511 HR", "plaats": "Breskens", "merk": "StatiegeldNederland", "puntType": "automaat", "materialen": ["pet-groot", "pet-klein", "blik"], "uitbetaling": ["bonnetje", "donatie", "retourpinnen"], "vrijToegankelijk": true, "gemeenteBeperking": null, "openingstijden": {"ma": "09:00–17:00", "di": "09:00–17:00", "wo": "09:00–17:00", "do": "09:00–17:00", "vr": "09:00–17:00", "za": "09:00–16:00", "zo": "09:00–16:00"}, "latitude": 51.401074, "longitude": 3.534103, "bronId": "257127"}}, {"type": "Feature", "geometry": {"type": "Point", "coordinates": [3.5341973, 51.4009928]}, "properties": {"type": "inleverpunt", "locatieNaam": "Parkshop Schoneveld 10204", "straatNaam": "SCHONEVELD", "straatNr": "1", "postcode": "4511 HR", "plaats": "Breskens", "merk": "StatiegeldNederland", "puntType": "balie", "materialen": ["pet-groot", "pet-klein", "blik"], "uitbetaling": [], "vrijToegankelijk": true, "gemeenteBeperking": null, "openingstijden": {"ma": "08:00–17:00", "di": "08:00–13:00", "wo": "08:00–17:00", "do": "08:00–17:00", "vr": "08:00–17:00", "za": "08:00–12:00", "zo": "08:00–13:00"}, "latitude": 51.4009928, "longitude": 3.5341973, "bronId": "257153"}}, {"type": "Feature", "geometry": {"type": "Point", "coordinates": [3.6145721, 51.3197585]}, "properties": {"type": "inleverpunt", "locatieNaam": "Plus", "straatNaam": "Oranjestraat", "straatNr": "19", "postcode": "4515 CA", "plaats": "IJzendijke", "merk": "StatiegeldNederland", "puntType": "automaat", "materialen": ["pet-groot", "pet-klein", "blik", "glas", "krat"], "uitbetaling": ["bonnetje", "donatie"], "vrijToegankelijk": true, "gemeenteBeperking": null, "openingstijden": {"ma": "08:00–20:00", "di": "08:00–20:00", "wo": "08:00–20:00", "do": "08:00–20:00", "vr": "08:00–20:00", "za": "08:00–20:00", "zo": "09:00–17:00"}, "latitude": 51.3197585, "longitude": 3.6145721, "bronId": "257460"}}, {"type": "Feature", "geometry": {"type": "Point", "coordinates": [3.5611367, 51.3960916]}, "properties": {"type": "inleverpunt", "locatieNaam": "Plus", "straatNaam": "Spuiplein", "straatNr": "49", "postcode": "4511 AP", "plaats": "Breskens", "merk": "StatiegeldNederland", "puntType": "automaat", "materialen": ["pet-groot", "pet-klein", "blik", "glas", "krat"], "uitbetaling": ["bonnetje"], "vrijToegankelijk": true, "gemeenteBeperking": null, "openingstijden": {"ma": "08:00–21:00", "di": "08:00–21:00", "wo": "08:00–21:00", "do": "08:00–21:00", "vr": "08:00–21:00", "za": "08:00–21:00", "zo": "08:00–21:00"}, "latitude": 51.3960916, "longitude": 3.5611367, "bronId": "257535"}}, {"type": "Feature", "geometry": {"type": "Point", "coordinates": [3.4478768, 51.3811597]}, "properties": {"type": "inleverpunt", "locatieNaam": "Roompot Landal Beach Resort Nieuwvliet Bad", "straatNaam": "Zeedijk", "straatNr": "24", "postcode": "4504 PN", "plaats": "Nieuwvliet", "merk": "StatiegeldNederland", "puntType": "automaat", "materialen": ["pet-groot", "pet-klein", "blik"], "uitbetaling": ["bonnetje", "donatie"], "vrijToegankelijk": false, "gemeenteBeperking": null, "openingstijden": null, "latitude": 51.3811597, "longitude": 3.4478768, "bronId": "257881"}}, {"type": "Feature", "geometry": {"type": "Point", "coordinates": [3.5397831, 51.4032714]}, "properties": {"type": "inleverpunt", "locatieNaam": "Roompot Zeebad", "straatNaam": "Nieuwesluisweg", "straatNr": "1", "postcode": "4511 RG", "plaats": "Breskens", "merk": "StatiegeldNederland", "puntType": "automaat", "materialen": ["pet-groot", "pet-klein", "blik"], "uitbetaling": ["bonnetje", "donatie"], "vrijToegankelijk": true, "gemeenteBeperking": null, "openingstijden": null, "latitude": 51.4032714, "longitude": 3.5397831, "bronId": "257885"}}, {"type": "Feature", "geometry": {"type": "Point", "coordinates": [3.3879779, 51.3778193]}, "properties": {"type": "inleverpunt", "locatieNaam": "Spar", "straatNaam": "Boulevard De Wielingen", "straatNr": "38", "postcode": "4506 JK", "plaats": "Cadzand", "merk": "StatiegeldNederland", "puntType": "automaat", "materialen": ["pet-groot", "pet-klein", "blik", "glas", "krat"], "uitbetaling": ["bonnetje", "donatie"], "vrijToegankelijk": true, "gemeenteBeperking": null, "openingstijden": {"ma": "08:00–19:00", "di": "08:00–19:00", "wo": "08:00–19:00", "do": "08:00–19:00", "vr": "08:00–19:00", "za": "08:00–19:00", "zo": "08:00–18:00"}, "latitude": 51.3778193, "longitude": 3.3879779, "bronId": "258307"}}, {"type": "Feature", "geometry": {"type": "Point", "coordinates": [3.5554262, 51.3536344]}, "properties": {"type": "inleverpunt", "locatieNaam": "Spar", "straatNaam": "DORPSSTRAAT", "straatNr": "2", "postcode": "4507 BK", "plaats": "Schoondijke", "merk": "StatiegeldNederland", "puntType": "balie", "materialen": ["pet-groot", "pet-klein", "blik"], "uitbetaling": [], "vrijToegankelijk": true, "gemeenteBeperking": null, "openingstijden": {"ma": "08:30–18:00", "di": "08:30–18:00", "wo": "08:30–18:00", "do": "08:30–18:00", "vr": "08:30–18:00", "za": "08:00–17:00", "zo": "Gesloten"}, "latitude": 51.3536344, "longitude": 3.5554262, "bronId": "258336"}}, {"type": "Feature", "geometry": {"type": "Point", "coordinates": [3.4328841, 51.2721078]}, "properties": {"type": "inleverpunt", "locatieNaam": "Stichting Sportpaviljoen Avc", "straatNaam": "Herendreef", "straatNr": "59", "postcode": "4527 AH", "plaats": "Aardenburg", "merk": "StatiegeldNederland", "puntType": "balie", "materialen": ["pet-groot", "pet-klein", "blik"], "uitbetaling": [], "vrijToegankelijk": false, "gemeenteBeperking": null, "openingstijden": null, "latitude": 51.2721078, "longitude": 3.4328841, "bronId": "258727"}}, {"type": "Feature", "geometry": {"type": "Point", "coordinates": [3.4881168, 51.3952971]}, "properties": {"type": "inleverpunt", "locatieNaam": "Strandcamping Groede B.v. 245", "straatNaam": "ZEEWEG", "straatNr": "1", "postcode": "4503 PA", "plaats": "Groede", "merk": "StatiegeldNederland", "puntType": "balie", "materialen": ["pet-groot", "pet-klein", "blik"], "uitbetaling": [], "vrijToegankelijk": true, "gemeenteBeperking": null, "openingstijden": null, "latitude": 51.3952971, "longitude": 3.4881168, "bronId": "258745"}}, {"type": "Feature", "geometry": {"type": "Point", "coordinates": [3.3925838, 51.3788777]}, "properties": {"type": "inleverpunt", "locatieNaam": "Strandpaviljoen de Piraat", "straatNaam": "Boulevard De Wielingen", "straatNr": "19a", "postcode": "4506 JH", "plaats": "Cadzand-bad", "merk": "StatiegeldNederland", "puntType": "automaat", "materialen": ["pet-klein", "blik"], "uitbetaling": [], "vrijToegankelijk": true, "gemeenteBeperking": null, "openingstijden": null, "latitude": 51.3788777, "longitude": 3.3925838, "bronId": "258748"}}, {"type": "Feature", "geometry": {"type": "Point", "coordinates": [3.4825943, 51.3235658]}, "properties": {"type": "inleverpunt", "locatieNaam": "Sv Oostburg", "straatNaam": "Baljuw Veltersweg", "straatNr": "7", "postcode": "4501 AV", "plaats": "Oostburg", "merk": "StatiegeldNederland", "puntType": "balie", "materialen": ["pet-groot", "pet-klein", "blik"], "uitbetaling": [], "vrijToegankelijk": false, "gemeenteBeperking": null, "openingstijden": {"ma": "Gesloten", "di": "Gesloten", "wo": "Gesloten", "do": "20:00–23:00", "vr": "Gesloten", "za": "09:00–19:00", "zo": "09:30–14:00"}, "latitude": 51.3235658, "longitude": 3.4825943, "bronId": "258833"}}, {"type": "Feature", "geometry": {"type": "Point", "coordinates": [3.4973168, 51.3254452]}, "properties": {"type": "inleverpunt", "locatieNaam": "ViaTim", "straatNaam": "Orion", "straatNr": "18", "postcode": "4501 GG", "plaats": "Oostburg", "merk": "StatiegeldNederland", "puntType": "balie", "materialen": ["pet-groot", "pet-klein", "blik"], "uitbetaling": ["tikkie"], "vrijToegankelijk": true, "gemeenteBeperking": null, "openingstijden": {"ma": "16:00–21:00", "di": "16:00–21:00", "wo": "16:00–21:00", "do": "16:00–21:00", "vr": "16:00–21:00", "za": "Gesloten", "zo": "Gesloten"}, "latitude": 51.3254452, "longitude": 3.4973168, "bronId": "259437"}}, {"type": "Feature", "geometry": {"type": "Point", "coordinates": [3.5064804, 51.3817714]}, "properties": {"type": "inleverpunt", "locatieNaam": "Voetbalvereniging Groede", "straatNaam": "Traverse", "straatNr": "2B", "postcode": "4503 BM", "plaats": "Groede", "merk": "StatiegeldNederland", "puntType": "balie", "materialen": ["pet-groot", "pet-klein", "blik"], "uitbetaling": [], "vrijToegankelijk": false, "gemeenteBeperking": null, "openingstijden": null, "latitude": 51.3817714, "longitude": 3.5064804, "bronId": "259591"}}, {"type": "Feature", "geometry": {"type": "Point", "coordinates": [3.6133761, 51.3266913]}, "properties": {"type": "inleverpunt", "locatieNaam": "Vv Ijzendijke", "straatNaam": "Mauritsweg", "straatNr": "1a", "postcode": "4515 LA", "plaats": "Ijzendijke", "merk": "StatiegeldNederland", "puntType": "balie", "materialen": ["pet-groot", "pet-klein", "blik"], "uitbetaling": [], "vrijToegankelijk": false, "gemeenteBeperking": null, "openingstijden": null, "latitude": 51.3266913, "longitude": 3.6133761, "bronId": "259787"}}, {"type": "Feature", "geometry": {"type": "Point", "coordinates": [3.561001, 51.396986]}, "properties": {"type": "inleverpunt", "locatieNaam": "PLUS Breskens", "straatNaam": "Duinstraat", "straatNr": "49", "postcode": "4511 AP", "plaats": "Breskens", "merk": "StichtingOPEN", "puntType": "balie", "materialen": ["batterijen", "lampen"], "uitbetaling": [], "vrijToegankelijk": false, "gemeenteBeperking": null, "openingstijden": null, "latitude": 51.396986, "longitude": 3.561001, "bronId": "SP00024049"}}, {"type": "Feature", "geometry": {"type": "Point", "coordinates": [3.55893, 51.3968]}, "properties": {"type": "inleverpunt", "locatieNaam": "Kruidvat Breskens", "straatNaam": "Spuiplein", "straatNr": "13", "postcode": "4511 AN", "plaats": "Breskens", "merk": "StichtingOPEN", "puntType": "balie", "materialen": ["batterijen", "lampen"], "uitbetaling": [], "vrijToegankelijk": false, "gemeenteBeperking": null, "openingstijden": null, "latitude": 51.3968, "longitude": 3.55893, "bronId": "SP00029686"}}, {"type": "Feature", "geometry": {"type": "Point", "coordinates": [3.548913, 51.39594]}, "properties": {"type": "inleverpunt", "locatieNaam": "Jumbo Breskens", "straatNaam": "Burgemeester van Zuijenstraat", "straatNr": "79", "postcode": "4511 GL", "plaats": "Breskens", "merk": "StichtingOPEN", "puntType": "balie", "materialen": ["batterijen", "lampen"], "uitbetaling": [], "vrijToegankelijk": false, "gemeenteBeperking": null, "openingstijden": null, "latitude": 51.39594, "longitude": 3.548913, "bronId": "SP00024979"}}, {"type": "Feature", "geometry": {"type": "Point", "coordinates": [3.61448, 51.319842]}, "properties": {"type": "inleverpunt", "locatieNaam": "PLUS IJzendijke", "straatNaam": "Oranjestraat", "straatNr": "19", "postcode": "4515 CA", "plaats": "IJzendijke", "merk": "StichtingOPEN", "puntType": "balie", "materialen": ["batterijen", "lampen"], "uitbetaling": [], "vrijToegankelijk": false, "gemeenteBeperking": null, "openingstijden": null, "latitude": 51.319842, "longitude": 3.61448, "bronId": "SP00024132"}}, {"type": "Feature", "geometry": {"type": "Point", "coordinates": [3.555426, 51.353634]}, "properties": {"type": "inleverpunt", "locatieNaam": "Spar Schoondijke", "straatNaam": "Dorpsstraat", "straatNr": "2", "postcode": "4507 BK", "plaats": "Schoondijke", "merk": "StichtingOPEN", "puntType": "balie", "materialen": ["batterijen", "lampen"], "uitbetaling": [], "vrijToegankelijk": false, "gemeenteBeperking": null, "openingstijden": null, "latitude": 51.353634, "longitude": 3.555426, "bronId": "SP00031494"}}, {"type": "Feature", "geometry": {"type": "Point", "coordinates": [3.499766, 51.333694]}, "properties": {"type": "inleverpunt", "locatieNaam": "GAMMA Oostburg", "straatNaam": "Industrieweg", "straatNr": "10", "postcode": "4501 PM", "plaats": "Oostburg", "merk": "StichtingOPEN", "puntType": "balie", "materialen": ["batterijen", "elektro-klein", "lampen", "tl-buizen"], "uitbetaling": [], "vrijToegankelijk": false, "gemeenteBeperking": null, "openingstijden": null, "latitude": 51.333694, "longitude": 3.499766, "bronId": "SP00000698"}}, {"type": "Feature", "geometry": {"type": "Point", "coordinates": [3.49116, 51.32558]}, "properties": {"type": "inleverpunt", "locatieNaam": "Jumbo Oostburg", "straatNaam": "Langestraat", "straatNr": "1", "postcode": "4501 BR", "plaats": "Oostburg", "merk": "StichtingOPEN", "puntType": "balie", "materialen": ["batterijen", "elektro-klein", "lampen"], "uitbetaling": [], "vrijToegankelijk": false, "gemeenteBeperking": null, "openingstijden": null, "latitude": 51.32558, "longitude": 3.49116, "bronId": "SP00029915"}}, {"type": "Feature", "geometry": {"type": "Point", "coordinates": [3.49134, 51.32458]}, "properties": {"type": "inleverpunt", "locatieNaam": "Lidl Oostburg", "straatNaam": "Langestraat", "straatNr": "46", "postcode": "4501 BS", "plaats": "Oostburg", "merk": "StichtingOPEN", "puntType": "balie", "materialen": ["batterijen", "lampen"], "uitbetaling": [], "vrijToegankelijk": false, "gemeenteBeperking": null, "openingstijden": null, "latitude": 51.32458, "longitude": 3.49134, "bronId": "SP00029963"}}, {"type": "Feature", "geometry": {"type": "Point", "coordinates": [3.492406, 51.319693]}, "properties": {"type": "inleverpunt", "locatieNaam": "Life & Garden Oostburg", "straatNaam": "Nieuveltweg", "straatNr": "56", "postcode": "4501 PZ", "plaats": "Oostburg", "merk": "StichtingOPEN", "puntType": "balie", "materialen": ["batterijen", "elektro-middel", "lampen", "tl-buizen"], "uitbetaling": [], "vrijToegankelijk": false, "gemeenteBeperking": null, "openingstijden": null, "latitude": 51.319693, "longitude": 3.492406, "bronId": "SP00005533"}}, {"type": "Feature", "geometry": {"type": "Point", "coordinates": [3.483286, 51.326066]}, "properties": {"type": "inleverpunt", "locatieNaam": "Aldi Oostburg", "straatNaam": "Veerhoeklaan", "straatNr": "5a", "postcode": "4501 EA", "plaats": "Oostburg", "merk": "StichtingOPEN", "puntType": "balie", "materialen": ["batterijen", "elektro-klein", "lampen"], "uitbetaling": [], "vrijToegankelijk": false, "gemeenteBeperking": null, "openingstijden": null, "latitude": 51.326066, "longitude": 3.483286, "bronId": "SP00027136"}}, {"type": "Feature", "geometry": {"type": "Point", "coordinates": [3.483858, 51.325422]}, "properties": {"type": "inleverpunt", "locatieNaam": "1160 Albert Heijn Oostburg", "straatNaam": "Torenweidelaan", "straatNr": "2", "postcode": "4501 AK", "plaats": "Oostburg", "merk": "StichtingOPEN", "puntType": "balie", "materialen": ["batterijen", "elektro-klein", "lampen"], "uitbetaling": [], "vrijToegankelijk": false, "gemeenteBeperking": null, "openingstijden": null, "latitude": 51.325422, "longitude": 3.483858, "bronId": "SP00022525"}}, {"type": "Feature", "geometry": {"type": "Point", "coordinates": [3.45082, 51.341438]}, "properties": {"type": "inleverpunt", "locatieNaam": "Expert Bakker", "straatNaam": "Dorpsplein", "straatNr": "67", "postcode": "4505 AR", "plaats": "Zuidzande", "merk": "StichtingOPEN", "puntType": "balie", "materialen": ["elektro-middel", "lampen"], "uitbetaling": [], "vrijToegankelijk": false, "gemeenteBeperking": null, "openingstijden": null, "latitude": 51.341438, "longitude": 3.45082, "bronId": "SP00003361"}}, {"type": "Feature", "geometry": {"type": "Point", "coordinates": [3.45082, 51.341438]}, "properties": {"type": "inleverpunt", "locatieNaam": "Expert Bakker", "straatNaam": "Dorpsplein", "straatNr": "67", "postcode": "4505 AR", "plaats": "Zuidzande", "merk": "StichtingOPEN", "puntType": "balie", "materialen": ["batterijen", "lampen", "tl-buizen"], "uitbetaling": [], "vrijToegankelijk": false, "gemeenteBeperking": null, "openingstijden": null, "latitude": 51.341438, "longitude": 3.45082, "bronId": "SP00028335"}}, {"type": "Feature", "geometry": {"type": "Point", "coordinates": [3.444719, 51.27484]}, "properties": {"type": "inleverpunt", "locatieNaam": "Jumbo Aardenburg", "straatNaam": "Peurssensstraat", "straatNr": "21", "postcode": "4527 BK", "plaats": "Aardenburg", "merk": "StichtingOPEN", "puntType": "balie", "materialen": ["batterijen", "lampen"], "uitbetaling": [], "vrijToegankelijk": false, "gemeenteBeperking": null, "openingstijden": null, "latitude": 51.27484, "longitude": 3.444719, "bronId": "SP00024964"}}, {"type": "Feature", "geometry": {"type": "Point", "coordinates": [3.389389, 51.306191]}, "properties": {"type": "inleverpunt", "locatieNaam": "Action Sluis", "straatNaam": "Nieuwstraat", "straatNr": "47", "postcode": "4524 EC", "plaats": "Sluis", "merk": "StichtingOPEN", "puntType": "balie", "materialen": ["batterijen", "lampen"], "uitbetaling": [], "vrijToegankelijk": false, "gemeenteBeperking": null, "openingstijden": null, "latitude": 51.306191, "longitude": 3.389389, "bronId": "SP00025542"}}, {"type": "Feature", "geometry": {"type": "Point", "coordinates": [3.389227, 51.306234]}, "properties": {"type": "inleverpunt", "locatieNaam": "Action Sluis 1136", "straatNaam": "Nieuwstraat", "straatNr": "47k1-k2", "postcode": "4524 EC", "plaats": "Sluis", "merk": "StichtingOPEN", "puntType": "balie", "materialen": ["lampen"], "uitbetaling": [], "vrijToegankelijk": false, "gemeenteBeperking": null, "openingstijden": null, "latitude": 51.306234, "longitude": 3.389227, "bronId": "SP00007725"}}, {"type": "Feature", "geometry": {"type": "Point", "coordinates": [3.381076, 51.309505]}, "properties": {"type": "inleverpunt", "locatieNaam": "Aldi Sluis", "straatNaam": "Sint Annastraat", "straatNr": "17", "postcode": "4524 JB", "plaats": "Sluis", "merk": "StichtingOPEN", "puntType": "balie", "materialen": ["batterijen", "elektro-klein", "lampen"], "uitbetaling": [], "vrijToegankelijk": false, "gemeenteBeperking": null, "openingstijden": null, "latitude": 51.309505, "longitude": 3.381076, "bronId": "SP00027152"}}, {"type": "Feature", "geometry": {"type": "Point", "coordinates": [3.37999, 51.30984]}, "properties": {"type": "inleverpunt", "locatieNaam": "Jumbo Sluis", "straatNaam": "St. Annastraat", "straatNr": "41", "postcode": "4524 JB", "plaats": "Sluis", "merk": "StichtingOPEN", "puntType": "balie", "materialen": ["batterijen", "elektro-klein", "lampen"], "uitbetaling": [], "vrijToegankelijk": false, "gemeenteBeperking": null, "openingstijden": null, "latitude": 51.30984, "longitude": 3.37999, "bronId": "SP00029925"}}, {"type": "Feature", "geometry": {"type": "Point", "coordinates": [3.495341, 51.332062]}, "properties": {"type": "inleverpunt", "locatieNaam": "ZRD - Milieustraat Sluis", "straatNaam": "Transportweg", "straatNr": "17", "postcode": "4501 PS", "plaats": "Oostburg", "merk": "StichtingOPEN", "puntType": "milieustraat", "materialen": ["batterijen", "elektro-groot", "elektro-klein", "elektro-middel", "lampen", "tl-buizen"], "uitbetaling": [], "vrijToegankelijk": false, "gemeenteBeperking": ["Sluis", "Hulst", "Terneuzen"], "openingstijden": null, "latitude": 51.332062, "longitude": 3.495341, "bronId": "SP00002970"}}, {"type": "Feature", "geometry": {"type": "Point", "coordinates": [3.561022, 51.3958097]}, "properties": {"type": "inleverpunt", "locatieNaam": "6217 Etos", "straatNaam": "Spuiplein", "straatNr": "51", "postcode": "4511 AP", "plaats": "BRESKENS", "merk": "Stibat", "puntType": "inzamelbak", "materialen": ["batterijen"], "uitbetaling": [], "vrijToegankelijk": false, "gemeenteBeperking": null, "openingstijden": null, "latitude": 51.3958097, "longitude": 3.561022, "bronId": "L025391"}}, {"type": "Feature", "geometry": {"type": "Point", "coordinates": [3.5607983, 51.3960129]}, "properties": {"type": "inleverpunt", "locatieNaam": "PLUS", "straatNaam": "Spuiplein", "straatNr": "49", "postcode": "4511 AP", "plaats": "BRESKENS", "merk": "Stibat", "puntType": "inzamelbak", "materialen": ["batterijen"], "uitbetaling": [], "vrijToegankelijk": false, "gemeenteBeperking": null, "openingstijden": null, "latitude": 51.3960129, "longitude": 3.5607983, "bronId": "L024754"}}, {"type": "Feature", "geometry": {"type": "Point", "coordinates": [3.5607962, 51.3957072]}, "properties": {"type": "inleverpunt", "locatieNaam": "Zeeman", "straatNaam": "Spuiplein", "straatNr": "55", "postcode": "4511 AP", "plaats": "BRESKENS", "merk": "Stibat", "puntType": "inzamelbak", "materialen": ["batterijen"], "uitbetaling": [], "vrijToegankelijk": false, "gemeenteBeperking": null, "openingstijden": null, "latitude": 51.3957072, "longitude": 3.5607962, "bronId": "L026900"}}, {"type": "Feature", "geometry": {"type": "Point", "coordinates": [3.5605779, 51.3957597]}, "properties": {"type": "inleverpunt", "locatieNaam": "Primera", "straatNaam": "Spuiplein", "straatNr": "53", "postcode": "4511 AP", "plaats": "BRESKENS", "merk": "Stibat", "puntType": "inzamelbak", "materialen": ["batterijen"], "uitbetaling": [], "vrijToegankelijk": false, "gemeenteBeperking": null, "openingstijden": null, "latitude": 51.3957597, "longitude": 3.5605779, "bronId": "L041062"}}, {"type": "Feature", "geometry": {"type": "Point", "coordinates": [3.5589311, 51.3968009]}, "properties": {"type": "inleverpunt", "locatieNaam": "Kruidvat", "straatNaam": "Spuiplein", "straatNr": "13", "postcode": "4511 AN", "plaats": "BRESKENS", "merk": "Stibat", "puntType": "inzamelbak", "materialen": ["batterijen"], "uitbetaling": [], "vrijToegankelijk": false, "gemeenteBeperking": null, "openingstijden": null, "latitude": 51.3968009, "longitude": 3.5589311, "bronId": "L016372"}}, {"type": "Feature", "geometry": {"type": "Point", "coordinates": [3.5573946, 51.3966426]}, "properties": {"type": "inleverpunt", "locatieNaam": "Kruidvat", "straatNaam": "Dorpsstraat", "straatNr": "2", "postcode": "4511 EG", "plaats": "BRESKENS", "merk": "Stibat", "puntType": "inzamelbak", "materialen": ["batterijen"], "uitbetaling": [], "vrijToegankelijk": false, "gemeenteBeperking": null, "openingstijden": null, "latitude": 51.3966426, "longitude": 3.5573946, "bronId": "L049390"}}, {"type": "Feature", "geometry": {"type": "Point", "coordinates": [3.5489151, 51.3959343]}, "properties": {"type": "inleverpunt", "locatieNaam": "Jumbo", "straatNaam": "Burgemeester van Zuijenstraat", "straatNr": "79", "postcode": "4511 GL", "plaats": "BRESKENS", "merk": "Stibat", "puntType": "inzamelbak", "materialen": ["batterijen"], "uitbetaling": [], "vrijToegankelijk": false, "gemeenteBeperking": null, "openingstijden": null, "latitude": 51.3959343, "longitude": 3.5489151, "bronId": "L030907"}}, {"type": "Feature", "geometry": {"type": "Point", "coordinates": [3.5348747, 51.4043587]}, "properties": {"type": "inleverpunt", "locatieNaam": "Landal", "straatNaam": "Nieuwesluisweg", "straatNr": "1", "postcode": "4511 RG", "plaats": "BRESKENS", "merk": "Stibat", "puntType": "inzamelbak", "materialen": ["batterijen"], "uitbetaling": [], "vrijToegankelijk": false, "gemeenteBeperking": null, "openingstijden": null, "latitude": 51.4043587, "longitude": 3.5348747, "bronId": "L032255"}}, {"type": "Feature", "geometry": {"type": "Point", "coordinates": [3.6143439, 51.3198425]}, "properties": {"type": "inleverpunt", "locatieNaam": "PLUS", "straatNaam": "Oranjestraat", "straatNr": "19", "postcode": "4515 CA", "plaats": "IJZENDIJKE", "merk": "Stibat", "puntType": "inzamelbak", "materialen": ["batterijen"], "uitbetaling": [], "vrijToegankelijk": false, "gemeenteBeperking": null, "openingstijden": null, "latitude": 51.3198425, "longitude": 3.6143439, "bronId": "L037423"}}, {"type": "Feature", "geometry": {"type": "Point", "coordinates": [3.5125795, 51.4045563]}, "properties": {"type": "inleverpunt", "locatieNaam": "Napoleon Hoeve", "straatNaam": "Zandertje", "straatNr": "30", "postcode": "4511 RH", "plaats": "BRESKENS", "merk": "Stibat", "puntType": "inzamelbak", "materialen": ["batterijen"], "uitbetaling": [], "vrijToegankelijk": false, "gemeenteBeperking": null, "openingstijden": null, "latitude": 51.4045563, "longitude": 3.5125795, "bronId": "L004580"}}, {"type": "Feature", "geometry": {"type": "Point", "coordinates": [3.5554262, 51.3536344]}, "properties": {"type": "inleverpunt", "locatieNaam": "Spar", "straatNaam": "Dorpsstraat", "straatNr": "2", "postcode": "4507 BK", "plaats": "SCHOONDIJKE", "merk": "Stibat", "puntType": "inzamelbak", "materialen": ["batterijen"], "uitbetaling": [], "vrijToegankelijk": false, "gemeenteBeperking": null, "openingstijden": null, "latitude": 51.3536344, "longitude": 3.5554262, "bronId": "L040208"}}, {"type": "Feature", "geometry": {"type": "Point", "coordinates": [3.5561506, 51.3529435]}, "properties": {"type": "inleverpunt", "locatieNaam": "Taco Tweewielers", "straatNaam": "Willemsweg", "straatNr": "7", "postcode": "4507 AR", "plaats": "SCHOONDIJKE", "merk": "Stibat", "puntType": "inzamelbak", "materialen": ["batterijen"], "uitbetaling": [], "vrijToegankelijk": false, "gemeenteBeperking": null, "openingstijden": null, "latitude": 51.3529435, "longitude": 3.5561506, "bronId": "L049226"}}, {"type": "Feature", "geometry": {"type": "Point", "coordinates": [3.5555877, 51.3531875]}, "properties": {"type": "inleverpunt", "locatieNaam": "Expert", "straatNaam": "Lange Heerenstraat", "straatNr": "4/001", "postcode": "4501 PS", "plaats": "OOSTBURG", "merk": "Stibat", "puntType": "inzamelbak", "materialen": ["batterijen"], "uitbetaling": [], "vrijToegankelijk": false, "gemeenteBeperking": null, "openingstijden": null, "latitude": 51.3531875, "longitude": 3.5555877, "bronId": "L048968"}}, {"type": "Feature", "geometry": {"type": "Point", "coordinates": [3.4881845, 51.3951883]}, "properties": {"type": "inleverpunt", "locatieNaam": "Strandcamping Groede", "straatNaam": "Zeeweg", "straatNr": "1", "postcode": "4503 PA", "plaats": "GROEDE", "merk": "Stibat", "puntType": "inzamelbak", "materialen": ["batterijen"], "uitbetaling": [], "vrijToegankelijk": false, "gemeenteBeperking": null, "openingstijden": null, "latitude": 51.3951883, "longitude": 3.4881845, "bronId": "L003746"}}, {"type": "Feature", "geometry": {"type": "Point", "coordinates": [3.4825459, 51.3677072]}, "properties": {"type": "inleverpunt", "locatieNaam": "Camping Het Zuiden", "straatNaam": "Barendijk", "straatNr": "7", "postcode": "4504 SG", "plaats": "NIEUWVLIET", "merk": "Stibat", "puntType": "inzamelbak", "materialen": ["batterijen"], "uitbetaling": [], "vrijToegankelijk": false, "gemeenteBeperking": null, "openingstijden": null, "latitude": 51.3677072, "longitude": 3.4825459, "bronId": "L003689"}}, {"type": "Feature", "geometry": {"type": "Point", "coordinates": [3.4697867, 51.3746546]}, "properties": {"type": "inleverpunt", "locatieNaam": "Zeeland Camping International", "straatNaam": "Sint Bavodijk", "straatNr": "2d", "postcode": "4504 AA", "plaats": "NIEUWVLIET", "merk": "Stibat", "puntType": "inzamelbak", "materialen": ["batterijen"], "uitbetaling": [], "vrijToegankelijk": false, "gemeenteBeperking": null, "openingstijden": null, "latitude": 51.3746546, "longitude": 3.4697867, "bronId": "L012773"}}, {"type": "Feature", "geometry": {"type": "Point", "coordinates": [3.4573962, 51.3819767]}, "properties": {"type": "inleverpunt", "locatieNaam": "Camping Zonneweelde &amp; Strandweelde", "straatNaam": "Baanstpoldersedijk", "straatNr": "1", "postcode": "4504 PS", "plaats": "NIEUWVLIET", "merk": "Stibat", "puntType": "inzamelbak", "materialen": ["batterijen"], "uitbetaling": [], "vrijToegankelijk": false, "gemeenteBeperking": null, "openingstijden": null, "latitude": 51.3819767, "longitude": 3.4573962, "bronId": "L002958"}}, {"type": "Feature", "geometry": {"type": "Point", "coordinates": [3.4982914, 51.334709]}, "properties": {"type": "inleverpunt", "locatieNaam": "Boerenbond", "straatNaam": "Transportweg", "straatNr": "1", "postcode": "4501 PS", "plaats": "Oostburg", "merk": "Stibat", "puntType": "inzamelbak", "materialen": ["batterijen"], "uitbetaling": [], "vrijToegankelijk": false, "gemeenteBeperking": null, "openingstijden": null, "latitude": 51.334709, "longitude": 3.4982914, "bronId": "L017098"}}, {"type": "Feature", "geometry": {"type": "Point", "coordinates": [3.4996665, 51.3331132]}, "properties": {"type": "inleverpunt", "locatieNaam": "Belderok 2.0 (technische groothandel)", "straatNaam": "Industrieweg", "straatNr": "8", "postcode": "4501 PM", "plaats": "OOSTBURG", "merk": "Stibat", "puntType": "inzamelbak", "materialen": ["batterijen"], "uitbetaling": [], "vrijToegankelijk": false, "gemeenteBeperking": null, "openingstijden": null, "latitude": 51.3331132, "longitude": 3.4996665, "bronId": "L043962"}}, {"type": "Feature", "geometry": {"type": "Point", "coordinates": [3.4979132, 51.3339728]}, "properties": {"type": "inleverpunt", "locatieNaam": "Ad Oostburg", "straatNaam": "Neringweg", "straatNr": "1", "postcode": "4501 PB", "plaats": "OOSTBURG", "merk": "Stibat", "puntType": "inzamelbak", "materialen": ["batterijen"], "uitbetaling": [], "vrijToegankelijk": false, "gemeenteBeperking": null, "openingstijden": null, "latitude": 51.3339728, "longitude": 3.4979132, "bronId": "L017080"}}, {"type": "Feature", "geometry": {"type": "Point", "coordinates": [3.4990688, 51.3316995]}, "properties": {"type": "inleverpunt", "locatieNaam": "Gamma", "straatNaam": "Industrieweg", "straatNr": "10", "postcode": "4501 PM", "plaats": "OOSTBURG", "merk": "Stibat", "puntType": "inzamelbak", "materialen": ["batterijen"], "uitbetaling": [], "vrijToegankelijk": false, "gemeenteBeperking": null, "openingstijden": null, "latitude": 51.3316995, "longitude": 3.4990688, "bronId": "L008106"}}, {"type": "Feature", "geometry": {"type": "Point", "coordinates": [3.4397976, 51.384032]}, "properties": {"type": "inleverpunt", "locatieNaam": "Roompot Nieuwvliet-Bad", "straatNaam": "Zeedijk", "straatNr": "19", "postcode": "4504 PP", "plaats": "NIEUWVLIET", "merk": "Stibat", "puntType": "inzamelbak", "materialen": ["batterijen"], "uitbetaling": [], "vrijToegankelijk": false, "gemeenteBeperking": null, "openingstijden": null, "latitude": 51.384032, "longitude": 3.4397976, "bronId": "L040853"}}, {"type": "Feature", "geometry": {"type": "Point", "coordinates": [3.4958779, 51.3314509]}, "properties": {"type": "inleverpunt", "locatieNaam": "Milieustraat Sluis", "straatNaam": "Transportweg", "straatNr": "17", "postcode": "4501 PS", "plaats": "OOSTBURG", "merk": "Stibat", "puntType": "inzamelbak", "materialen": ["batterijen"], "uitbetaling": [], "vrijToegankelijk": false, "gemeenteBeperking": null, "openingstijden": null, "latitude": 51.3314509, "longitude": 3.4958779, "bronId": "L035724"}}, {"type": "Feature", "geometry": {"type": "Point", "coordinates": [3.4938459, 51.3280175]}, "properties": {"type": "inleverpunt", "locatieNaam": "CORNELIS", "straatNaam": "Bredestraat", "straatNr": "12-14", "postcode": "4501 EC", "plaats": "OOSTBURG", "merk": "Stibat", "puntType": "inzamelbak", "materialen": ["batterijen"], "uitbetaling": [], "vrijToegankelijk": false, "gemeenteBeperking": null, "openingstijden": null, "latitude": 51.3280175, "longitude": 3.4938459, "bronId": "L033377"}}, {"type": "Feature", "geometry": {"type": "Point", "coordinates": [3.4911575, 51.3255977]}, "properties": {"type": "inleverpunt", "locatieNaam": "Jumbo", "straatNaam": "Langestraat", "straatNr": "1", "postcode": "4501 BR", "plaats": "OOSTBURG", "merk": "Stibat", "puntType": "inzamelbak", "materialen": ["batterijen"], "uitbetaling": [], "vrijToegankelijk": false, "gemeenteBeperking": null, "openingstijden": null, "latitude": 51.3255977, "longitude": 3.4911575, "bronId": "L040242"}}, {"type": "Feature", "geometry": {"type": "Point", "coordinates": [3.4895908, 51.3263868]}, "properties": {"type": "inleverpunt", "locatieNaam": "8334 Etos", "straatNaam": "Markt", "straatNr": "18", "postcode": "4501 CK", "plaats": "OOSTBURG", "merk": "Stibat", "puntType": "inzamelbak", "materialen": ["batterijen"], "uitbetaling": [], "vrijToegankelijk": false, "gemeenteBeperking": null, "openingstijden": null, "latitude": 51.3263868, "longitude": 3.4895908, "bronId": "L025495"}}, {"type": "Feature", "geometry": {"type": "Point", "coordinates": [3.4889365, 51.3269443]}, "properties": {"type": "inleverpunt", "locatieNaam": "Hans Anders", "straatNaam": "Burchtstraat", "straatNr": "16", "postcode": "4501 BJ", "plaats": "OOSTBURG", "merk": "Stibat", "puntType": "inzamelbak", "materialen": ["batterijen"], "uitbetaling": [], "vrijToegankelijk": false, "gemeenteBeperking": null, "openingstijden": null, "latitude": 51.3269443, "longitude": 3.4889365, "bronId": "L041014"}}, {"type": "Feature", "geometry": {"type": "Point", "coordinates": [3.4886913, 51.3271145]}, "properties": {"type": "inleverpunt", "locatieNaam": "Zeeman", "straatNaam": "Burchtstraat", "straatNr": "11", "postcode": "4501 BH", "plaats": "Oostburg", "merk": "Stibat", "puntType": "inzamelbak", "materialen": ["batterijen"], "uitbetaling": [], "vrijToegankelijk": false, "gemeenteBeperking": null, "openingstijden": null, "latitude": 51.3271145, "longitude": 3.4886913, "bronId": "L020885"}}, {"type": "Feature", "geometry": {"type": "Point", "coordinates": [3.4885647, 51.3270989]}, "properties": {"type": "inleverpunt", "locatieNaam": "Kruidvat", "straatNaam": "Burchtstraat", "straatNr": "9", "postcode": "4501 BH", "plaats": "OOSTBURG", "merk": "Stibat", "puntType": "inzamelbak", "materialen": ["batterijen"], "uitbetaling": [], "vrijToegankelijk": false, "gemeenteBeperking": null, "openingstijden": null, "latitude": 51.3270989, "longitude": 3.4885647, "bronId": "L014266"}}, {"type": "Feature", "geometry": {"type": "Point", "coordinates": [3.4913399, 51.3245849]}, "properties": {"type": "inleverpunt", "locatieNaam": "Lidl", "straatNaam": "Langestraat", "straatNr": "46", "postcode": "4501 BS", "plaats": "Oostburg", "merk": "Stibat", "puntType": "inzamelbak", "materialen": ["batterijen"], "uitbetaling": [], "vrijToegankelijk": false, "gemeenteBeperking": null, "openingstijden": null, "latitude": 51.3245849, "longitude": 3.4913399, "bronId": "L018610"}}, {"type": "Feature", "geometry": {"type": "Point", "coordinates": [3.4886262, 51.3269022]}, "properties": {"type": "inleverpunt", "locatieNaam": "Schoonenberg Hoorcomfort", "straatNaam": "Burchtstraat", "straatNr": "10", "postcode": "4501 BJ", "plaats": "OOSTBURG", "merk": "Stibat", "puntType": "inzamelbak", "materialen": ["batterijen"], "uitbetaling": [], "vrijToegankelijk": false, "gemeenteBeperking": null, "openingstijden": null, "latitude": 51.3269022, "longitude": 3.4886262, "bronId": "L020037"}}, {"type": "Feature", "geometry": {"type": "Point", "coordinates": [3.4883453, 51.3270849]}, "properties": {"type": "inleverpunt", "locatieNaam": "Marskramer", "straatNaam": "Burchtstraat", "straatNr": "5", "postcode": "4501 BH", "plaats": "OOSTBURG", "merk": "Stibat", "puntType": "inzamelbak", "materialen": ["batterijen"], "uitbetaling": [], "vrijToegankelijk": false, "gemeenteBeperking": null, "openingstijden": null, "latitude": 51.3270849, "longitude": 3.4883453, "bronId": "L019398"}}, {"type": "Feature", "geometry": {"type": "Point", "coordinates": [3.4882879, 51.3268492]}, "properties": {"type": "inleverpunt", "locatieNaam": "Foto Verschoore", "straatNaam": "Burchtstraat", "straatNr": "4", "postcode": "4501 BJ", "plaats": "OOSTBURG", "merk": "Stibat", "puntType": "inzamelbak", "materialen": ["batterijen"], "uitbetaling": [], "vrijToegankelijk": false, "gemeenteBeperking": null, "openingstijden": null, "latitude": 51.3268492, "longitude": 3.4882879, "bronId": "L027684"}}, {"type": "Feature", "geometry": {"type": "Point", "coordinates": [3.4931276, 51.319498]}, "properties": {"type": "inleverpunt", "locatieNaam": "Life &amp; Garden Oostburg", "straatNaam": "Nieuveltweg", "straatNr": "56", "postcode": "4501 PZ", "plaats": "OOSTBURG", "merk": "Stibat", "puntType": "inzamelbak", "materialen": ["batterijen"], "uitbetaling": [], "vrijToegankelijk": false, "gemeenteBeperking": null, "openingstijden": null, "latitude": 51.319498, "longitude": 3.4931276, "bronId": "L032642"}}, {"type": "Feature", "geometry": {"type": "Point", "coordinates": [3.4856595, 51.3256635]}, "properties": {"type": "inleverpunt", "locatieNaam": "HEMA Oostburg", "straatNaam": "Mr. P.C. Hennequinstraat", "straatNr": "11", "postcode": "4501 AT", "plaats": "Oostburg", "merk": "Stibat", "puntType": "inzamelbak", "materialen": ["batterijen"], "uitbetaling": [], "vrijToegankelijk": false, "gemeenteBeperking": null, "openingstijden": null, "latitude": 51.3256635, "longitude": 3.4856595, "bronId": "L046819"}}, {"type": "Feature", "geometry": {"type": "Point", "coordinates": [3.4832868, 51.3260667]}, "properties": {"type": "inleverpunt", "locatieNaam": "Aldi", "straatNaam": "Veerhoeklaan", "straatNr": "5a", "postcode": "4501 AE", "plaats": "OOSTBURG", "merk": "Stibat", "puntType": "inzamelbak", "materialen": ["batterijen"], "uitbetaling": [], "vrijToegankelijk": false, "gemeenteBeperking": null, "openingstijden": null, "latitude": 51.3260667, "longitude": 3.4832868, "bronId": "L041281"}}, {"type": "Feature", "geometry": {"type": "Point", "coordinates": [3.4837441, 51.3255125]}, "properties": {"type": "inleverpunt", "locatieNaam": "1160 Albert Heijn", "straatNaam": "Torenweidelaan", "straatNr": "2", "postcode": "4501 AK", "plaats": "OOSTBURG", "merk": "Stibat", "puntType": "inzamelbak", "materialen": ["batterijen"], "uitbetaling": [], "vrijToegankelijk": false, "gemeenteBeperking": null, "openingstijden": null, "latitude": 51.3255125, "longitude": 3.4837441, "bronId": "L007831"}}, {"type": "Feature", "geometry": {"type": "Point", "coordinates": [3.5102859, 51.3016154]}, "properties": {"type": "inleverpunt", "locatieNaam": "Camping Bonte Hoeve", "straatNaam": "Eiland", "straatNr": "4", "postcode": "4528 KG", "plaats": "SINT KRUIS", "merk": "Stibat", "puntType": "inzamelbak", "materialen": ["batterijen"], "uitbetaling": [], "vrijToegankelijk": false, "gemeenteBeperking": null, "openingstijden": null, "latitude": 51.3016154, "longitude": 3.5102859, "bronId": "L004375"}}, {"type": "Feature", "geometry": {"type": "Point", "coordinates": [3.4139595, 51.3846826]}, "properties": {"type": "inleverpunt", "locatieNaam": "Molecaten Park Hoogduin", "straatNaam": "Zwartepolderweg", "straatNr": "1", "postcode": "4506 HT", "plaats": "CADZAND", "merk": "Stibat", "puntType": "inzamelbak", "materialen": ["batterijen"], "uitbetaling": [], "vrijToegankelijk": false, "gemeenteBeperking": null, "openingstijden": null, "latitude": 51.3846826, "longitude": 3.4139595, "bronId": "L004051"}}, {"type": "Feature", "geometry": {"type": "Point", "coordinates": [3.4093285, 51.3822024]}, "properties": {"type": "inleverpunt", "locatieNaam": "Park Welgelegen", "straatNaam": "Vlamingpolderweg", "straatNr": "14", "postcode": "4506 HZ", "plaats": "CADZAND", "merk": "Stibat", "puntType": "inzamelbak", "materialen": ["batterijen"], "uitbetaling": [], "vrijToegankelijk": false, "gemeenteBeperking": null, "openingstijden": null, "latitude": 51.3822024, "longitude": 3.4093285, "bronId": "L011317"}}, {"type": "Feature", "geometry": {"type": "Point", "coordinates": [3.4506389, 51.3408359]}, "properties": {"type": "inleverpunt", "locatieNaam": "Expert", "straatNaam": "Dorpsplein", "straatNr": "6-7", "postcode": "4505 AR", "plaats": "ZUIDZANDE", "merk": "Stibat", "puntType": "inzamelbak", "materialen": ["batterijen"], "uitbetaling": [], "vrijToegankelijk": false, "gemeenteBeperking": null, "openingstijden": null, "latitude": 51.3408359, "longitude": 3.4506389, "bronId": "L009498"}}, {"type": "Feature", "geometry": {"type": "Point", "coordinates": [3.3879214, 51.3777721]}, "properties": {"type": "inleverpunt", "locatieNaam": "Supermarkt Leenhouts-de Reu (onderdeel van Spar)", "straatNaam": "Boulevard de Wielingen", "straatNr": "38", "postcode": "4506 JK", "plaats": "CADZAND", "merk": "Stibat", "puntType": "inzamelbak", "materialen": ["batterijen"], "uitbetaling": [], "vrijToegankelijk": false, "gemeenteBeperking": null, "openingstijden": null, "latitude": 51.3777721, "longitude": 3.3879214, "bronId": "L036116"}}, {"type": "Feature", "geometry": {"type": "Point", "coordinates": [3.387336, 51.3776901]}, "properties": {"type": "inleverpunt", "locatieNaam": "Neptunus Tweewielers", "straatNaam": "Boulevard de Wielingen", "straatNr": "44", "postcode": "4506 JK", "plaats": "CADZAND", "merk": "Stibat", "puntType": "inzamelbak", "materialen": ["batterijen"], "uitbetaling": [], "vrijToegankelijk": false, "gemeenteBeperking": null, "openingstijden": null, "latitude": 51.3776901, "longitude": 3.387336, "bronId": "L032411"}}, {"type": "Feature", "geometry": {"type": "Point", "coordinates": [3.3893917, 51.3737785]}, "properties": {"type": "inleverpunt", "locatieNaam": "Roompot Cadzand-Bad (Spar)", "straatNaam": "cavelot", "straatNr": "1", "postcode": "4506 GD", "plaats": "Cadzand-bad", "merk": "Stibat", "puntType": "inzamelbak", "materialen": ["batterijen"], "uitbetaling": [], "vrijToegankelijk": false, "gemeenteBeperking": null, "openingstijden": null, "latitude": 51.3737785, "longitude": 3.3893917, "bronId": "L040859"}}, {"type": "Feature", "geometry": {"type": "Point", "coordinates": [3.3736288, 51.3664643]}, "properties": {"type": "inleverpunt", "locatieNaam": "Camping De Zwinhoeve", "straatNaam": "Duinweg", "straatNr": "1", "postcode": "4525 LX", "plaats": "RETRANCHEMENT", "merk": "Stibat", "puntType": "inzamelbak", "materialen": ["batterijen"], "uitbetaling": [], "vrijToegankelijk": false, "gemeenteBeperking": null, "openingstijden": null, "latitude": 51.3664643, "longitude": 3.3736288, "bronId": "L010154"}}, {"type": "Feature", "geometry": {"type": "Point", "coordinates": [3.3912465, 51.3137126]}, "properties": {"type": "inleverpunt", "locatieNaam": "Camping de Meidoorn", "straatNaam": "Hoogstraat", "straatNr": "68", "postcode": "4524 LA", "plaats": "SLUIS", "merk": "Stibat", "puntType": "inzamelbak", "materialen": ["batterijen"], "uitbetaling": [], "vrijToegankelijk": false, "gemeenteBeperking": null, "openingstijden": null, "latitude": 51.3137126, "longitude": 3.3912465, "bronId": "L005495"}}, {"type": "Feature", "geometry": {"type": "Point", "coordinates": [3.3860512, 51.3093858]}, "properties": {"type": "inleverpunt", "locatieNaam": "Wibra", "straatNaam": "Groote Markt", "straatNr": "12", "postcode": "4524 CD", "plaats": "SLUIS", "merk": "Stibat", "puntType": "inzamelbak", "materialen": ["batterijen"], "uitbetaling": [], "vrijToegankelijk": false, "gemeenteBeperking": null, "openingstijden": null, "latitude": 51.3093858, "longitude": 3.3860512, "bronId": "L029608"}}, {"type": "Feature", "geometry": {"type": "Point", "coordinates": [3.3864143, 51.3086123]}, "properties": {"type": "inleverpunt", "locatieNaam": "Kruidvat", "straatNaam": "Kapellestraat", "straatNr": "5", "postcode": "4524 CW", "plaats": "SLUIS", "merk": "Stibat", "puntType": "inzamelbak", "materialen": ["batterijen"], "uitbetaling": [], "vrijToegankelijk": false, "gemeenteBeperking": null, "openingstijden": null, "latitude": 51.3086123, "longitude": 3.3864143, "bronId": "L014753"}}, {"type": "Feature", "geometry": {"type": "Point", "coordinates": [3.3880482, 51.3069698]}, "properties": {"type": "inleverpunt", "locatieNaam": "HEMA Sluis", "straatNaam": "Nieuwstraat", "straatNr": "10", "postcode": "4524 ED", "plaats": "Sluis", "merk": "Stibat", "puntType": "inzamelbak", "materialen": ["batterijen"], "uitbetaling": [], "vrijToegankelijk": false, "gemeenteBeperking": null, "openingstijden": null, "latitude": 51.3069698, "longitude": 3.3880482, "bronId": "L046804"}}, {"type": "Feature", "geometry": {"type": "Point", "coordinates": [3.3865787, 51.3080797]}, "properties": {"type": "inleverpunt", "locatieNaam": "8333 Etos", "straatNaam": "Kapellestraat", "straatNr": "20", "postcode": "4524 CZ", "plaats": "SLUIS", "merk": "Stibat", "puntType": "inzamelbak", "materialen": ["batterijen"], "uitbetaling": [], "vrijToegankelijk": false, "gemeenteBeperking": null, "openingstijden": null, "latitude": 51.3080797, "longitude": 3.3865787, "bronId": "L027354"}}, {"type": "Feature", "geometry": {"type": "Point", "coordinates": [3.3861939, 51.3075716]}, "properties": {"type": "inleverpunt", "locatieNaam": "Top1Toys", "straatNaam": "Oude Kerkstraat", "straatNr": "22", "postcode": "4524 CV", "plaats": "SLUIS", "merk": "Stibat", "puntType": "inzamelbak", "materialen": ["batterijen"], "uitbetaling": [], "vrijToegankelijk": false, "gemeenteBeperking": null, "openingstijden": null, "latitude": 51.3075716, "longitude": 3.3861939, "bronId": "L015767"}}, {"type": "Feature", "geometry": {"type": "Point", "coordinates": [3.3844796, 51.3082682]}, "properties": {"type": "inleverpunt", "locatieNaam": "Zeeman", "straatNaam": "Garenmarkt", "straatNr": "1", "postcode": "4524 CR", "plaats": "Sluis", "merk": "Stibat", "puntType": "inzamelbak", "materialen": ["batterijen"], "uitbetaling": [], "vrijToegankelijk": false, "gemeenteBeperking": null, "openingstijden": null, "latitude": 51.3082682, "longitude": 3.3844796, "bronId": "L019773"}}, {"type": "Feature", "geometry": {"type": "Point", "coordinates": [3.3812839, 51.3096349]}, "properties": {"type": "inleverpunt", "locatieNaam": "1136 Action", "straatNaam": "Sint Annastraat", "straatNr": "17", "postcode": "4524 JB", "plaats": "SLUIS", "merk": "Stibat", "puntType": "inzamelbak", "materialen": ["batterijen"], "uitbetaling": [], "vrijToegankelijk": false, "gemeenteBeperking": null, "openingstijden": null, "latitude": 51.3096349, "longitude": 3.3812839, "bronId": "L016509"}}, {"type": "Feature", "geometry": {"type": "Point", "coordinates": [3.3789421, 51.3108881]}, "properties": {"type": "inleverpunt", "locatieNaam": "Fletcher Hotel Dikke van Dale", "straatNaam": "Sint Annastraat", "straatNr": "46", "postcode": "4524 JE", "plaats": "SLUIS", "merk": "Stibat", "puntType": "inzamelbak", "materialen": ["batterijen"], "uitbetaling": [], "vrijToegankelijk": false, "gemeenteBeperking": null, "openingstijden": null, "latitude": 51.3108881, "longitude": 3.3789421, "bronId": "L029559"}}, {"type": "Feature", "geometry": {"type": "Point", "coordinates": [3.3800819, 51.3097387]}, "properties": {"type": "inleverpunt", "locatieNaam": "Jumbo", "straatNaam": "Sint Annastraat", "straatNr": "41", "postcode": "4524 JB", "plaats": "SLUIS", "merk": "Stibat", "puntType": "inzamelbak", "materialen": ["batterijen"], "uitbetaling": [], "vrijToegankelijk": false, "gemeenteBeperking": null, "openingstijden": null, "latitude": 51.3097387, "longitude": 3.3800819, "bronId": "L040382"}}, {"type": "Feature", "geometry": {"type": "Point", "coordinates": [3.3737043, 51.3124948]}, "properties": {"type": "inleverpunt", "locatieNaam": "Sligro", "straatNaam": "Sint Annastraat", "straatNr": "84", "postcode": "4524 JG", "plaats": "SLUIS", "merk": "Stibat", "puntType": "inzamelbak", "materialen": ["batterijen"], "uitbetaling": [], "vrijToegankelijk": false, "gemeenteBeperking": null, "openingstijden": null, "latitude": 51.3124948, "longitude": 3.3737043, "bronId": "L038179"}}, {"type": "Feature", "geometry": {"type": "Point", "coordinates": [3.3727255, 51.3127023]}, "properties": {"type": "inleverpunt", "locatieNaam": "Bogaard Lichtdesign &amp; Elektra", "straatNaam": "Industrieweg", "straatNr": "1", "postcode": "4524 JJ", "plaats": "SLUIS", "merk": "Stibat", "puntType": "inzamelbak", "materialen": ["batterijen"], "uitbetaling": [], "vrijToegankelijk": false, "gemeenteBeperking": null, "openingstijden": null, "latitude": 51.3127023, "longitude": 3.3727255, "bronId": "L021471"}}, {"type": "Feature", "geometry": {"type": "Point", "coordinates": [3.4451741, 51.2475782]}, "properties": {"type": "inleverpunt", "locatieNaam": "Drogisterij de Schaar", "straatNaam": "Brieversstraat", "straatNr": "20", "postcode": "4529 GZ", "plaats": "EEDE ZLD", "merk": "Stibat", "puntType": "inzamelbak", "materialen": ["batterijen"], "uitbetaling": [], "vrijToegankelijk": false, "gemeenteBeperking": null, "openingstijden": null, "latitude": 51.2475782, "longitude": 3.4451741, "bronId": "L024816"}}, {"type": "Feature", "geometry": {"type": "Polygon", "coordinates": [[[3.448224999716675, 51.24149900339882], [3.4746529997433293, 51.24260700340032], [3.527593999796813, 51.24604000340415], [3.52803899979728, 51.24634900340439], [3.5231519997933525, 51.26290600341558], [3.5154149997870263, 51.28715100343199], [3.5291299998009205, 51.28874400343344], [3.5336649998051675, 51.283489003429956], [3.538106999809647, 51.28366500343021], [3.5401469998117974, 51.28525800343137], [3.5423099998141385, 51.28800600343332], [3.543426999815454, 51.29119800343549], [3.549813999821876, 51.291102003435604], [3.552302999824302, 51.28977600343481], [3.5550439998270518, 51.28963500343473], [3.555821999827849, 51.289874003434925], [3.556496999828586, 51.29081400343561], [3.558055999830176, 51.29119300343588], [3.5597589998321455, 51.295455003438846], [3.5626359998350656, 51.29585800343918], [3.5661959998385764, 51.29462600343844], [3.566482999838815, 51.29379200343789], [3.5719409998441978, 51.291963003436756], [3.57153099984373, 51.29102700343612], [3.573587999845701, 51.28936700343507], [3.575672999847757, 51.2886480034346], [3.576158999848209, 51.288007003434174], [3.577768999849878, 51.2888210034348], [3.5797559998518813, 51.28886400343489], [3.5801609998522346, 51.28797200343428], [3.5818119998538362, 51.28691300343358], [3.5838799998560353, 51.28888500343499], [3.5825989998548553, 51.29075900343623], [3.583384999855737, 51.29225400343726], [3.587927999860352, 51.292960003437855], [3.5839069998564863, 51.29602600343989], [3.5833869998559633, 51.296035003439854], [3.581112999853811, 51.29832100344135], [3.5858299998587593, 51.30167500344376], [3.5900169998632294, 51.305952003446755], [3.591780999864971, 51.30534000344642], [3.59083199986396, 51.304417003445764], [3.6127259998856163, 51.29793000344191], [3.6147309998876227, 51.29772700344181], [3.61540499988826, 51.297040003441346], [3.6186529998914625, 51.29586400344063], [3.619209999891928, 51.29424700343955], [3.6212279998938715, 51.2927650034386], [3.62570999989842, 51.293338003439096], [3.6308759999035196, 51.29156800343798], [3.6313349999039484, 51.29103800343765], [3.6325019999051222, 51.29101100343767], [3.6408149999133244, 51.28808600343587], [3.6432579999158237, 51.28869200343633], [3.6444059999170624, 51.29011100343735], [3.658099999930864, 51.29018900343774], [3.6767569999492453, 51.28306500343332], [3.6779109999502593, 51.280527003431594], [3.682571999954991, 51.28109100343213], [3.6899319999623814, 51.28060900343196], [3.692717999965015, 51.27760600342996], [3.693400999965623, 51.27624200342904], [3.6939339999661502, 51.27603900342892], [3.6981809999708193, 51.28271400343358], [3.6996459999722577, 51.282046003433166], [3.7014179999740793, 51.282672003433625], [3.698090999970861, 51.28501500343514], [3.7012379999741354, 51.28675700343643], [3.703558999976489, 51.28698800343661], [3.7066109999796715, 51.28882600343799], [3.704883999978343, 51.295900003442746], [3.7059629999796866, 51.30029100344573], [3.7042849999780594, 51.30139000344647], [3.704029999977866, 51.302479003447225], [3.704138999978023, 51.30325400344777], [3.7070149999810686, 51.30580100344958], [3.707155999981256, 51.30654700345006], [3.70680199998094, 51.307274003450566], [3.7035819999778496, 51.30994300345227], [3.712408999987087, 51.31579100345649], [3.703844999978607, 51.31837100345802], [3.689406999964173, 51.320301003459], [3.6862839999611023, 51.32159900345981], [3.6841959999589737, 51.3211680034595], [3.6662039999407705, 51.319812003458125], [3.6638279999386967, 51.32523900346175], [3.6599909999348106, 51.324887003461434], [3.657971999933277, 51.333350003467125], [3.657481999932796, 51.33357700346728], [3.6533099999284886, 51.33175000346597], [3.644148999919862, 51.341831003472564], [3.649598999925402, 51.34273200347334], [3.6472419999234638, 51.350049003478205], [3.6496139999257866, 51.34898100347756], [3.654196999930369, 51.34839000347729], [3.6554059999316397, 51.349314003477915], [3.6574709999337216, 51.34934900347798], [3.6590339999353305, 51.349943003478415], [3.6593979999357646, 51.351135003479236], [3.6828669999595376, 51.353483003481394], [3.6823859999591595, 51.3552730034826], [3.6878449999646743, 51.35557700348293], [3.6898149999665266, 51.353351003481485], [3.693813999970502, 51.35247400348097], [3.691469999970813, 51.39761600351144], [3.5594189998384897, 51.406042003513775], [3.557338999836081, 51.40081400351025], [3.5573849998362554, 51.402922003511655], [3.5509079998299335, 51.40599600351355], [3.545629999824655, 51.406437003513695], [3.5413249998203784, 51.40726600351411], [3.5388889998179294, 51.40723300351402], [3.529431999808499, 51.40841900351464], [3.526929999805969, 51.40814500351433], [3.5245129998035782, 51.40877000351466], [3.515005999794042, 51.409016003514594], [3.508356999787315, 51.40825800351389], [3.506834999785751, 51.40765300351346], [3.503459999782369, 51.40783000351348], [3.5017749997805816, 51.406292003512384], [3.4979909997766536, 51.4042100035109], [3.491415999769945, 51.40253000350961], [3.4825599997608676, 51.39957300350729], [3.4803519997586343, 51.399333003507124], [3.4772409997554488, 51.398324003506346], [3.4741499997523415, 51.39829800350623], [3.471263999749381, 51.397270003505476], [3.468395999746485, 51.3970360035052], [3.465366999743371, 51.39586300350433], [3.4587329997366845, 51.395460003503885], [3.4551759997330747, 51.394848003503384], [3.451585999729392, 51.39360200350244], [3.4481009997257903, 51.39194800350121], [3.444488999722172, 51.39207200350121], [3.440249999717859, 51.39118300350044], [3.4358209997134455, 51.391717003500695], [3.434599999712276, 51.39260800350124], [3.432744999710412, 51.39259200350115], [3.429578999707231, 51.39250100350103], [3.425627999703213, 51.39168800350036], [3.4224819997000377, 51.391417003500095], [3.4165949996940275, 51.38977600349883], [3.408516999685737, 51.38689400349666], [3.4046249996817655, 51.38581800349581], [3.3945249996714972, 51.38371900349408], [3.381719999658446, 51.3804940034915], [3.380104999656786, 51.37988900349105], [3.379398999656002, 51.37868500349022], [3.3774089996540235, 51.37896300349035], [3.3774509996539854, 51.37770100348949], [3.374801999651351, 51.378048003489646], [3.375173999651629, 51.37655300348865], [3.3720619996485177, 51.37672200348864], [3.3719859996483494, 51.37526200348766], [3.363061999639247, 51.372881003485816], [3.374989999650336, 51.35888700347672], [3.373705999648755, 51.354233003473496], [3.3740709996487634, 51.34850800346963], [3.3835129996577815, 51.341205003464964], [3.3853399996591755, 51.33412500346023], [3.358377999630913, 51.31498100344639], [3.3768389996486685, 51.302448003438435], [3.378078999649928, 51.30265000343857], [3.3717579996434206, 51.300090003436665], [3.3673909996390052, 51.2996220034362], [3.3662669996378347, 51.298917003435726], [3.366002999637527, 51.298233003435236], [3.366722999638092, 51.29573200343356], [3.3702869996414373, 51.29194000343104], [3.372244999643334, 51.29082200343034], [3.378931999649907, 51.288517003428964], [3.3807959996516836, 51.286961003427926], [3.3809819996518207, 51.28615200342741], [3.3804049996511316, 51.28436700342618], [3.380673999651339, 51.2833750034255], [3.3818469996524527, 51.282312003424856], [3.3816799996522415, 51.28162400342434], [3.3808249996513315, 51.28076400342374], [3.3796979996501686, 51.280311003423364], [3.377243999647688, 51.28004600342312], [3.3759299996463334, 51.27948500342273], [3.3753389996456824, 51.278560003422065], [3.3756979996459595, 51.27721100342115], [3.3770519996472395, 51.275895003420274], [3.3790139996491413, 51.274793003419596], [3.3839329996540237, 51.273840003419096], [3.38623099965634, 51.273933003419245], [3.387978999658049, 51.2731920034188], [3.3889539996589075, 51.2712010034174], [3.3946429996642595, 51.26531700341361], [3.396489999666049, 51.2641960034129], [3.401577999671098, 51.263175003412314], [3.403161999672647, 51.262463003411916], [3.404780999674188, 51.261063003410996], [3.4063169996755285, 51.25773300340875], [3.4074029996765716, 51.25696200340824], [3.408944999678104, 51.2566630034081], [3.4114909996806766, 51.256903003408326], [3.4129959996822388, 51.257677003408915], [3.414912999684275, 51.259463003410175], [3.4168429996862484, 51.26001000341062], [3.4176459996870014, 51.25914900341006], [3.4180119996872818, 51.257693003409045], [3.4212229996904435, 51.25661700340838], [3.4245989996936914, 51.25420800340686], [3.425481999694292, 51.249501003403665], [3.427478999696004, 51.244657003400405], [3.432313999700925, 51.24560900340122], [3.4416489997101642, 51.24318500339981], [3.444390999712893, 51.24273200339956], [3.444412999712878, 51.242099003399126], [3.448224999716675, 51.24149900339882]]]}, "properties": {"type": "boundary", "gemeente": "Sluis"}}]}