{"type": "FeatureCollection", "metadata": {"gemeente": "Steenwijkerland", "slug": "steenwijkerland", "generated_at": "2026-07-28T09:25:50.134599Z", "total_points": 104, "merken": ["StatiegeldNederland", "Stibat", "StichtingOPEN"], "bounds": [5.8419977, 52.6649068, 6.1579816, 52.8293744]}, "features": [{"type": "Feature", "geometry": {"type": "Point", "coordinates": [6.1308333, 52.7930556]}, "properties": {"type": "inleverpunt", "locatieNaam": "Albert Heijn", "straatNaam": "Het Schar", "straatNr": "3", "postcode": "8332 CL", "plaats": "Steenwijk", "merk": "StatiegeldNederland", "puntType": "automaat", "materialen": ["pet-groot", "pet-klein", "blik", "glas", "krat"], "uitbetaling": ["bonnetje", "donatie"], "vrijToegankelijk": true, "gemeenteBeperking": null, "openingstijden": {"ma": "07:00–22:00", "di": "07:00–22:00", "wo": "07:00–22:00", "do": "07:00–22:00", "vr": "07:00–22:00", "za": "07:00–22:00", "zo": "09:00–20:00"}, "latitude": 52.7930556, "longitude": 6.1308333, "bronId": "252307"}}, {"type": "Feature", "geometry": {"type": "Point", "coordinates": [6.1137682, 52.7876059]}, "properties": {"type": "inleverpunt", "locatieNaam": "Albert Heijn", "straatNaam": "Prinsen Hoven", "straatNr": "1", "postcode": "8331 JV", "plaats": "Steenwijk", "merk": "StatiegeldNederland", "puntType": "automaat", "materialen": ["pet-groot", "pet-klein", "blik", "glas", "krat"], "uitbetaling": ["bonnetje", "donatie"], "vrijToegankelijk": true, "gemeenteBeperking": null, "openingstijden": {"ma": "08:00–22:00", "di": "08:00–22:00", "wo": "08:00–22:00", "do": "08:00–22:00", "vr": "08:00–22:00", "za": "08:00–22:00", "zo": "10:00–20:00"}, "latitude": 52.7876059, "longitude": 6.1137682, "bronId": "252650"}}, {"type": "Feature", "geometry": {"type": "Point", "coordinates": [6.0931673, 52.7886372]}, "properties": {"type": "inleverpunt", "locatieNaam": "Aldi", "straatNaam": "Steenwijkerdiep", "straatNr": "27", "postcode": "8331 LP", "plaats": "Steenwijk", "merk": "StatiegeldNederland", "puntType": "automaat", "materialen": ["pet-groot", "pet-klein", "blik", "glas", "krat"], "uitbetaling": ["bonnetje"], "vrijToegankelijk": true, "gemeenteBeperking": null, "openingstijden": {"ma": "07:00–21:00", "di": "07:00–21:00", "wo": "07:00–21:00", "do": "07:00–21:00", "vr": "07:00–21:00", "za": "07:00–21:00", "zo": "10:00–19:00"}, "latitude": 52.7886372, "longitude": 6.0931673, "bronId": "253383"}}, {"type": "Feature", "geometry": {"type": "Point", "coordinates": [5.9559804, 52.6810562]}, "properties": {"type": "inleverpunt", "locatieNaam": "Aldi", "straatNaam": "Voorpoort", "straatNr": "13", "postcode": "8325 CL", "plaats": "Vollenhove", "merk": "StatiegeldNederland", "puntType": "automaat", "materialen": ["pet-groot", "pet-klein", "blik", "glas", "krat"], "uitbetaling": ["bonnetje"], "vrijToegankelijk": true, "gemeenteBeperking": null, "openingstijden": {"ma": "08:00–20:00", "di": "08:00–20:00", "wo": "08:00–20:00", "do": "08:00–20:00", "vr": "08:00–21:00", "za": "08:00–20:00", "zo": "Gesloten"}, "latitude": 52.6810562, "longitude": 5.9559804, "bronId": "253423"}}, {"type": "Feature", "geometry": {"type": "Point", "coordinates": [6.1060869, 52.7907227]}, "properties": {"type": "inleverpunt", "locatieNaam": "Appel B.v. - 2686 - Dyka", "straatNaam": "Produktieweg", "straatNr": "7", "postcode": "8331 LJ", "plaats": "Steenwijk", "merk": "StatiegeldNederland", "puntType": "balie", "materialen": ["pet-groot", "pet-klein", "blik"], "uitbetaling": [], "vrijToegankelijk": true, "gemeenteBeperking": null, "openingstijden": {"ma": "08:00–17:00", "di": "08:00–17:00", "wo": "08:00–17:00", "do": "08:00–17:00", "vr": "08:00–17:00", "za": "Gesloten", "zo": "Gesloten"}, "latitude": 52.7907227, "longitude": 6.1060869, "bronId": "253730"}}, {"type": "Feature", "geometry": {"type": "Point", "coordinates": [6.111152, 52.7869245]}, "properties": {"type": "inleverpunt", "locatieNaam": "BudgetFood", "straatNaam": "Steenwijkerdiep", "straatNr": "25", "postcode": "8331 LP", "plaats": "Steenwijk", "merk": "StatiegeldNederland", "puntType": "automaat", "materialen": ["pet-groot", "pet-klein", "blik"], "uitbetaling": ["bonnetje", "donatie"], "vrijToegankelijk": true, "gemeenteBeperking": null, "openingstijden": null, "latitude": 52.7869245, "longitude": 6.111152, "bronId": "253930"}}, {"type": "Feature", "geometry": {"type": "Point", "coordinates": [5.9616081, 52.725434]}, "properties": {"type": "inleverpunt", "locatieNaam": "Coop", "straatNaam": "Bofferweidje", "straatNr": "35", "postcode": "8356 BE", "plaats": "Blokzijl", "merk": "StatiegeldNederland", "puntType": "automaat", "materialen": ["pet-groot", "pet-klein", "blik", "glas"], "uitbetaling": ["bonnetje", "donatie"], "vrijToegankelijk": true, "gemeenteBeperking": null, "openingstijden": {"ma": "08:00–18:30", "di": "08:00–18:30", "wo": "08:00–18:30", "do": "08:00–18:30", "vr": "08:00–18:30", "za": "08:00–18:30", "zo": "09:00–17:00"}, "latitude": 52.725434, "longitude": 5.9616081, "bronId": "254194"}}, {"type": "Feature", "geometry": {"type": "Point", "coordinates": [6.0025523, 52.6788013]}, "properties": {"type": "inleverpunt", "locatieNaam": "Gewoon Coop", "straatNaam": "Molenstraat", "straatNr": "27", "postcode": "8326 CV", "plaats": "Sint Jansklooster", "merk": "StatiegeldNederland", "puntType": "automaat", "materialen": ["pet-groot", "pet-klein", "blik", "glas", "krat"], "uitbetaling": ["bonnetje", "donatie"], "vrijToegankelijk": true, "gemeenteBeperking": null, "openingstijden": {"ma": "08:00–20:00", "di": "08:00–20:00", "wo": "08:00–20:00", "do": "08:00–20:00", "vr": "08:00–20:00", "za": "08:00–20:00", "zo": "Gesloten"}, "latitude": 52.6788013, "longitude": 6.0025523, "bronId": "254847"}}, {"type": "Feature", "geometry": {"type": "Point", "coordinates": [6.0931673, 52.7886372]}, "properties": {"type": "inleverpunt", "locatieNaam": "Jumbo", "straatNaam": "Dolderweg", "straatNr": "50", "postcode": "8331 LL", "plaats": "Steenwijk", "merk": "StatiegeldNederland", "puntType": "automaat", "materialen": ["pet-groot", "pet-klein", "blik", "glas", "krat"], "uitbetaling": ["bonnetje"], "vrijToegankelijk": true, "gemeenteBeperking": null, "openingstijden": {"ma": "07:00–21:00", "di": "07:00–21:00", "wo": "07:00–21:00", "do": "07:00–21:00", "vr": "07:00–21:00", "za": "07:00–21:00", "zo": "10:00–19:00"}, "latitude": 52.7886372, "longitude": 6.0931673, "bronId": "255320"}}, {"type": "Feature", "geometry": {"type": "Point", "coordinates": [6.12381, 52.79838]}, "properties": {"type": "inleverpunt", "locatieNaam": "Lidl", "straatNaam": "Woldmeentherand", "straatNr": "1", "postcode": "8332 JE", "plaats": "Steenwijk", "merk": "StatiegeldNederland", "puntType": "automaat", "materialen": ["pet-groot", "pet-klein", "blik", "glas", "krat"], "uitbetaling": ["bonnetje", "donatie"], "vrijToegankelijk": true, "gemeenteBeperking": null, "openingstijden": {"ma": "08:00–21:00", "di": "08:00–21:00", "wo": "08:00–21:00", "do": "08:00–21:00", "vr": "08:00–21:00", "za": "08:00–21:00", "zo": "10:00–18:00"}, "latitude": 52.79838, "longitude": 6.12381, "bronId": "256475"}}, {"type": "Feature", "geometry": {"type": "Point", "coordinates": [6.1579816, 52.7809974]}, "properties": {"type": "inleverpunt", "locatieNaam": "Oliehandel Kreuze BV", "straatNaam": "Steenakkers", "straatNr": "3", "postcode": "8331 TZ", "plaats": "Steenwijk", "merk": "StatiegeldNederland", "puntType": "automaat", "materialen": ["pet-groot", "pet-klein", "blik", "krat"], "uitbetaling": ["donatie", "tikkie"], "vrijToegankelijk": true, "gemeenteBeperking": null, "openingstijden": null, "latitude": 52.7809974, "longitude": 6.1579816, "bronId": "256995"}}, {"type": "Feature", "geometry": {"type": "Point", "coordinates": [5.9557948, 52.6816688]}, "properties": {"type": "inleverpunt", "locatieNaam": "Plus", "straatNaam": "De Doelenstraat", "straatNr": "14", "postcode": "8325 CC", "plaats": "Vollenhove", "merk": "StatiegeldNederland", "puntType": "automaat", "materialen": ["pet-groot", "pet-klein", "blik", "glas", "krat"], "uitbetaling": ["bonnetje"], "vrijToegankelijk": true, "gemeenteBeperking": null, "openingstijden": {"ma": "08:00–20:00", "di": "08:00–20:00", "wo": "08:00–20:00", "do": "08:00–20:00", "vr": "08:00–21:00", "za": "08:00–20:00", "zo": "Gesloten"}, "latitude": 52.6816688, "longitude": 5.9557948, "bronId": "257244"}}, {"type": "Feature", "geometry": {"type": "Point", "coordinates": [6.0795061, 52.7212821]}, "properties": {"type": "inleverpunt", "locatieNaam": "Plus", "straatNaam": "Eendrachtsplein", "straatNr": "4", "postcode": "8355 DL", "plaats": "Giethoorn", "merk": "StatiegeldNederland", "puntType": "automaat", "materialen": ["pet-groot", "pet-klein", "blik", "glas", "krat"], "uitbetaling": ["bonnetje", "donatie"], "vrijToegankelijk": true, "gemeenteBeperking": null, "openingstijden": {"ma": "08:00–21:00", "di": "08:00–21:00", "wo": "08:00–21:00", "do": "08:00–21:00", "vr": "08:00–21:00", "za": "08:00–21:00", "zo": "08:00–20:00"}, "latitude": 52.7212821, "longitude": 6.0795061, "bronId": "257296"}}, {"type": "Feature", "geometry": {"type": "Point", "coordinates": [5.9754852, 52.8195233]}, "properties": {"type": "inleverpunt", "locatieNaam": "Plus", "straatNaam": "Hoofdstraat", "straatNr": "5", "postcode": "8375 AK", "plaats": "Oldemarkt", "merk": "StatiegeldNederland", "puntType": "automaat", "materialen": ["pet-groot", "pet-klein", "blik", "glas", "krat"], "uitbetaling": ["bonnetje", "donatie"], "vrijToegankelijk": true, "gemeenteBeperking": null, "openingstijden": {"ma": "08:00–20:00", "di": "08:00–20:00", "wo": "08:00–20:00", "do": "08:00–20:00", "vr": "08:00–20:00", "za": "08:00–20:00", "zo": "Gesloten"}, "latitude": 52.8195233, "longitude": 5.9754852, "bronId": "257349"}}, {"type": "Feature", "geometry": {"type": "Point", "coordinates": [6.1189592, 52.7865225]}, "properties": {"type": "inleverpunt", "locatieNaam": "Plus", "straatNaam": "Scholestraat", "straatNr": "28", "postcode": "8331 HS", "plaats": "Steenwijk", "merk": "StatiegeldNederland", "puntType": "automaat", "materialen": ["pet-groot", "pet-klein", "blik", "glas", "krat"], "uitbetaling": ["bonnetje"], "vrijToegankelijk": true, "gemeenteBeperking": null, "openingstijden": {"ma": "08:00–20:00", "di": "08:00–20:00", "wo": "08:00–20:00", "do": "08:00–20:00", "vr": "08:00–20:00", "za": "08:00–20:00", "zo": "10:00–17:00"}, "latitude": 52.7865225, "longitude": 6.1189592, "bronId": "257516"}}, {"type": "Feature", "geometry": {"type": "Point", "coordinates": [6.1140311, 52.7817386]}, "properties": {"type": "inleverpunt", "locatieNaam": "RSG Trompmeesters", "straatNaam": "Lijsterbesstraat", "straatNr": "1", "postcode": "8331 NS", "plaats": "Steenwijk", "merk": "StatiegeldNederland", "puntType": "automaat", "materialen": ["pet-groot", "pet-klein", "blik"], "uitbetaling": ["bonnetje", "donatie", "tikkie"], "vrijToegankelijk": true, "gemeenteBeperking": null, "openingstijden": null, "latitude": 52.7817386, "longitude": 6.1140311, "bronId": "257904"}}, {"type": "Feature", "geometry": {"type": "Point", "coordinates": [6.062651, 52.804101]}, "properties": {"type": "inleverpunt", "locatieNaam": "Spar", "straatNaam": "GELDERINGEN", "straatNr": "12", "postcode": "8341 PX", "plaats": "Steenwijkerwold", "merk": "StatiegeldNederland", "puntType": "balie", "materialen": ["pet-groot", "pet-klein", "blik"], "uitbetaling": [], "vrijToegankelijk": true, "gemeenteBeperking": null, "openingstijden": {"ma": "08:00–19:00", "di": "08:00–19:00", "wo": "08:00–19:00", "do": "08:00–19:00", "vr": "08:00–19:00", "za": "08:00–18:00", "zo": "Gesloten"}, "latitude": 52.804101, "longitude": 6.062651, "bronId": "258354"}}, {"type": "Feature", "geometry": {"type": "Point", "coordinates": [6.124128, 52.7969733]}, "properties": {"type": "inleverpunt", "locatieNaam": "Spar Express", "straatNaam": "EESVEENSEWEG", "straatNr": "29", "postcode": "8332 JA", "plaats": "Steenwijk", "merk": "StatiegeldNederland", "puntType": "balie", "materialen": ["pet-groot", "pet-klein", "blik"], "uitbetaling": [], "vrijToegankelijk": true, "gemeenteBeperking": null, "openingstijden": {"ma": "06:00–20:00", "di": "06:00–20:00", "wo": "06:00–20:00", "do": "06:00–20:00", "vr": "06:00–20:00", "za": "08:00–20:00", "zo": "08:00–20:00"}, "latitude": 52.7969733, "longitude": 6.124128, "bronId": "258543"}}, {"type": "Feature", "geometry": {"type": "Point", "coordinates": [6.0681093, 52.8036845]}, "properties": {"type": "inleverpunt", "locatieNaam": "Sv Steenwijkerwold", "straatNaam": "Oldemarktseweg", "straatNr": "92", "postcode": "8341 SH", "plaats": "Steenwijkerwold", "merk": "StatiegeldNederland", "puntType": "balie", "materialen": ["pet-groot", "pet-klein", "blik"], "uitbetaling": [], "vrijToegankelijk": false, "gemeenteBeperking": null, "openingstijden": {"ma": "08:00–11:00", "di": "09:00–13:00", "wo": "10:00–16:00", "do": "08:00–15:00", "vr": "Gesloten", "za": "Gesloten", "zo": "Gesloten"}, "latitude": 52.8036845, "longitude": 6.0681093, "bronId": "258839"}}, {"type": "Feature", "geometry": {"type": "Point", "coordinates": [6.002132, 52.6763197]}, "properties": {"type": "inleverpunt", "locatieNaam": "Sv Vhk", "straatNaam": "Van Ommenstraat", "straatNr": "2", "postcode": "8326 CR", "plaats": "Sint Jansklooster", "merk": "StatiegeldNederland", "puntType": "balie", "materialen": ["pet-groot", "pet-klein", "blik"], "uitbetaling": [], "vrijToegankelijk": false, "gemeenteBeperking": null, "openingstijden": null, "latitude": 52.6763197, "longitude": 6.002132, "bronId": "258841"}}, {"type": "Feature", "geometry": {"type": "Point", "coordinates": [6.0617833, 52.6725424]}, "properties": {"type": "inleverpunt", "locatieNaam": "Svbs 77", "straatNaam": "De Stadt", "straatNr": "7A", "postcode": "8066 PS", "plaats": "Belt Schutsloot", "merk": "StatiegeldNederland", "puntType": "balie", "materialen": ["pet-groot", "pet-klein", "blik"], "uitbetaling": [], "vrijToegankelijk": false, "gemeenteBeperking": null, "openingstijden": null, "latitude": 52.6725424, "longitude": 6.0617833, "bronId": "258847"}}, {"type": "Feature", "geometry": {"type": "Point", "coordinates": [5.8429523, 52.7851024]}, "properties": {"type": "inleverpunt", "locatieNaam": "T Kuunders Kwartiertje", "straatNaam": "Burchtstraat", "straatNr": "11", "postcode": "8374 KC", "plaats": "Kuinre", "merk": "StatiegeldNederland", "puntType": "balie", "materialen": ["pet-groot", "pet-klein", "blik"], "uitbetaling": [], "vrijToegankelijk": true, "gemeenteBeperking": null, "openingstijden": {"ma": "07:00–20:00", "di": "07:00–20:00", "wo": "07:00–20:00", "do": "07:00–20:00", "vr": "07:00–20:00", "za": "08:30–20:00", "zo": "09:00–20:00"}, "latitude": 52.7851024, "longitude": 5.8429523, "bronId": "258856"}}, {"type": "Feature", "geometry": {"type": "Point", "coordinates": [6.1401599, 52.8240742]}, "properties": {"type": "inleverpunt", "locatieNaam": "ViaTim", "straatNaam": "Bleekersbrink", "straatNr": "6", "postcode": "8347 JR", "plaats": "Eesveen", "merk": "StatiegeldNederland", "puntType": "balie", "materialen": ["pet-groot", "pet-klein", "blik"], "uitbetaling": ["tikkie"], "vrijToegankelijk": true, "gemeenteBeperking": null, "openingstijden": null, "latitude": 52.8240742, "longitude": 6.1401599, "bronId": "259225"}}, {"type": "Feature", "geometry": {"type": "Point", "coordinates": [6.1107106, 52.7897554]}, "properties": {"type": "inleverpunt", "locatieNaam": "ViaTim", "straatNaam": "Hendrik van Steenwijck de Oudestraat", "straatNr": "8", "postcode": "8331 KK", "plaats": "Steenwijk", "merk": "StatiegeldNederland", "puntType": "balie", "materialen": ["pet-groot", "pet-klein", "blik"], "uitbetaling": ["tikkie"], "vrijToegankelijk": true, "gemeenteBeperking": null, "openingstijden": null, "latitude": 52.7897554, "longitude": 6.1107106, "bronId": "259310"}}, {"type": "Feature", "geometry": {"type": "Point", "coordinates": [5.9642897, 52.7257802]}, "properties": {"type": "inleverpunt", "locatieNaam": "ViaTim", "straatNaam": "Johan Willem Frisostraat", "straatNr": "7", "postcode": "8356 EL", "plaats": "Blokzijl", "merk": "StatiegeldNederland", "puntType": "balie", "materialen": ["pet-groot", "pet-klein", "blik"], "uitbetaling": ["tikkie"], "vrijToegankelijk": true, "gemeenteBeperking": null, "openingstijden": null, "latitude": 52.7257802, "longitude": 5.9642897, "bronId": "259356"}}, {"type": "Feature", "geometry": {"type": "Point", "coordinates": [5.95598, 52.681056]}, "properties": {"type": "inleverpunt", "locatieNaam": "Aldi Vollenhove", "straatNaam": "Voorpoort", "straatNr": "13", "postcode": "8325 CL", "plaats": "Vollenhove", "merk": "StichtingOPEN", "puntType": "balie", "materialen": ["batterijen", "elektro-klein", "lampen"], "uitbetaling": [], "vrijToegankelijk": false, "gemeenteBeperking": null, "openingstijden": null, "latitude": 52.681056, "longitude": 5.95598, "bronId": "SP00026926"}}, {"type": "Feature", "geometry": {"type": "Point", "coordinates": [5.957596, 52.681855]}, "properties": {"type": "inleverpunt", "locatieNaam": "63390 Hubo Vollenhove", "straatNaam": "de Weijert", "straatNr": "10", "postcode": "8325 EM", "plaats": "Vollenhove", "merk": "StichtingOPEN", "puntType": "balie", "materialen": ["elektro-middel", "lampen", "tl-buizen"], "uitbetaling": [], "vrijToegankelijk": false, "gemeenteBeperking": null, "openingstijden": null, "latitude": 52.681855, "longitude": 5.957596, "bronId": "SP00005174"}}, {"type": "Feature", "geometry": {"type": "Point", "coordinates": [5.968489, 52.680056]}, "properties": {"type": "inleverpunt", "locatieNaam": "Kringloop Vollenhove", "straatNaam": "De Kampen", "straatNr": "3", "postcode": "8325 DD", "plaats": "Vollenhove", "merk": "StichtingOPEN", "puntType": "balie", "materialen": ["batterijen", "elektro-groot", "elektro-klein", "elektro-middel", "lampen", "tl-buizen"], "uitbetaling": [], "vrijToegankelijk": false, "gemeenteBeperking": null, "openingstijden": null, "latitude": 52.680056, "longitude": 5.968489, "bronId": "SP00028962"}}, {"type": "Feature", "geometry": {"type": "Point", "coordinates": [6.002488, 52.678906]}, "properties": {"type": "inleverpunt", "locatieNaam": "Coop Compact Sint Jansklooster", "straatNaam": "Molenstraat", "straatNr": "27", "postcode": "8326 CV", "plaats": "Sint Jansklooster", "merk": "StichtingOPEN", "puntType": "balie", "materialen": ["batterijen", "lampen"], "uitbetaling": [], "vrijToegankelijk": false, "gemeenteBeperking": null, "openingstijden": null, "latitude": 52.678906, "longitude": 6.002488, "bronId": "SP00024376"}}, {"type": "Feature", "geometry": {"type": "Point", "coordinates": [5.961648, 52.72534]}, "properties": {"type": "inleverpunt", "locatieNaam": "Coop Compact Blokzijl", "straatNaam": "Boffersweidje", "straatNr": "35", "postcode": "8356 BE", "plaats": "Blokzijl", "merk": "StichtingOPEN", "puntType": "balie", "materialen": ["batterijen", "lampen"], "uitbetaling": [], "vrijToegankelijk": false, "gemeenteBeperking": null, "openingstijden": null, "latitude": 52.72534, "longitude": 5.961648, "bronId": "SP00024386"}}, {"type": "Feature", "geometry": {"type": "Point", "coordinates": [6.079501, 52.721301]}, "properties": {"type": "inleverpunt", "locatieNaam": "Spar Giethoorn", "straatNaam": "Eendrachtsplein", "straatNr": "4", "postcode": "8355 DL", "plaats": "Giethoorn", "merk": "StichtingOPEN", "puntType": "balie", "materialen": ["batterijen", "elektro-klein", "lampen"], "uitbetaling": [], "vrijToegankelijk": false, "gemeenteBeperking": null, "openingstijden": null, "latitude": 52.721301, "longitude": 6.079501, "bronId": "SP00022460"}}, {"type": "Feature", "geometry": {"type": "Point", "coordinates": [5.975626, 52.819419]}, "properties": {"type": "inleverpunt", "locatieNaam": "Coop Oldemarkt", "straatNaam": "Hoofdstraat", "straatNr": "5", "postcode": "8375 AK", "plaats": "Oldemarkt", "merk": "StichtingOPEN", "puntType": "balie", "materialen": ["batterijen", "lampen"], "uitbetaling": [], "vrijToegankelijk": false, "gemeenteBeperking": null, "openingstijden": null, "latitude": 52.819419, "longitude": 5.975626, "bronId": "SP00024392"}}, {"type": "Feature", "geometry": {"type": "Point", "coordinates": [6.095671, 52.776851]}, "properties": {"type": "inleverpunt", "locatieNaam": "Praxis Steenwijk - 2452", "straatNaam": "Koematen", "straatNr": "2", "postcode": "8331 TK", "plaats": "Steenwijk", "merk": "StichtingOPEN", "puntType": "balie", "materialen": ["elektro-middel", "lampen", "tl-buizen"], "uitbetaling": [], "vrijToegankelijk": false, "gemeenteBeperking": null, "openingstijden": null, "latitude": 52.776851, "longitude": 6.095671, "bronId": "SP00002718"}}, {"type": "Feature", "geometry": {"type": "Point", "coordinates": [6.062645, 52.804147]}, "properties": {"type": "inleverpunt", "locatieNaam": "Spar Steenwijkerwold", "straatNaam": "Gelderingen", "straatNr": "12", "postcode": "8341 PX", "plaats": "Steenwijkerwold", "merk": "StichtingOPEN", "puntType": "balie", "materialen": ["batterijen", "lampen"], "uitbetaling": [], "vrijToegankelijk": false, "gemeenteBeperking": null, "openingstijden": null, "latitude": 52.804147, "longitude": 6.062645, "bronId": "SP00022469"}}, {"type": "Feature", "geometry": {"type": "Point", "coordinates": [6.09925, 52.790361]}, "properties": {"type": "inleverpunt", "locatieNaam": "Wildkamp", "straatNaam": "Korte Baan", "straatNr": "22", "postcode": "8331 LA", "plaats": "Steenwijk", "merk": "StichtingOPEN", "puntType": "balie", "materialen": ["lampen"], "uitbetaling": [], "vrijToegankelijk": false, "gemeenteBeperking": null, "openingstijden": null, "latitude": 52.790361, "longitude": 6.09925, "bronId": "SP00007960"}}, {"type": "Feature", "geometry": {"type": "Point", "coordinates": [6.109595, 52.786901]}, "properties": {"type": "inleverpunt", "locatieNaam": "Jumbo Steenwijk", "straatNaam": "Steenwijkerdiep", "straatNr": "61", "postcode": "8331 LP", "plaats": "Steenwijk", "merk": "StichtingOPEN", "puntType": "balie", "materialen": ["batterijen", "lampen"], "uitbetaling": [], "vrijToegankelijk": false, "gemeenteBeperking": null, "openingstijden": null, "latitude": 52.786901, "longitude": 6.109595, "bronId": "SP00025357"}}, {"type": "Feature", "geometry": {"type": "Point", "coordinates": [6.09658, 52.79259]}, "properties": {"type": "inleverpunt", "locatieNaam": "Groenrijk Tuk", "straatNaam": "Roomweg", "straatNr": "7", "postcode": "8334 NR", "plaats": "Tuk", "merk": "StichtingOPEN", "puntType": "balie", "materialen": ["elektro-middel", "lampen"], "uitbetaling": [], "vrijToegankelijk": false, "gemeenteBeperking": null, "openingstijden": null, "latitude": 52.79259, "longitude": 6.09658, "bronId": "SP00005646"}}, {"type": "Feature", "geometry": {"type": "Point", "coordinates": [6.110723, 52.78696]}, "properties": {"type": "inleverpunt", "locatieNaam": "Aldi Steenwijk", "straatNaam": "Steenwijkerdiep", "straatNr": "27", "postcode": "8331 LP", "plaats": "Steenwijk", "merk": "StichtingOPEN", "puntType": "balie", "materialen": ["batterijen", "elektro-klein", "lampen"], "uitbetaling": [], "vrijToegankelijk": false, "gemeenteBeperking": null, "openingstijden": null, "latitude": 52.78696, "longitude": 6.110723, "bronId": "SP00026920"}}, {"type": "Feature", "geometry": {"type": "Point", "coordinates": [6.114198, 52.787569]}, "properties": {"type": "inleverpunt", "locatieNaam": "1523 Albert Heijn Steenwijk", "straatNaam": "Kornputsingel", "straatNr": "1", "postcode": "8331 JV", "plaats": "Steenwijk", "merk": "StichtingOPEN", "puntType": "balie", "materialen": ["batterijen", "elektro-klein", "lampen"], "uitbetaling": [], "vrijToegankelijk": false, "gemeenteBeperking": null, "openingstijden": null, "latitude": 52.787569, "longitude": 6.114198, "bronId": "SP00023158"}}, {"type": "Feature", "geometry": {"type": "Point", "coordinates": [6.118905, 52.78657]}, "properties": {"type": "inleverpunt", "locatieNaam": "Coop Steenwijk", "straatNaam": "Scholestraat", "straatNr": "28", "postcode": "8331 HS", "plaats": "Steenwijk", "merk": "StichtingOPEN", "puntType": "balie", "materialen": ["batterijen", "lampen"], "uitbetaling": [], "vrijToegankelijk": false, "gemeenteBeperking": null, "openingstijden": null, "latitude": 52.78657, "longitude": 6.118905, "bronId": "SP00024391"}}, {"type": "Feature", "geometry": {"type": "Point", "coordinates": [6.118146, 52.787331]}, "properties": {"type": "inleverpunt", "locatieNaam": "Kruidvat Steenwijk", "straatNaam": "Oosterstraat", "straatNr": "36", "postcode": "8331 HE", "plaats": "Steenwijk", "merk": "StichtingOPEN", "puntType": "balie", "materialen": ["batterijen", "lampen"], "uitbetaling": [], "vrijToegankelijk": false, "gemeenteBeperking": null, "openingstijden": null, "latitude": 52.787331, "longitude": 6.118146, "bronId": "SP00024804"}}, {"type": "Feature", "geometry": {"type": "Point", "coordinates": [6.131407, 52.792604]}, "properties": {"type": "inleverpunt", "locatieNaam": "4066 Albert Heijn Steenwijk", "straatNaam": "het Schar", "straatNr": "3", "postcode": "8332 CL", "plaats": "Steenwijk", "merk": "StichtingOPEN", "puntType": "balie", "materialen": ["batterijen", "elektro-klein", "lampen"], "uitbetaling": [], "vrijToegankelijk": false, "gemeenteBeperking": null, "openingstijden": null, "latitude": 52.792604, "longitude": 6.131407, "bronId": "SP00023160"}}, {"type": "Feature", "geometry": {"type": "Point", "coordinates": [6.08815, 52.779959]}, "properties": {"type": "inleverpunt", "locatieNaam": "Afvalbrengstation ROVA Steenwijk", "straatNaam": "Karenbrug", "straatNr": "3", "postcode": "8331 VE", "plaats": "Steenwijk", "merk": "StichtingOPEN", "puntType": "milieustraat", "materialen": ["batterijen", "elektro-groot", "elektro-klein", "elektro-middel", "lampen", "tl-buizen"], "uitbetaling": [], "vrijToegankelijk": false, "gemeenteBeperking": ["Steenwijkerland"], "openingstijden": null, "latitude": 52.779959, "longitude": 6.08815, "bronId": "SP00004389"}}, {"type": "Feature", "geometry": {"type": "Point", "coordinates": [6.098012, 52.793121]}, "properties": {"type": "inleverpunt", "locatieNaam": "Kringloop Steenwijk", "straatNaam": "Boterweg", "straatNr": "5", "postcode": "8334 NS", "plaats": "Tuk", "merk": "StichtingOPEN", "puntType": "milieustraat", "materialen": ["batterijen", "elektro-groot", "elektro-klein", "elektro-middel", "lampen", "tl-buizen"], "uitbetaling": [], "vrijToegankelijk": false, "gemeenteBeperking": ["Steenwijkerland"], "openingstijden": null, "latitude": 52.793121, "longitude": 6.098012, "bronId": "SP00004387"}}, {"type": "Feature", "geometry": {"type": "Point", "coordinates": [5.9485221, 52.6814133]}, "properties": {"type": "inleverpunt", "locatieNaam": "Drogisterij Martine", "straatNaam": "Kerkstraat", "straatNr": "4", "postcode": "8325 BK", "plaats": "VOLLENHOVE", "merk": "Stibat", "puntType": "inzamelbak", "materialen": ["batterijen"], "uitbetaling": [], "vrijToegankelijk": false, "gemeenteBeperking": null, "openingstijden": null, "latitude": 52.6814133, "longitude": 5.9485221, "bronId": "L019982"}}, {"type": "Feature", "geometry": {"type": "Point", "coordinates": [5.9544451, 52.6811613]}, "properties": {"type": "inleverpunt", "locatieNaam": "Josien's Boek &amp; Mix", "straatNaam": "Kerkstraat", "straatNr": "90", "postcode": "8325 BM", "plaats": "VOLLENHOVE", "merk": "Stibat", "puntType": "inzamelbak", "materialen": ["batterijen"], "uitbetaling": [], "vrijToegankelijk": false, "gemeenteBeperking": null, "openingstijden": null, "latitude": 52.6811613, "longitude": 5.9544451, "bronId": "L041057"}}, {"type": "Feature", "geometry": {"type": "Point", "coordinates": [5.9559804, 52.6810562]}, "properties": {"type": "inleverpunt", "locatieNaam": "Aldi", "straatNaam": "Voorpoort", "straatNr": "13", "postcode": "8325 CL", "plaats": "Vollenhove", "merk": "Stibat", "puntType": "inzamelbak", "materialen": ["batterijen"], "uitbetaling": [], "vrijToegankelijk": false, "gemeenteBeperking": null, "openingstijden": null, "latitude": 52.6810562, "longitude": 5.9559804, "bronId": "L041550"}}, {"type": "Feature", "geometry": {"type": "Point", "coordinates": [5.9558377, 52.681755]}, "properties": {"type": "inleverpunt", "locatieNaam": "PLUS", "straatNaam": "Doelenstraat", "straatNr": "14", "postcode": "8325 CC", "plaats": "VOLLENHOVE", "merk": "Stibat", "puntType": "inzamelbak", "materialen": ["batterijen"], "uitbetaling": [], "vrijToegankelijk": false, "gemeenteBeperking": null, "openingstijden": null, "latitude": 52.681755, "longitude": 5.9558377, "bronId": "L046649"}}, {"type": "Feature", "geometry": {"type": "Point", "coordinates": [5.9575646, 52.6819724]}, "properties": {"type": "inleverpunt", "locatieNaam": "Hubo", "straatNaam": "De Weyert", "straatNr": "10", "postcode": "8325 EM", "plaats": "VOLLENHOVE", "merk": "Stibat", "puntType": "inzamelbak", "materialen": ["batterijen"], "uitbetaling": [], "vrijToegankelijk": false, "gemeenteBeperking": null, "openingstijden": null, "latitude": 52.6819724, "longitude": 5.9575646, "bronId": "L020273"}}, {"type": "Feature", "geometry": {"type": "Point", "coordinates": [5.9602378, 52.6812192]}, "properties": {"type": "inleverpunt", "locatieNaam": "Bouwmarkt Vinke Vastbouw", "straatNaam": "Productieweg", "straatNr": "3", "postcode": "8325 EZ", "plaats": "VOLLENHOVE", "merk": "Stibat", "puntType": "inzamelbak", "materialen": ["batterijen"], "uitbetaling": [], "vrijToegankelijk": false, "gemeenteBeperking": null, "openingstijden": null, "latitude": 52.6812192, "longitude": 5.9602378, "bronId": "L046039"}}, {"type": "Feature", "geometry": {"type": "Point", "coordinates": [5.9668653, 52.6819095]}, "properties": {"type": "inleverpunt", "locatieNaam": "Vollenhove 2Wielers", "straatNaam": "De Hagen", "straatNr": "5", "postcode": "8325 DB", "plaats": "Vollenhove", "merk": "Stibat", "puntType": "inzamelbak", "materialen": ["batterijen"], "uitbetaling": [], "vrijToegankelijk": false, "gemeenteBeperking": null, "openingstijden": null, "latitude": 52.6819095, "longitude": 5.9668653, "bronId": "L034119"}}, {"type": "Feature", "geometry": {"type": "Point", "coordinates": [6.0115975, 52.6649068]}, "properties": {"type": "inleverpunt", "locatieNaam": "Texaco", "straatNaam": "Heetveld", "straatNr": "13", "postcode": "8326 BG", "plaats": "SINT JANSKLOOSTER", "merk": "Stibat", "puntType": "inzamelbak", "materialen": ["batterijen"], "uitbetaling": [], "vrijToegankelijk": false, "gemeenteBeperking": null, "openingstijden": null, "latitude": 52.6649068, "longitude": 6.0115975, "bronId": "L029822"}}, {"type": "Feature", "geometry": {"type": "Point", "coordinates": [6.0027415, 52.6788173]}, "properties": {"type": "inleverpunt", "locatieNaam": "Coop Compact", "straatNaam": "Molenstraat", "straatNr": "27", "postcode": "8326 CV", "plaats": "SINT JANSKLOOSTER", "merk": "Stibat", "puntType": "inzamelbak", "materialen": ["batterijen"], "uitbetaling": [], "vrijToegankelijk": false, "gemeenteBeperking": null, "openingstijden": null, "latitude": 52.6788173, "longitude": 6.0027415, "bronId": "L016989"}}, {"type": "Feature", "geometry": {"type": "Point", "coordinates": [5.9615646, 52.7254956]}, "properties": {"type": "inleverpunt", "locatieNaam": "Coop Compact", "straatNaam": "Boffersweidje", "straatNr": "35", "postcode": "8356 BE", "plaats": "BLOKZIJL", "merk": "Stibat", "puntType": "inzamelbak", "materialen": ["batterijen"], "uitbetaling": [], "vrijToegankelijk": false, "gemeenteBeperking": null, "openingstijden": null, "latitude": 52.7254956, "longitude": 5.9615646, "bronId": "L017795"}}, {"type": "Feature", "geometry": {"type": "Point", "coordinates": [5.9691952, 52.7293947]}, "properties": {"type": "inleverpunt", "locatieNaam": "Camping \"Tussen de Diepen\"", "straatNaam": "Duinigermeerweg", "straatNr": "1a", "postcode": "8356 VZ", "plaats": "BLOKZIJL", "merk": "Stibat", "puntType": "inzamelbak", "materialen": ["batterijen"], "uitbetaling": [], "vrijToegankelijk": false, "gemeenteBeperking": null, "openingstijden": null, "latitude": 52.7293947, "longitude": 5.9691952, "bronId": "L003837"}}, {"type": "Feature", "geometry": {"type": "Point", "coordinates": [5.8419977, 52.7863574]}, "properties": {"type": "inleverpunt", "locatieNaam": "Centerrr (nu MFA Kuinre WC)", "straatNaam": "Burchtstraat", "straatNr": "3", "postcode": "8374 KC", "plaats": "KUINRE", "merk": "Stibat", "puntType": "inzamelbak", "materialen": ["batterijen"], "uitbetaling": [], "vrijToegankelijk": false, "gemeenteBeperking": null, "openingstijden": null, "latitude": 52.7863574, "longitude": 5.8419977, "bronId": "L043276"}}, {"type": "Feature", "geometry": {"type": "Point", "coordinates": [6.0795056, 52.7212821]}, "properties": {"type": "inleverpunt", "locatieNaam": "PLUS", "straatNaam": "Eendrachtsplein", "straatNr": "4", "postcode": "8355 DL", "plaats": "GIETHOORN", "merk": "Stibat", "puntType": "inzamelbak", "materialen": ["batterijen"], "uitbetaling": [], "vrijToegankelijk": false, "gemeenteBeperking": null, "openingstijden": null, "latitude": 52.7212821, "longitude": 6.0795056, "bronId": "L040484"}}, {"type": "Feature", "geometry": {"type": "Point", "coordinates": [5.9822345, 52.7793789]}, "properties": {"type": "inleverpunt", "locatieNaam": "Camping de Turftente", "straatNaam": "Wetering Oost", "straatNr": "74", "postcode": "8363 TK", "plaats": "WETERING", "merk": "Stibat", "puntType": "inzamelbak", "materialen": ["batterijen"], "uitbetaling": [], "vrijToegankelijk": false, "gemeenteBeperking": null, "openingstijden": null, "latitude": 52.7793789, "longitude": 5.9822345, "bronId": "L004530"}}, {"type": "Feature", "geometry": {"type": "Point", "coordinates": [5.9315361, 52.8082355]}, "properties": {"type": "inleverpunt", "locatieNaam": "Recreatiecentrum De Kluft", "straatNaam": "Hoogeweg", "straatNr": "26", "postcode": "8376 EM", "plaats": "OSSENZIJL", "merk": "Stibat", "puntType": "inzamelbak", "materialen": ["batterijen"], "uitbetaling": [], "vrijToegankelijk": false, "gemeenteBeperking": null, "openingstijden": null, "latitude": 52.8082355, "longitude": 5.9315361, "bronId": "L003476"}}, {"type": "Feature", "geometry": {"type": "Point", "coordinates": [5.9754852, 52.8195233]}, "properties": {"type": "inleverpunt", "locatieNaam": "PLUS", "straatNaam": "Hoofdstraat", "straatNr": "5", "postcode": "8375 AK", "plaats": "OLDEMARKT", "merk": "Stibat", "puntType": "inzamelbak", "materialen": ["batterijen"], "uitbetaling": [], "vrijToegankelijk": false, "gemeenteBeperking": null, "openingstijden": null, "latitude": 52.8195233, "longitude": 5.9754852, "bronId": "L046502"}}, {"type": "Feature", "geometry": {"type": "Point", "coordinates": [6.0019225, 52.8100695]}, "properties": {"type": "inleverpunt", "locatieNaam": "Villapark De Weerribben", "straatNaam": "Binnenweg", "straatNr": "12", "postcode": "8378 JJ", "plaats": "PAASLOO", "merk": "Stibat", "puntType": "inzamelbak", "materialen": ["batterijen"], "uitbetaling": [], "vrijToegankelijk": false, "gemeenteBeperking": null, "openingstijden": null, "latitude": 52.8100695, "longitude": 6.0019225, "bronId": "L011334"}}, {"type": "Feature", "geometry": {"type": "Point", "coordinates": [5.9671286, 52.8229476]}, "properties": {"type": "inleverpunt", "locatieNaam": "KlusWijs", "straatNaam": "Weerdijk", "straatNr": "7A", "postcode": "8375 AX", "plaats": "OLDEMARKT", "merk": "Stibat", "puntType": "inzamelbak", "materialen": ["batterijen"], "uitbetaling": [], "vrijToegankelijk": false, "gemeenteBeperking": null, "openingstijden": null, "latitude": 52.8229476, "longitude": 5.9671286, "bronId": "L038266"}}, {"type": "Feature", "geometry": {"type": "Point", "coordinates": [5.9751021, 52.8202046]}, "properties": {"type": "inleverpunt", "locatieNaam": "Drogisterij/warenhuis de Jonge", "straatNaam": "Hoofdstraat", "straatNr": "22", "postcode": "8375 AP", "plaats": "OLDEMARKT", "merk": "Stibat", "puntType": "inzamelbak", "materialen": ["batterijen"], "uitbetaling": [], "vrijToegankelijk": false, "gemeenteBeperking": null, "openingstijden": null, "latitude": 52.8202046, "longitude": 5.9751021, "bronId": "L032170"}}, {"type": "Feature", "geometry": {"type": "Point", "coordinates": [5.9688002, 52.8235447]}, "properties": {"type": "inleverpunt", "locatieNaam": "Ten Veen Tweewielers", "straatNaam": "Weerdijk", "straatNr": "4", "postcode": "8375 AX", "plaats": "OLDEMARKT", "merk": "Stibat", "puntType": "inzamelbak", "materialen": ["batterijen"], "uitbetaling": [], "vrijToegankelijk": false, "gemeenteBeperking": null, "openingstijden": null, "latitude": 52.8235447, "longitude": 5.9688002, "bronId": "L034123"}}, {"type": "Feature", "geometry": {"type": "Point", "coordinates": [5.9970357, 52.8152246]}, "properties": {"type": "inleverpunt", "locatieNaam": "Recreatiecentrum de Eikenhof", "straatNaam": "Paasloerweg", "straatNr": "12", "postcode": "8378 JB", "plaats": "PAASLOO", "merk": "Stibat", "puntType": "inzamelbak", "materialen": ["batterijen"], "uitbetaling": [], "vrijToegankelijk": false, "gemeenteBeperking": null, "openingstijden": null, "latitude": 52.8152246, "longitude": 5.9970357, "bronId": "L016867"}}, {"type": "Feature", "geometry": {"type": "Point", "coordinates": [6.0881083, 52.7799533]}, "properties": {"type": "inleverpunt", "locatieNaam": "Afvalbrengstation ROVA Steenwijk", "straatNaam": "Karenbrug", "straatNr": "3", "postcode": "8331 VE", "plaats": "STEENWIJK", "merk": "Stibat", "puntType": "inzamelbak", "materialen": ["batterijen"], "uitbetaling": [], "vrijToegankelijk": false, "gemeenteBeperking": null, "openingstijden": null, "latitude": 52.7799533, "longitude": 6.0881083, "bronId": "L035883"}}, {"type": "Feature", "geometry": {"type": "Point", "coordinates": [6.0956712, 52.7768511]}, "properties": {"type": "inleverpunt", "locatieNaam": "Praxis 2452", "straatNaam": "Koematen", "straatNr": "2", "postcode": "8331 TK", "plaats": "STEENWIJK", "merk": "Stibat", "puntType": "inzamelbak", "materialen": ["batterijen"], "uitbetaling": [], "vrijToegankelijk": false, "gemeenteBeperking": null, "openingstijden": null, "latitude": 52.7768511, "longitude": 6.0956712, "bronId": "L040615"}}, {"type": "Feature", "geometry": {"type": "Point", "coordinates": [6.0957619, 52.7791444]}, "properties": {"type": "inleverpunt", "locatieNaam": "Karwei", "straatNaam": "Broekslagen", "straatNr": "4", "postcode": "8331 TJ", "plaats": "STEENWIJK", "merk": "Stibat", "puntType": "inzamelbak", "materialen": ["batterijen"], "uitbetaling": [], "vrijToegankelijk": false, "gemeenteBeperking": null, "openingstijden": null, "latitude": 52.7791444, "longitude": 6.0957619, "bronId": "L007353"}}, {"type": "Feature", "geometry": {"type": "Point", "coordinates": [6.1098213, 52.7781699]}, "properties": {"type": "inleverpunt", "locatieNaam": "Stefan Computers", "straatNaam": "De Klim", "straatNr": "4", "postcode": "8343 XP", "plaats": "ZUIDVEEN", "merk": "Stibat", "puntType": "inzamelbak", "materialen": ["batterijen"], "uitbetaling": [], "vrijToegankelijk": false, "gemeenteBeperking": null, "openingstijden": null, "latitude": 52.7781699, "longitude": 6.1098213, "bronId": "L015440"}}, {"type": "Feature", "geometry": {"type": "Point", "coordinates": [6.0625475, 52.8043298]}, "properties": {"type": "inleverpunt", "locatieNaam": "Spar", "straatNaam": "Gelderingen", "straatNr": "12", "postcode": "8341 PX", "plaats": "STEENWIJKERWOLD", "merk": "Stibat", "puntType": "inzamelbak", "materialen": ["batterijen"], "uitbetaling": [], "vrijToegankelijk": false, "gemeenteBeperking": null, "openingstijden": null, "latitude": 52.8043298, "longitude": 6.0625475, "bronId": "L009138"}}, {"type": "Feature", "geometry": {"type": "Point", "coordinates": [6.0963396, 52.7912821]}, "properties": {"type": "inleverpunt", "locatieNaam": "Welkoop", "straatNaam": "Roomweg", "straatNr": "1", "postcode": "8334 NR", "plaats": "TUK", "merk": "Stibat", "puntType": "inzamelbak", "materialen": ["batterijen"], "uitbetaling": [], "vrijToegankelijk": false, "gemeenteBeperking": null, "openingstijden": null, "latitude": 52.7912821, "longitude": 6.0963396, "bronId": "L017501"}}, {"type": "Feature", "geometry": {"type": "Point", "coordinates": [6.0997004, 52.7908706]}, "properties": {"type": "inleverpunt", "locatieNaam": "Co-bra T. Totaalwielers &amp; Trends", "straatNaam": "Korte Baan", "straatNr": "24", "postcode": "8331 LA", "plaats": "STEENWIJK", "merk": "Stibat", "puntType": "inzamelbak", "materialen": ["batterijen"], "uitbetaling": [], "vrijToegankelijk": false, "gemeenteBeperking": null, "openingstijden": null, "latitude": 52.7908706, "longitude": 6.0997004, "bronId": "L034122"}}, {"type": "Feature", "geometry": {"type": "Point", "coordinates": [6.1092674, 52.7869874]}, "properties": {"type": "inleverpunt", "locatieNaam": "Jumbo", "straatNaam": "Steenwijkerdiep", "straatNr": "61", "postcode": "8331 LP", "plaats": "STEENWIJK", "merk": "Stibat", "puntType": "inzamelbak", "materialen": ["batterijen"], "uitbetaling": [], "vrijToegankelijk": false, "gemeenteBeperking": null, "openingstijden": null, "latitude": 52.7869874, "longitude": 6.1092674, "bronId": "L036869"}}, {"type": "Feature", "geometry": {"type": "Point", "coordinates": [6.0965809, 52.7925907]}, "properties": {"type": "inleverpunt", "locatieNaam": "Groenrijk", "straatNaam": "Roomweg", "straatNr": "7", "postcode": "8334 NR", "plaats": "TUK", "merk": "Stibat", "puntType": "inzamelbak", "materialen": ["batterijen"], "uitbetaling": [], "vrijToegankelijk": false, "gemeenteBeperking": null, "openingstijden": null, "latitude": 52.7925907, "longitude": 6.0965809, "bronId": "L040832"}}, {"type": "Feature", "geometry": {"type": "Point", "coordinates": [6.1107236, 52.7869602]}, "properties": {"type": "inleverpunt", "locatieNaam": "Aldi", "straatNaam": "Steenwijkerdiep", "straatNr": "27", "postcode": "8331 LP", "plaats": "Steenwijk", "merk": "Stibat", "puntType": "inzamelbak", "materialen": ["batterijen"], "uitbetaling": [], "vrijToegankelijk": false, "gemeenteBeperking": null, "openingstijden": null, "latitude": 52.7869602, "longitude": 6.1107236, "bronId": "L041551"}}, {"type": "Feature", "geometry": {"type": "Point", "coordinates": [6.1111443, 52.7869175]}, "properties": {"type": "inleverpunt", "locatieNaam": "Budget Food", "straatNaam": "Steenwijkerdiep", "straatNr": "25", "postcode": "8331 LP", "plaats": "STEENWIJK", "merk": "Stibat", "puntType": "inzamelbak", "materialen": ["batterijen"], "uitbetaling": [], "vrijToegankelijk": false, "gemeenteBeperking": null, "openingstijden": null, "latitude": 52.7869175, "longitude": 6.1111443, "bronId": "L046565"}}, {"type": "Feature", "geometry": {"type": "Point", "coordinates": [6.1151931, 52.7858729]}, "properties": {"type": "inleverpunt", "locatieNaam": "Van Boxtel hoorwinkel", "straatNaam": "Gasthuisstraat", "straatNr": "29", "postcode": "8331 JM", "plaats": "STEENWIJK", "merk": "Stibat", "puntType": "inzamelbak", "materialen": ["batterijen"], "uitbetaling": [], "vrijToegankelijk": false, "gemeenteBeperking": null, "openingstijden": null, "latitude": 52.7858729, "longitude": 6.1151931, "bronId": "L035201"}}, {"type": "Feature", "geometry": {"type": "Point", "coordinates": [6.1143241, 52.786929]}, "properties": {"type": "inleverpunt", "locatieNaam": "Zeeman", "straatNaam": "Woldpromenade", "straatNr": "30", "postcode": "8331 JH", "plaats": "Steenwijk", "merk": "Stibat", "puntType": "inzamelbak", "materialen": ["batterijen"], "uitbetaling": [], "vrijToegankelijk": false, "gemeenteBeperking": null, "openingstijden": null, "latitude": 52.786929, "longitude": 6.1143241, "bronId": "L020782"}}, {"type": "Feature", "geometry": {"type": "Point", "coordinates": [6.114725, 52.7868183]}, "properties": {"type": "inleverpunt", "locatieNaam": "Electro World", "straatNaam": "Woldpromenade", "straatNr": "13-17", "postcode": "8331 JD", "plaats": "STEENWIJK", "merk": "Stibat", "puntType": "inzamelbak", "materialen": ["batterijen"], "uitbetaling": [], "vrijToegankelijk": false, "gemeenteBeperking": null, "openingstijden": null, "latitude": 52.7868183, "longitude": 6.114725, "bronId": "L043726"}}, {"type": "Feature", "geometry": {"type": "Point", "coordinates": [6.1148564, 52.7868567]}, "properties": {"type": "inleverpunt", "locatieNaam": "Hobbygereedschap PEN", "straatNaam": "Woldpromenade", "straatNr": "11", "postcode": "8331 JD", "plaats": "STEENWIJK", "merk": "Stibat", "puntType": "inzamelbak", "materialen": ["batterijen"], "uitbetaling": [], "vrijToegankelijk": false, "gemeenteBeperking": null, "openingstijden": null, "latitude": 52.7868567, "longitude": 6.1148564, "bronId": "L026490"}}, {"type": "Feature", "geometry": {"type": "Point", "coordinates": [6.1144713, 52.7870366]}, "properties": {"type": "inleverpunt", "locatieNaam": "Phone House", "straatNaam": "Woldpromenade", "straatNr": "26", "postcode": "8331 JH", "plaats": "STEENWIJK", "merk": "Stibat", "puntType": "inzamelbak", "materialen": ["batterijen"], "uitbetaling": [], "vrijToegankelijk": false, "gemeenteBeperking": null, "openingstijden": null, "latitude": 52.7870366, "longitude": 6.1144713, "bronId": "L024206"}}, {"type": "Feature", "geometry": {"type": "Point", "coordinates": [6.1146507, 52.7869658]}, "properties": {"type": "inleverpunt", "locatieNaam": "Beter Horen", "straatNaam": "Woldpromenade", "straatNr": "34", "postcode": "8331 JH", "plaats": "STEENWIJK", "merk": "Stibat", "puntType": "inzamelbak", "materialen": ["batterijen"], "uitbetaling": [], "vrijToegankelijk": false, "gemeenteBeperking": null, "openingstijden": null, "latitude": 52.7869658, "longitude": 6.1146507, "bronId": "L031700"}}, {"type": "Feature", "geometry": {"type": "Point", "coordinates": [6.1163452, 52.7863533]}, "properties": {"type": "inleverpunt", "locatieNaam": "EP:", "straatNaam": "Gasthuisstraat", "straatNr": "1", "postcode": "8331 JM", "plaats": "Steenwijk", "merk": "Stibat", "puntType": "inzamelbak", "materialen": ["batterijen"], "uitbetaling": [], "vrijToegankelijk": false, "gemeenteBeperking": null, "openingstijden": null, "latitude": 52.7863533, "longitude": 6.1163452, "bronId": "L018867"}}, {"type": "Feature", "geometry": {"type": "Point", "coordinates": [6.1160821, 52.7865796]}, "properties": {"type": "inleverpunt", "locatieNaam": "Steenwijks Boekhuys", "straatNaam": "Markt", "straatNr": "38", "postcode": "8331 HJ", "plaats": "STEENWIJK", "merk": "Stibat", "puntType": "inzamelbak", "materialen": ["batterijen"], "uitbetaling": [], "vrijToegankelijk": false, "gemeenteBeperking": null, "openingstijden": null, "latitude": 52.7865796, "longitude": 6.1160821, "bronId": "L019240"}}, {"type": "Feature", "geometry": {"type": "Point", "coordinates": [6.114275, 52.7875522]}, "properties": {"type": "inleverpunt", "locatieNaam": "1523 Albert Heijn", "straatNaam": "Prinsen Hoven", "straatNr": "1", "postcode": "8331 JV", "plaats": "STEENWIJK", "merk": "Stibat", "puntType": "inzamelbak", "materialen": ["batterijen"], "uitbetaling": [], "vrijToegankelijk": false, "gemeenteBeperking": null, "openingstijden": null, "latitude": 52.7875522, "longitude": 6.114275, "bronId": "L007070"}}, {"type": "Feature", "geometry": {"type": "Point", "coordinates": [6.1163425, 52.7870812]}, "properties": {"type": "inleverpunt", "locatieNaam": "6232 Etos", "straatNaam": "Markt", "straatNr": "10", "postcode": "8331 HH", "plaats": "STEENWIJK", "merk": "Stibat", "puntType": "inzamelbak", "materialen": ["batterijen"], "uitbetaling": [], "vrijToegankelijk": false, "gemeenteBeperking": null, "openingstijden": null, "latitude": 52.7870812, "longitude": 6.1163425, "bronId": "L027725"}}, {"type": "Feature", "geometry": {"type": "Point", "coordinates": [6.1080646, 52.7908737]}, "properties": {"type": "inleverpunt", "locatieNaam": "Stichting Kringloopwinkels Steenwijkerland (SKWS)", "straatNaam": "Produktieweg", "straatNr": "20", "postcode": "8331 LK", "plaats": "STEENWIJK", "merk": "Stibat", "puntType": "inzamelbak", "materialen": ["batterijen"], "uitbetaling": [], "vrijToegankelijk": false, "gemeenteBeperking": null, "openingstijden": null, "latitude": 52.7908737, "longitude": 6.1080646, "bronId": "L049609"}}, {"type": "Feature", "geometry": {"type": "Point", "coordinates": [6.1169459, 52.7870696]}, "properties": {"type": "inleverpunt", "locatieNaam": "Primera", "straatNaam": "Oosterstraat", "straatNr": "4-6", "postcode": "8331 HD", "plaats": "STEENWIJK", "merk": "Stibat", "puntType": "inzamelbak", "materialen": ["batterijen"], "uitbetaling": [], "vrijToegankelijk": false, "gemeenteBeperking": null, "openingstijden": null, "latitude": 52.7870696, "longitude": 6.1169459, "bronId": "L023146"}}, {"type": "Feature", "geometry": {"type": "Point", "coordinates": [6.117141, 52.787128]}, "properties": {"type": "inleverpunt", "locatieNaam": "Hans Anders", "straatNaam": "Oosterstraat", "straatNr": "10", "postcode": "8331 HD", "plaats": "STEENWIJK", "merk": "Stibat", "puntType": "inzamelbak", "materialen": ["batterijen"], "uitbetaling": [], "vrijToegankelijk": false, "gemeenteBeperking": null, "openingstijden": null, "latitude": 52.787128, "longitude": 6.117141, "bronId": "L037931"}}, {"type": "Feature", "geometry": {"type": "Point", "coordinates": [6.1175315, 52.7872717]}, "properties": {"type": "inleverpunt", "locatieNaam": "Intertoys", "straatNaam": "Oosterstraat", "straatNr": "50-52", "postcode": "8331 HE", "plaats": "STEENWIJK", "merk": "Stibat", "puntType": "inzamelbak", "materialen": ["batterijen"], "uitbetaling": [], "vrijToegankelijk": false, "gemeenteBeperking": null, "openingstijden": null, "latitude": 52.7872717, "longitude": 6.1175315, "bronId": "L006475"}}, {"type": "Feature", "geometry": {"type": "Point", "coordinates": [6.1189453, 52.7867148]}, "properties": {"type": "inleverpunt", "locatieNaam": "Plus", "straatNaam": "Scholestraat", "straatNr": "28", "postcode": "8331 HS", "plaats": "STEENWIJK", "merk": "Stibat", "puntType": "inzamelbak", "materialen": ["batterijen"], "uitbetaling": [], "vrijToegankelijk": false, "gemeenteBeperking": null, "openingstijden": null, "latitude": 52.7867148, "longitude": 6.1189453, "bronId": "L021832"}}, {"type": "Feature", "geometry": {"type": "Point", "coordinates": [6.1177871, 52.7874858]}, "properties": {"type": "inleverpunt", "locatieNaam": "Trekpleister", "straatNaam": "Oosterstraat", "straatNr": "37", "postcode": "8331 HB", "plaats": "STEENWIJK", "merk": "Stibat", "puntType": "inzamelbak", "materialen": ["batterijen"], "uitbetaling": [], "vrijToegankelijk": false, "gemeenteBeperking": null, "openingstijden": null, "latitude": 52.7874858, "longitude": 6.1177871, "bronId": "L019016"}}, {"type": "Feature", "geometry": {"type": "Point", "coordinates": [6.1180963, 52.7873581]}, "properties": {"type": "inleverpunt", "locatieNaam": "Kruidvat", "straatNaam": "Oosterstraat", "straatNr": "36", "postcode": "8331 HE", "plaats": "STEENWIJK", "merk": "Stibat", "puntType": "inzamelbak", "materialen": ["batterijen"], "uitbetaling": [], "vrijToegankelijk": false, "gemeenteBeperking": null, "openingstijden": null, "latitude": 52.7873581, "longitude": 6.1180963, "bronId": "L016331"}}, {"type": "Feature", "geometry": {"type": "Point", "coordinates": [6.1183957, 52.787488]}, "properties": {"type": "inleverpunt", "locatieNaam": "Rosenboom Repair", "straatNaam": "Oosterstraat", "straatNr": "21", "postcode": "8331 HA", "plaats": "STEENWIJK", "merk": "Stibat", "puntType": "inzamelbak", "materialen": ["batterijen"], "uitbetaling": [], "vrijToegankelijk": false, "gemeenteBeperking": null, "openingstijden": null, "latitude": 52.787488, "longitude": 6.1183957, "bronId": "L039658"}}, {"type": "Feature", "geometry": {"type": "Point", "coordinates": [6.1186891, 52.787514]}, "properties": {"type": "inleverpunt", "locatieNaam": "Wibra", "straatNaam": "Oosterstraat", "straatNr": "71", "postcode": "8331 HC", "plaats": "STEENWIJK", "merk": "Stibat", "puntType": "inzamelbak", "materialen": ["batterijen"], "uitbetaling": [], "vrijToegankelijk": false, "gemeenteBeperking": null, "openingstijden": null, "latitude": 52.787514, "longitude": 6.1186891, "bronId": "L045474"}}, {"type": "Feature", "geometry": {"type": "Point", "coordinates": [6.118929, 52.7875147]}, "properties": {"type": "inleverpunt", "locatieNaam": "HEMA Oosterstraat", "straatNaam": "Oosterstraat", "straatNr": "77-79", "postcode": "8331 HC", "plaats": "STEENWIJK", "merk": "Stibat", "puntType": "inzamelbak", "materialen": ["batterijen"], "uitbetaling": [], "vrijToegankelijk": false, "gemeenteBeperking": null, "openingstijden": null, "latitude": 52.7875147, "longitude": 6.118929, "bronId": "L006036"}}, {"type": "Feature", "geometry": {"type": "Point", "coordinates": [6.0501232, 52.8211421]}, "properties": {"type": "inleverpunt", "locatieNaam": "Groepsverblijf De Riethoeve", "straatNaam": "Paasloregel", "straatNr": "45", "postcode": "8338 SV", "plaats": "WILLEMSOORD", "merk": "Stibat", "puntType": "inzamelbak", "materialen": ["batterijen"], "uitbetaling": [], "vrijToegankelijk": false, "gemeenteBeperking": null, "openingstijden": null, "latitude": 52.8211421, "longitude": 6.0501232, "bronId": "L009892"}}, {"type": "Feature", "geometry": {"type": "Point", "coordinates": [6.1308931, 52.7929925]}, "properties": {"type": "inleverpunt", "locatieNaam": "4066 Albert Heijn", "straatNaam": "Het Schar", "straatNr": "3", "postcode": "8332 CL", "plaats": "STEENWIJK", "merk": "Stibat", "puntType": "inzamelbak", "materialen": ["batterijen"], "uitbetaling": [], "vrijToegankelijk": false, "gemeenteBeperking": null, "openingstijden": null, "latitude": 52.7929925, "longitude": 6.1308931, "bronId": "L032185"}}, {"type": "Feature", "geometry": {"type": "Point", "coordinates": [6.1241724, 52.7969547]}, "properties": {"type": "inleverpunt", "locatieNaam": "Texaco", "straatNaam": "Eesveenseweg", "straatNr": "29", "postcode": "8332 JA", "plaats": "STEENWIJK", "merk": "Stibat", "puntType": "inzamelbak", "materialen": ["batterijen"], "uitbetaling": [], "vrijToegankelijk": false, "gemeenteBeperking": null, "openingstijden": null, "latitude": 52.7969547, "longitude": 6.1241724, "bronId": "L021145"}}, {"type": "Feature", "geometry": {"type": "Point", "coordinates": [6.0639578, 52.8226461]}, "properties": {"type": "inleverpunt", "locatieNaam": "Uw Groene Vakwinkel", "straatNaam": "Steenwijkerweg", "straatNr": "196", "postcode": "8338 LD", "plaats": "Willemsoord", "merk": "Stibat", "puntType": "inzamelbak", "materialen": ["batterijen"], "uitbetaling": [], "vrijToegankelijk": false, "gemeenteBeperking": null, "openingstijden": null, "latitude": 52.8226461, "longitude": 6.0639578, "bronId": "L020170"}}, {"type": "Feature", "geometry": {"type": "Point", "coordinates": [6.1238964, 52.7981918]}, "properties": {"type": "inleverpunt", "locatieNaam": "Lidl", "straatNaam": "Woldmeentherand", "straatNr": "1", "postcode": "8332 JE", "plaats": "STEENWIJK", "merk": "Stibat", "puntType": "inzamelbak", "materialen": ["batterijen"], "uitbetaling": [], "vrijToegankelijk": false, "gemeenteBeperking": null, "openingstijden": null, "latitude": 52.7981918, "longitude": 6.1238964, "bronId": "L032006"}}, {"type": "Feature", "geometry": {"type": "Point", "coordinates": [6.1200902, 52.8143787]}, "properties": {"type": "inleverpunt", "locatieNaam": "Residence De Eese", "straatNaam": "Bultweg", "straatNr": "25", "postcode": "8346 KB", "plaats": "DE BULT", "merk": "Stibat", "puntType": "inzamelbak", "materialen": ["batterijen"], "uitbetaling": [], "vrijToegankelijk": false, "gemeenteBeperking": null, "openingstijden": null, "latitude": 52.8143787, "longitude": 6.1200902, "bronId": "L004400"}}, {"type": "Feature", "geometry": {"type": "Point", "coordinates": [6.1170379, 52.8177963]}, "properties": {"type": "inleverpunt", "locatieNaam": "Hampshire Hotel - de Eese", "straatNaam": "Duivenslaagte", "straatNr": "2", "postcode": "8346 KH", "plaats": "DE BULT", "merk": "Stibat", "puntType": "inzamelbak", "materialen": ["batterijen"], "uitbetaling": [], "vrijToegankelijk": false, "gemeenteBeperking": null, "openingstijden": null, "latitude": 52.8177963, "longitude": 6.1170379, "bronId": "L028770"}}, {"type": "Feature", "geometry": {"type": "Point", "coordinates": [6.1235761, 52.8293744]}, "properties": {"type": "inleverpunt", "locatieNaam": "Camping De Hoogte", "straatNaam": "Van Karnebeeklaan", "straatNr": "2d", "postcode": "8347 WB", "plaats": "EESVEEN", "merk": "Stibat", "puntType": "inzamelbak", "materialen": ["batterijen"], "uitbetaling": [], "vrijToegankelijk": false, "gemeenteBeperking": null, "openingstijden": null, "latitude": 52.8293744, "longitude": 6.1235761, "bronId": "L011745"}}, {"type": "Feature", "geometry": {"type": "Polygon", "coordinates": [[[6.058626002400669, 52.652296004283556], [6.0614070024034366, 52.6528580042838], [6.068680002410726, 52.65636700428558], [6.085563002427605, 52.66327400428891], [6.097360002439311, 52.664627004289294], [6.09991700244174, 52.660821004287065], [6.100998002442829, 52.661562004287475], [6.102368002444233, 52.66345100428847], [6.102798002444651, 52.663183004288285], [6.1074390024493015, 52.66561800428952], [6.115521002457336, 52.66739900429025], [6.119566002461349, 52.66793700429045], [6.119541002461336, 52.66820400429061], [6.121934002463703, 52.66830100429052], [6.123012002464799, 52.66952200429122], [6.125162002466941, 52.67013400429147], [6.127201002468998, 52.67184500429239], [6.1277570024695525, 52.672056004292486], [6.13017300247193, 52.67161600429215], [6.130917002472669, 52.67173600429221], [6.132784002474556, 52.673403004293064], [6.135892002477657, 52.67448300429358], [6.136141002477923, 52.675298004294035], [6.1353610024771825, 52.6766690042948], [6.135738002477566, 52.67707200429503], [6.141564002483366, 52.67872100429573], [6.145646002487441, 52.68036900429655], [6.152127002493943, 52.684276004298496], [6.1547900024966715, 52.6882060043006], [6.154498002496434, 52.69041100430188], [6.158976002500903, 52.69215400430268], [6.158803002500739, 52.692480004302894], [6.156607002498558, 52.691957004302665], [6.155245002497262, 52.694039004303875], [6.153734002495857, 52.69754400430588], [6.151420002493665, 52.70137000430808], [6.151985002494228, 52.70159700430819], [6.151423002493702, 52.70288300430891], [6.148498002490932, 52.70763100431166], [6.146131002488687, 52.711370004313835], [6.145719002488277, 52.71126500431379], [6.140180002483021, 52.71994900431878], [6.12885200247228, 52.73790300432911], [6.1291480024725775, 52.7380280043292], [6.127229002470733, 52.740049004330324], [6.120332002464176, 52.75014900433617], [6.120064002463929, 52.750882004336546], [6.120557002464453, 52.75246800433741], [6.121666002465596, 52.754284004338395], [6.126617002470548, 52.75693500433966], [6.132468002476365, 52.758668004340464], [6.13865500248248, 52.75909400434048], [6.156703002500379, 52.76269900434189], [6.163940002507607, 52.766449004343706], [6.168525002512143, 52.76709300434388], [6.173099002516805, 52.773317004347184], [6.1802530025239495, 52.77719200434904], [6.193808002537533, 52.78640300435364], [6.201731002545511, 52.793696004357386], [6.177230002521837, 52.81385100436926], [6.17241900251714, 52.8156390043704], [6.171682002516399, 52.81506000437008], [6.157644002502807, 52.825036004376], [6.149199002494567, 52.82840200437811], [6.1519620024972985, 52.82883000437827], [6.136825002482626, 52.838798004384174], [6.135344002481205, 52.840403004385124], [6.130312002476332, 52.84393000438718], [6.128694002474833, 52.84780700438934], [6.119820002466249, 52.85421500439312], [6.092362002438948, 52.844282004388624], [6.087480002434112, 52.84311400438812], [6.083767002430382, 52.84038900438676], [6.0837480024303465, 52.83980800438647], [6.082346002428947, 52.8390690043861], [6.081000002427612, 52.83873200438596], [6.075614002422303, 52.83869700438613], [6.068124002414937, 52.839411004386676], [6.061500002408405, 52.83929700438686], [6.056206002403148, 52.83789900438631], [6.0526070023995855, 52.83733900438607], [6.055084002401867, 52.8311540043826], [6.059951002406537, 52.82611900437974], [6.052936002399564, 52.82412300437887], [6.046957002393576, 52.82052600437711], [6.041808002388458, 52.81907600437648], [6.0311680023778536, 52.81499100437455], [6.026616002373528, 52.821078004378016], [6.024559002371534, 52.82254500437887], [6.017321002364378, 52.82183000437873], [6.00748300235462, 52.82004600437805], [5.999078002346244, 52.81691000437656], [5.9965080023437, 52.81656200437646], [5.994210002341503, 52.81911600437794], [5.990575002337982, 52.82159700437937], [5.988904002336348, 52.822064004379705], [5.986479002333944, 52.82169300437952], [5.98177700232951, 52.82928300438384], [5.976175002324133, 52.834748004386945], [5.97287100232104, 52.84071400439033], [5.972438002320645, 52.841917004390986], [5.973128002321342, 52.84247000439123], [5.96997600231823, 52.842375004391286], [5.960839002309164, 52.84048400439055], [5.95809800230643, 52.839395004389985], [5.955764002304073, 52.837374004389], [5.956853002305062, 52.83444300438733], [5.95634400230453, 52.833407004386785], [5.955706002303896, 52.83321900438672], [5.954619002302827, 52.83338200438682], [5.953074002301337, 52.83458100438754], [5.945933002294374, 52.8374520043893], [5.94060800228907, 52.83570600438849], [5.937656002286146, 52.83535200438842], [5.931587002280158, 52.83532800438856], [5.927079002275664, 52.833827004387864], [5.926728002275306, 52.83339900438761], [5.927097002275659, 52.83290300438736], [5.929963002278477, 52.83262900438712], [5.9306890022791725, 52.83193800438673], [5.929910002278386, 52.83130700438642], [5.925524002274063, 52.83153900438666], [5.9236190022721775, 52.83125600438657], [5.922841002271395, 52.83079200438637], [5.922653002271188, 52.83007800438593], [5.923070002271583, 52.82953200438562], [5.92593500227439, 52.82873300438511], [5.9264070022748445, 52.82835000438486], [5.926114002274544, 52.82795500438472], [5.923875002272336, 52.828003004384776], [5.922905002271363, 52.827452004384504], [5.92434000227268, 52.82399200438257], [5.924079002272407, 52.823488004382305], [5.919385002267732, 52.82194300438159], [5.914998002263325, 52.81945600438034], [5.9135590022618745, 52.81832900437979], [5.911383002259644, 52.81546700437829], [5.909370002257615, 52.81405900437758], [5.90600700225426, 52.81293900437705], [5.902297002250581, 52.812424004376865], [5.900657002248944, 52.81182500437659], [5.899777002248058, 52.81110700437623], [5.8986370022468515, 52.80847400437478], [5.897881002246089, 52.80780300437446], [5.895182002243401, 52.80712500437414], [5.892782002240998, 52.80605100437365], [5.882578002230856, 52.80392000437275], [5.88149600222977, 52.80330100437245], [5.879747002227984, 52.801309004371404], [5.878763002226997, 52.80084900437117], [5.876292002224557, 52.80085500437124], [5.872681002221027, 52.802070004372005], [5.868680002217092, 52.802726004372474], [5.865636002214146, 52.80465000437362], [5.861805002210348, 52.80433100437351], [5.859640002208214, 52.804536004373674], [5.858715002207317, 52.80509200437403], [5.857027002205716, 52.80722900437525], [5.856524002205212, 52.80708900437518], [5.8554380022041, 52.805723004374464], [5.854667002203332, 52.80550700437435], [5.850172002198909, 52.8061740043748], [5.844166002192953, 52.80545200437459], [5.8435940021923765, 52.80503300437435], [5.84220200219108, 52.807584004375784], [5.840619002189502, 52.80715500437563], [5.838751002187622, 52.80603300437506], [5.836474002185364, 52.805793004375], [5.835928002184843, 52.80637500437532], [5.837365002186318, 52.80826200437635], [5.83499300218402, 52.809799004377204], [5.833629002182732, 52.81165600437827], [5.828721002177935, 52.81342700437934], [5.824198002173461, 52.81327700437938], [5.822211002171559, 52.815230004380474], [5.820143002169542, 52.81605300438098], [5.819744002169184, 52.81727800438169], [5.817029002166483, 52.816674004381426], [5.810016002159469, 52.813884004380085], [5.795177002144577, 52.806522004376426], [5.7992600021484515, 52.801286004373445], [5.803474002152478, 52.796859004370894], [5.80592600215484, 52.79485900436977], [5.8168570021654595, 52.788954004366225], [5.8186560021672, 52.787636004365496], [5.818249002166776, 52.786953004365095], [5.818792002167244, 52.784697004363856], [5.828147002176517, 52.785545004364046], [5.836254002184533, 52.78563700436395], [5.837311002185558, 52.785024004363564], [5.841618002189822, 52.78513800436352], [5.842539002190715, 52.784546004363186], [5.843482002191642, 52.78445200436311], [5.849699002197796, 52.78473900436311], [5.860258002208146, 52.78181700436121], [5.868718002216398, 52.778137004358975], [5.87559400222309, 52.77464300435686], [5.8796830022270905, 52.77325100435604], [5.88270200223002, 52.77137500435485], [5.885137002232366, 52.76930100435367], [5.894383002241384, 52.76513400435106], [5.896085002242996, 52.76282200434981], [5.900054002246871, 52.76119500434876], [5.906009002252763, 52.76132600434872], [5.922574002268827, 52.75069200434237], [5.930151002276001, 52.739586004336026], [5.93555900228108, 52.7302520043307], [5.942555002287564, 52.71500200432204], [5.95116100229599, 52.71191900432007], [5.955316002299968, 52.70726200431741], [5.954839002299396, 52.70376800431541], [5.9590120023035285, 52.703863004315394], [5.964825002309116, 52.69810400431197], [5.965155002309314, 52.69357000430946], [5.9621050023062026, 52.69035100430777], [5.959400002303518, 52.6899500043076], [5.9527400022967925, 52.68524000430515], [5.951509002295567, 52.684952004305], [5.949519002293618, 52.68571300430551], [5.944708002288771, 52.68271300430397], [5.9453770022894235, 52.68230100430372], [5.933870002277835, 52.67551000430026], [5.932751002276662, 52.67318900429896], [5.933084002276938, 52.6712640042979], [5.93514800227892, 52.6692340042967], [5.939726002283441, 52.668835004296334], [5.940101002283857, 52.67042700429719], [5.941594002285339, 52.670517004297245], [5.954017002297557, 52.66767400429528], [5.958173002301676, 52.66780900429527], [5.961900002305344, 52.667041004294695], [5.963054002306467, 52.66639800429429], [5.964968002308353, 52.66615400429414], [5.966852002310233, 52.6665800042943], [5.967933002311286, 52.665926004293915], [5.970814002314116, 52.665189004293424], [5.974549002317744, 52.66277100429196], [5.979546002322625, 52.66049600429052], [5.984048002326993, 52.65719200428857], [5.99953000234225, 52.65463600428669], [6.006915002349465, 52.65128600428456], [6.01491800235723, 52.645617004281135], [6.015737002358, 52.644115004280245], [6.017298002359522, 52.64323400427975], [6.018073002360307, 52.643855004280034], [6.018859002361076, 52.643514004279865], [6.021083002363219, 52.64136300427855], [6.02469200236681, 52.64209900427886], [6.03820800238039, 52.64950000428263], [6.054864002396891, 52.650219004282526], [6.058626002400669, 52.652296004283556]]]}, "properties": {"type": "boundary", "gemeente": "Steenwijkerland"}}]}