{"type": "FeatureCollection", "metadata": {"gemeente": "Steenbergen", "slug": "steenbergen", "generated_at": "2026-07-28T19:03:25.026558Z", "total_points": 56, "merken": ["StatiegeldNederland", "Stibat", "StichtingOPEN"], "bounds": [4.218441, 51.5684932, 4.411978, 51.6381879]}, "features": [{"type": "Feature", "geometry": {"type": "Point", "coordinates": [4.314476, 51.5870613]}, "properties": {"type": "inleverpunt", "locatieNaam": "Albert Heijn", "straatNaam": "Lindenburghlaan", "straatNr": "1", "postcode": "4651 TM", "plaats": "Steenbergen", "merk": "StatiegeldNederland", "puntType": "automaat", "materialen": ["pet-groot", "pet-klein", "blik", "glas", "krat"], "uitbetaling": ["bonnetje", "donatie"], "vrijToegankelijk": true, "gemeenteBeperking": null, "openingstijden": {"ma": "08:00–21:00", "di": "08:00–21:00", "wo": "08:00–21:00", "do": "08:00–21:00", "vr": "08:00–21:00", "za": "08:00–21:00", "zo": "08:00–21:00"}, "latitude": 51.5870613, "longitude": 4.314476, "bronId": "252478"}}, {"type": "Feature", "geometry": {"type": "Point", "coordinates": [4.3702629, 51.6360565]}, "properties": {"type": "inleverpunt", "locatieNaam": "Albert Heijn", "straatNaam": "Westvoortstraat", "straatNr": "50", "postcode": "4671 CE", "plaats": "Dinteloord", "merk": "StatiegeldNederland", "puntType": "automaat", "materialen": ["pet-groot", "pet-klein", "blik", "glas", "krat"], "uitbetaling": ["bonnetje", "donatie"], "vrijToegankelijk": true, "gemeenteBeperking": null, "openingstijden": {"ma": "08:00–21:00", "di": "08:00–21:00", "wo": "08:00–21:00", "do": "08:00–21:00", "vr": "08:00–21:00", "za": "08:00–21:00", "zo": "10:00–18:00"}, "latitude": 51.6360565, "longitude": 4.3702629, "bronId": "252915"}}, {"type": "Feature", "geometry": {"type": "Point", "coordinates": [4.316909, 51.5881997]}, "properties": {"type": "inleverpunt", "locatieNaam": "Aldi", "straatNaam": "Westdam", "straatNr": "81", "postcode": "4651 BE", "plaats": "Steenbergen", "merk": "StatiegeldNederland", "puntType": "automaat", "materialen": ["pet-groot", "pet-klein", "blik", "glas", "krat"], "uitbetaling": ["bonnetje"], "vrijToegankelijk": true, "gemeenteBeperking": null, "openingstijden": {"ma": "08:00–20:00", "di": "08:00–20:00", "wo": "08:00–20:00", "do": "08:00–20:00", "vr": "08:00–20:00", "za": "08:00–20:00", "zo": "10:00–17:00"}, "latitude": 51.5881997, "longitude": 4.316909, "bronId": "253434"}}, {"type": "Feature", "geometry": {"type": "Point", "coordinates": [4.4087261, 51.569189]}, "properties": {"type": "inleverpunt", "locatieNaam": "Buurtsuper", "straatNaam": "Molenstraat", "straatNr": "12-14", "postcode": "4756 BE", "plaats": "Kruisland", "merk": "StatiegeldNederland", "puntType": "automaat", "materialen": ["pet-groot", "pet-klein", "blik", "glas", "krat"], "uitbetaling": ["bonnetje", "donatie"], "vrijToegankelijk": true, "gemeenteBeperking": null, "openingstijden": {"ma": "08:00–19:00", "di": "08:00–19:00", "wo": "08:00–19:00", "do": "08:00–19:00", "vr": "08:00–19:00", "za": "08:00–17:00", "zo": "09:00–14:00"}, "latitude": 51.569189, "longitude": 4.4087261, "bronId": "253952"}}, {"type": "Feature", "geometry": {"type": "Point", "coordinates": [4.316309, 51.580374]}, "properties": {"type": "inleverpunt", "locatieNaam": "Jumbo", "straatNaam": "Floraplein", "straatNr": "2", "postcode": "4651 NC", "plaats": "Steenbergen", "merk": "StatiegeldNederland", "puntType": "automaat", "materialen": ["pet-groot", "pet-klein", "blik", "glas", "krat"], "uitbetaling": ["bonnetje", "donatie"], "vrijToegankelijk": true, "gemeenteBeperking": null, "openingstijden": {"ma": "08:00–21:00", "di": "08:00–21:00", "wo": "08:00–21:00", "do": "08:00–21:00", "vr": "08:00–21:00", "za": "08:00–21:00", "zo": "08:00–20:00"}, "latitude": 51.580374, "longitude": 4.316309, "bronId": "255368"}}, {"type": "Feature", "geometry": {"type": "Point", "coordinates": [4.3143, 51.58451]}, "properties": {"type": "inleverpunt", "locatieNaam": "Lidl", "straatNaam": "Burgemeester Van Loonstraat", "straatNr": "72", "postcode": "4651 CE", "plaats": "Steenbergen (Nb)", "merk": "StatiegeldNederland", "puntType": "automaat", "materialen": ["pet-groot", "pet-klein", "blik", "glas", "krat"], "uitbetaling": ["bonnetje", "donatie"], "vrijToegankelijk": true, "gemeenteBeperking": null, "openingstijden": {"ma": "08:00–21:00", "di": "08:00–21:00", "wo": "08:00–21:00", "do": "08:00–21:00", "vr": "08:00–21:00", "za": "08:00–21:00", "zo": "08:00–20:00"}, "latitude": 51.58451, "longitude": 4.3143, "bronId": "256095"}}, {"type": "Feature", "geometry": {"type": "Point", "coordinates": [4.3285704, 51.573959]}, "properties": {"type": "inleverpunt", "locatieNaam": "Sc Welberg", "straatNaam": "Hoogstraat", "straatNr": "17", "postcode": "4651 XA", "plaats": "Steenbergen", "merk": "StatiegeldNederland", "puntType": "balie", "materialen": ["pet-groot", "pet-klein", "blik"], "uitbetaling": [], "vrijToegankelijk": false, "gemeenteBeperking": null, "openingstijden": {"ma": "18:00–21:30", "di": "18:00–00:00", "wo": "18:00–00:00", "do": "18:00–00:00", "vr": "18:00–00:00", "za": "07:30–00:00", "zo": "09:00–00:00"}, "latitude": 51.573959, "longitude": 4.3285704, "bronId": "257973"}}, {"type": "Feature", "geometry": {"type": "Point", "coordinates": [4.411978, 51.5684932]}, "properties": {"type": "inleverpunt", "locatieNaam": "Sportclub Kruisland", "straatNaam": "Hoogje", "straatNr": "1", "postcode": "4756 CP", "plaats": "Kruisland", "merk": "StatiegeldNederland", "puntType": "balie", "materialen": ["pet-groot", "pet-klein", "blik"], "uitbetaling": [], "vrijToegankelijk": false, "gemeenteBeperking": null, "openingstijden": {"ma": "Gesloten", "di": "Gesloten", "wo": "Gesloten", "do": "19:30–23:00", "vr": "Gesloten", "za": "09:00–17:00", "zo": "09:00–17:00"}, "latitude": 51.5684932, "longitude": 4.411978, "bronId": "258629"}}, {"type": "Feature", "geometry": {"type": "Point", "coordinates": [4.3677563, 51.6310997]}, "properties": {"type": "inleverpunt", "locatieNaam": "Tennisvereniging Dinteloord", "straatNaam": "Dorus Rijkersstraat", "straatNr": "4", "postcode": "4671 AA", "plaats": "Dinteloord", "merk": "StatiegeldNederland", "puntType": "balie", "materialen": ["pet-groot", "pet-klein", "blik"], "uitbetaling": [], "vrijToegankelijk": false, "gemeenteBeperking": null, "openingstijden": {"ma": "08:00–23:00", "di": "08:00–23:00", "wo": "08:00–23:00", "do": "08:00–23:00", "vr": "08:00–23:00", "za": "08:00–23:00", "zo": "08:00–23:00"}, "latitude": 51.6310997, "longitude": 4.3677563, "bronId": "258935"}}, {"type": "Feature", "geometry": {"type": "Point", "coordinates": [4.218441, 51.587501]}, "properties": {"type": "inleverpunt", "locatieNaam": "V.o.f. Spar Prop 133", "straatNaam": "SCHOOLSTRAAT", "straatNr": "2", "postcode": "4681 BK", "plaats": "Nieuw Vossemeer", "merk": "StatiegeldNederland", "puntType": "balie", "materialen": ["pet-groot", "pet-klein", "blik"], "uitbetaling": [], "vrijToegankelijk": true, "gemeenteBeperking": null, "openingstijden": null, "latitude": 51.587501, "longitude": 4.218441, "bronId": "259103"}}, {"type": "Feature", "geometry": {"type": "Point", "coordinates": [4.3665978, 51.6286568]}, "properties": {"type": "inleverpunt", "locatieNaam": "V.v. Prinsenland", "straatNaam": "Steenbergseweg", "straatNr": "97c", "postcode": "4671 BE", "plaats": "Dinteloord", "merk": "StatiegeldNederland", "puntType": "balie", "materialen": ["pet-groot", "pet-klein", "blik"], "uitbetaling": [], "vrijToegankelijk": false, "gemeenteBeperking": null, "openingstijden": {"ma": "Gesloten", "di": "Gesloten", "wo": "Gesloten", "do": "19:00–01:00", "vr": "Gesloten", "za": "08:00–20:00", "zo": "Gesloten"}, "latitude": 51.6286568, "longitude": 4.3665978, "bronId": "259134"}}, {"type": "Feature", "geometry": {"type": "Point", "coordinates": [4.309318, 51.588465]}, "properties": {"type": "inleverpunt", "locatieNaam": "ViaTim", "straatNaam": "Graaf Hendrikstraat", "straatNr": "5A1", "postcode": "4651 TB", "plaats": "Steenbergen", "merk": "StatiegeldNederland", "puntType": "balie", "materialen": ["pet-groot", "pet-klein", "blik"], "uitbetaling": ["tikkie"], "vrijToegankelijk": true, "gemeenteBeperking": null, "openingstijden": null, "latitude": 51.588465, "longitude": 4.309318, "bronId": "259296"}}, {"type": "Feature", "geometry": {"type": "Point", "coordinates": [4.3698269, 51.6381879]}, "properties": {"type": "inleverpunt", "locatieNaam": "ViaTim", "straatNaam": "Koningin Julianastraat", "straatNr": "5", "postcode": "4671 EE", "plaats": "Dinteloord", "merk": "StatiegeldNederland", "puntType": "balie", "materialen": ["pet-groot", "pet-klein", "blik"], "uitbetaling": ["tikkie"], "vrijToegankelijk": true, "gemeenteBeperking": null, "openingstijden": {"ma": "16:00–21:00", "di": "16:00–21:00", "wo": "16:00–21:00", "do": "16:00–21:00", "vr": "16:00–21:00", "za": "Gesloten", "zo": "Gesloten"}, "latitude": 51.6381879, "longitude": 4.3698269, "bronId": "259378"}}, {"type": "Feature", "geometry": {"type": "Point", "coordinates": [4.372125, 51.637376]}, "properties": {"type": "inleverpunt", "locatieNaam": "Hubo Dinteloord", "straatNaam": "Westvoorstraat", "straatNr": "10", "postcode": "4671 CD", "plaats": "Dinteloord", "merk": "StichtingOPEN", "puntType": "balie", "materialen": ["elektro-middel", "lampen", "tl-buizen"], "uitbetaling": [], "vrijToegankelijk": false, "gemeenteBeperking": null, "openingstijden": null, "latitude": 51.637376, "longitude": 4.372125, "bronId": "SP00005155"}}, {"type": "Feature", "geometry": {"type": "Point", "coordinates": [4.37122, 51.635865]}, "properties": {"type": "inleverpunt", "locatieNaam": "Action Dinteloord 1163", "straatNaam": "Raadhuisplein", "straatNr": "25a", "postcode": "4671 DA", "plaats": "Dinteloord", "merk": "StichtingOPEN", "puntType": "balie", "materialen": ["batterijen", "lampen"], "uitbetaling": [], "vrijToegankelijk": false, "gemeenteBeperking": null, "openingstijden": null, "latitude": 51.635865, "longitude": 4.37122, "bronId": "SP00007747"}}, {"type": "Feature", "geometry": {"type": "Point", "coordinates": [4.370337, 51.636115]}, "properties": {"type": "inleverpunt", "locatieNaam": "1859 Albert Heijn Dinteloord", "straatNaam": "Westvoorstraat", "straatNr": "50", "postcode": "4671 CE", "plaats": "Dinteloord", "merk": "StichtingOPEN", "puntType": "balie", "materialen": ["batterijen", "elektro-klein", "lampen"], "uitbetaling": [], "vrijToegankelijk": false, "gemeenteBeperking": null, "openingstijden": null, "latitude": 51.636115, "longitude": 4.370337, "bronId": "SP00022627"}}, {"type": "Feature", "geometry": {"type": "Point", "coordinates": [4.370132, 51.635985]}, "properties": {"type": "inleverpunt", "locatieNaam": "Kruidvat Dinteloord", "straatNaam": "Westvoorstraat", "straatNr": "52", "postcode": "4671 CE", "plaats": "Dinteloord", "merk": "StichtingOPEN", "puntType": "balie", "materialen": ["batterijen", "lampen"], "uitbetaling": [], "vrijToegankelijk": false, "gemeenteBeperking": null, "openingstijden": null, "latitude": 51.635985, "longitude": 4.370132, "bronId": "SP00024526"}}, {"type": "Feature", "geometry": {"type": "Point", "coordinates": [4.369645, 51.635784]}, "properties": {"type": "inleverpunt", "locatieNaam": "Woord en Daad Dinteloord", "straatNaam": "Westvoorstraat", "straatNr": "60", "postcode": "4671 CE", "plaats": "Dinteloord", "merk": "StichtingOPEN", "puntType": "balie", "materialen": ["elektro-klein", "elektro-middel", "lampen", "tl-buizen"], "uitbetaling": [], "vrijToegankelijk": false, "gemeenteBeperking": null, "openingstijden": null, "latitude": 51.635784, "longitude": 4.369645, "bronId": "SP00041213"}}, {"type": "Feature", "geometry": {"type": "Point", "coordinates": [4.408757, 51.569228]}, "properties": {"type": "inleverpunt", "locatieNaam": "Kruidvat De Westereen", "straatNaam": "Ljurkstrjitte", "straatNr": "72", "postcode": "9271 CS", "plaats": "De Westereen", "merk": "StichtingOPEN", "puntType": "balie", "materialen": ["batterijen", "lampen"], "uitbetaling": [], "vrijToegankelijk": false, "gemeenteBeperking": null, "openingstijden": null, "latitude": 51.569228, "longitude": 4.408757, "bronId": "SP00024510"}}, {"type": "Feature", "geometry": {"type": "Point", "coordinates": [4.317292, 51.588129]}, "properties": {"type": "inleverpunt", "locatieNaam": "Aldi Steenbergen", "straatNaam": "Westdam", "straatNr": "81", "postcode": "4651 BE", "plaats": "Steenbergen", "merk": "StichtingOPEN", "puntType": "balie", "materialen": ["batterijen", "elektro-klein", "lampen"], "uitbetaling": [], "vrijToegankelijk": false, "gemeenteBeperking": null, "openingstijden": null, "latitude": 51.588129, "longitude": 4.317292, "bronId": "SP00027144"}}, {"type": "Feature", "geometry": {"type": "Point", "coordinates": [4.316909, 51.586461]}, "properties": {"type": "inleverpunt", "locatieNaam": "Kruidvat Steenbergen", "straatNaam": "Kaaistraat", "straatNr": "28", "postcode": "4651 BN", "plaats": "Steenbergen", "merk": "StichtingOPEN", "puntType": "balie", "materialen": ["batterijen", "lampen"], "uitbetaling": [], "vrijToegankelijk": false, "gemeenteBeperking": null, "openingstijden": null, "latitude": 51.586461, "longitude": 4.316909, "bronId": "SP00024515"}}, {"type": "Feature", "geometry": {"type": "Point", "coordinates": [4.314294, 51.587231]}, "properties": {"type": "inleverpunt", "locatieNaam": "8543 Albert Heijn Steenbergen", "straatNaam": "Lindenburghlaan", "straatNr": "1", "postcode": "4651 TM", "plaats": "Steenbergen", "merk": "StichtingOPEN", "puntType": "balie", "materialen": ["batterijen", "lampen"], "uitbetaling": [], "vrijToegankelijk": false, "gemeenteBeperking": null, "openingstijden": null, "latitude": 51.587231, "longitude": 4.314294, "bronId": "SP00022611"}}, {"type": "Feature", "geometry": {"type": "Point", "coordinates": [4.310175, 51.589065]}, "properties": {"type": "inleverpunt", "locatieNaam": "Second Sale Steenbergen", "straatNaam": "Prins Reinierstraat", "straatNr": "2", "postcode": "4651 RZ", "plaats": "Steenbergen", "merk": "StichtingOPEN", "puntType": "balie", "materialen": ["batterijen", "elektro-groot", "elektro-klein", "elektro-middel", "lampen", "tl-buizen"], "uitbetaling": [], "vrijToegankelijk": false, "gemeenteBeperking": null, "openingstijden": null, "latitude": 51.589065, "longitude": 4.310175, "bronId": "SP00027972"}}, {"type": "Feature", "geometry": {"type": "Point", "coordinates": [4.309893, 51.588005]}, "properties": {"type": "inleverpunt", "locatieNaam": "AudioView", "straatNaam": "Graaf Hendrikstraat", "straatNr": "3b", "postcode": "4651 TB", "plaats": "Steenbergen", "merk": "StichtingOPEN", "puntType": "balie", "materialen": ["batterijen", "elektro-groot", "elektro-klein", "elektro-middel", "lampen", "tl-buizen"], "uitbetaling": [], "vrijToegankelijk": false, "gemeenteBeperking": null, "openingstijden": null, "latitude": 51.588005, "longitude": 4.309893, "bronId": "SP00003039"}}, {"type": "Feature", "geometry": {"type": "Point", "coordinates": [4.316119, 51.580261]}, "properties": {"type": "inleverpunt", "locatieNaam": "Jumbo Steenbergen", "straatNaam": "Floraplein", "straatNr": "2", "postcode": "4651 NC", "plaats": "Steenbergen", "merk": "StichtingOPEN", "puntType": "balie", "materialen": ["batterijen", "lampen"], "uitbetaling": [], "vrijToegankelijk": false, "gemeenteBeperking": null, "openingstijden": null, "latitude": 51.580261, "longitude": 4.316119, "bronId": "SP00025036"}}, {"type": "Feature", "geometry": {"type": "Point", "coordinates": [4.218443, 51.58751]}, "properties": {"type": "inleverpunt", "locatieNaam": "Spar Nieuw-Vossemeer", "straatNaam": "Schoolstraat", "straatNr": "2", "postcode": "4681 BK", "plaats": "Nieuw-Vossemeer", "merk": "StichtingOPEN", "puntType": "balie", "materialen": ["batterijen", "lampen"], "uitbetaling": [], "vrijToegankelijk": false, "gemeenteBeperking": null, "openingstijden": null, "latitude": 51.58751, "longitude": 4.218443, "bronId": "SP00022378"}}, {"type": "Feature", "geometry": {"type": "Point", "coordinates": [4.309361, 51.590334]}, "properties": {"type": "inleverpunt", "locatieNaam": "Milieustraat Steenbergen", "straatNaam": "Van Andelstraat", "straatNr": "6", "postcode": "4651 TA", "plaats": "Steenbergen", "merk": "StichtingOPEN", "puntType": "milieustraat", "materialen": ["batterijen", "elektro-groot", "elektro-klein", "elektro-middel", "lampen", "tl-buizen"], "uitbetaling": [], "vrijToegankelijk": false, "gemeenteBeperking": ["Steenbergen"], "openingstijden": null, "latitude": 51.590334, "longitude": 4.309361, "bronId": "SP00004401"}}, {"type": "Feature", "geometry": {"type": "Point", "coordinates": [4.3721098, 51.6373522]}, "properties": {"type": "inleverpunt", "locatieNaam": "Hubo", "straatNaam": "Westvoorstraat", "straatNr": "10", "postcode": "4671 CD", "plaats": "Dinteloord", "merk": "Stibat", "puntType": "inzamelbak", "materialen": ["batterijen"], "uitbetaling": [], "vrijToegankelijk": false, "gemeenteBeperking": null, "openingstijden": null, "latitude": 51.6373522, "longitude": 4.3721098, "bronId": "L036361"}}, {"type": "Feature", "geometry": {"type": "Point", "coordinates": [4.3723993, 51.6366805]}, "properties": {"type": "inleverpunt", "locatieNaam": "H-Blok &amp; Toys", "straatNaam": "Oostvoorstraat", "straatNr": "29", "postcode": "4671 CA", "plaats": "Dinteloord", "merk": "Stibat", "puntType": "inzamelbak", "materialen": ["batterijen"], "uitbetaling": [], "vrijToegankelijk": false, "gemeenteBeperking": null, "openingstijden": null, "latitude": 51.6366805, "longitude": 4.3723993, "bronId": "L041763"}}, {"type": "Feature", "geometry": {"type": "Point", "coordinates": [4.3711207, 51.63713]}, "properties": {"type": "inleverpunt", "locatieNaam": "Kats Rijwielen", "straatNaam": "Westzijstraat", "straatNr": "4", "postcode": "4671 CG", "plaats": "Dinteloord", "merk": "Stibat", "puntType": "inzamelbak", "materialen": ["batterijen"], "uitbetaling": [], "vrijToegankelijk": false, "gemeenteBeperking": null, "openingstijden": null, "latitude": 51.63713, "longitude": 4.3711207, "bronId": "L033404"}}, {"type": "Feature", "geometry": {"type": "Point", "coordinates": [4.3711918, 51.6358901]}, "properties": {"type": "inleverpunt", "locatieNaam": "1163 Action", "straatNaam": "Raadhuisplein", "straatNr": "25a", "postcode": "4671 DA", "plaats": "Dinteloord", "merk": "Stibat", "puntType": "inzamelbak", "materialen": ["batterijen"], "uitbetaling": [], "vrijToegankelijk": false, "gemeenteBeperking": null, "openingstijden": null, "latitude": 51.6358901, "longitude": 4.3711918, "bronId": "L018661"}}, {"type": "Feature", "geometry": {"type": "Point", "coordinates": [4.3701914, 51.6360522]}, "properties": {"type": "inleverpunt", "locatieNaam": "1859 Albert Heijn", "straatNaam": "Westvoorstraat", "straatNr": "50", "postcode": "4671 CE", "plaats": "Dinteloord", "merk": "Stibat", "puntType": "inzamelbak", "materialen": ["batterijen"], "uitbetaling": [], "vrijToegankelijk": false, "gemeenteBeperking": null, "openingstijden": null, "latitude": 51.6360522, "longitude": 4.3701914, "bronId": "L023155"}}, {"type": "Feature", "geometry": {"type": "Point", "coordinates": [4.3700919, 51.6359795]}, "properties": {"type": "inleverpunt", "locatieNaam": "Kruidvat", "straatNaam": "Westvoorstraat", "straatNr": "52", "postcode": "4671 CE", "plaats": "Dinteloord", "merk": "Stibat", "puntType": "inzamelbak", "materialen": ["batterijen"], "uitbetaling": [], "vrijToegankelijk": false, "gemeenteBeperking": null, "openingstijden": null, "latitude": 51.6359795, "longitude": 4.3700919, "bronId": "L017926"}}, {"type": "Feature", "geometry": {"type": "Point", "coordinates": [4.3749613, 51.6314013]}, "properties": {"type": "inleverpunt", "locatieNaam": "Vandenhil.com", "straatNaam": "Watermolen", "straatNr": "2", "postcode": "4671 HN", "plaats": "Dinteloord", "merk": "Stibat", "puntType": "inzamelbak", "materialen": ["batterijen"], "uitbetaling": [], "vrijToegankelijk": false, "gemeenteBeperking": null, "openingstijden": null, "latitude": 51.6314013, "longitude": 4.3749613, "bronId": "L021294"}}, {"type": "Feature", "geometry": {"type": "Point", "coordinates": [4.4072379, 51.5688959]}, "properties": {"type": "inleverpunt", "locatieNaam": "Buurtsuper Kruisland", "straatNaam": "Molenstraat", "straatNr": "12-14", "postcode": "4756 BE", "plaats": "Kruisland", "merk": "Stibat", "puntType": "inzamelbak", "materialen": ["batterijen"], "uitbetaling": [], "vrijToegankelijk": false, "gemeenteBeperking": null, "openingstijden": null, "latitude": 51.5688959, "longitude": 4.4072379, "bronId": "L014460"}}, {"type": "Feature", "geometry": {"type": "Point", "coordinates": [4.3193299, 51.5874058]}, "properties": {"type": "inleverpunt", "locatieNaam": "Van Boxtel hoorwinkel", "straatNaam": "Grote Kerkstraat", "straatNr": "9/13", "postcode": "4651 BA", "plaats": "Steenbergen Nb", "merk": "Stibat", "puntType": "inzamelbak", "materialen": ["batterijen"], "uitbetaling": [], "vrijToegankelijk": false, "gemeenteBeperking": null, "openingstijden": null, "latitude": 51.5874058, "longitude": 4.3193299, "bronId": "L036232"}}, {"type": "Feature", "geometry": {"type": "Point", "coordinates": [4.3172926, 51.5881297]}, "properties": {"type": "inleverpunt", "locatieNaam": "Aldi", "straatNaam": "Westdam", "straatNr": "81", "postcode": "4651 BE", "plaats": "Steenbergen", "merk": "Stibat", "puntType": "inzamelbak", "materialen": ["batterijen"], "uitbetaling": [], "vrijToegankelijk": false, "gemeenteBeperking": null, "openingstijden": null, "latitude": 51.5881297, "longitude": 4.3172926, "bronId": "L041291"}}, {"type": "Feature", "geometry": {"type": "Point", "coordinates": [4.3188965, 51.5869275]}, "properties": {"type": "inleverpunt", "locatieNaam": "Schoonenberg Hoorcomfort", "straatNaam": "Blauwstraat", "straatNr": "74", "postcode": "4651 GD", "plaats": "Steenbergen Nb", "merk": "Stibat", "puntType": "inzamelbak", "materialen": ["batterijen"], "uitbetaling": [], "vrijToegankelijk": false, "gemeenteBeperking": null, "openingstijden": null, "latitude": 51.5869275, "longitude": 4.3188965, "bronId": "L031663"}}, {"type": "Feature", "geometry": {"type": "Point", "coordinates": [4.3192811, 51.5865265]}, "properties": {"type": "inleverpunt", "locatieNaam": "HEMA Blauwstraat", "straatNaam": "Blauwstraat", "straatNr": "58-60", "postcode": "4651 GD", "plaats": "Steenbergen Nb", "merk": "Stibat", "puntType": "inzamelbak", "materialen": ["batterijen"], "uitbetaling": [], "vrijToegankelijk": false, "gemeenteBeperking": null, "openingstijden": null, "latitude": 51.5865265, "longitude": 4.3192811, "bronId": "L007802"}}, {"type": "Feature", "geometry": {"type": "Point", "coordinates": [4.318387, 51.586964]}, "properties": {"type": "inleverpunt", "locatieNaam": "Hans Anders", "straatNaam": "Kaaistraat", "straatNr": "72", "postcode": "4651 BP", "plaats": "Steenbergen Nb", "merk": "Stibat", "puntType": "inzamelbak", "materialen": ["batterijen"], "uitbetaling": [], "vrijToegankelijk": false, "gemeenteBeperking": null, "openingstijden": null, "latitude": 51.586964, "longitude": 4.318387, "bronId": "L037930"}}, {"type": "Feature", "geometry": {"type": "Point", "coordinates": [4.3193632, 51.5861867]}, "properties": {"type": "inleverpunt", "locatieNaam": "Zeeman", "straatNaam": "Blauwstraat", "straatNr": "53", "postcode": "4651 GB", "plaats": "Steenbergen Nb", "merk": "Stibat", "puntType": "inzamelbak", "materialen": ["batterijen"], "uitbetaling": [], "vrijToegankelijk": false, "gemeenteBeperking": null, "openingstijden": null, "latitude": 51.5861867, "longitude": 4.3193632, "bronId": "L019650"}}, {"type": "Feature", "geometry": {"type": "Point", "coordinates": [4.3174114, 51.5869072]}, "properties": {"type": "inleverpunt", "locatieNaam": "Primera", "straatNaam": "Kaaistraat", "straatNr": "49", "postcode": "4651 BM", "plaats": "Steenbergen Nb", "merk": "Stibat", "puntType": "inzamelbak", "materialen": ["batterijen"], "uitbetaling": [], "vrijToegankelijk": false, "gemeenteBeperking": null, "openingstijden": null, "latitude": 51.5869072, "longitude": 4.3174114, "bronId": "L022778"}}, {"type": "Feature", "geometry": {"type": "Point", "coordinates": [4.3153556, 51.5877671]}, "properties": {"type": "inleverpunt", "locatieNaam": "Stichting de Kringloper", "straatNaam": "Westdam", "straatNr": "81 A", "postcode": "4651 BE", "plaats": "Steenbergen Nb", "merk": "Stibat", "puntType": "inzamelbak", "materialen": ["batterijen"], "uitbetaling": [], "vrijToegankelijk": false, "gemeenteBeperking": null, "openingstijden": null, "latitude": 51.5877671, "longitude": 4.3153556, "bronId": "L031739"}}, {"type": "Feature", "geometry": {"type": "Point", "coordinates": [4.3169004, 51.5865137]}, "properties": {"type": "inleverpunt", "locatieNaam": "Kruidvat", "straatNaam": "Kaaistraat", "straatNr": "28", "postcode": "4651 BN", "plaats": "Steenbergen", "merk": "Stibat", "puntType": "inzamelbak", "materialen": ["batterijen"], "uitbetaling": [], "vrijToegankelijk": false, "gemeenteBeperking": null, "openingstijden": null, "latitude": 51.5865137, "longitude": 4.3169004, "bronId": "L015994"}}, {"type": "Feature", "geometry": {"type": "Point", "coordinates": [4.3107639, 51.5901507]}, "properties": {"type": "inleverpunt", "locatieNaam": "Milieustraat Steenbergen", "straatNaam": "Van Andelstraat", "straatNr": "6", "postcode": "4651 TA", "plaats": "Steenbergen", "merk": "Stibat", "puntType": "inzamelbak", "materialen": ["batterijen"], "uitbetaling": [], "vrijToegankelijk": false, "gemeenteBeperking": null, "openingstijden": null, "latitude": 51.5901507, "longitude": 4.3107639, "bronId": "L035728"}}, {"type": "Feature", "geometry": {"type": "Point", "coordinates": [4.3159873, 51.5860739]}, "properties": {"type": "inleverpunt", "locatieNaam": "Phone House", "straatNaam": "Geert Vinckestraat", "straatNr": "2A", "postcode": "4651 DJ", "plaats": "Steenbergen", "merk": "Stibat", "puntType": "inzamelbak", "materialen": ["batterijen"], "uitbetaling": [], "vrijToegankelijk": false, "gemeenteBeperking": null, "openingstijden": null, "latitude": 51.5860739, "longitude": 4.3159873, "bronId": "L031584"}}, {"type": "Feature", "geometry": {"type": "Point", "coordinates": [4.3142968, 51.5872331]}, "properties": {"type": "inleverpunt", "locatieNaam": "8543 Albert Heijn", "straatNaam": "Lindenburghlaan", "straatNr": "1", "postcode": "4651 TM", "plaats": "Steenbergen Nb", "merk": "Stibat", "puntType": "inzamelbak", "materialen": ["batterijen"], "uitbetaling": [], "vrijToegankelijk": false, "gemeenteBeperking": null, "openingstijden": null, "latitude": 51.5872331, "longitude": 4.3142968, "bronId": "L006854"}}, {"type": "Feature", "geometry": {"type": "Point", "coordinates": [4.3098756, 51.5881101]}, "properties": {"type": "inleverpunt", "locatieNaam": "Boerenbond", "straatNaam": "Graaf Hendrikstraat", "straatNr": "3", "postcode": "4651 TB", "plaats": "Steenbergen Nb", "merk": "Stibat", "puntType": "inzamelbak", "materialen": ["batterijen"], "uitbetaling": [], "vrijToegankelijk": false, "gemeenteBeperking": null, "openingstijden": null, "latitude": 51.5881101, "longitude": 4.3098756, "bronId": "L018578"}}, {"type": "Feature", "geometry": {"type": "Point", "coordinates": [4.3098487, 51.5880192]}, "properties": {"type": "inleverpunt", "locatieNaam": "Audioview", "straatNaam": "Graaf Hendrikstraat", "straatNr": "3b", "postcode": "4651 TB", "plaats": "Steenbergen Nb", "merk": "Stibat", "puntType": "inzamelbak", "materialen": ["batterijen"], "uitbetaling": [], "vrijToegankelijk": false, "gemeenteBeperking": null, "openingstijden": null, "latitude": 51.5880192, "longitude": 4.3098487, "bronId": "L018305"}}, {"type": "Feature", "geometry": {"type": "Point", "coordinates": [4.31429, 51.58451]}, "properties": {"type": "inleverpunt", "locatieNaam": "Lidl", "straatNaam": "Burg. van Loonstraat", "straatNr": "72", "postcode": "4651 CE", "plaats": "Steenbergen", "merk": "Stibat", "puntType": "inzamelbak", "materialen": ["batterijen"], "uitbetaling": [], "vrijToegankelijk": false, "gemeenteBeperking": null, "openingstijden": null, "latitude": 51.58451, "longitude": 4.31429, "bronId": "L018465"}}, {"type": "Feature", "geometry": {"type": "Point", "coordinates": [4.3046217, 51.5905786]}, "properties": {"type": "inleverpunt", "locatieNaam": "Leys", "straatNaam": "Warwickstraat", "straatNr": "2r", "postcode": "4651 SX", "plaats": "Steenbergen Nb", "merk": "Stibat", "puntType": "inzamelbak", "materialen": ["batterijen"], "uitbetaling": [], "vrijToegankelijk": false, "gemeenteBeperking": null, "openingstijden": null, "latitude": 51.5905786, "longitude": 4.3046217, "bronId": "L044244"}}, {"type": "Feature", "geometry": {"type": "Point", "coordinates": [4.3055198, 51.5893395]}, "properties": {"type": "inleverpunt", "locatieNaam": "Van der Peijl Techniek + Automaterialen", "straatNaam": "Prins Reinierstraat", "straatNr": "16", "postcode": "4651 RZ", "plaats": "Steenbergen Nb", "merk": "Stibat", "puntType": "inzamelbak", "materialen": ["batterijen"], "uitbetaling": [], "vrijToegankelijk": false, "gemeenteBeperking": null, "openingstijden": null, "latitude": 51.5893395, "longitude": 4.3055198, "bronId": "L018830"}}, {"type": "Feature", "geometry": {"type": "Point", "coordinates": [4.3163121, 51.5803767]}, "properties": {"type": "inleverpunt", "locatieNaam": "Jumbo", "straatNaam": "Floraplein", "straatNr": "2", "postcode": "4651 NC", "plaats": "Steenbergen Nb", "merk": "Stibat", "puntType": "inzamelbak", "materialen": ["batterijen"], "uitbetaling": [], "vrijToegankelijk": false, "gemeenteBeperking": null, "openingstijden": null, "latitude": 51.5803767, "longitude": 4.3163121, "bronId": "L006555"}}, {"type": "Feature", "geometry": {"type": "Point", "coordinates": [4.3050577, 51.5875374]}, "properties": {"type": "inleverpunt", "locatieNaam": "DeltaCom", "straatNaam": "Drukkerij", "straatNr": "6", "postcode": "4651 SL", "plaats": "Steenbergen Nb", "merk": "Stibat", "puntType": "inzamelbak", "materialen": ["batterijen"], "uitbetaling": [], "vrijToegankelijk": false, "gemeenteBeperking": null, "openingstijden": null, "latitude": 51.5875374, "longitude": 4.3050577, "bronId": "L020704"}}, {"type": "Feature", "geometry": {"type": "Point", "coordinates": [4.3037265, 51.5864866]}, "properties": {"type": "inleverpunt", "locatieNaam": "Karwei", "straatNaam": "Houtzagerij", "straatNr": "4", "postcode": "4651 SN", "plaats": "Steenbergen Nb", "merk": "Stibat", "puntType": "inzamelbak", "materialen": ["batterijen"], "uitbetaling": [], "vrijToegankelijk": false, "gemeenteBeperking": null, "openingstijden": null, "latitude": 51.5864866, "longitude": 4.3037265, "bronId": "L038144"}}, {"type": "Feature", "geometry": {"type": "Point", "coordinates": [4.2725687, 51.6095077]}, "properties": {"type": "inleverpunt", "locatieNaam": "Camping de Uitwijk", "straatNaam": "Dorpsweg", "straatNr": "136", "postcode": "4655 AH", "plaats": "De Heen", "merk": "Stibat", "puntType": "inzamelbak", "materialen": ["batterijen"], "uitbetaling": [], "vrijToegankelijk": false, "gemeenteBeperking": null, "openingstijden": null, "latitude": 51.6095077, "longitude": 4.2725687, "bronId": "L004393"}}, {"type": "Feature", "geometry": {"type": "Polygon", "coordinates": [[[4.238692000531064, 51.55053200362341], [4.239725000532127, 51.55091800362368], [4.2430070005359, 51.55949100362939], [4.243404000536303, 51.559575003629455], [4.242881000535873, 51.561399003630676], [4.242975000536055, 51.56298000363174], [4.252008000545578, 51.57066100363689], [4.2676230005611915, 51.56801000363531], [4.267162000560562, 51.56494400363326], [4.273129000566555, 51.56443800363302], [4.298633000591993, 51.558844003629574], [4.2978140005910115, 51.555913003627644], [4.296157000589227, 51.553797003626215], [4.35444700064771, 51.54699300362225], [4.375362000668657, 51.5437210036203], [4.41146300070552, 51.551598003625806], [4.426878000721128, 51.552383003626474], [4.42820500072253, 51.5535980036273], [4.429032000723473, 51.55570100362866], [4.43838100073295, 51.556391003629194], [4.439206000733869, 51.558094003630345], [4.441078000735782, 51.558492003630626], [4.4409040007356895, 51.56012700363171], [4.441954000737122, 51.567385003636524], [4.442550000737773, 51.56836900363716], [4.443999000739275, 51.569095003637656], [4.441579000736969, 51.57179100363943], [4.4381180007337395, 51.576958003642844], [4.433620000729447, 51.581834003646], [4.431081000727115, 51.5862870036489], [4.429576000725889, 51.59199500365269], [4.428176000725116, 51.604446003660875], [4.42667500072398, 51.61174000366563], [4.42933900072663, 51.61103500366518], [4.431547000728851, 51.610845003665126], [4.432497000729921, 51.61300600366651], [4.431935000729401, 51.61391100366713], [4.433765000731352, 51.615939003668444], [4.435678000733241, 51.61515100366794], [4.436161000733751, 51.615593003668266], [4.436523000734108, 51.61544800366818], [4.43782800073551, 51.61711900366925], [4.4343400007320986, 51.61917500367057], [4.428739000726662, 51.623340003673285], [4.427334000725331, 51.62499200367432], [4.425002000723208, 51.6294660036773], [4.423859000722096, 51.63026500367779], [4.420787000719028, 51.63088500367814], [4.413492000711684, 51.631164003678286], [4.4088960007071325, 51.63282100367935], [4.399905000698377, 51.63880500368319], [4.397398000696056, 51.64278700368581], [4.3961500006948455, 51.6437110036864], [4.394890000693604, 51.64426000368672], [4.3878150006865395, 51.64564900368756], [4.385876000684638, 51.64666900368822], [4.383966000682811, 51.648534003689385], [4.3807690006796935, 51.65058400369074], [4.376452000675406, 51.65187400369154], [4.374428000673445, 51.65335200369249], [4.372529000671637, 51.65539000369377], [4.361822000661241, 51.66297900369866], [4.354343000653547, 51.66006500369667], [4.346598000645602, 51.65748000369493], [4.332550000631244, 51.653749003692354], [4.326247000624828, 51.652578003691524], [4.313377000611772, 51.651112003690464], [4.3091060006074215, 51.650246003689844], [4.29938900059748, 51.647513003687926], [4.275003000572697, 51.643778003685256], [4.251103000548706, 51.64556200368615], [4.2427860005404066, 51.64706300368704], [4.238168000535058, 51.63429800367861], [4.227822000524452, 51.63102300367631], [4.217070000513477, 51.62843200367451], [4.211945000508223, 51.626789003673345], [4.205021000501067, 51.623561003671156], [4.1992730004950545, 51.61953900366843], [4.196210000491798, 51.616494003666425], [4.1928060004880985, 51.61154000366308], [4.190627000485617, 51.60633000365965], [4.190124000484913, 51.60275100365732], [4.190394000484992, 51.599162003654925], [4.191431000485842, 51.5956280036526], [4.193216000487455, 51.59221200365039], [4.1957180004898, 51.588975003648244], [4.1988910004928375, 51.585975003646354], [4.228121000521108, 51.56371600363201], [4.23116900052402, 51.56066700363003], [4.23354400052624, 51.55739300362787], [4.235202000527727, 51.55395300362562], [4.236119000528459, 51.55036600362325], [4.238692000531064, 51.55053200362341]]]}, "properties": {"type": "boundary", "gemeente": "Steenbergen"}}]}