{"type": "FeatureCollection", "metadata": {"gemeente": "Stichtse Vecht", "slug": "stichtse-vecht", "generated_at": "2026-09-14T07:32:33.064092Z", "total_points": 122, "merken": ["StatiegeldNederland", "Stibat", "StichtingOPEN"], "bounds": [4.949124, 52.1244642, 5.074448, 52.27578]}, "features": [{"type": "Feature", "geometry": {"type": "Point", "coordinates": [5.0307797, 52.1347842]}, "properties": {"type": "inleverpunt", "locatieNaam": "Albert Heijn", "straatNaam": "Bisonspoor", "straatNr": "1078", "postcode": "3605 KJ", "plaats": "Maarssenbroek", "merk": "StatiegeldNederland", "puntType": "automaat", "materialen": ["pet-groot", "pet-klein", "blik", "glas", "krat"], "uitbetaling": ["bonnetje", "donatie"], "vrijToegankelijk": true, "gemeenteBeperking": null, "openingstijden": {"ma": "08:00–21:00", "di": "08:00–21:00", "wo": "08:00–21:00", "do": "08:00–21:00", "vr": "08:00–21:00", "za": "08:00–20:00", "zo": "10:00–20:00"}, "latitude": 52.1347842, "longitude": 5.0307797, "bronId": "335592"}}, {"type": "Feature", "geometry": {"type": "Point", "coordinates": [5.0447269, 52.1439169]}, "properties": {"type": "inleverpunt", "locatieNaam": "Albert Heijn", "straatNaam": "Dr. Plesmanlaan", "straatNr": "138", "postcode": "3601 DE", "plaats": "Maarssen", "merk": "StatiegeldNederland", "puntType": "automaat", "materialen": ["pet-groot", "pet-klein", "blik", "glas", "krat"], "uitbetaling": ["bonnetje", "donatie"], "vrijToegankelijk": true, "gemeenteBeperking": null, "openingstijden": {"ma": "08:00–22:00", "di": "08:00–22:00", "wo": "08:00–22:00", "do": "08:00–22:00", "vr": "08:00–22:00", "za": "08:00–22:00", "zo": "10:00–20:00"}, "latitude": 52.1439169, "longitude": 5.0447269, "bronId": "335753"}}, {"type": "Feature", "geometry": {"type": "Point", "coordinates": [5.0038633, 52.171196]}, "properties": {"type": "inleverpunt", "locatieNaam": "Albert Heijn", "straatNaam": "Markt", "straatNr": "10", "postcode": "3621 AB", "plaats": "Breukelen", "merk": "StatiegeldNederland", "puntType": "automaat", "materialen": ["pet-groot", "pet-klein", "blik", "glas", "krat"], "uitbetaling": ["bonnetje", "donatie"], "vrijToegankelijk": true, "gemeenteBeperking": null, "openingstijden": {"ma": "08:00–22:00", "di": "08:00–22:00", "wo": "08:00–22:00", "do": "08:00–22:00", "vr": "08:00–22:00", "za": "08:00–22:00", "zo": "10:00–20:00"}, "latitude": 52.171196, "longitude": 5.0038633, "bronId": "336065"}}, {"type": "Feature", "geometry": {"type": "Point", "coordinates": [4.9993033, 52.1438582]}, "properties": {"type": "inleverpunt", "locatieNaam": "Albert Heijn To Go", "straatNaam": "Rijksweg N57 Westzijde", "straatNr": "", "postcode": "3237 ME", "plaats": "Brielle", "merk": "StatiegeldNederland", "puntType": "balie", "materialen": ["pet-groot", "pet-klein", "blik"], "uitbetaling": [], "vrijToegankelijk": true, "gemeenteBeperking": null, "openingstijden": {"ma": "08:00–21:00", "di": "08:00–21:00", "wo": "08:00–21:00", "do": "08:00–21:00", "vr": "08:00–21:00", "za": "08:00–21:00", "zo": "09:00–21:00"}, "latitude": 52.1438582, "longitude": 4.9993033, "bronId": "336542"}}, {"type": "Feature", "geometry": {"type": "Point", "coordinates": [5.0457631, 52.1432891]}, "properties": {"type": "inleverpunt", "locatieNaam": "Aldi", "straatNaam": "Dr. Plesmanlaan", "straatNr": "186-190", "postcode": "3601 DG", "plaats": "Maarssen", "merk": "StatiegeldNederland", "puntType": "automaat", "materialen": ["pet-groot", "pet-klein", "blik", "glas", "krat"], "uitbetaling": ["bonnetje"], "vrijToegankelijk": true, "gemeenteBeperking": null, "openingstijden": {"ma": "08:00–20:00", "di": "08:00–20:00", "wo": "08:00–20:00", "do": "08:00–20:00", "vr": "08:00–20:00", "za": "08:00–20:00", "zo": "10:00–18:00"}, "latitude": 52.1432891, "longitude": 5.0457631, "bronId": "336651"}}, {"type": "Feature", "geometry": {"type": "Point", "coordinates": [5.0018697, 52.1724009]}, "properties": {"type": "inleverpunt", "locatieNaam": "Aldi", "straatNaam": "Hazeslinger", "straatNr": "10", "postcode": "3621 AT", "plaats": "Breukelen", "merk": "StatiegeldNederland", "puntType": "automaat", "materialen": ["pet-groot", "pet-klein", "blik", "glas", "krat"], "uitbetaling": ["bonnetje"], "vrijToegankelijk": true, "gemeenteBeperking": null, "openingstijden": {"ma": "08:00–20:00", "di": "08:00–20:00", "wo": "08:00–20:00", "do": "08:00–20:00", "vr": "08:00–20:00", "za": "08:00–20:00", "zo": "10:00–18:00"}, "latitude": 52.1724009, "longitude": 5.0018697, "bronId": "336703"}}, {"type": "Feature", "geometry": {"type": "Point", "coordinates": [5.033283, 52.13545]}, "properties": {"type": "inleverpunt", "locatieNaam": "Appel 2616 - Eurofiber", "straatNaam": "Safariweg", "straatNr": "25-31", "postcode": "3605 MA", "plaats": "Maarssen", "merk": "StatiegeldNederland", "puntType": "balie", "materialen": ["pet-groot", "pet-klein", "blik"], "uitbetaling": [], "vrijToegankelijk": true, "gemeenteBeperking": null, "openingstijden": {"ma": "08:30–17:30", "di": "08:30–17:30", "wo": "08:30–17:30", "do": "08:30–17:30", "vr": "08:30–17:30", "za": "Gesloten", "zo": "Gesloten"}, "latitude": 52.13545, "longitude": 5.033283, "bronId": "337165"}}, {"type": "Feature", "geometry": {"type": "Point", "coordinates": [5.0331494, 52.144712]}, "properties": {"type": "inleverpunt", "locatieNaam": "Appel 2733 - Gem.stichtse V", "straatNaam": "Endelhovenlaan", "straatNr": "1", "postcode": "3601 GR", "plaats": "Maarssen", "merk": "StatiegeldNederland", "puntType": "balie", "materialen": ["pet-groot", "pet-klein", "blik"], "uitbetaling": [], "vrijToegankelijk": true, "gemeenteBeperking": null, "openingstijden": {"ma": "08:30–17:00", "di": "08:30–17:00", "wo": "08:30–17:00", "do": "08:30–17:00", "vr": "08:30–17:00", "za": "Gesloten", "zo": "Gesloten"}, "latitude": 52.144712, "longitude": 5.0331494, "bronId": "337209"}}, {"type": "Feature", "geometry": {"type": "Point", "coordinates": [5.033341, 52.230096]}, "properties": {"type": "inleverpunt", "locatieNaam": "Dagwinkel Aloys Hageman", "straatNaam": "Voorstraat", "straatNr": "15", "postcode": "3633 BB", "plaats": "Vreeland", "merk": "StatiegeldNederland", "puntType": "balie", "materialen": ["pet-groot", "pet-klein", "blik"], "uitbetaling": [], "vrijToegankelijk": true, "gemeenteBeperking": null, "openingstijden": {"ma": "08:30–12:30, 13:30–18:00", "di": "08:30–12:30, 13:30–18:00", "wo": "08:30–13:00", "do": "08:30–12:30, 13:30–18:00", "vr": "08:30–12:30, 13:30–18:00", "za": "08:30–16:00", "zo": "Gesloten"}, "latitude": 52.230096, "longitude": 5.033341, "bronId": "337755"}}, {"type": "Feature", "geometry": {"type": "Point", "coordinates": [5.0290968, 52.134532]}, "properties": {"type": "inleverpunt", "locatieNaam": "Dirk", "straatNaam": "Bisonspoor", "straatNr": "1116", "postcode": "3605 KN", "plaats": "Maarssenbroek", "merk": "StatiegeldNederland", "puntType": "automaat", "materialen": ["pet-groot", "pet-klein", "blik", "glas", "krat"], "uitbetaling": ["bonnetje", "donatie"], "vrijToegankelijk": true, "gemeenteBeperking": null, "openingstijden": {"ma": "08:00–20:00", "di": "08:00–20:00", "wo": "08:00–20:00", "do": "08:00–20:00", "vr": "08:00–21:00", "za": "08:00–20:00", "zo": "10:00–18:00"}, "latitude": 52.134532, "longitude": 5.0290968, "bronId": "337962"}}, {"type": "Feature", "geometry": {"type": "Point", "coordinates": [5.0397094, 52.1398156]}, "properties": {"type": "inleverpunt", "locatieNaam": "Dirk", "straatNaam": "Harmonieplein", "straatNr": "27", "postcode": "3603 BM", "plaats": "Maarssen (Dorp)", "merk": "StatiegeldNederland", "puntType": "automaat", "materialen": ["pet-groot", "pet-klein", "blik", "glas", "krat"], "uitbetaling": ["bonnetje", "donatie"], "vrijToegankelijk": true, "gemeenteBeperking": null, "openingstijden": {"ma": "08:00–20:00", "di": "08:00–20:00", "wo": "08:00–20:00", "do": "08:00–20:00", "vr": "08:00–21:00", "za": "08:00–20:00", "zo": "10:00–19:00"}, "latitude": 52.1398156, "longitude": 5.0397094, "bronId": "337995"}}, {"type": "Feature", "geometry": {"type": "Point", "coordinates": [5.0272776, 52.2756917]}, "properties": {"type": "inleverpunt", "locatieNaam": "Dorpswinkel Nigtevecht", "straatNaam": "Klein Muiden", "straatNr": "54", "postcode": "1393 RL", "plaats": "Nigtevecht", "merk": "StatiegeldNederland", "puntType": "balie", "materialen": ["pet-groot", "pet-klein", "blik"], "uitbetaling": [], "vrijToegankelijk": true, "gemeenteBeperking": null, "openingstijden": {"ma": "08:30–18:30", "di": "08:30–18:30", "wo": "08:30–18:30", "do": "08:30–18:30", "vr": "08:30–18:30", "za": "08:30–17:00", "zo": "Gesloten"}, "latitude": 52.2756917, "longitude": 5.0272776, "bronId": "338102"}}, {"type": "Feature", "geometry": {"type": "Point", "coordinates": [5.0277426, 52.1245304]}, "properties": {"type": "inleverpunt", "locatieNaam": "Hoogvliet", "straatNaam": "Boomstede", "straatNr": "211", "postcode": "3608 AK", "plaats": "Maarssenbroek", "merk": "StatiegeldNederland", "puntType": "automaat", "materialen": ["pet-groot", "pet-klein", "blik", "glas", "krat"], "uitbetaling": ["bonnetje", "donatie"], "vrijToegankelijk": true, "gemeenteBeperking": null, "openingstijden": {"ma": "08:00–20:00", "di": "08:00–20:00", "wo": "08:00–20:00", "do": "08:00–20:00", "vr": "08:00–20:00", "za": "08:00–20:00", "zo": "10:00–19:00"}, "latitude": 52.1245304, "longitude": 5.0277426, "bronId": "338643"}}, {"type": "Feature", "geometry": {"type": "Point", "coordinates": [4.999103, 52.180958]}, "properties": {"type": "inleverpunt", "locatieNaam": "Jumbo", "straatNaam": "Karel Doormanweg", "straatNr": "10-25", "postcode": "3621 JX", "plaats": "Breukelen", "merk": "StatiegeldNederland", "puntType": "automaat", "materialen": ["pet-groot", "pet-klein", "blik", "glas", "krat"], "uitbetaling": ["bonnetje"], "vrijToegankelijk": true, "gemeenteBeperking": null, "openingstijden": {"ma": "08:00–20:00", "di": "08:00–20:00", "wo": "08:00–20:00", "do": "08:00–20:00", "vr": "08:00–21:00", "za": "08:00–20:00", "zo": "10:00–18:00"}, "latitude": 52.180958, "longitude": 4.999103, "bronId": "339105"}}, {"type": "Feature", "geometry": {"type": "Point", "coordinates": [5.020968, 52.210053]}, "properties": {"type": "inleverpunt", "locatieNaam": "Jumbo", "straatNaam": "Rijksstraatweg", "straatNr": "127", "postcode": "3632 AB", "plaats": "Loenen Aan De Vecht", "merk": "StatiegeldNederland", "puntType": "automaat", "materialen": ["pet-groot", "pet-klein", "blik", "glas", "krat"], "uitbetaling": ["bonnetje", "donatie"], "vrijToegankelijk": true, "gemeenteBeperking": null, "openingstijden": {"ma": "08:00–21:00", "di": "08:00–21:00", "wo": "08:00–21:00", "do": "08:00–21:00", "vr": "08:00–21:00", "za": "08:00–21:00", "zo": "10:00–18:00"}, "latitude": 52.210053, "longitude": 5.020968, "bronId": "339347"}}, {"type": "Feature", "geometry": {"type": "Point", "coordinates": [4.9563556, 52.1475444]}, "properties": {"type": "inleverpunt", "locatieNaam": "L.t. Kockengen", "straatNaam": "Sportweg", "straatNr": "2", "postcode": "3628 AZ", "plaats": "Kockengen", "merk": "StatiegeldNederland", "puntType": "balie", "materialen": ["pet-groot", "pet-klein", "blik"], "uitbetaling": [], "vrijToegankelijk": false, "gemeenteBeperking": null, "openingstijden": {"ma": "09:00–22:30", "di": "09:00–22:30", "wo": "09:00–22:30", "do": "09:00–22:30", "vr": "09:00–22:30", "za": "09:00–22:30", "zo": "09:00–22:30"}, "latitude": 52.1475444, "longitude": 4.9563556, "bronId": "339646"}}, {"type": "Feature", "geometry": {"type": "Point", "coordinates": [5.0149469, 52.2165283]}, "properties": {"type": "inleverpunt", "locatieNaam": "L.t.c. Loenen", "straatNaam": "Hofbergen", "straatNr": "10", "postcode": "3632 WC", "plaats": "Loenen Aan De Vecht", "merk": "StatiegeldNederland", "puntType": "balie", "materialen": ["pet-groot", "pet-klein", "blik"], "uitbetaling": [], "vrijToegankelijk": false, "gemeenteBeperking": null, "openingstijden": null, "latitude": 52.2165283, "longitude": 5.0149469, "bronId": "339650"}}, {"type": "Feature", "geometry": {"type": "Point", "coordinates": [5.03795, 52.12888]}, "properties": {"type": "inleverpunt", "locatieNaam": "Lidl", "straatNaam": "Nijverheidsweg", "straatNr": "2", "postcode": "3606 AJ", "plaats": "Maarssenbroek", "merk": "StatiegeldNederland", "puntType": "automaat", "materialen": ["pet-groot", "pet-klein", "blik", "glas", "krat"], "uitbetaling": ["bonnetje", "donatie"], "vrijToegankelijk": true, "gemeenteBeperking": null, "openingstijden": {"ma": "08:00–21:00", "di": "08:00–21:00", "wo": "08:00–21:00", "do": "08:00–21:00", "vr": "08:00–21:00", "za": "08:00–21:00", "zo": "10:00–20:00"}, "latitude": 52.12888, "longitude": 5.03795, "bronId": "339969"}}, {"type": "Feature", "geometry": {"type": "Point", "coordinates": [5.0189926, 52.2181515]}, "properties": {"type": "inleverpunt", "locatieNaam": "Loenense Mixed Hockey Club", "straatNaam": "Rijksstraatweg", "straatNr": "182", "postcode": "3632 AJ", "plaats": "Loenen Aan De Vecht", "merk": "StatiegeldNederland", "puntType": "balie", "materialen": ["pet-groot", "pet-klein", "blik"], "uitbetaling": [], "vrijToegankelijk": false, "gemeenteBeperking": null, "openingstijden": {"ma": "09:00–17:00", "di": "09:00–17:00", "wo": "09:00–17:00", "do": "09:00–17:00", "vr": "09:00–17:00", "za": "09:00–17:00", "zo": "09:00–17:00"}, "latitude": 52.2181515, "longitude": 5.0189926, "bronId": "340158"}}, {"type": "Feature", "geometry": {"type": "Point", "coordinates": [4.997512, 52.177197]}, "properties": {"type": "inleverpunt", "locatieNaam": "Markies 30034", "straatNaam": "Schepersweg", "straatNr": "6A", "postcode": "3621 JK", "plaats": "Breukelen", "merk": "StatiegeldNederland", "puntType": "balie", "materialen": ["pet-groot", "pet-klein", "blik"], "uitbetaling": [], "vrijToegankelijk": true, "gemeenteBeperking": null, "openingstijden": null, "latitude": 52.177197, "longitude": 4.997512, "bronId": "340306"}}, {"type": "Feature", "geometry": {"type": "Point", "coordinates": [5.0383187, 52.1290373]}, "properties": {"type": "inleverpunt", "locatieNaam": "Nettorama", "straatNaam": "Nijverheidsweg", "straatNr": "2-A", "postcode": "3606 AJ", "plaats": "Maarssenbroek", "merk": "StatiegeldNederland", "puntType": "automaat", "materialen": ["pet-groot", "pet-klein", "blik", "glas", "krat"], "uitbetaling": ["bonnetje"], "vrijToegankelijk": true, "gemeenteBeperking": null, "openingstijden": {"ma": "08:00–20:00", "di": "08:00–20:00", "wo": "08:00–20:00", "do": "08:00–20:00", "vr": "08:00–20:00", "za": "08:00–20:00", "zo": "10:00–20:00"}, "latitude": 52.1290373, "longitude": 5.0383187, "bronId": "340596"}}, {"type": "Feature", "geometry": {"type": "Point", "coordinates": [4.949124, 52.1487112]}, "properties": {"type": "inleverpunt", "locatieNaam": "Plus", "straatNaam": "Drie Stammenweg", "straatNr": "3", "postcode": "3628 BW", "plaats": "Kockengen", "merk": "StatiegeldNederland", "puntType": "automaat", "materialen": ["pet-groot", "pet-klein", "blik", "glas", "krat"], "uitbetaling": ["bonnetje", "donatie"], "vrijToegankelijk": true, "gemeenteBeperking": null, "openingstijden": {"ma": "08:00–20:00", "di": "08:00–20:00", "wo": "08:00–20:00", "do": "08:00–20:00", "vr": "08:00–20:00", "za": "08:00–19:00", "zo": "Gesloten"}, "latitude": 52.1487112, "longitude": 4.949124, "bronId": "341015"}}, {"type": "Feature", "geometry": {"type": "Point", "coordinates": [5.000796, 52.143804]}, "properties": {"type": "inleverpunt", "locatieNaam": "Shell", "straatNaam": "A2/E35 WZ", "straatNr": "2", "postcode": "3621 QQ", "plaats": "Breukelen Ut", "merk": "StatiegeldNederland", "puntType": "balie", "materialen": ["pet-groot", "pet-klein", "blik"], "uitbetaling": [], "vrijToegankelijk": true, "gemeenteBeperking": null, "openingstijden": {"ma": "24 uur geopend", "di": "24 uur geopend", "wo": "24 uur geopend", "do": "24 uur geopend", "vr": "24 uur geopend", "za": "24 uur geopend", "zo": "24 uur geopend"}, "latitude": 52.143804, "longitude": 5.000796, "bronId": "341824"}}, {"type": "Feature", "geometry": {"type": "Point", "coordinates": [5.074448, 52.1375439]}, "properties": {"type": "inleverpunt", "locatieNaam": "Shell", "straatNaam": "Maarssenveensepoort", "straatNr": "2", "postcode": "3602 AN", "plaats": "Maarssen", "merk": "StatiegeldNederland", "puntType": "balie", "materialen": ["pet-groot", "pet-klein", "blik"], "uitbetaling": [], "vrijToegankelijk": true, "gemeenteBeperking": null, "openingstijden": {"ma": "24 uur geopend", "di": "24 uur geopend", "wo": "24 uur geopend", "do": "24 uur geopend", "vr": "24 uur geopend", "za": "24 uur geopend", "zo": "24 uur geopend"}, "latitude": 52.1375439, "longitude": 5.074448, "bronId": "341923"}}, {"type": "Feature", "geometry": {"type": "Point", "coordinates": [5.034558, 52.129049]}, "properties": {"type": "inleverpunt", "locatieNaam": "Shell", "straatNaam": "Planetenbaan", "straatNr": "202", "postcode": "3606 BB", "plaats": "Maarssen", "merk": "StatiegeldNederland", "puntType": "balie", "materialen": ["pet-groot", "pet-klein", "blik"], "uitbetaling": [], "vrijToegankelijk": true, "gemeenteBeperking": null, "openingstijden": {"ma": "24 uur geopend", "di": "24 uur geopend", "wo": "24 uur geopend", "do": "24 uur geopend", "vr": "24 uur geopend", "za": "24 uur geopend", "zo": "24 uur geopend"}, "latitude": 52.129049, "longitude": 5.034558, "bronId": "341944"}}, {"type": "Feature", "geometry": {"type": "Point", "coordinates": [4.987964, 52.183482]}, "properties": {"type": "inleverpunt", "locatieNaam": "Shell", "straatNaam": "Rijksweg A2/E35 OZ", "straatNr": "", "postcode": "3621 ZZ", "plaats": "Breukelen Ut", "merk": "StatiegeldNederland", "puntType": "balie", "materialen": ["pet-groot", "pet-klein", "blik"], "uitbetaling": [], "vrijToegankelijk": true, "gemeenteBeperking": null, "openingstijden": {"ma": "24 uur geopend", "di": "24 uur geopend", "wo": "24 uur geopend", "do": "24 uur geopend", "vr": "24 uur geopend", "za": "24 uur geopend", "zo": "24 uur geopend"}, "latitude": 52.183482, "longitude": 4.987964, "bronId": "341972"}}, {"type": "Feature", "geometry": {"type": "Point", "coordinates": [5.0309192, 52.1741579]}, "properties": {"type": "inleverpunt", "locatieNaam": "Stichting Zwembad De Meent 2002", "straatNaam": "De Meent", "straatNr": "1", "postcode": "3621 VS", "plaats": "Breukelen", "merk": "StatiegeldNederland", "puntType": "balie", "materialen": ["pet-groot", "pet-klein", "blik"], "uitbetaling": [], "vrijToegankelijk": false, "gemeenteBeperking": null, "openingstijden": {"ma": "15:00–18:00", "di": "15:00–18:00", "wo": "12:00–18:00", "do": "15:00–18:00", "vr": "12:00–18:00", "za": "12:00–18:00", "zo": "12:00–18:00"}, "latitude": 52.1741579, "longitude": 5.0309192, "bronId": "342571"}}, {"type": "Feature", "geometry": {"type": "Point", "coordinates": [5.0142927, 52.1310111]}, "properties": {"type": "inleverpunt", "locatieNaam": "Tennisvereniging De Blauwe Reiger", "straatNaam": "Reigerskamp", "straatNr": "232", "postcode": "3607 HM", "plaats": "Maarssen", "merk": "StatiegeldNederland", "puntType": "balie", "materialen": ["pet-groot", "pet-klein", "blik"], "uitbetaling": [], "vrijToegankelijk": false, "gemeenteBeperking": null, "openingstijden": {"ma": "08:00–23:00", "di": "08:00–23:00", "wo": "08:00–23:00", "do": "08:00–23:00", "vr": "08:00–23:00", "za": "08:00–23:00", "zo": "08:00–23:00"}, "latitude": 52.1310111, "longitude": 5.0142927, "bronId": "342808"}}, {"type": "Feature", "geometry": {"type": "Point", "coordinates": [5.0239286, 52.2689037]}, "properties": {"type": "inleverpunt", "locatieNaam": "V.v. D.o.b", "straatNaam": "Klein Muiden", "straatNr": "24", "postcode": "1393 RL", "plaats": "Nigtevecht", "merk": "StatiegeldNederland", "puntType": "balie", "materialen": ["pet-groot", "pet-klein", "blik"], "uitbetaling": [], "vrijToegankelijk": false, "gemeenteBeperking": null, "openingstijden": null, "latitude": 52.2689037, "longitude": 5.0239286, "bronId": "343023"}}, {"type": "Feature", "geometry": {"type": "Point", "coordinates": [5.0629276, 52.1254977]}, "properties": {"type": "inleverpunt", "locatieNaam": "V.v. Dwsm", "straatNaam": "Middenlijn", "straatNr": "10", "postcode": "3604 AW", "plaats": "Maarssen", "merk": "StatiegeldNederland", "puntType": "balie", "materialen": ["pet-groot", "pet-klein", "blik"], "uitbetaling": [], "vrijToegankelijk": false, "gemeenteBeperking": null, "openingstijden": null, "latitude": 52.1254977, "longitude": 5.0629276, "bronId": "343029"}}, {"type": "Feature", "geometry": {"type": "Point", "coordinates": [5.0271021, 52.1345979]}, "properties": {"type": "inleverpunt", "locatieNaam": "ViaTim", "straatNaam": "Duivenkamp", "straatNr": "557", "postcode": "3607 BL", "plaats": "Maarssen", "merk": "StatiegeldNederland", "puntType": "balie", "materialen": ["pet-groot", "pet-klein", "blik"], "uitbetaling": ["tikkie"], "vrijToegankelijk": true, "gemeenteBeperking": null, "openingstijden": null, "latitude": 52.1345979, "longitude": 5.0271021, "bronId": "343238"}}, {"type": "Feature", "geometry": {"type": "Point", "coordinates": [5.0399884, 52.1426268]}, "properties": {"type": "inleverpunt", "locatieNaam": "Vomar", "straatNaam": "Pieter De Hooghstraat", "straatNr": "5", "postcode": "3601 EE", "plaats": "Maarssen", "merk": "StatiegeldNederland", "puntType": "automaat", "materialen": ["pet-groot", "pet-klein", "blik", "glas", "krat"], "uitbetaling": ["bonnetje", "donatie"], "vrijToegankelijk": true, "gemeenteBeperking": null, "openingstijden": {"ma": "07:30–22:00", "di": "07:30–22:00", "wo": "07:30–22:00", "do": "07:30–22:00", "vr": "07:30–22:00", "za": "07:30–22:00", "zo": "09:00–20:00"}, "latitude": 52.1426268, "longitude": 5.0399884, "bronId": "343821"}}, {"type": "Feature", "geometry": {"type": "Point", "coordinates": [5.0127508, 52.1417346]}, "properties": {"type": "inleverpunt", "locatieNaam": "Vomar", "straatNaam": "Zwanenkamp", "straatNr": "302", "postcode": "3607 SG", "plaats": "Maarssenbroek", "merk": "StatiegeldNederland", "puntType": "automaat", "materialen": ["pet-groot", "pet-klein", "blik", "glas", "krat"], "uitbetaling": ["bonnetje", "donatie"], "vrijToegankelijk": true, "gemeenteBeperking": null, "openingstijden": {"ma": "07:30–21:30", "di": "07:30–21:30", "wo": "07:30–21:30", "do": "07:30–21:30", "vr": "07:30–21:30", "za": "07:30–21:30", "zo": "09:00–20:00"}, "latitude": 52.1417346, "longitude": 5.0127508, "bronId": "343857"}}, {"type": "Feature", "geometry": {"type": "Point", "coordinates": [4.9553428, 52.1474885]}, "properties": {"type": "inleverpunt", "locatieNaam": "Zwem En Recreatiepark De Koet", "straatNaam": "Sportweg", "straatNr": "3", "postcode": "3628 AZ", "plaats": "Kockengen", "merk": "StatiegeldNederland", "puntType": "balie", "materialen": ["pet-groot", "pet-klein", "blik"], "uitbetaling": [], "vrijToegankelijk": false, "gemeenteBeperking": null, "openingstijden": {"ma": "10:00–20:00", "di": "10:00–20:00", "wo": "10:00–20:00", "do": "10:00–20:00", "vr": "10:00–20:00", "za": "10:00–17:00", "zo": "12:00–17:00"}, "latitude": 52.1474885, "longitude": 4.9553428, "bronId": "344051"}}, {"type": "Feature", "geometry": {"type": "Point", "coordinates": [5.006287, 52.19361]}, "properties": {"type": "inleverpunt", "locatieNaam": "Zwemvereniging Zwemlust", "straatNaam": "Zandpad", "straatNr": "15", "postcode": "3631 NK", "plaats": "Nieuwersluis", "merk": "StatiegeldNederland", "puntType": "balie", "materialen": ["pet-groot", "pet-klein", "blik"], "uitbetaling": [], "vrijToegankelijk": false, "gemeenteBeperking": null, "openingstijden": {"ma": "12:00–18:00", "di": "Gesloten", "wo": "12:00–20:00", "do": "Gesloten", "vr": "12:00–20:00", "za": "10:00–18:00", "zo": "10:00–18:00"}, "latitude": 52.19361, "longitude": 5.006287, "bronId": "344058"}}, {"type": "Feature", "geometry": {"type": "Point", "coordinates": [5.040389, 52.128683]}, "properties": {"type": "inleverpunt", "locatieNaam": "GAMMA Maarssen", "straatNaam": "Industrieweg", "straatNr": "1", "postcode": "3606 AR", "plaats": "Maarssen", "merk": "StichtingOPEN", "puntType": "balie", "materialen": ["batterijen", "elektro-middel", "lampen", "tl-buizen"], "uitbetaling": [], "vrijToegankelijk": false, "gemeenteBeperking": null, "openingstijden": null, "latitude": 52.128683, "longitude": 5.040389, "bronId": "SP00000688"}}, {"type": "Feature", "geometry": {"type": "Point", "coordinates": [5.044672, 52.143886]}, "properties": {"type": "inleverpunt", "locatieNaam": "1176 Albert Heijn Maarssen", "straatNaam": "Dr. Plesmanlaan", "straatNr": "138", "postcode": "3601 DE", "plaats": "Maarssen", "merk": "StichtingOPEN", "puntType": "balie", "materialen": ["batterijen", "elektro-klein", "lampen"], "uitbetaling": [], "vrijToegankelijk": false, "gemeenteBeperking": null, "openingstijden": null, "latitude": 52.143886, "longitude": 5.044672, "bronId": "SP00022905"}}, {"type": "Feature", "geometry": {"type": "Point", "coordinates": [5.038993, 52.129663]}, "properties": {"type": "inleverpunt", "locatieNaam": "Praxis Maarssen - 2247", "straatNaam": "Nijverheidsweg", "straatNr": "6", "postcode": "3606 AJ", "plaats": "Maarssen", "merk": "StichtingOPEN", "puntType": "balie", "materialen": ["elektro-middel", "lampen", "tl-buizen"], "uitbetaling": [], "vrijToegankelijk": false, "gemeenteBeperking": null, "openingstijden": null, "latitude": 52.129663, "longitude": 5.038993, "bronId": "SP00004589"}}, {"type": "Feature", "geometry": {"type": "Point", "coordinates": [5.03784, 52.12914]}, "properties": {"type": "inleverpunt", "locatieNaam": "Boni Maarssen", "straatNaam": "Nijverheidsweg", "straatNr": "2a", "postcode": "3606 AJ", "plaats": "Maarssen", "merk": "StichtingOPEN", "puntType": "balie", "materialen": ["batterijen", "lampen"], "uitbetaling": [], "vrijToegankelijk": false, "gemeenteBeperking": null, "openingstijden": null, "latitude": 52.12914, "longitude": 5.03784, "bronId": "SP00030154"}}, {"type": "Feature", "geometry": {"type": "Point", "coordinates": [5.040336, 52.141838]}, "properties": {"type": "inleverpunt", "locatieNaam": "Kruidvat Maarssen", "straatNaam": "Nassaustraat", "straatNr": "5", "postcode": "3601 BA", "plaats": "Maarssen", "merk": "StichtingOPEN", "puntType": "balie", "materialen": ["batterijen", "lampen"], "uitbetaling": [], "vrijToegankelijk": false, "gemeenteBeperking": null, "openingstijden": null, "latitude": 52.141838, "longitude": 5.040336, "bronId": "SP00024678"}}, {"type": "Feature", "geometry": {"type": "Point", "coordinates": [5.039036, 52.13882]}, "properties": {"type": "inleverpunt", "locatieNaam": "Dirk Maarssen", "straatNaam": "Harmonieplein", "straatNr": "27", "postcode": "3603 BM", "plaats": "Maarssen", "merk": "StichtingOPEN", "puntType": "balie", "materialen": ["batterijen", "lampen"], "uitbetaling": [], "vrijToegankelijk": false, "gemeenteBeperking": null, "openingstijden": null, "latitude": 52.13882, "longitude": 5.039036, "bronId": "SP00023446"}}, {"type": "Feature", "geometry": {"type": "Point", "coordinates": [5.03998, 52.14262]}, "properties": {"type": "inleverpunt", "locatieNaam": "Vomar Maarssen", "straatNaam": "Pieter de Hooghstraat", "straatNr": "5", "postcode": "3601 EE", "plaats": "Maarssen", "merk": "StichtingOPEN", "puntType": "balie", "materialen": ["batterijen", "lampen"], "uitbetaling": [], "vrijToegankelijk": false, "gemeenteBeperking": null, "openingstijden": null, "latitude": 52.14262, "longitude": 5.03998, "bronId": "SP00030106"}}, {"type": "Feature", "geometry": {"type": "Point", "coordinates": [5.030847, 52.134816]}, "properties": {"type": "inleverpunt", "locatieNaam": "1247 Albert Heijn Maarssen", "straatNaam": "Bisonspoor", "straatNr": "1078", "postcode": "3605 KJ", "plaats": "Maarssen", "merk": "StichtingOPEN", "puntType": "balie", "materialen": ["batterijen", "elektro-klein", "lampen"], "uitbetaling": [], "vrijToegankelijk": false, "gemeenteBeperking": null, "openingstijden": null, "latitude": 52.134816, "longitude": 5.030847, "bronId": "SP00022901"}}, {"type": "Feature", "geometry": {"type": "Point", "coordinates": [5.02776, 52.124506]}, "properties": {"type": "inleverpunt", "locatieNaam": "260 Hoogvliet Maarssen", "straatNaam": "Boomstede", "straatNr": "211", "postcode": "3608 AK", "plaats": "Maarssen", "merk": "StichtingOPEN", "puntType": "balie", "materialen": ["batterijen", "lampen"], "uitbetaling": [], "vrijToegankelijk": false, "gemeenteBeperking": null, "openingstijden": null, "latitude": 52.124506, "longitude": 5.02776, "bronId": "SP00023921"}}, {"type": "Feature", "geometry": {"type": "Point", "coordinates": [5.030187, 52.135155]}, "properties": {"type": "inleverpunt", "locatieNaam": "Kruidvat Maarssen", "straatNaam": "Bisonspoor", "straatNr": "2049", "postcode": "3605 LE", "plaats": "Maarssen", "merk": "StichtingOPEN", "puntType": "balie", "materialen": ["batterijen", "lampen"], "uitbetaling": [], "vrijToegankelijk": false, "gemeenteBeperking": null, "openingstijden": null, "latitude": 52.135155, "longitude": 5.030187, "bronId": "SP00034360"}}, {"type": "Feature", "geometry": {"type": "Point", "coordinates": [5.030128, 52.135164]}, "properties": {"type": "inleverpunt", "locatieNaam": "Action Maarssen 1292", "straatNaam": "Bisonspoor", "straatNr": "2031", "postcode": "3605 LD", "plaats": "Maarssen", "merk": "StichtingOPEN", "puntType": "balie", "materialen": ["batterijen", "lampen"], "uitbetaling": [], "vrijToegankelijk": false, "gemeenteBeperking": null, "openingstijden": null, "latitude": 52.135164, "longitude": 5.030128, "bronId": "SP00007862"}}, {"type": "Feature", "geometry": {"type": "Point", "coordinates": [5.029096, 52.134532]}, "properties": {"type": "inleverpunt", "locatieNaam": "Dirk Maarssen", "straatNaam": "Bisonspoor", "straatNr": "1116", "postcode": "3605 KN", "plaats": "Maarssen", "merk": "StichtingOPEN", "puntType": "balie", "materialen": ["batterijen", "lampen"], "uitbetaling": [], "vrijToegankelijk": false, "gemeenteBeperking": null, "openingstijden": null, "latitude": 52.134532, "longitude": 5.029096, "bronId": "SP00023445"}}, {"type": "Feature", "geometry": {"type": "Point", "coordinates": [5.014206, 52.133667]}, "properties": {"type": "inleverpunt", "locatieNaam": "Kinderboerderij Otterspoor", "straatNaam": "Reigerskamp", "straatNr": "198", "postcode": "3607 HK", "plaats": "Maarssen", "merk": "StichtingOPEN", "puntType": "balie", "materialen": ["elektro-middel"], "uitbetaling": [], "vrijToegankelijk": false, "gemeenteBeperking": null, "openingstijden": null, "latitude": 52.133667, "longitude": 5.014206, "bronId": "SP00005473"}}, {"type": "Feature", "geometry": {"type": "Point", "coordinates": [5.01275, 52.141734]}, "properties": {"type": "inleverpunt", "locatieNaam": "Vomar Maarssen", "straatNaam": "Zwanenkamp", "straatNr": "302", "postcode": "3607 SG", "plaats": "Maarssen", "merk": "StichtingOPEN", "puntType": "balie", "materialen": ["batterijen", "lampen"], "uitbetaling": [], "vrijToegankelijk": false, "gemeenteBeperking": null, "openingstijden": null, "latitude": 52.141734, "longitude": 5.01275, "bronId": "SP00025789"}}, {"type": "Feature", "geometry": {"type": "Point", "coordinates": [5.003752, 52.171031]}, "properties": {"type": "inleverpunt", "locatieNaam": "1329 Albert Heijn Breukelen", "straatNaam": "Markt", "straatNr": "10", "postcode": "3621 AB", "plaats": "Breukelen", "merk": "StichtingOPEN", "puntType": "balie", "materialen": ["batterijen", "elektro-klein", "lampen"], "uitbetaling": [], "vrijToegankelijk": false, "gemeenteBeperking": null, "openingstijden": null, "latitude": 52.171031, "longitude": 5.003752, "bronId": "SP00022921"}}, {"type": "Feature", "geometry": {"type": "Point", "coordinates": [5.00243, 52.17225]}, "properties": {"type": "inleverpunt", "locatieNaam": "Kruidvat Breukelen", "straatNaam": "Hazeslinger", "straatNr": "5", "postcode": "3621 AT", "plaats": "Breukelen", "merk": "StichtingOPEN", "puntType": "balie", "materialen": ["batterijen", "lampen"], "uitbetaling": [], "vrijToegankelijk": false, "gemeenteBeperking": null, "openingstijden": null, "latitude": 52.17225, "longitude": 5.00243, "bronId": "SP00029700"}}, {"type": "Feature", "geometry": {"type": "Point", "coordinates": [5.001869, 52.1724]}, "properties": {"type": "inleverpunt", "locatieNaam": "Aldi Breukelen", "straatNaam": "Hazeslinger", "straatNr": "10", "postcode": "3621 AT", "plaats": "Breukelen", "merk": "StichtingOPEN", "puntType": "balie", "materialen": ["batterijen", "elektro-klein", "lampen"], "uitbetaling": [], "vrijToegankelijk": false, "gemeenteBeperking": null, "openingstijden": null, "latitude": 52.1724, "longitude": 5.001869, "bronId": "SP00026854"}}, {"type": "Feature", "geometry": {"type": "Point", "coordinates": [4.999105, 52.180966]}, "properties": {"type": "inleverpunt", "locatieNaam": "Jumbo Breukelen", "straatNaam": "Karel Doormanweg", "straatNr": "1025", "postcode": "3621 JX", "plaats": "Breukelen", "merk": "StichtingOPEN", "puntType": "balie", "materialen": ["batterijen", "lampen"], "uitbetaling": [], "vrijToegankelijk": false, "gemeenteBeperking": null, "openingstijden": null, "latitude": 52.180966, "longitude": 4.999105, "bronId": "SP00025252"}}, {"type": "Feature", "geometry": {"type": "Point", "coordinates": [5.021013, 52.21006]}, "properties": {"type": "inleverpunt", "locatieNaam": "Jumbo Loenen aan de Vecht", "straatNaam": "Rijksstraatweg", "straatNr": "127129", "postcode": "3632 AB", "plaats": "Loenen aan de Vecht", "merk": "StichtingOPEN", "puntType": "balie", "materialen": ["batterijen", "lampen"], "uitbetaling": [], "vrijToegankelijk": false, "gemeenteBeperking": null, "openingstijden": null, "latitude": 52.21006, "longitude": 5.021013, "bronId": "SP00025263"}}, {"type": "Feature", "geometry": {"type": "Point", "coordinates": [4.949124, 52.148711]}, "properties": {"type": "inleverpunt", "locatieNaam": "PLUS Kockengen", "straatNaam": "Drie Stammenweg", "straatNr": "3", "postcode": "3628 BW", "plaats": "Kockengen", "merk": "StichtingOPEN", "puntType": "balie", "materialen": ["batterijen", "lampen"], "uitbetaling": [], "vrijToegankelijk": false, "gemeenteBeperking": null, "openingstijden": null, "latitude": 52.148711, "longitude": 4.949124, "bronId": "SP00036166"}}, {"type": "Feature", "geometry": {"type": "Point", "coordinates": [5.02718, 52.27578]}, "properties": {"type": "inleverpunt", "locatieNaam": "Attent Nigtevecht", "straatNaam": "Klein Muiden", "straatNr": "54", "postcode": "1393 RL", "plaats": "Nigtevecht", "merk": "StichtingOPEN", "puntType": "balie", "materialen": ["batterijen", "elektro-klein", "lampen"], "uitbetaling": [], "vrijToegankelijk": false, "gemeenteBeperking": null, "openingstijden": null, "latitude": 52.27578, "longitude": 5.02718, "bronId": "SP00027332"}}, {"type": "Feature", "geometry": {"type": "Point", "coordinates": [4.996049, 52.168624]}, "properties": {"type": "inleverpunt", "locatieNaam": "Aanbiedstation Kanaaldijk Oost Breukelen", "straatNaam": "Kanaaldijk Oost", "straatNr": "3", "postcode": "3621 LL", "plaats": "Breukelen", "merk": "StichtingOPEN", "puntType": "milieustraat", "materialen": ["batterijen", "elektro-groot", "elektro-klein", "elektro-middel", "lampen", "tl-buizen"], "uitbetaling": [], "vrijToegankelijk": false, "gemeenteBeperking": ["Stichtse Vecht"], "openingstijden": null, "latitude": 52.168624, "longitude": 4.996049, "bronId": "SP00002376"}}, {"type": "Feature", "geometry": {"type": "Point", "coordinates": [5.037786, 52.151509]}, "properties": {"type": "inleverpunt", "locatieNaam": "Afvalscheidingstation Maarssen", "straatNaam": "Diependaalsedijk", "straatNr": "120", "postcode": "3601 GN", "plaats": "Maarssen", "merk": "StichtingOPEN", "puntType": "milieustraat", "materialen": ["batterijen", "elektro-groot", "elektro-klein", "elektro-middel", "lampen", "tl-buizen"], "uitbetaling": [], "vrijToegankelijk": false, "gemeenteBeperking": ["Stichtse Vecht"], "openingstijden": null, "latitude": 52.151509, "longitude": 5.037786, "bronId": "SP00001422"}}, {"type": "Feature", "geometry": {"type": "Point", "coordinates": [5.012463, 52.215974]}, "properties": {"type": "inleverpunt", "locatieNaam": "Gemeentewerf Loenen", "straatNaam": "Rijksstraatweg", "straatNr": "184", "postcode": "3632 AJ", "plaats": "Loenen aan de Vecht", "merk": "StichtingOPEN", "puntType": "milieustraat", "materialen": ["batterijen", "elektro-groot", "elektro-klein", "elektro-middel", "lampen", "tl-buizen"], "uitbetaling": [], "vrijToegankelijk": false, "gemeenteBeperking": ["Stichtse Vecht"], "openingstijden": null, "latitude": 52.215974, "longitude": 5.012463, "bronId": "SP00004282"}}, {"type": "Feature", "geometry": {"type": "Point", "coordinates": [5.0713964, 52.1426881]}, "properties": {"type": "inleverpunt", "locatieNaam": "Tuincentrum Vechtweelde", "straatNaam": "Herenweg", "straatNr": "35", "postcode": "3602 AN", "plaats": "Maarssen", "merk": "Stibat", "puntType": "inzamelbak", "materialen": ["batterijen"], "uitbetaling": [], "vrijToegankelijk": false, "gemeenteBeperking": null, "openingstijden": null, "latitude": 52.1426881, "longitude": 5.0713964, "bronId": "L042004"}}, {"type": "Feature", "geometry": {"type": "Point", "coordinates": [5.0459312, 52.1433791]}, "properties": {"type": "inleverpunt", "locatieNaam": "Foto Totaal", "straatNaam": "Dr. Plesmanlaan", "straatNr": "166", "postcode": "3601 DE", "plaats": "Maarssen", "merk": "Stibat", "puntType": "inzamelbak", "materialen": ["batterijen"], "uitbetaling": [], "vrijToegankelijk": false, "gemeenteBeperking": null, "openingstijden": null, "latitude": 52.1433791, "longitude": 5.0459312, "bronId": "L038848"}}, {"type": "Feature", "geometry": {"type": "Point", "coordinates": [5.0402058, 52.1285208]}, "properties": {"type": "inleverpunt", "locatieNaam": "Gamma", "straatNaam": "Industrieweg", "straatNr": "1", "postcode": "3606 AR", "plaats": "Maarssen", "merk": "Stibat", "puntType": "inzamelbak", "materialen": ["batterijen"], "uitbetaling": [], "vrijToegankelijk": false, "gemeenteBeperking": null, "openingstijden": null, "latitude": 52.1285208, "longitude": 5.0402058, "bronId": "L007900"}}, {"type": "Feature", "geometry": {"type": "Point", "coordinates": [5.0454402, 52.143334]}, "properties": {"type": "inleverpunt", "locatieNaam": "Beter Horen", "straatNaam": "Dr. Plesmanlaan", "straatNr": "190a", "postcode": "3601 DG", "plaats": "Maarssen", "merk": "Stibat", "puntType": "inzamelbak", "materialen": ["batterijen"], "uitbetaling": [], "vrijToegankelijk": false, "gemeenteBeperking": null, "openingstijden": null, "latitude": 52.143334, "longitude": 5.0454402, "bronId": "L016975"}}, {"type": "Feature", "geometry": {"type": "Point", "coordinates": [5.0454053, 52.1433458]}, "properties": {"type": "inleverpunt", "locatieNaam": "7490 Etos", "straatNaam": "Dr. Plesmanlaan", "straatNr": "184", "postcode": "3601 DG", "plaats": "Maarssen", "merk": "Stibat", "puntType": "inzamelbak", "materialen": ["batterijen"], "uitbetaling": [], "vrijToegankelijk": false, "gemeenteBeperking": null, "openingstijden": null, "latitude": 52.1433458, "longitude": 5.0454053, "bronId": "L023017"}}, {"type": "Feature", "geometry": {"type": "Point", "coordinates": [5.0453929, 52.1433295]}, "properties": {"type": "inleverpunt", "locatieNaam": "1176 Albert Heijn", "straatNaam": "Doctor Plesmanlaan", "straatNr": "138", "postcode": "3601 DE", "plaats": "Maarssen", "merk": "Stibat", "puntType": "inzamelbak", "materialen": ["batterijen"], "uitbetaling": [], "vrijToegankelijk": false, "gemeenteBeperking": null, "openingstijden": null, "latitude": 52.1433295, "longitude": 5.0453929, "bronId": "L006255"}}, {"type": "Feature", "geometry": {"type": "Point", "coordinates": [5.0453908, 52.1433368]}, "properties": {"type": "inleverpunt", "locatieNaam": "FIETSHANDEL MARKERINK", "straatNaam": "Dr. Plesmanlaan", "straatNr": "154", "postcode": "3601 DE", "plaats": "Maarssen", "merk": "Stibat", "puntType": "inzamelbak", "materialen": ["batterijen"], "uitbetaling": [], "vrijToegankelijk": false, "gemeenteBeperking": null, "openingstijden": null, "latitude": 52.1433368, "longitude": 5.0453908, "bronId": "L033202"}}, {"type": "Feature", "geometry": {"type": "Point", "coordinates": [5.0389095, 52.1296691]}, "properties": {"type": "inleverpunt", "locatieNaam": "Praxis 2247", "straatNaam": "Nijverheidsweg", "straatNr": "6", "postcode": "3606 AJ", "plaats": "Maarssen", "merk": "Stibat", "puntType": "inzamelbak", "materialen": ["batterijen"], "uitbetaling": [], "vrijToegankelijk": false, "gemeenteBeperking": null, "openingstijden": null, "latitude": 52.1296691, "longitude": 5.0389095, "bronId": "L019880"}}, {"type": "Feature", "geometry": {"type": "Point", "coordinates": [5.0426885, 52.1417355]}, "properties": {"type": "inleverpunt", "locatieNaam": "Honig Tweewielerspecialist", "straatNaam": "Nassaustraat", "straatNr": "99", "postcode": "3601 BD", "plaats": "Maarssen", "merk": "Stibat", "puntType": "inzamelbak", "materialen": ["batterijen"], "uitbetaling": [], "vrijToegankelijk": false, "gemeenteBeperking": null, "openingstijden": null, "latitude": 52.1417355, "longitude": 5.0426885, "bronId": "L042057"}}, {"type": "Feature", "geometry": {"type": "Point", "coordinates": [5.0368472, 52.1296298]}, "properties": {"type": "inleverpunt", "locatieNaam": "Lidl", "straatNaam": "Nijverheidsweg", "straatNr": "2b", "postcode": "3606 AJ", "plaats": "Maarssen", "merk": "Stibat", "puntType": "inzamelbak", "materialen": ["batterijen"], "uitbetaling": [], "vrijToegankelijk": false, "gemeenteBeperking": null, "openingstijden": null, "latitude": 52.1296298, "longitude": 5.0368472, "bronId": "L036158"}}, {"type": "Feature", "geometry": {"type": "Point", "coordinates": [5.0410816, 52.1426127]}, "properties": {"type": "inleverpunt", "locatieNaam": "Makker Hoortoestellen", "straatNaam": "Johannes Vermeerstraat", "straatNr": "25", "postcode": "3601 EL", "plaats": "Maarssen", "merk": "Stibat", "puntType": "inzamelbak", "materialen": ["batterijen"], "uitbetaling": [], "vrijToegankelijk": false, "gemeenteBeperking": null, "openingstijden": null, "latitude": 52.1426127, "longitude": 5.0410816, "bronId": "L049717"}}, {"type": "Feature", "geometry": {"type": "Point", "coordinates": [5.0405995, 52.1417858]}, "properties": {"type": "inleverpunt", "locatieNaam": "Electro World", "straatNaam": "Nassaustraat", "straatNr": "9-11", "postcode": "3601 BA", "plaats": "Maarssen", "merk": "Stibat", "puntType": "inzamelbak", "materialen": ["batterijen"], "uitbetaling": [], "vrijToegankelijk": false, "gemeenteBeperking": null, "openingstijden": null, "latitude": 52.1417858, "longitude": 5.0405995, "bronId": "L014261"}}, {"type": "Feature", "geometry": {"type": "Point", "coordinates": [5.039548, 52.1396704]}, "properties": {"type": "inleverpunt", "locatieNaam": "Dirk", "straatNaam": "Harmonieplein", "straatNr": "27", "postcode": "3603 BM", "plaats": "Maarssen", "merk": "Stibat", "puntType": "inzamelbak", "materialen": ["batterijen"], "uitbetaling": [], "vrijToegankelijk": false, "gemeenteBeperking": null, "openingstijden": null, "latitude": 52.1396704, "longitude": 5.039548, "bronId": "L011046"}}, {"type": "Feature", "geometry": {"type": "Point", "coordinates": [5.0403235, 52.1418065]}, "properties": {"type": "inleverpunt", "locatieNaam": "Kruidvat", "straatNaam": "Nassaustraat", "straatNr": "5", "postcode": "3601 BA", "plaats": "Maarssen", "merk": "Stibat", "puntType": "inzamelbak", "materialen": ["batterijen"], "uitbetaling": [], "vrijToegankelijk": false, "gemeenteBeperking": null, "openingstijden": null, "latitude": 52.1418065, "longitude": 5.0403235, "bronId": "L016146"}}, {"type": "Feature", "geometry": {"type": "Point", "coordinates": [5.0403259, 52.1420315]}, "properties": {"type": "inleverpunt", "locatieNaam": "Novy", "straatNaam": "Nassaustraat", "straatNr": "10", "postcode": "3601 BG", "plaats": "Maarssen", "merk": "Stibat", "puntType": "inzamelbak", "materialen": ["batterijen"], "uitbetaling": [], "vrijToegankelijk": false, "gemeenteBeperking": null, "openingstijden": null, "latitude": 52.1420315, "longitude": 5.0403259, "bronId": "L024035"}}, {"type": "Feature", "geometry": {"type": "Point", "coordinates": [5.0403242, 52.1424275]}, "properties": {"type": "inleverpunt", "locatieNaam": "EP:", "straatNaam": "Pieter de Hooghstraat", "straatNr": "6", "postcode": "3601 EJ", "plaats": "Maarssen", "merk": "Stibat", "puntType": "inzamelbak", "materialen": ["batterijen"], "uitbetaling": [], "vrijToegankelijk": false, "gemeenteBeperking": null, "openingstijden": null, "latitude": 52.1424275, "longitude": 5.0403242, "bronId": "L038483"}}, {"type": "Feature", "geometry": {"type": "Point", "coordinates": [5.0398097, 52.142098]}, "properties": {"type": "inleverpunt", "locatieNaam": "Bruna", "straatNaam": "Diependaalsedijk", "straatNr": "2", "postcode": "3601 GK", "plaats": "Maarssen", "merk": "Stibat", "puntType": "inzamelbak", "materialen": ["batterijen"], "uitbetaling": [], "vrijToegankelijk": false, "gemeenteBeperking": null, "openingstijden": null, "latitude": 52.142098, "longitude": 5.0398097, "bronId": "L022537"}}, {"type": "Feature", "geometry": {"type": "Point", "coordinates": [5.0399884, 52.1426268]}, "properties": {"type": "inleverpunt", "locatieNaam": "Vomar", "straatNaam": "Pieter de Hooghstraat", "straatNr": "5", "postcode": "3601 EE", "plaats": "Maarssen", "merk": "Stibat", "puntType": "inzamelbak", "materialen": ["batterijen"], "uitbetaling": [], "vrijToegankelijk": false, "gemeenteBeperking": null, "openingstijden": null, "latitude": 52.1426268, "longitude": 5.0399884, "bronId": "L039886"}}, {"type": "Feature", "geometry": {"type": "Point", "coordinates": [5.0394958, 52.141566]}, "properties": {"type": "inleverpunt", "locatieNaam": "Ekeris Fietsplezier", "straatNaam": "Kaatsbaan", "straatNr": "32", "postcode": "3601 ED", "plaats": "Maarssen", "merk": "Stibat", "puntType": "inzamelbak", "materialen": ["batterijen"], "uitbetaling": [], "vrijToegankelijk": false, "gemeenteBeperking": null, "openingstijden": null, "latitude": 52.141566, "longitude": 5.0394958, "bronId": "L033203"}}, {"type": "Feature", "geometry": {"type": "Point", "coordinates": [5.0395552, 52.1418279]}, "properties": {"type": "inleverpunt", "locatieNaam": "HEMA Maarssen-dorp", "straatNaam": "Kaatsbaan", "straatNr": "40", "postcode": "3601 ED", "plaats": "Maarssen", "merk": "Stibat", "puntType": "inzamelbak", "materialen": ["batterijen"], "uitbetaling": [], "vrijToegankelijk": false, "gemeenteBeperking": null, "openingstijden": null, "latitude": 52.1418279, "longitude": 5.0395552, "bronId": "L046951"}}, {"type": "Feature", "geometry": {"type": "Point", "coordinates": [5.0277734, 52.1244642]}, "properties": {"type": "inleverpunt", "locatieNaam": "260 Hoogvliet", "straatNaam": "Boomstede", "straatNr": "211", "postcode": "3608 AK", "plaats": "Maarssen", "merk": "Stibat", "puntType": "inzamelbak", "materialen": ["batterijen"], "uitbetaling": [], "vrijToegankelijk": false, "gemeenteBeperking": null, "openingstijden": null, "latitude": 52.1244642, "longitude": 5.0277734, "bronId": "L009017"}}, {"type": "Feature", "geometry": {"type": "Point", "coordinates": [5.0307262, 52.1348075]}, "properties": {"type": "inleverpunt", "locatieNaam": "1247 Albert Heijn", "straatNaam": "Bisonspoor", "straatNr": "1078", "postcode": "3605 KJ", "plaats": "Maarssen", "merk": "Stibat", "puntType": "inzamelbak", "materialen": ["batterijen"], "uitbetaling": [], "vrijToegankelijk": false, "gemeenteBeperking": null, "openingstijden": null, "latitude": 52.1348075, "longitude": 5.0307262, "bronId": "L007633"}}, {"type": "Feature", "geometry": {"type": "Point", "coordinates": [5.037616, 52.1510586]}, "properties": {"type": "inleverpunt", "locatieNaam": "Afvalstoffendepot (AVR) Maarssen", "straatNaam": "Diependaalsedijk", "straatNr": "120", "postcode": "3601 GN", "plaats": "Maarssen", "merk": "Stibat", "puntType": "inzamelbak", "materialen": ["batterijen"], "uitbetaling": [], "vrijToegankelijk": false, "gemeenteBeperking": null, "openingstijden": null, "latitude": 52.1510586, "longitude": 5.037616, "bronId": "L035681"}}, {"type": "Feature", "geometry": {"type": "Point", "coordinates": [5.0308622, 52.1352895]}, "properties": {"type": "inleverpunt", "locatieNaam": "Hans Anders", "straatNaam": "Bisonspoor", "straatNr": "1067-1069", "postcode": "3605 KH", "plaats": "Maarssen", "merk": "Stibat", "puntType": "inzamelbak", "materialen": ["batterijen"], "uitbetaling": [], "vrijToegankelijk": false, "gemeenteBeperking": null, "openingstijden": null, "latitude": 52.1352895, "longitude": 5.0308622, "bronId": "L041009"}}, {"type": "Feature", "geometry": {"type": "Point", "coordinates": [5.030813, 52.1354449]}, "properties": {"type": "inleverpunt", "locatieNaam": "Aldi", "straatNaam": "Bisonspoor", "straatNr": "1064", "postcode": "3605 KJ", "plaats": "Maarssen", "merk": "Stibat", "puntType": "inzamelbak", "materialen": ["batterijen"], "uitbetaling": [], "vrijToegankelijk": false, "gemeenteBeperking": null, "openingstijden": null, "latitude": 52.1354449, "longitude": 5.030813, "bronId": "L047624"}}, {"type": "Feature", "geometry": {"type": "Point", "coordinates": [5.0304782, 52.1346706]}, "properties": {"type": "inleverpunt", "locatieNaam": "AKO", "straatNaam": "Bisonspoor", "straatNr": "1082", "postcode": "3605 KK", "plaats": "Maarssenbroek", "merk": "Stibat", "puntType": "inzamelbak", "materialen": ["batterijen"], "uitbetaling": [], "vrijToegankelijk": false, "gemeenteBeperking": null, "openingstijden": null, "latitude": 52.1346706, "longitude": 5.0304782, "bronId": "L022335"}}, {"type": "Feature", "geometry": {"type": "Point", "coordinates": [5.0304946, 52.1354192]}, "properties": {"type": "inleverpunt", "locatieNaam": "7488 Etos", "straatNaam": "Bisonspoor", "straatNr": "1060", "postcode": "3605 KG", "plaats": "Maarssen", "merk": "Stibat", "puntType": "inzamelbak", "materialen": ["batterijen"], "uitbetaling": [], "vrijToegankelijk": false, "gemeenteBeperking": null, "openingstijden": null, "latitude": 52.1354192, "longitude": 5.0304946, "bronId": "L022662"}}, {"type": "Feature", "geometry": {"type": "Point", "coordinates": [5.0303087, 52.1349243]}, "properties": {"type": "inleverpunt", "locatieNaam": "Trekpleister", "straatNaam": "Bisonspoor", "straatNr": "1096", "postcode": "3605 KL", "plaats": "Maarssen", "merk": "Stibat", "puntType": "inzamelbak", "materialen": ["batterijen"], "uitbetaling": [], "vrijToegankelijk": false, "gemeenteBeperking": null, "openingstijden": null, "latitude": 52.1349243, "longitude": 5.0303087, "bronId": "L027082"}}, {"type": "Feature", "geometry": {"type": "Point", "coordinates": [5.030308, 52.1350051]}, "properties": {"type": "inleverpunt", "locatieNaam": "Dirk", "straatNaam": "Bisonspoor", "straatNr": "1116", "postcode": "3605 KN", "plaats": "Maarssen", "merk": "Stibat", "puntType": "inzamelbak", "materialen": ["batterijen"], "uitbetaling": [], "vrijToegankelijk": false, "gemeenteBeperking": null, "openingstijden": null, "latitude": 52.1350051, "longitude": 5.030308, "bronId": "L011715"}}, {"type": "Feature", "geometry": {"type": "Point", "coordinates": [5.0301333, 52.1349327]}, "properties": {"type": "inleverpunt", "locatieNaam": "Kruidvat", "straatNaam": "Bisonspoor", "straatNr": "2049", "postcode": "3605 LE", "plaats": "Maarssen", "merk": "Stibat", "puntType": "inzamelbak", "materialen": ["batterijen"], "uitbetaling": [], "vrijToegankelijk": false, "gemeenteBeperking": null, "openingstijden": null, "latitude": 52.1349327, "longitude": 5.0301333, "bronId": "L018484"}}, {"type": "Feature", "geometry": {"type": "Point", "coordinates": [5.0300559, 52.1349133]}, "properties": {"type": "inleverpunt", "locatieNaam": "1292 Action", "straatNaam": "Bisonspoor", "straatNr": "2031", "postcode": "3605 LC", "plaats": "Maarssen", "merk": "Stibat", "puntType": "inzamelbak", "materialen": ["batterijen"], "uitbetaling": [], "vrijToegankelijk": false, "gemeenteBeperking": null, "openingstijden": null, "latitude": 52.1349133, "longitude": 5.0300559, "bronId": "L030976"}}, {"type": "Feature", "geometry": {"type": "Point", "coordinates": [5.0300414, 52.135128]}, "properties": {"type": "inleverpunt", "locatieNaam": "Wibra", "straatNaam": "Bisonspoor", "straatNr": "2028-2040", "postcode": "3605 LD", "plaats": "Maarssen", "merk": "Stibat", "puntType": "inzamelbak", "materialen": ["batterijen"], "uitbetaling": [], "vrijToegankelijk": false, "gemeenteBeperking": null, "openingstijden": null, "latitude": 52.135128, "longitude": 5.0300414, "bronId": "L024504"}}, {"type": "Feature", "geometry": {"type": "Point", "coordinates": [5.0298098, 52.1349021]}, "properties": {"type": "inleverpunt", "locatieNaam": "Zeeman", "straatNaam": "WC Bisonspoor", "straatNr": "2010", "postcode": "3605 LA", "plaats": "Maarssenbroek", "merk": "Stibat", "puntType": "inzamelbak", "materialen": ["batterijen"], "uitbetaling": [], "vrijToegankelijk": false, "gemeenteBeperking": null, "openingstijden": null, "latitude": 52.1349021, "longitude": 5.0298098, "bronId": "L021975"}}, {"type": "Feature", "geometry": {"type": "Point", "coordinates": [5.0296043, 52.1349919]}, "properties": {"type": "inleverpunt", "locatieNaam": "Specsavers Hearcare", "straatNaam": "Bisonspoor", "straatNr": "1137", "postcode": "3605 KR", "plaats": "Maarssen", "merk": "Stibat", "puntType": "inzamelbak", "materialen": ["batterijen"], "uitbetaling": [], "vrijToegankelijk": false, "gemeenteBeperking": null, "openingstijden": null, "latitude": 52.1349919, "longitude": 5.0296043, "bronId": "L038705"}}, {"type": "Feature", "geometry": {"type": "Point", "coordinates": [5.0296066, 52.135048]}, "properties": {"type": "inleverpunt", "locatieNaam": "BelCompany", "straatNaam": "Bisonspoor", "straatNr": "1140", "postcode": "3605 KR", "plaats": "Maarssen", "merk": "Stibat", "puntType": "inzamelbak", "materialen": ["batterijen"], "uitbetaling": [], "vrijToegankelijk": false, "gemeenteBeperking": null, "openingstijden": null, "latitude": 52.135048, "longitude": 5.0296066, "bronId": "L014365"}}, {"type": "Feature", "geometry": {"type": "Point", "coordinates": [5.0296453, 52.1353425]}, "properties": {"type": "inleverpunt", "locatieNaam": "KiK Maarssen", "straatNaam": "Bisonspoor", "straatNr": "1158", "postcode": "3605 KT", "plaats": "Maarssen", "merk": "Stibat", "puntType": "inzamelbak", "materialen": ["batterijen"], "uitbetaling": [], "vrijToegankelijk": false, "gemeenteBeperking": null, "openingstijden": null, "latitude": 52.1353425, "longitude": 5.0296453, "bronId": "L044905"}}, {"type": "Feature", "geometry": {"type": "Point", "coordinates": [5.0291627, 52.1357567]}, "properties": {"type": "inleverpunt", "locatieNaam": "HEMA Bisonspoor", "straatNaam": "Bisonspoor", "straatNr": "1027", "postcode": "3605 KC", "plaats": "Maarssen", "merk": "Stibat", "puntType": "inzamelbak", "materialen": ["batterijen"], "uitbetaling": [], "vrijToegankelijk": false, "gemeenteBeperking": null, "openingstijden": null, "latitude": 52.1357567, "longitude": 5.0291627, "bronId": "L007553"}}, {"type": "Feature", "geometry": {"type": "Point", "coordinates": [5.0291056, 52.1357682]}, "properties": {"type": "inleverpunt", "locatieNaam": "Primera", "straatNaam": "Bisonspoor", "straatNr": "1051A", "postcode": "3605 KG", "plaats": "Maarssen", "merk": "Stibat", "puntType": "inzamelbak", "materialen": ["batterijen"], "uitbetaling": [], "vrijToegankelijk": false, "gemeenteBeperking": null, "openingstijden": null, "latitude": 52.1357682, "longitude": 5.0291056, "bronId": "L026847"}}, {"type": "Feature", "geometry": {"type": "Point", "coordinates": [5.0289847, 52.135763]}, "properties": {"type": "inleverpunt", "locatieNaam": "My gsm store", "straatNaam": "Bisonspoor", "straatNr": "1011-A", "postcode": "3605 KB", "plaats": "Maarssen", "merk": "Stibat", "puntType": "inzamelbak", "materialen": ["batterijen"], "uitbetaling": [], "vrijToegankelijk": false, "gemeenteBeperking": null, "openingstijden": null, "latitude": 52.135763, "longitude": 5.0289847, "bronId": "L040677"}}, {"type": "Feature", "geometry": {"type": "Point", "coordinates": [5.0289699, 52.1357809]}, "properties": {"type": "inleverpunt", "locatieNaam": "Xenos", "straatNaam": "Bisonspoor", "straatNr": "1012", "postcode": "3605 KB", "plaats": "Maarssen", "merk": "Stibat", "puntType": "inzamelbak", "materialen": ["batterijen"], "uitbetaling": [], "vrijToegankelijk": false, "gemeenteBeperking": null, "openingstijden": null, "latitude": 52.1357809, "longitude": 5.0289699, "bronId": "L036885"}}, {"type": "Feature", "geometry": {"type": "Point", "coordinates": [5.0125312, 52.1417878]}, "properties": {"type": "inleverpunt", "locatieNaam": "CIGO", "straatNaam": "Zwanenkamp", "straatNr": "300", "postcode": "3607 SG", "plaats": "Maarssen", "merk": "Stibat", "puntType": "inzamelbak", "materialen": ["batterijen"], "uitbetaling": [], "vrijToegankelijk": false, "gemeenteBeperking": null, "openingstijden": null, "latitude": 52.1417878, "longitude": 5.0125312, "bronId": "L037296"}}, {"type": "Feature", "geometry": {"type": "Point", "coordinates": [5.0120402, 52.1416332]}, "properties": {"type": "inleverpunt", "locatieNaam": "Vomar", "straatNaam": "Zwanenkamp", "straatNr": "302", "postcode": "3607 SG", "plaats": "Maarssen", "merk": "Stibat", "puntType": "inzamelbak", "materialen": ["batterijen"], "uitbetaling": [], "vrijToegankelijk": false, "gemeenteBeperking": null, "openingstijden": null, "latitude": 52.1416332, "longitude": 5.0120402, "bronId": "L029453"}}, {"type": "Feature", "geometry": {"type": "Point", "coordinates": [5.0007593, 52.1436407]}, "properties": {"type": "inleverpunt", "locatieNaam": "Shell", "straatNaam": "Rijksweg A2 Westzijde", "straatNr": "2", "postcode": "3621 MZ", "plaats": "Breukelen Ut", "merk": "Stibat", "puntType": "inzamelbak", "materialen": ["batterijen"], "uitbetaling": [], "vrijToegankelijk": false, "gemeenteBeperking": null, "openingstijden": null, "latitude": 52.1436407, "longitude": 5.0007593, "bronId": "L025941"}}, {"type": "Feature", "geometry": {"type": "Point", "coordinates": [5.0083348, 52.1677531]}, "properties": {"type": "inleverpunt", "locatieNaam": "The Read Shop", "straatNaam": "Straatweg", "straatNr": "66T", "postcode": "3621 BR", "plaats": "Breukelen Ut", "merk": "Stibat", "puntType": "inzamelbak", "materialen": ["batterijen"], "uitbetaling": [], "vrijToegankelijk": false, "gemeenteBeperking": null, "openingstijden": null, "latitude": 52.1677531, "longitude": 5.0083348, "bronId": "L026210"}}, {"type": "Feature", "geometry": {"type": "Point", "coordinates": [5.0038976, 52.1712005]}, "properties": {"type": "inleverpunt", "locatieNaam": "7437 Etos", "straatNaam": "Dannestraat", "straatNr": "1 a+b", "postcode": "3621 AE", "plaats": "Breukelen", "merk": "Stibat", "puntType": "inzamelbak", "materialen": ["batterijen"], "uitbetaling": [], "vrijToegankelijk": false, "gemeenteBeperking": null, "openingstijden": null, "latitude": 52.1712005, "longitude": 5.0038976, "bronId": "L024453"}}, {"type": "Feature", "geometry": {"type": "Point", "coordinates": [5.0037555, 52.1710337]}, "properties": {"type": "inleverpunt", "locatieNaam": "1329 Albert Heijn", "straatNaam": "Markt", "straatNr": "10", "postcode": "3621 AB", "plaats": "Breukelen Ut", "merk": "Stibat", "puntType": "inzamelbak", "materialen": ["batterijen"], "uitbetaling": [], "vrijToegankelijk": false, "gemeenteBeperking": null, "openingstijden": null, "latitude": 52.1710337, "longitude": 5.0037555, "bronId": "L006397"}}, {"type": "Feature", "geometry": {"type": "Point", "coordinates": [5.0022604, 52.1707367]}, "properties": {"type": "inleverpunt", "locatieNaam": "Expert", "straatNaam": "Straatweg", "straatNr": "51", "postcode": "3621 BH", "plaats": "Breukelen Ut", "merk": "Stibat", "puntType": "inzamelbak", "materialen": ["batterijen"], "uitbetaling": [], "vrijToegankelijk": false, "gemeenteBeperking": null, "openingstijden": null, "latitude": 52.1707367, "longitude": 5.0022604, "bronId": "L010537"}}, {"type": "Feature", "geometry": {"type": "Point", "coordinates": [5.0022143, 52.1709926]}, "properties": {"type": "inleverpunt", "locatieNaam": "HEMA Breukelen", "straatNaam": "Straatweg", "straatNr": "55", "postcode": "3621 BH", "plaats": "Breukelen", "merk": "Stibat", "puntType": "inzamelbak", "materialen": ["batterijen"], "uitbetaling": [], "vrijToegankelijk": false, "gemeenteBeperking": null, "openingstijden": null, "latitude": 52.1709926, "longitude": 5.0022143, "bronId": "L047006"}}, {"type": "Feature", "geometry": {"type": "Point", "coordinates": [5.0023267, 52.1714034]}, "properties": {"type": "inleverpunt", "locatieNaam": "Oorwerk Audiciens", "straatNaam": "Straatweg", "straatNr": "92", "postcode": "3621 BS", "plaats": "Breukelen", "merk": "Stibat", "puntType": "inzamelbak", "materialen": ["batterijen"], "uitbetaling": [], "vrijToegankelijk": false, "gemeenteBeperking": null, "openingstijden": null, "latitude": 52.1714034, "longitude": 5.0023267, "bronId": "L030292"}}, {"type": "Feature", "geometry": {"type": "Point", "coordinates": [5.0024317, 52.1722517]}, "properties": {"type": "inleverpunt", "locatieNaam": "Kruidvat", "straatNaam": "Hazeslinger", "straatNr": "5", "postcode": "3621 AT", "plaats": "Breukelen", "merk": "Stibat", "puntType": "inzamelbak", "materialen": ["batterijen"], "uitbetaling": [], "vrijToegankelijk": false, "gemeenteBeperking": null, "openingstijden": null, "latitude": 52.1722517, "longitude": 5.0024317, "bronId": "L014516"}}, {"type": "Feature", "geometry": {"type": "Point", "coordinates": [5.0018697, 52.1724009]}, "properties": {"type": "inleverpunt", "locatieNaam": "Aldi", "straatNaam": "Hazeslinger", "straatNr": "10", "postcode": "3621 AT", "plaats": "Breukelen", "merk": "Stibat", "puntType": "inzamelbak", "materialen": ["batterijen"], "uitbetaling": [], "vrijToegankelijk": false, "gemeenteBeperking": null, "openingstijden": null, "latitude": 52.1724009, "longitude": 5.0018697, "bronId": "L041236"}}, {"type": "Feature", "geometry": {"type": "Point", "coordinates": [4.9968375, 52.1680801]}, "properties": {"type": "inleverpunt", "locatieNaam": "Aanbiedstation Breukelen", "straatNaam": "Kanaaldijk-Oost", "straatNr": "3", "postcode": "3621 LL", "plaats": "Breukelen", "merk": "Stibat", "puntType": "inzamelbak", "materialen": ["batterijen"], "uitbetaling": [], "vrijToegankelijk": false, "gemeenteBeperking": null, "openingstijden": null, "latitude": 52.1680801, "longitude": 4.9968375, "bronId": "L035682"}}, {"type": "Feature", "geometry": {"type": "Point", "coordinates": [4.9975698, 52.1722852]}, "properties": {"type": "inleverpunt", "locatieNaam": "Age van 't Hoff 2-wielers", "straatNaam": "Marijkestraat", "straatNr": "22", "postcode": "3621 DC", "plaats": "Breukelen Ut", "merk": "Stibat", "puntType": "inzamelbak", "materialen": ["batterijen"], "uitbetaling": [], "vrijToegankelijk": false, "gemeenteBeperking": null, "openingstijden": null, "latitude": 52.1722852, "longitude": 4.9975698, "bronId": "L033205"}}, {"type": "Feature", "geometry": {"type": "Point", "coordinates": [4.9990916, 52.1806907]}, "properties": {"type": "inleverpunt", "locatieNaam": "Jumbo", "straatNaam": "Karel Doormanweg", "straatNr": "10-25", "postcode": "3621 JX", "plaats": "Breukelen Ut", "merk": "Stibat", "puntType": "inzamelbak", "materialen": ["batterijen"], "uitbetaling": [], "vrijToegankelijk": false, "gemeenteBeperking": null, "openingstijden": null, "latitude": 52.1806907, "longitude": 4.9990916, "bronId": "L032194"}}, {"type": "Feature", "geometry": {"type": "Point", "coordinates": [5.0210139, 52.2100601]}, "properties": {"type": "inleverpunt", "locatieNaam": "Jumbo", "straatNaam": "Rijksstraatweg", "straatNr": "127-129", "postcode": "3632 AB", "plaats": "Loenen aan de Vecht", "merk": "Stibat", "puntType": "inzamelbak", "materialen": ["batterijen"], "uitbetaling": [], "vrijToegankelijk": false, "gemeenteBeperking": null, "openingstijden": null, "latitude": 52.2100601, "longitude": 5.0210139, "bronId": "L035346"}}, {"type": "Feature", "geometry": {"type": "Point", "coordinates": [4.9881272, 52.1835649]}, "properties": {"type": "inleverpunt", "locatieNaam": "Shell", "straatNaam": "Rijksweg A2 Oostzijde", "straatNr": "1", "postcode": "3621 ZZ", "plaats": "Breukelen Ut", "merk": "Stibat", "puntType": "inzamelbak", "materialen": ["batterijen"], "uitbetaling": [], "vrijToegankelijk": false, "gemeenteBeperking": null, "openingstijden": null, "latitude": 52.1835649, "longitude": 4.9881272, "bronId": "L024802"}}, {"type": "Feature", "geometry": {"type": "Point", "coordinates": [5.0335304, 52.2300938]}, "properties": {"type": "inleverpunt", "locatieNaam": "Troefmarkt", "straatNaam": "Voorstraat", "straatNr": "15", "postcode": "3633 BB", "plaats": "Vreeland", "merk": "Stibat", "puntType": "inzamelbak", "materialen": ["batterijen"], "uitbetaling": [], "vrijToegankelijk": false, "gemeenteBeperking": null, "openingstijden": null, "latitude": 52.2300938, "longitude": 5.0335304, "bronId": "L013693"}}, {"type": "Feature", "geometry": {"type": "Point", "coordinates": [5.0125008, 52.21596]}, "properties": {"type": "inleverpunt", "locatieNaam": "Gemeentewerf Loenen", "straatNaam": "Rijksstraatweg", "straatNr": "184", "postcode": "3632 AJ", "plaats": "Loenen", "merk": "Stibat", "puntType": "inzamelbak", "materialen": ["batterijen"], "uitbetaling": [], "vrijToegankelijk": false, "gemeenteBeperking": null, "openingstijden": null, "latitude": 52.21596, "longitude": 5.0125008, "bronId": "L035684"}}, {"type": "Feature", "geometry": {"type": "Point", "coordinates": [5.0256585, 52.2277836]}, "properties": {"type": "inleverpunt", "locatieNaam": "De Haan", "straatNaam": "Singel", "straatNr": "3", "postcode": "3633 CW", "plaats": "Vreeland", "merk": "Stibat", "puntType": "inzamelbak", "materialen": ["batterijen"], "uitbetaling": [], "vrijToegankelijk": false, "gemeenteBeperking": null, "openingstijden": null, "latitude": 52.2277836, "longitude": 5.0256585, "bronId": "L044772"}}, {"type": "Feature", "geometry": {"type": "Point", "coordinates": [4.9636216, 52.1563517]}, "properties": {"type": "inleverpunt", "locatieNaam": "Kroonfietsentechniek", "straatNaam": "Portengen", "straatNr": "36", "postcode": "3628 EE", "plaats": "Kockengen", "merk": "Stibat", "puntType": "inzamelbak", "materialen": ["batterijen"], "uitbetaling": [], "vrijToegankelijk": false, "gemeenteBeperking": null, "openingstijden": null, "latitude": 52.1563517, "longitude": 4.9636216, "bronId": "L033206"}}, {"type": "Feature", "geometry": {"type": "Point", "coordinates": [4.9564505, 52.1478648]}, "properties": {"type": "inleverpunt", "locatieNaam": "Gemeentewerf Kockengen", "straatNaam": "Sportweg", "straatNr": "1", "postcode": "3628 AZ", "plaats": "Kockengen", "merk": "Stibat", "puntType": "inzamelbak", "materialen": ["batterijen"], "uitbetaling": [], "vrijToegankelijk": false, "gemeenteBeperking": null, "openingstijden": null, "latitude": 52.1478648, "longitude": 4.9564505, "bronId": "L035683"}}, {"type": "Feature", "geometry": {"type": "Point", "coordinates": [4.949124, 52.1487112]}, "properties": {"type": "inleverpunt", "locatieNaam": "Plus", "straatNaam": "Drie Stammenweg", "straatNr": "3", "postcode": "3628 BW", "plaats": "Kockengen", "merk": "Stibat", "puntType": "inzamelbak", "materialen": ["batterijen"], "uitbetaling": [], "vrijToegankelijk": false, "gemeenteBeperking": null, "openingstijden": null, "latitude": 52.1487112, "longitude": 4.949124, "bronId": "L047122"}}, {"type": "Feature", "geometry": {"type": "Point", "coordinates": [5.0272776, 52.2756917]}, "properties": {"type": "inleverpunt", "locatieNaam": "Centerrr", "straatNaam": "Klein Muiden", "straatNr": "54", "postcode": "1393 RL", "plaats": "Nigtevecht", "merk": "Stibat", "puntType": "inzamelbak", "materialen": ["batterijen"], "uitbetaling": [], "vrijToegankelijk": false, "gemeenteBeperking": null, "openingstijden": null, "latitude": 52.2756917, "longitude": 5.0272776, "bronId": "L045115"}}, {"type": "Feature", "geometry": {"type": "Polygon", "coordinates": [[[5.0757240014019995, 52.12715900399339], [5.076158001402431, 52.127049003993314], [5.087165001413847, 52.13567100399853], [5.10108400142755, 52.129845003994845], [5.101846001428337, 52.13035800399514], [5.10339700142987, 52.12984800399482], [5.1205290014477285, 52.14554100400434], [5.094890001422455, 52.15534900401049], [5.118845001447212, 52.1724060040207], [5.118458001446824, 52.172459004020716], [5.115294001443975, 52.17985300402524], [5.082452001410803, 52.17384200402184], [5.047735001375672, 52.166186004017426], [5.046167001374094, 52.16606400401736], [5.044395001372593, 52.17221500402112], [5.042049001370742, 52.18337000402789], [5.041549001370258, 52.18375200402813], [5.032503001361213, 52.184113004028404], [5.033199001361937, 52.18471700402876], [5.033635001362432, 52.18604900402959], [5.034977001363811, 52.18680300403002], [5.0351590013640655, 52.18837800403097], [5.035708001364651, 52.189201004031474], [5.035336001364347, 52.19070000403238], [5.036220001365267, 52.1914890040329], [5.036516001365658, 52.19355200403411], [5.038134001367351, 52.195163004035095], [5.037765001367043, 52.196565004035946], [5.037123001366402, 52.196626004035984], [5.03720100136654, 52.197949004036786], [5.031813001361164, 52.19844000403711], [5.0298490013592465, 52.199534004037794], [5.027942001357356, 52.199958004038045], [5.026061001355537, 52.20137400403891], [5.022769001352245, 52.201534004039026], [5.021293001350783, 52.201886004039274], [5.023006001352492, 52.20174600403917], [5.0215870013511035, 52.20247500403961], [5.023026001352523, 52.202039004039314], [5.023110001352641, 52.20274300403976], [5.022454001351986, 52.202815004039806], [5.022621001352205, 52.203941004040516], [5.023433001353013, 52.20382800404044], [5.023315001352861, 52.20305100404], [5.024674001354213, 52.202863004039806], [5.025431001354988, 52.2032560040401], [5.025600001355192, 52.2039820040405], [5.036650001366176, 52.202138004039305], [5.037421001367074, 52.204965004041014], [5.035315001364979, 52.20523300404122], [5.036445001366304, 52.209568004043824], [5.033401001363267, 52.209836004043986], [5.034339001364346, 52.212900004045835], [5.03435400136437, 52.21311700404598], [5.033730001363745, 52.21312300404597], [5.0337880013638285, 52.21371400404632], [5.036699001366741, 52.21364800404629], [5.036666001366733, 52.21419600404662], [5.0372900013673565, 52.214215004046586], [5.0353300013654065, 52.214462004046815], [5.035771001365855, 52.214557004046846], [5.03568300136579, 52.215125004047174], [5.036909001367021, 52.2151560040472], [5.036693001366828, 52.21569100404751], [5.037145001367302, 52.216203004047834], [5.036828001367031, 52.21720900404842], [5.035849001366066, 52.21752900404864], [5.036666001367191, 52.22436000405275], [5.039196001369709, 52.22402400405259], [5.0393420013698735, 52.22441100405277], [5.042633001373144, 52.22386600405244], [5.042796001373315, 52.22404000405254], [5.041984001372512, 52.22432700405271], [5.041929001372447, 52.224089004052566], [5.036965001367507, 52.22477600405299], [5.037102001367672, 52.22534200405334], [5.038731001369294, 52.225179004053224], [5.040046001370693, 52.22703100405434], [5.040489001371135, 52.22694200405429], [5.040842001371521, 52.22769300405475], [5.042484001373213, 52.228780004055395], [5.040518001371293, 52.229834004056], [5.0413450013721315, 52.230077004056135], [5.0415860013724085, 52.23088800405665], [5.042397001373207, 52.23054700405646], [5.053283001384273, 52.234243004058605], [5.056224001387246, 52.234979004059014], [5.055790001386823, 52.23521400405917], [5.056762001387813, 52.23559300405943], [5.057485001388517, 52.23520700405918], [5.057730001388771, 52.23535300405926], [5.0562760013873955, 52.237127004060326], [5.045854001377243, 52.2433820040642], [5.046634001378254, 52.24854100406723], [5.0448940013765995, 52.25048300406845], [5.044009001375797, 52.25234600406958], [5.04346600137539, 52.25536100407137], [5.042912001374866, 52.25600100407175], [5.041302001373285, 52.256712004072206], [5.040062001372035, 52.25649900407208], [5.038877001370809, 52.255594004071575], [5.037495001369341, 52.25368900407041], [5.0357330013675305, 52.25265400406979], [5.034468001366273, 52.25288300406994], [5.031804001363713, 52.25517600407134], [5.030972001362953, 52.25682000407234], [5.032437001364502, 52.25866200407341], [5.032502001364632, 52.26014100407432], [5.031039001363235, 52.261598004075225], [5.026582001358891, 52.26414800407679], [5.027799001360193, 52.26604100407789], [5.027750001360213, 52.267574004078824], [5.0248170013573725, 52.26963300408008], [5.022887001355569, 52.272483004081785], [5.023340001356049, 52.27307300408215], [5.024078001356797, 52.2732360040822], [5.028331001361002, 52.27209100408152], [5.0305790013632565, 52.27224800408158], [5.033328001366152, 52.27543700408349], [5.042110001375045, 52.27787000408486], [5.043734001376669, 52.27790900408491], [5.0472160013801135, 52.27701300408434], [5.048602001381504, 52.27703000408436], [5.049609001382542, 52.277769004084774], [5.049736001382793, 52.28053600408645], [5.0507530013838675, 52.281818004087214], [5.055293001388463, 52.28300600408792], [5.060519001393787, 52.28516900408914], [5.062833001396088, 52.284803004088886], [5.0630700013961905, 52.281841004087134], [5.064383001397455, 52.2807500040865], [5.065880001398945, 52.28054300408635], [5.065880001398977, 52.28127100408674], [5.0654910013985885, 52.2812720040868], [5.065471001398742, 52.28519800408913], [5.064792001398058, 52.285081004089065], [5.063284001396645, 52.28719500409036], [5.059540001392995, 52.28932000409161], [5.052769001386094, 52.28648500408999], [5.050404001383793, 52.28787200409083], [5.047484001380742, 52.28502000408915], [5.042779001375923, 52.28248800408767], [5.040794001373998, 52.283881004088514], [5.039429001372604, 52.28324400408813], [5.033212001366523, 52.28625800408993], [5.030528001363938, 52.28848700409128], [5.024382001357468, 52.28135700408709], [5.021068001354226, 52.2829890040881], [5.020819001353879, 52.28079400408676], [5.007463001338284, 52.23170500405734], [4.997415001328181, 52.23081700405687], [4.994728001325568, 52.23247400405791], [4.993587001324408, 52.232099004057666], [4.99473000132547, 52.23026600405653], [4.98041400131098, 52.22684700405458], [4.982874001313242, 52.2224160040519], [4.973747001304016, 52.22059800405082], [4.968304001297978, 52.20784200404314], [4.966596001295911, 52.20005200403844], [4.963999001293305, 52.199936004038406], [4.963818001293103, 52.199545004038136], [4.961388001290666, 52.1994750040381], [4.960809001290009, 52.19782000403712], [4.950881001280102, 52.19863800403765], [4.949625001278709, 52.19570900403587], [4.949556001278535, 52.1934930040345], [4.948383001277366, 52.193598004034584], [4.948276001277211, 52.19253200403395], [4.949470001278399, 52.19240900403386], [4.948572001277196, 52.18578500402985], [4.946239001274871, 52.18605100403002], [4.94571300127433, 52.185813004029875], [4.933995001262177, 52.17694500402453], [4.935007001263144, 52.1758550040239], [4.933848001261907, 52.17429100402291], [4.931410001259438, 52.17371000402259], [4.932468001260442, 52.17249400402182], [4.928606001256325, 52.16720000401865], [4.9144980012420145, 52.16355000401647], [4.909638001237065, 52.161871004015445], [4.91055900123793, 52.160626004014674], [4.9111060012384815, 52.16065600401472], [4.911197001238547, 52.16013000401438], [4.911778001238385, 52.1442540040047], [4.913282001239886, 52.14410000400457], [4.923602001250384, 52.14731900400653], [4.9346970012611004, 52.138605004001164], [4.9439840012699, 52.12749600399432], [4.960992001287226, 52.133368003997845], [4.9691080012949005, 52.12323200399159], [4.970096001295854, 52.12244200399112], [4.973938001300038, 52.12967300399552], [4.985238001311496, 52.132437003997154], [4.98639800131279, 52.135255003998886], [5.003102001329845, 52.142051004002944], [5.002567001329289, 52.14163800400272], [5.002700001329407, 52.14130100400249], [5.007187001333669, 52.136084003999294], [5.009591001335913, 52.132348003996974], [5.012213001338418, 52.12960000399529], [5.015294001341405, 52.12734200399387], [5.032676001358364, 52.11676800398731], [5.033009001358705, 52.1169330039874], [5.033676001359365, 52.11671600398724], [5.038559001364549, 52.12308700399113], [5.040879001366981, 52.12547600399257], [5.045419001371667, 52.12846200399439], [5.044978001371239, 52.128779003994595], [5.047556001373877, 52.12997200399529], [5.050226001376503, 52.12880500399458], [5.061205001387238, 52.12256200399069], [5.0669690013931685, 52.126002003992745], [5.067232001393422, 52.12576300399258], [5.069733001395958, 52.12641500399295], [5.070199001396461, 52.12718100399345], [5.072328001398514, 52.12532500399228], [5.0757240014019995, 52.12715900399339]]]}, "properties": {"type": "boundary", "gemeente": "Stichtse Vecht"}}]}