{"type": "FeatureCollection", "metadata": {"gemeente": "Teylingen", "slug": "teylingen", "generated_at": "2026-08-10T03:59:13.840938Z", "total_points": 60, "merken": ["StatiegeldNederland", "Stibat", "StichtingOPEN"], "bounds": [4.4790174, 52.1954669, 4.5437995, 52.2293791]}, "features": [{"type": "Feature", "geometry": {"type": "Point", "coordinates": [4.5022649, 52.1954669]}, "properties": {"type": "inleverpunt", "locatieNaam": "Albert Heijn", "straatNaam": "Dorpsstraat", "straatNr": "2A", "postcode": "2361 BB", "plaats": "Warmond", "merk": "StatiegeldNederland", "puntType": "automaat", "materialen": ["pet-groot", "pet-klein", "blik", "glas", "krat"], "uitbetaling": ["bonnetje", "donatie"], "vrijToegankelijk": true, "gemeenteBeperking": null, "openingstijden": {"ma": "08:00–20:00", "di": "08:00–20:00", "wo": "08:00–20:00", "do": "08:00–20:00", "vr": "08:00–20:00", "za": "08:00–20:00", "zo": "10:00–18:00"}, "latitude": 52.1954669, "longitude": 4.5022649, "bronId": "268387"}}, {"type": "Feature", "geometry": {"type": "Point", "coordinates": [4.4859724, 52.2229063]}, "properties": {"type": "inleverpunt", "locatieNaam": "Albert Heijn", "straatNaam": "Jacoba Van Beierenhof", "straatNr": "26", "postcode": "2215 JK", "plaats": "Voorhout", "merk": "StatiegeldNederland", "puntType": "automaat", "materialen": ["pet-groot", "pet-klein", "blik", "glas", "krat"], "uitbetaling": ["bonnetje", "donatie"], "vrijToegankelijk": true, "gemeenteBeperking": null, "openingstijden": {"ma": "08:00–22:00", "di": "08:00–22:00", "wo": "08:00–22:00", "do": "08:00–22:00", "vr": "08:00–22:00", "za": "08:00–22:00", "zo": "08:00–22:00"}, "latitude": 52.2229063, "longitude": 4.4859724, "bronId": "268573"}}, {"type": "Feature", "geometry": {"type": "Point", "coordinates": [4.5250426, 52.2274183]}, "properties": {"type": "inleverpunt", "locatieNaam": "Albert Heijn", "straatNaam": "Voorhavenkwartier", "straatNr": "68", "postcode": "2172 HZ", "plaats": "Sassenheim", "merk": "StatiegeldNederland", "puntType": "automaat", "materialen": ["pet-groot", "pet-klein", "blik", "glas", "krat"], "uitbetaling": ["bonnetje", "donatie"], "vrijToegankelijk": true, "gemeenteBeperking": null, "openingstijden": {"ma": "08:00–22:00", "di": "08:00–22:00", "wo": "08:00–22:00", "do": "08:00–22:00", "vr": "08:00–22:00", "za": "08:00–22:00", "zo": "08:00–22:00"}, "latitude": 52.2274183, "longitude": 4.5250426, "bronId": "269090"}}, {"type": "Feature", "geometry": {"type": "Point", "coordinates": [4.4905882, 52.2163022]}, "properties": {"type": "inleverpunt", "locatieNaam": "Basketball Vereniging Forwodians", "straatNaam": "Jan van der Jagtstraat", "straatNr": "9", "postcode": "2215 MG", "plaats": "Voorhout", "merk": "StatiegeldNederland", "puntType": "balie", "materialen": ["pet-groot", "pet-klein", "blik"], "uitbetaling": [], "vrijToegankelijk": false, "gemeenteBeperking": null, "openingstijden": {"ma": "24 uur geopend", "di": "24 uur geopend", "wo": "24 uur geopend", "do": "24 uur geopend", "vr": "24 uur geopend", "za": "24 uur geopend", "zo": "Gesloten"}, "latitude": 52.2163022, "longitude": 4.4905882, "bronId": "270030"}}, {"type": "Feature", "geometry": {"type": "Point", "coordinates": [4.486791, 52.2056525]}, "properties": {"type": "inleverpunt", "locatieNaam": "Cg 5348 Akzonobel", "straatNaam": "Rijksstraatweg", "straatNr": "31", "postcode": "2171 AJ", "plaats": "Sassenheim", "merk": "StatiegeldNederland", "puntType": "balie", "materialen": ["pet-groot", "pet-klein", "blik"], "uitbetaling": [], "vrijToegankelijk": true, "gemeenteBeperking": null, "openingstijden": {"ma": "08:00–16:00", "di": "08:00–16:00", "wo": "08:00–16:00", "do": "08:00–16:00", "vr": "08:00–16:00", "za": "Gesloten", "zo": "Gesloten"}, "latitude": 52.2056525, "longitude": 4.486791, "bronId": "270488"}}, {"type": "Feature", "geometry": {"type": "Point", "coordinates": [4.5257523, 52.2285206]}, "properties": {"type": "inleverpunt", "locatieNaam": "Dirk", "straatNaam": "Concordiastraat", "straatNr": "2", "postcode": "2171 GL", "plaats": "Sassenheim", "merk": "StatiegeldNederland", "puntType": "automaat", "materialen": ["pet-groot", "pet-klein", "blik", "glas", "krat"], "uitbetaling": ["bonnetje", "donatie"], "vrijToegankelijk": true, "gemeenteBeperking": null, "openingstijden": {"ma": "08:00–21:00", "di": "08:00–21:00", "wo": "08:00–21:00", "do": "08:00–21:00", "vr": "08:00–21:00", "za": "08:00–21:00", "zo": "08:00–20:00"}, "latitude": 52.2285206, "longitude": 4.5257523, "bronId": "270886"}}, {"type": "Feature", "geometry": {"type": "Point", "coordinates": [4.5112974, 52.2214022]}, "properties": {"type": "inleverpunt", "locatieNaam": "Hoogvliet", "straatNaam": "Koetsiersweg", "straatNr": "7", "postcode": "2171 NL", "plaats": "Sassenheim", "merk": "StatiegeldNederland", "puntType": "automaat", "materialen": ["pet-groot", "pet-klein", "blik", "glas", "krat"], "uitbetaling": ["bonnetje", "donatie"], "vrijToegankelijk": true, "gemeenteBeperking": null, "openingstijden": {"ma": "08:00–20:00", "di": "08:00–20:00", "wo": "08:00–20:00", "do": "08:00–21:00", "vr": "08:00–21:00", "za": "08:00–20:00", "zo": "09:00–19:00"}, "latitude": 52.2214022, "longitude": 4.5112974, "bronId": "271501"}}, {"type": "Feature", "geometry": {"type": "Point", "coordinates": [4.4822848, 52.2155437]}, "properties": {"type": "inleverpunt", "locatieNaam": "M.h.c. Voorhout", "straatNaam": "Sportlaan", "straatNr": "16", "postcode": "2215 XC", "plaats": "Voorhout", "merk": "StatiegeldNederland", "puntType": "balie", "materialen": ["pet-groot", "pet-klein", "blik"], "uitbetaling": [], "vrijToegankelijk": false, "gemeenteBeperking": null, "openingstijden": {"ma": "17:00–22:00", "di": "17:00–22:00", "wo": "17:00–22:00", "do": "17:00–22:00", "vr": "17:00–22:00", "za": "09:00–17:00", "zo": "09:00–17:00"}, "latitude": 52.2155437, "longitude": 4.4822848, "bronId": "272964"}}, {"type": "Feature", "geometry": {"type": "Point", "coordinates": [4.4816139, 52.2210109]}, "properties": {"type": "inleverpunt", "locatieNaam": "Plus", "straatNaam": "Herenstraat", "straatNr": "45", "postcode": "2215 KD", "plaats": "Voorhout", "merk": "StatiegeldNederland", "puntType": "automaat", "materialen": ["pet-groot", "pet-klein", "blik", "glas", "krat"], "uitbetaling": ["bonnetje", "donatie"], "vrijToegankelijk": true, "gemeenteBeperking": null, "openingstijden": {"ma": "07:30–21:00", "di": "07:30–21:00", "wo": "07:30–21:00", "do": "07:30–21:00", "vr": "07:30–21:00", "za": "07:30–21:00", "zo": "09:00–19:00"}, "latitude": 52.2210109, "longitude": 4.4816139, "bronId": "273792"}}, {"type": "Feature", "geometry": {"type": "Point", "coordinates": [4.5202814, 52.2254777]}, "properties": {"type": "inleverpunt", "locatieNaam": "Vomar", "straatNaam": "Hoofdstraat 169 A", "straatNr": "", "postcode": "2171 BB", "plaats": "Sassenheim", "merk": "StatiegeldNederland", "puntType": "automaat", "materialen": ["pet-groot", "pet-klein", "blik", "glas", "krat"], "uitbetaling": ["bonnetje", "donatie"], "vrijToegankelijk": true, "gemeenteBeperking": null, "openingstijden": {"ma": "07:30–22:00", "di": "07:30–22:00", "wo": "07:30–22:00", "do": "07:30–22:00", "vr": "07:30–22:00", "za": "07:30–22:00", "zo": "08:00–20:00"}, "latitude": 52.2254777, "longitude": 4.5202814, "bronId": "276159"}}, {"type": "Feature", "geometry": {"type": "Point", "coordinates": [4.4918004, 52.2215156]}, "properties": {"type": "inleverpunt", "locatieNaam": "Vomar", "straatNaam": "Oosthoutplein", "straatNr": "5", "postcode": "2215 VM", "plaats": "Voorhout", "merk": "StatiegeldNederland", "puntType": "automaat", "materialen": ["pet-groot", "pet-klein", "blik", "glas", "krat"], "uitbetaling": ["bonnetje", "donatie"], "vrijToegankelijk": true, "gemeenteBeperking": null, "openingstijden": {"ma": "07:30–22:00", "di": "07:30–22:00", "wo": "07:30–22:00", "do": "07:30–22:00", "vr": "07:30–22:00", "za": "07:30–22:00", "zo": "09:00–20:00"}, "latitude": 52.2215156, "longitude": 4.4918004, "bronId": "276189"}}, {"type": "Feature", "geometry": {"type": "Point", "coordinates": [4.525452, 52.227531]}, "properties": {"type": "inleverpunt", "locatieNaam": "Action Sassenheim 1160", "straatNaam": "Voorhavenkwartier", "straatNr": "80-84", "postcode": "2171 HZ", "plaats": "Sassenheim", "merk": "StichtingOPEN", "puntType": "balie", "materialen": ["batterijen", "lampen"], "uitbetaling": [], "vrijToegankelijk": false, "gemeenteBeperking": null, "openingstijden": null, "latitude": 52.227531, "longitude": 4.525452, "bronId": "SP00007744"}}, {"type": "Feature", "geometry": {"type": "Point", "coordinates": [4.525039, 52.227378]}, "properties": {"type": "inleverpunt", "locatieNaam": "1456 Albert Heijn Sassenheim", "straatNaam": "Voorhavenkwartier", "straatNr": "68", "postcode": "2171 HZ", "plaats": "Sassenheim", "merk": "StichtingOPEN", "puntType": "balie", "materialen": ["batterijen", "elektro-klein", "lampen"], "uitbetaling": [], "vrijToegankelijk": false, "gemeenteBeperking": null, "openingstijden": null, "latitude": 52.227378, "longitude": 4.525039, "bronId": "SP00022954"}}, {"type": "Feature", "geometry": {"type": "Point", "coordinates": [4.523706, 52.227211]}, "properties": {"type": "inleverpunt", "locatieNaam": "Xenos Sassenheim", "straatNaam": "Hoofdstraat", "straatNr": "260", "postcode": "2171 BP", "plaats": "Sassenheim", "merk": "StichtingOPEN", "puntType": "balie", "materialen": ["batterijen", "lampen"], "uitbetaling": [], "vrijToegankelijk": false, "gemeenteBeperking": null, "openingstijden": null, "latitude": 52.227211, "longitude": 4.523706, "bronId": "SP00025712"}}, {"type": "Feature", "geometry": {"type": "Point", "coordinates": [4.523844, 52.227647]}, "properties": {"type": "inleverpunt", "locatieNaam": "Kruidvat Sassenheim", "straatNaam": "Hoofdstraat", "straatNr": "245", "postcode": "2171 BD", "plaats": "Sassenheim", "merk": "StichtingOPEN", "puntType": "balie", "materialen": ["batterijen", "lampen"], "uitbetaling": [], "vrijToegankelijk": false, "gemeenteBeperking": null, "openingstijden": null, "latitude": 52.227647, "longitude": 4.523844, "bronId": "SP00024706"}}, {"type": "Feature", "geometry": {"type": "Point", "coordinates": [4.521334, 52.225919]}, "properties": {"type": "inleverpunt", "locatieNaam": "Electro world Duynstee", "straatNaam": "Hoofdstraat", "straatNr": "189", "postcode": "2171 BC", "plaats": "Sassenheim", "merk": "StichtingOPEN", "puntType": "balie", "materialen": ["elektro-middel", "lampen"], "uitbetaling": [], "vrijToegankelijk": false, "gemeenteBeperking": null, "openingstijden": null, "latitude": 52.225919, "longitude": 4.521334, "bronId": "SP00001291"}}, {"type": "Feature", "geometry": {"type": "Point", "coordinates": [4.520281, 52.225477]}, "properties": {"type": "inleverpunt", "locatieNaam": "Vomar Sassenheim", "straatNaam": "Hoofdstraat", "straatNr": "167", "postcode": "2171 BB", "plaats": "Sassenheim", "merk": "StichtingOPEN", "puntType": "balie", "materialen": ["batterijen", "lampen"], "uitbetaling": [], "vrijToegankelijk": false, "gemeenteBeperking": null, "openingstijden": null, "latitude": 52.225477, "longitude": 4.520281, "bronId": "SP00025765"}}, {"type": "Feature", "geometry": {"type": "Point", "coordinates": [4.514354, 52.216372]}, "properties": {"type": "inleverpunt", "locatieNaam": "Dirk Sassenheim", "straatNaam": "Wasbeekerlaan", "straatNr": "63", "postcode": "2171 AE", "plaats": "Sassenheim", "merk": "StichtingOPEN", "puntType": "balie", "materialen": ["batterijen", "lampen"], "uitbetaling": [], "vrijToegankelijk": false, "gemeenteBeperking": null, "openingstijden": null, "latitude": 52.216372, "longitude": 4.514354, "bronId": "SP00023515"}}, {"type": "Feature", "geometry": {"type": "Point", "coordinates": [4.502526, 52.195643]}, "properties": {"type": "inleverpunt", "locatieNaam": "8646 Albert Heijn Warmond", "straatNaam": "Dorpsstraat", "straatNr": "2", "postcode": "2361 BB", "plaats": "Warmond", "merk": "StichtingOPEN", "puntType": "balie", "materialen": ["batterijen", "elektro-klein", "lampen"], "uitbetaling": [], "vrijToegankelijk": false, "gemeenteBeperking": null, "openingstijden": null, "latitude": 52.195643, "longitude": 4.502526, "bronId": "SP00022935"}}, {"type": "Feature", "geometry": {"type": "Point", "coordinates": [4.511619, 52.221367]}, "properties": {"type": "inleverpunt", "locatieNaam": "190 Hoogvliet Sassenheim", "straatNaam": "Koetsiersweg", "straatNr": "7", "postcode": "2171 NL", "plaats": "Sassenheim", "merk": "StichtingOPEN", "puntType": "balie", "materialen": ["batterijen", "lampen"], "uitbetaling": [], "vrijToegankelijk": false, "gemeenteBeperking": null, "openingstijden": null, "latitude": 52.221367, "longitude": 4.511619, "bronId": "SP00023915"}}, {"type": "Feature", "geometry": {"type": "Point", "coordinates": [4.4918, 52.221515]}, "properties": {"type": "inleverpunt", "locatieNaam": "Aldi Voorhout", "straatNaam": "Oosthoutplein", "straatNr": "5", "postcode": "2215 VM", "plaats": "Voorhout", "merk": "StichtingOPEN", "puntType": "balie", "materialen": ["batterijen", "elektro-klein", "lampen"], "uitbetaling": [], "vrijToegankelijk": false, "gemeenteBeperking": null, "openingstijden": null, "latitude": 52.221515, "longitude": 4.4918, "bronId": "SP00027246"}}, {"type": "Feature", "geometry": {"type": "Point", "coordinates": [4.485984, 52.221785]}, "properties": {"type": "inleverpunt", "locatieNaam": "Kinderboerderij De Klaprooshof", "straatNaam": "Klaprooshof", "straatNr": "12", "postcode": "2215 DM", "plaats": "Voorhout", "merk": "StichtingOPEN", "puntType": "balie", "materialen": ["elektro-klein"], "uitbetaling": [], "vrijToegankelijk": false, "gemeenteBeperking": null, "openingstijden": null, "latitude": 52.221785, "longitude": 4.485984, "bronId": "SP00005478"}}, {"type": "Feature", "geometry": {"type": "Point", "coordinates": [4.485549, 52.222909]}, "properties": {"type": "inleverpunt", "locatieNaam": "1633 Albert Heijn Voorhout", "straatNaam": "Jacoba van Beierenhof", "straatNr": "26", "postcode": "2215 JK", "plaats": "Voorhout", "merk": "StichtingOPEN", "puntType": "balie", "materialen": ["batterijen", "elektro-klein", "lampen"], "uitbetaling": [], "vrijToegankelijk": false, "gemeenteBeperking": null, "openingstijden": null, "latitude": 52.222909, "longitude": 4.485549, "bronId": "SP00022953"}}, {"type": "Feature", "geometry": {"type": "Point", "coordinates": [4.48304, 52.22196]}, "properties": {"type": "inleverpunt", "locatieNaam": "Kruidvat Voorhout", "straatNaam": "Herenstraat", "straatNr": "55", "postcode": "2215 KE", "plaats": "Voorhout", "merk": "StichtingOPEN", "puntType": "balie", "materialen": ["batterijen", "lampen"], "uitbetaling": [], "vrijToegankelijk": false, "gemeenteBeperking": null, "openingstijden": null, "latitude": 52.22196, "longitude": 4.48304, "bronId": "SP00029553"}}, {"type": "Feature", "geometry": {"type": "Point", "coordinates": [4.481613, 52.22101]}, "properties": {"type": "inleverpunt", "locatieNaam": "PLUS Voorhout", "straatNaam": "Herenstraat", "straatNr": "45", "postcode": "2215 KJ", "plaats": "Voorhout", "merk": "StichtingOPEN", "puntType": "balie", "materialen": ["batterijen", "lampen"], "uitbetaling": [], "vrijToegankelijk": false, "gemeenteBeperking": null, "openingstijden": null, "latitude": 52.22101, "longitude": 4.481613, "bronId": "SP00024068"}}, {"type": "Feature", "geometry": {"type": "Point", "coordinates": [4.48844, 52.215396]}, "properties": {"type": "inleverpunt", "locatieNaam": "Milieustraat Voorhout", "straatNaam": "Nijverheidsweg", "straatNr": "32a", "postcode": "2215 MH", "plaats": "Voorhout", "merk": "StichtingOPEN", "puntType": "milieustraat", "materialen": ["batterijen", "elektro-groot", "elektro-klein", "elektro-middel", "lampen", "tl-buizen"], "uitbetaling": [], "vrijToegankelijk": false, "gemeenteBeperking": ["Teylingen"], "openingstijden": null, "latitude": 52.215396, "longitude": 4.48844, "bronId": "SP00000747"}}, {"type": "Feature", "geometry": {"type": "Point", "coordinates": [4.5437995, 52.2204115]}, "properties": {"type": "inleverpunt", "locatieNaam": "Jachthaven Jonkman", "straatNaam": "Jachthaven AB", "straatNr": "1", "postcode": "2172 JX", "plaats": "Sassenheim", "merk": "Stibat", "puntType": "inzamelbak", "materialen": ["batterijen"], "uitbetaling": [], "vrijToegankelijk": false, "gemeenteBeperking": null, "openingstijden": null, "latitude": 52.2204115, "longitude": 4.5437995, "bronId": "L025555"}}, {"type": "Feature", "geometry": {"type": "Point", "coordinates": [4.5281026, 52.2256951]}, "properties": {"type": "inleverpunt", "locatieNaam": "Bike Totaal van Hulst", "straatNaam": "Kerklaan", "straatNr": "57", "postcode": "2171 GB", "plaats": "Sassenheim", "merk": "Stibat", "puntType": "inzamelbak", "materialen": ["batterijen"], "uitbetaling": [], "vrijToegankelijk": false, "gemeenteBeperking": null, "openingstijden": null, "latitude": 52.2256951, "longitude": 4.5281026, "bronId": "L036520"}}, {"type": "Feature", "geometry": {"type": "Point", "coordinates": [4.5254523, 52.2275312]}, "properties": {"type": "inleverpunt", "locatieNaam": "1160 Action", "straatNaam": "Voorhavenkwartier", "straatNr": "80-84", "postcode": "2171 HZ", "plaats": "Sassenheim", "merk": "Stibat", "puntType": "inzamelbak", "materialen": ["batterijen"], "uitbetaling": [], "vrijToegankelijk": false, "gemeenteBeperking": null, "openingstijden": null, "latitude": 52.2275312, "longitude": 4.5254523, "bronId": "L017628"}}, {"type": "Feature", "geometry": {"type": "Point", "coordinates": [4.5259158, 52.2286415]}, "properties": {"type": "inleverpunt", "locatieNaam": "Dirk", "straatNaam": "Concordiastraat", "straatNr": "2", "postcode": "2171 GL", "plaats": "Sassenheim", "merk": "Stibat", "puntType": "inzamelbak", "materialen": ["batterijen"], "uitbetaling": [], "vrijToegankelijk": false, "gemeenteBeperking": null, "openingstijden": null, "latitude": 52.2286415, "longitude": 4.5259158, "bronId": "L038488"}}, {"type": "Feature", "geometry": {"type": "Point", "coordinates": [4.5249901, 52.2272649]}, "properties": {"type": "inleverpunt", "locatieNaam": "1456 Albert Heijn", "straatNaam": "Voorhavenkwartier", "straatNr": "68", "postcode": "2171 HZ", "plaats": "Sassenheim", "merk": "Stibat", "puntType": "inzamelbak", "materialen": ["batterijen"], "uitbetaling": [], "vrijToegankelijk": false, "gemeenteBeperking": null, "openingstijden": null, "latitude": 52.2272649, "longitude": 4.5249901, "bronId": "L007952"}}, {"type": "Feature", "geometry": {"type": "Point", "coordinates": [4.5242735, 52.2276716]}, "properties": {"type": "inleverpunt", "locatieNaam": "Zeeman", "straatNaam": "Hoofdstraat", "straatNr": "274", "postcode": "2171 BR", "plaats": "Sassenheim", "merk": "Stibat", "puntType": "inzamelbak", "materialen": ["batterijen"], "uitbetaling": [], "vrijToegankelijk": false, "gemeenteBeperking": null, "openingstijden": null, "latitude": 52.2276716, "longitude": 4.5242735, "bronId": "L020251"}}, {"type": "Feature", "geometry": {"type": "Point", "coordinates": [4.5237862, 52.2271377]}, "properties": {"type": "inleverpunt", "locatieNaam": "Xenos", "straatNaam": "Hoofdstraat", "straatNr": "260", "postcode": "2171 BP", "plaats": "Sassenheim", "merk": "Stibat", "puntType": "inzamelbak", "materialen": ["batterijen"], "uitbetaling": [], "vrijToegankelijk": false, "gemeenteBeperking": null, "openingstijden": null, "latitude": 52.2271377, "longitude": 4.5237862, "bronId": "L037039"}}, {"type": "Feature", "geometry": {"type": "Point", "coordinates": [4.5247105, 52.2293791]}, "properties": {"type": "inleverpunt", "locatieNaam": "Oorwerk", "straatNaam": "Jan van Brabantweg", "straatNr": "23", "postcode": "2171 HC", "plaats": "Sassenheim", "merk": "Stibat", "puntType": "inzamelbak", "materialen": ["batterijen"], "uitbetaling": [], "vrijToegankelijk": false, "gemeenteBeperking": null, "openingstijden": null, "latitude": 52.2293791, "longitude": 4.5247105, "bronId": "L048270"}}, {"type": "Feature", "geometry": {"type": "Point", "coordinates": [4.5239699, 52.2276743]}, "properties": {"type": "inleverpunt", "locatieNaam": "Kruidvat", "straatNaam": "Hoofdstraat", "straatNr": "245", "postcode": "2171 BD", "plaats": "Sassenheim", "merk": "Stibat", "puntType": "inzamelbak", "materialen": ["batterijen"], "uitbetaling": [], "vrijToegankelijk": false, "gemeenteBeperking": null, "openingstijden": null, "latitude": 52.2276743, "longitude": 4.5239699, "bronId": "L014972"}}, {"type": "Feature", "geometry": {"type": "Point", "coordinates": [4.523659, 52.2271816]}, "properties": {"type": "inleverpunt", "locatieNaam": "Schoonenberg Hoorcomfort", "straatNaam": "Hoofdstraat", "straatNr": "258", "postcode": "2171 BP", "plaats": "Sassenheim", "merk": "Stibat", "puntType": "inzamelbak", "materialen": ["batterijen"], "uitbetaling": [], "vrijToegankelijk": false, "gemeenteBeperking": null, "openingstijden": null, "latitude": 52.2271816, "longitude": 4.523659, "bronId": "L020507"}}, {"type": "Feature", "geometry": {"type": "Point", "coordinates": [4.5235431, 52.2271501]}, "properties": {"type": "inleverpunt", "locatieNaam": "6238 Etos", "straatNaam": "Hoofdstraat", "straatNr": "254", "postcode": "2171 BP", "plaats": "Sassenheim", "merk": "Stibat", "puntType": "inzamelbak", "materialen": ["batterijen"], "uitbetaling": [], "vrijToegankelijk": false, "gemeenteBeperking": null, "openingstijden": null, "latitude": 52.2271501, "longitude": 4.5235431, "bronId": "L022894"}}, {"type": "Feature", "geometry": {"type": "Point", "coordinates": [4.5232728, 52.2269679]}, "properties": {"type": "inleverpunt", "locatieNaam": "HEMA Hoofdstraat", "straatNaam": "Hoofdstraat", "straatNr": "246", "postcode": "2171 BP", "plaats": "Sassenheim", "merk": "Stibat", "puntType": "inzamelbak", "materialen": ["batterijen"], "uitbetaling": [], "vrijToegankelijk": false, "gemeenteBeperking": null, "openingstijden": null, "latitude": 52.2269679, "longitude": 4.5232728, "bronId": "L006620"}}, {"type": "Feature", "geometry": {"type": "Point", "coordinates": [4.5228049, 52.226569]}, "properties": {"type": "inleverpunt", "locatieNaam": "CELLFIX", "straatNaam": "Hoofdstraat", "straatNr": "234b", "postcode": "2171 BP", "plaats": "Sassenheim", "merk": "Stibat", "puntType": "inzamelbak", "materialen": ["batterijen"], "uitbetaling": [], "vrijToegankelijk": false, "gemeenteBeperking": null, "openingstijden": null, "latitude": 52.226569, "longitude": 4.5228049, "bronId": "L040919"}}, {"type": "Feature", "geometry": {"type": "Point", "coordinates": [4.5220572, 52.2264758]}, "properties": {"type": "inleverpunt", "locatieNaam": "Fietsshop Kuijper", "straatNaam": "Hoofdstraat", "straatNr": "201", "postcode": "2171 BC", "plaats": "Sassenheim", "merk": "Stibat", "puntType": "inzamelbak", "materialen": ["batterijen"], "uitbetaling": [], "vrijToegankelijk": false, "gemeenteBeperking": null, "openingstijden": null, "latitude": 52.2264758, "longitude": 4.5220572, "bronId": "L048804"}}, {"type": "Feature", "geometry": {"type": "Point", "coordinates": [4.5213501, 52.2258815]}, "properties": {"type": "inleverpunt", "locatieNaam": "Electro World", "straatNaam": "Hoofdstraat", "straatNr": "189", "postcode": "2171 BC", "plaats": "Sassenheim", "merk": "Stibat", "puntType": "inzamelbak", "materialen": ["batterijen"], "uitbetaling": [], "vrijToegankelijk": false, "gemeenteBeperking": null, "openingstijden": null, "latitude": 52.2258815, "longitude": 4.5213501, "bronId": "L014251"}}, {"type": "Feature", "geometry": {"type": "Point", "coordinates": [4.5210334, 52.2254141]}, "properties": {"type": "inleverpunt", "locatieNaam": "Primera", "straatNaam": "Hoofdstraat", "straatNr": "208A", "postcode": "2171 BN", "plaats": "Sassenheim", "merk": "Stibat", "puntType": "inzamelbak", "materialen": ["batterijen"], "uitbetaling": [], "vrijToegankelijk": false, "gemeenteBeperking": null, "openingstijden": null, "latitude": 52.2254141, "longitude": 4.5210334, "bronId": "L022367"}}, {"type": "Feature", "geometry": {"type": "Point", "coordinates": [4.5211736, 52.2258546]}, "properties": {"type": "inleverpunt", "locatieNaam": "Fotoservicewinkel.nl", "straatNaam": "Hoofdstraat", "straatNr": "185", "postcode": "2171 BC", "plaats": "Sassenheim", "merk": "Stibat", "puntType": "inzamelbak", "materialen": ["batterijen"], "uitbetaling": [], "vrijToegankelijk": false, "gemeenteBeperking": null, "openingstijden": null, "latitude": 52.2258546, "longitude": 4.5211736, "bronId": "L046562"}}, {"type": "Feature", "geometry": {"type": "Point", "coordinates": [4.5206235, 52.2252325]}, "properties": {"type": "inleverpunt", "locatieNaam": "Phone House", "straatNaam": "Hoofdstraat", "straatNr": "198", "postcode": "2171 BM", "plaats": "Sassenheim", "merk": "Stibat", "puntType": "inzamelbak", "materialen": ["batterijen"], "uitbetaling": [], "vrijToegankelijk": false, "gemeenteBeperking": null, "openingstijden": null, "latitude": 52.2252325, "longitude": 4.5206235, "bronId": "L024319"}}, {"type": "Feature", "geometry": {"type": "Point", "coordinates": [4.5202814, 52.2254777]}, "properties": {"type": "inleverpunt", "locatieNaam": "Vomar", "straatNaam": "Hoofdstraat", "straatNr": "167", "postcode": "2171 BB", "plaats": "Sassenheim", "merk": "Stibat", "puntType": "inzamelbak", "materialen": ["batterijen"], "uitbetaling": [], "vrijToegankelijk": false, "gemeenteBeperking": null, "openingstijden": null, "latitude": 52.2254777, "longitude": 4.5202814, "bronId": "L009459"}}, {"type": "Feature", "geometry": {"type": "Point", "coordinates": [4.5064818, 52.1984452]}, "properties": {"type": "inleverpunt", "locatieNaam": "Boek Kado Enzo", "straatNaam": "Dorpsstraat", "straatNr": "106", "postcode": "2361 BN", "plaats": "Warmond", "merk": "Stibat", "puntType": "inzamelbak", "materialen": ["batterijen"], "uitbetaling": [], "vrijToegankelijk": false, "gemeenteBeperking": null, "openingstijden": null, "latitude": 52.1984452, "longitude": 4.5064818, "bronId": "L043285"}}, {"type": "Feature", "geometry": {"type": "Point", "coordinates": [4.5025296, 52.1956451]}, "properties": {"type": "inleverpunt", "locatieNaam": "8646 Albert Heijn", "straatNaam": "Dorpsstraat", "straatNr": "2", "postcode": "2361 BB", "plaats": "Warmond", "merk": "Stibat", "puntType": "inzamelbak", "materialen": ["batterijen"], "uitbetaling": [], "vrijToegankelijk": false, "gemeenteBeperking": null, "openingstijden": null, "latitude": 52.1956451, "longitude": 4.5025296, "bronId": "L019148"}}, {"type": "Feature", "geometry": {"type": "Point", "coordinates": [4.5116192, 52.2213676]}, "properties": {"type": "inleverpunt", "locatieNaam": "190 Hoogvliet", "straatNaam": "Koetsiersweg", "straatNr": "7", "postcode": "2171 NL", "plaats": "Sassenheim", "merk": "Stibat", "puntType": "inzamelbak", "materialen": ["batterijen"], "uitbetaling": [], "vrijToegankelijk": false, "gemeenteBeperking": null, "openingstijden": null, "latitude": 52.2213676, "longitude": 4.5116192, "bronId": "L008730"}}, {"type": "Feature", "geometry": {"type": "Point", "coordinates": [4.4918004, 52.2215156]}, "properties": {"type": "inleverpunt", "locatieNaam": "Vomar", "straatNaam": "Oosthoutplein", "straatNr": "5", "postcode": "2215 VM", "plaats": "Voorhout", "merk": "Stibat", "puntType": "inzamelbak", "materialen": ["batterijen"], "uitbetaling": [], "vrijToegankelijk": false, "gemeenteBeperking": null, "openingstijden": null, "latitude": 52.2215156, "longitude": 4.4918004, "bronId": "L048236"}}, {"type": "Feature", "geometry": {"type": "Point", "coordinates": [4.4884293, 52.2153761]}, "properties": {"type": "inleverpunt", "locatieNaam": "Milieustraat Voorhout", "straatNaam": "Nijverheidsweg", "straatNr": "32", "postcode": "2215 MH", "plaats": "Voorhout", "merk": "Stibat", "puntType": "inzamelbak", "materialen": ["batterijen"], "uitbetaling": [], "vrijToegankelijk": false, "gemeenteBeperking": null, "openingstijden": null, "latitude": 52.2153761, "longitude": 4.4884293, "bronId": "L035617"}}, {"type": "Feature", "geometry": {"type": "Point", "coordinates": [4.485849, 52.2225199]}, "properties": {"type": "inleverpunt", "locatieNaam": "1633 Albert Heijn", "straatNaam": "Jacoba van Beierenhof", "straatNr": "26", "postcode": "2215 JK", "plaats": "Voorhout", "merk": "Stibat", "puntType": "inzamelbak", "materialen": ["batterijen"], "uitbetaling": [], "vrijToegankelijk": false, "gemeenteBeperking": null, "openingstijden": null, "latitude": 52.2225199, "longitude": 4.485849, "bronId": "L021193"}}, {"type": "Feature", "geometry": {"type": "Point", "coordinates": [4.4853115, 52.2230972]}, "properties": {"type": "inleverpunt", "locatieNaam": "Primera", "straatNaam": "Jacoba van Beierenhof", "straatNr": "26", "postcode": "2215 JK", "plaats": "Voorhout", "merk": "Stibat", "puntType": "inzamelbak", "materialen": ["batterijen"], "uitbetaling": [], "vrijToegankelijk": false, "gemeenteBeperking": null, "openingstijden": null, "latitude": 52.2230972, "longitude": 4.4853115, "bronId": "L024205"}}, {"type": "Feature", "geometry": {"type": "Point", "coordinates": [4.4844985, 52.2224931]}, "properties": {"type": "inleverpunt", "locatieNaam": "Fietsenwarenhuis.NL", "straatNaam": "Herenstraat", "straatNr": "81", "postcode": "2215 KG", "plaats": "Voorhout", "merk": "Stibat", "puntType": "inzamelbak", "materialen": ["batterijen"], "uitbetaling": [], "vrijToegankelijk": false, "gemeenteBeperking": null, "openingstijden": null, "latitude": 52.2224931, "longitude": 4.4844985, "bronId": "L032921"}}, {"type": "Feature", "geometry": {"type": "Point", "coordinates": [4.4818277, 52.2211889]}, "properties": {"type": "inleverpunt", "locatieNaam": "7438 Etos", "straatNaam": "Herenstraat", "straatNr": "45A", "postcode": "2215 KD", "plaats": "Voorhout", "merk": "Stibat", "puntType": "inzamelbak", "materialen": ["batterijen"], "uitbetaling": [], "vrijToegankelijk": false, "gemeenteBeperking": null, "openingstijden": null, "latitude": 52.2211889, "longitude": 4.4818277, "bronId": "L026107"}}, {"type": "Feature", "geometry": {"type": "Point", "coordinates": [4.4816367, 52.2210454]}, "properties": {"type": "inleverpunt", "locatieNaam": "PLUS", "straatNaam": "Herenstraat", "straatNr": "45", "postcode": "2215 KD", "plaats": "Voorhout", "merk": "Stibat", "puntType": "inzamelbak", "materialen": ["batterijen"], "uitbetaling": [], "vrijToegankelijk": false, "gemeenteBeperking": null, "openingstijden": null, "latitude": 52.2210454, "longitude": 4.4816367, "bronId": "L017259"}}, {"type": "Feature", "geometry": {"type": "Point", "coordinates": [4.4816211, 52.2215304]}, "properties": {"type": "inleverpunt", "locatieNaam": "HEMA Voorhout", "straatNaam": "Herenstraat", "straatNr": "96", "postcode": "2215 KK", "plaats": "Voorhout", "merk": "Stibat", "puntType": "inzamelbak", "materialen": ["batterijen"], "uitbetaling": [], "vrijToegankelijk": false, "gemeenteBeperking": null, "openingstijden": null, "latitude": 52.2215304, "longitude": 4.4816211, "bronId": "L046949"}}, {"type": "Feature", "geometry": {"type": "Point", "coordinates": [4.4824695, 52.2237928]}, "properties": {"type": "inleverpunt", "locatieNaam": "Van Schooten Bouwmaterialen", "straatNaam": "Boekhorstlaan", "straatNr": "38c", "postcode": "2215 BD", "plaats": "Voorhout", "merk": "Stibat", "puntType": "inzamelbak", "materialen": ["batterijen"], "uitbetaling": [], "vrijToegankelijk": false, "gemeenteBeperking": null, "openingstijden": null, "latitude": 52.2237928, "longitude": 4.4824695, "bronId": "L018551"}}, {"type": "Feature", "geometry": {"type": "Point", "coordinates": [4.4812225, 52.2212498]}, "properties": {"type": "inleverpunt", "locatieNaam": "Kruidvat", "straatNaam": "Herenstraat", "straatNr": "92a", "postcode": "2215 KK", "plaats": "Voorhout", "merk": "Stibat", "puntType": "inzamelbak", "materialen": ["batterijen"], "uitbetaling": [], "vrijToegankelijk": false, "gemeenteBeperking": null, "openingstijden": null, "latitude": 52.2212498, "longitude": 4.4812225, "bronId": "L015745"}}, {"type": "Feature", "geometry": {"type": "Point", "coordinates": [4.4790366, 52.2196542]}, "properties": {"type": "inleverpunt", "locatieNaam": "Bike Center Hogewoning", "straatNaam": "Herenstraat", "straatNr": "40", "postcode": "2215 KH", "plaats": "Voorhout", "merk": "Stibat", "puntType": "inzamelbak", "materialen": ["batterijen"], "uitbetaling": [], "vrijToegankelijk": false, "gemeenteBeperking": null, "openingstijden": null, "latitude": 52.2196542, "longitude": 4.4790366, "bronId": "L049742"}}, {"type": "Feature", "geometry": {"type": "Point", "coordinates": [4.4790174, 52.219642]}, "properties": {"type": "inleverpunt", "locatieNaam": "Fietsreparatie Voorhout", "straatNaam": "Herenstraat", "straatNr": "40", "postcode": "2215 KH", "plaats": "Voorhout", "merk": "Stibat", "puntType": "inzamelbak", "materialen": ["batterijen"], "uitbetaling": [], "vrijToegankelijk": false, "gemeenteBeperking": null, "openingstijden": null, "latitude": 52.219642, "longitude": 4.4790174, "bronId": "L047085"}}, {"type": "Feature", "geometry": {"type": "Polygon", "coordinates": [[[4.495256000823072, 52.18393900402824], [4.500791000828616, 52.18402400402831], [4.50238700083024, 52.18451700402862], [4.503881000831737, 52.18460600402871], [4.517208000844982, 52.182719004027646], [4.518354000846113, 52.1824920040275], [4.518369000846111, 52.182116004027286], [4.52817800085581, 52.17985100402594], [4.533319000860948, 52.17969500402588], [4.533556000861198, 52.179912004026036], [4.536646000864287, 52.17984100402602], [4.538154000865809, 52.18008500402616], [4.538238000865939, 52.180943004026666], [4.540520000868353, 52.18340800402818], [4.540406000868255, 52.18368400402834], [4.541013000868868, 52.18374500402839], [4.543734000871785, 52.18744900403064], [4.542970000871033, 52.18765800403079], [4.5430010008710875, 52.188119004031044], [4.5445300008728, 52.19154500403315], [4.546768000875434, 52.1989760040377], [4.549375000878041, 52.19893800403763], [4.549298000877932, 52.19836200403735], [4.554130000882768, 52.19834200403731], [4.554046000882644, 52.19758200403683], [4.557155000885765, 52.197742004036954], [4.556664000885329, 52.1988180040376], [4.5555650008842505, 52.19920300403783], [4.555196000883907, 52.19966500403812], [4.555572000884285, 52.19971800403817], [4.5555780008843145, 52.2001450040384], [4.559650000888408, 52.200497004038624], [4.55955500088839, 52.201961004039525], [4.561195000890077, 52.20283400404007], [4.561705000890631, 52.20365800404058], [4.5605210008894455, 52.203658004040555], [4.56068600088967, 52.20477900404126], [4.558260000887277, 52.205458004041624], [4.557819000886998, 52.20855500404351], [4.558290000887481, 52.20870200404358], [4.558955000888226, 52.210242004044524], [4.554292000883665, 52.212247004045715], [4.554871000884317, 52.213577004046535], [4.555923000885411, 52.21436700404701], [4.556674000886179, 52.21471500404721], [4.556988000886483, 52.2145260040471], [4.5578490008873755, 52.21510200404749], [4.557166000886766, 52.21650400404832], [4.558433000888155, 52.21879900404972], [4.556615000886362, 52.21927300404999], [4.553934000883833, 52.222205004051744], [4.548505000878524, 52.22454100405312], [4.547631000877655, 52.22462700405317], [4.543570000873708, 52.226803004054474], [4.539229000869535, 52.22993800405634], [4.530588000861034, 52.23264600405795], [4.524923000855523, 52.23556100405965], [4.525065000855682, 52.235923004059856], [4.526581000857224, 52.23637400406017], [4.5284600008591775, 52.23780000406099], [4.529472000860209, 52.23813700406124], [4.527417000858208, 52.23916000406185], [4.53005100086095, 52.24116200406308], [4.5278700008588135, 52.24199500406353], [4.527669000858638, 52.24248300406386], [4.524088000855158, 52.244377004064944], [4.525890000857035, 52.24577600406581], [4.525120000856288, 52.24619300406604], [4.526594000857818, 52.24725300406667], [4.521476000852823, 52.24953900406804], [4.521397000852781, 52.25023700406847], [4.517728000849231, 52.25245200406979], [4.517878000849396, 52.25273100406997], [4.513409000845054, 52.25506700407135], [4.512141000843735, 52.25415300407078], [4.5029900008343375, 52.249582004067975], [4.468944000799051, 52.22668500405395], [4.466213000796243, 52.22522900405304], [4.46606600079608, 52.22500300405292], [4.4671560007971225, 52.22406600405236], [4.466985000796933, 52.22378600405219], [4.470704000800548, 52.221763004051006], [4.469107000798883, 52.220546004050256], [4.4703580008000925, 52.21981300404983], [4.466341000795967, 52.217817004048555], [4.466114000795749, 52.2180250040487], [4.464929000794545, 52.21763300404845], [4.465932000795509, 52.21691900404801], [4.463960000793476, 52.21582900404735], [4.465042000794499, 52.2147060040467], [4.466182000795607, 52.214163004046355], [4.4665200007958825, 52.212961004045624], [4.465748000795121, 52.21314300404575], [4.465092000794432, 52.212583004045406], [4.463479000792805, 52.21233500404524], [4.4623780007916665, 52.21164300404484], [4.462358000791587, 52.21056700404416], [4.459555000788711, 52.2092070040433], [4.458625000787727, 52.208243004042735], [4.456674000785746, 52.20766900404236], [4.455649000784685, 52.207030004041954], [4.457555000786534, 52.20595800404133], [4.461339000790242, 52.20457000404051], [4.460954000789843, 52.204335004040395], [4.4626750007915135, 52.2034120040398], [4.460417000789189, 52.20219900403907], [4.46347100079214, 52.200202004037905], [4.466307000794996, 52.200549004038145], [4.467660000796424, 52.201933004039006], [4.4702400007990235, 52.2022670040392], [4.4706130007993625, 52.20164300403885], [4.471505000800253, 52.20159700403878], [4.472826000801632, 52.202656004039476], [4.476248000805088, 52.20322600403981], [4.478421000807346, 52.20479900404078], [4.4797080008085395, 52.203072004039754], [4.479499000808296, 52.202397004039334], [4.480272000809043, 52.20194900403907], [4.482899000811724, 52.20290300403968], [4.484354000813186, 52.203010004039754], [4.486728000815626, 52.20418500404048], [4.488032000816862, 52.20292300403968], [4.489852000818743, 52.20397800404036], [4.490612000819471, 52.20343000404003], [4.491447000820321, 52.2036870040402], [4.493439000821845, 52.19496700403492], [4.490433000818737, 52.1931390040338], [4.487764000815925, 52.19052100403218], [4.488423000816501, 52.188974004031294], [4.490833000818794, 52.18675400402991], [4.491201000819117, 52.185947004029465], [4.491163000819011, 52.18461900402863], [4.489525000817214, 52.181698004026835], [4.491431000819082, 52.1809510040264], [4.492895000820577, 52.181541004026776], [4.4943290008220185, 52.18167000402683], [4.49412900082184, 52.18204600402711], [4.49489900082264, 52.18255000402741], [4.495256000823072, 52.18393900402824]]]}, "properties": {"type": "boundary", "gemeente": "Teylingen"}}]}