{"type": "FeatureCollection", "metadata": {"gemeente": "Tubbergen", "slug": "tubbergen", "generated_at": "2026-08-17T03:07:05.158046Z", "total_points": 45, "merken": ["StatiegeldNederland", "Stibat", "StichtingOPEN"], "bounds": [6.7213615, 52.3663033, 6.8448919, 52.4337598]}, "features": [{"type": "Feature", "geometry": {"type": "Point", "coordinates": [6.780675, 52.406578]}, "properties": {"type": "inleverpunt", "locatieNaam": "Aldi", "straatNaam": "Waldeckstraat", "straatNr": "6", "postcode": "7651 EE", "plaats": "Tubbergen", "merk": "StatiegeldNederland", "puntType": "automaat", "materialen": ["pet-groot", "pet-klein", "blik", "glas", "krat"], "uitbetaling": ["bonnetje"], "vrijToegankelijk": true, "gemeenteBeperking": null, "openingstijden": {"ma": "08:00–20:00", "di": "08:00–20:00", "wo": "08:00–20:00", "do": "08:00–20:00", "vr": "08:00–20:00", "za": "08:00–20:00", "zo": "11:00–18:00"}, "latitude": 52.406578, "longitude": 6.780675, "bronId": "277932"}}, {"type": "Feature", "geometry": {"type": "Point", "coordinates": [6.7836172, 52.4075926]}, "properties": {"type": "inleverpunt", "locatieNaam": "Plus", "straatNaam": "De Eendracht", "straatNr": "11", "postcode": "7651 CZ", "plaats": "Tubbergen", "merk": "StatiegeldNederland", "puntType": "automaat", "materialen": ["pet-groot", "pet-klein", "blik", "glas", "krat"], "uitbetaling": ["bonnetje", "donatie"], "vrijToegankelijk": true, "gemeenteBeperking": null, "openingstijden": {"ma": "08:00–20:00", "di": "08:00–20:00", "wo": "08:00–20:00", "do": "08:00–20:00", "vr": "08:00–20:00", "za": "08:00–20:00", "zo": "09:00–17:00"}, "latitude": 52.4075926, "longitude": 6.7836172, "bronId": "281995"}}, {"type": "Feature", "geometry": {"type": "Point", "coordinates": [6.8318926, 52.4337598]}, "properties": {"type": "inleverpunt", "locatieNaam": "Plus", "straatNaam": "Denekamperweg", "straatNr": "190", "postcode": "7661 RL", "plaats": "Vasse", "merk": "StatiegeldNederland", "puntType": "automaat", "materialen": ["pet-groot", "pet-klein", "blik", "glas", "krat"], "uitbetaling": ["bonnetje", "donatie"], "vrijToegankelijk": true, "gemeenteBeperking": null, "openingstijden": {"ma": "08:00–18:00", "di": "08:00–18:00", "wo": "08:00–18:00", "do": "08:00–20:00", "vr": "08:00–20:00", "za": "07:30–17:00", "zo": "Gesloten"}, "latitude": 52.4337598, "longitude": 6.8318926, "bronId": "282007"}}, {"type": "Feature", "geometry": {"type": "Point", "coordinates": [6.735319, 52.4200852]}, "properties": {"type": "inleverpunt", "locatieNaam": "Plus", "straatNaam": "Veldstegge", "straatNr": "5", "postcode": "7678 AX", "plaats": "Geesteren", "merk": "StatiegeldNederland", "puntType": "automaat", "materialen": ["pet-groot", "pet-klein", "blik", "glas", "krat"], "uitbetaling": ["bonnetje"], "vrijToegankelijk": true, "gemeenteBeperking": null, "openingstijden": {"ma": "08:00–20:00", "di": "08:00–20:00", "wo": "08:00–20:00", "do": "08:00–20:00", "vr": "08:00–20:00", "za": "08:00–20:00", "zo": "10:00–17:00"}, "latitude": 52.4200852, "longitude": 6.735319, "bronId": "282319"}}, {"type": "Feature", "geometry": {"type": "Point", "coordinates": [6.7615341, 52.3730567]}, "properties": {"type": "inleverpunt", "locatieNaam": "Plus", "straatNaam": "Zenderseweg", "straatNr": "8", "postcode": "7665 TM", "plaats": "Albergen", "merk": "StatiegeldNederland", "puntType": "automaat", "materialen": ["pet-groot", "pet-klein", "blik", "glas", "krat"], "uitbetaling": ["bonnetje"], "vrijToegankelijk": true, "gemeenteBeperking": null, "openingstijden": {"ma": "08:00–20:00", "di": "08:00–20:00", "wo": "08:00–20:00", "do": "08:00–20:00", "vr": "08:00–20:00", "za": "08:00–19:00", "zo": "10:00–17:00"}, "latitude": 52.3730567, "longitude": 6.7615341, "bronId": "282353"}}, {"type": "Feature", "geometry": {"type": "Point", "coordinates": [6.7594571, 52.3745971]}, "properties": {"type": "inleverpunt", "locatieNaam": "R.k.s.v. De Tukkers", "straatNaam": "Kemnaweg", "straatNr": "14", "postcode": "7665 RJ", "plaats": "Albergen", "merk": "StatiegeldNederland", "puntType": "balie", "materialen": ["pet-groot", "pet-klein", "blik"], "uitbetaling": [], "vrijToegankelijk": false, "gemeenteBeperking": null, "openingstijden": {"ma": "Gesloten", "di": "Gesloten", "wo": "Gesloten", "do": "Gesloten", "vr": "Gesloten", "za": "08:00–19:30", "zo": "08:00–19:00"}, "latitude": 52.3745971, "longitude": 6.7594571, "bronId": "282491"}}, {"type": "Feature", "geometry": {"type": "Point", "coordinates": [6.8224716, 52.4329528]}, "properties": {"type": "inleverpunt", "locatieNaam": "Sv Vasse", "straatNaam": "Denekamperweg", "straatNr": "123", "postcode": "7661 RJ", "plaats": "Vasse", "merk": "StatiegeldNederland", "puntType": "balie", "materialen": ["pet-groot", "pet-klein", "blik"], "uitbetaling": [], "vrijToegankelijk": false, "gemeenteBeperking": null, "openingstijden": null, "latitude": 52.4329528, "longitude": 6.8224716, "bronId": "283602"}}, {"type": "Feature", "geometry": {"type": "Point", "coordinates": [6.7587543, 52.4252161]}, "properties": {"type": "inleverpunt", "locatieNaam": "Tankstation Mos", "straatNaam": "Hardenbergerweg", "straatNr": "103", "postcode": "7678 VR", "plaats": "Geesteren", "merk": "StatiegeldNederland", "puntType": "balie", "materialen": ["pet-groot", "pet-klein", "blik"], "uitbetaling": [], "vrijToegankelijk": true, "gemeenteBeperking": null, "openingstijden": {"ma": "07:00–20:30", "di": "07:00–20:30", "wo": "07:00–20:30", "do": "07:00–20:30", "vr": "07:00–20:30", "za": "07:30–20:30", "zo": "08:30–20:00"}, "latitude": 52.4252161, "longitude": 6.7587543, "bronId": "283652"}}, {"type": "Feature", "geometry": {"type": "Point", "coordinates": [6.735709, 52.420525]}, "properties": {"type": "inleverpunt", "locatieNaam": "PLUS Geesteren", "straatNaam": "De Veldstegge", "straatNr": "5", "postcode": "7678 AX", "plaats": "Geesteren", "merk": "StichtingOPEN", "puntType": "balie", "materialen": ["batterijen", "lampen"], "uitbetaling": [], "vrijToegankelijk": false, "gemeenteBeperking": null, "openingstijden": null, "latitude": 52.420525, "longitude": 6.735709, "bronId": "SP00024024"}}, {"type": "Feature", "geometry": {"type": "Point", "coordinates": [6.761305, 52.373092]}, "properties": {"type": "inleverpunt", "locatieNaam": "Coop Albergen", "straatNaam": "Zenderseweg", "straatNr": "8", "postcode": "7665 TM", "plaats": "Albergen", "merk": "StichtingOPEN", "puntType": "balie", "materialen": ["batterijen", "lampen"], "uitbetaling": [], "vrijToegankelijk": false, "gemeenteBeperking": null, "openingstijden": null, "latitude": 52.373092, "longitude": 6.761305, "bronId": "SP00024359"}}, {"type": "Feature", "geometry": {"type": "Point", "coordinates": [6.735164, 52.422363]}, "properties": {"type": "inleverpunt", "locatieNaam": "Euramco Harry Derkink", "straatNaam": "Langeveenseweg", "straatNr": "20", "postcode": "7678 VE", "plaats": "Geesteren", "merk": "StichtingOPEN", "puntType": "balie", "materialen": ["lampen"], "uitbetaling": [], "vrijToegankelijk": false, "gemeenteBeperking": null, "openingstijden": null, "latitude": 52.422363, "longitude": 6.735164, "bronId": "SP00002592"}}, {"type": "Feature", "geometry": {"type": "Point", "coordinates": [6.780624, 52.406571]}, "properties": {"type": "inleverpunt", "locatieNaam": "Aldi Tubbergen", "straatNaam": "Waldeckstraat", "straatNr": "6", "postcode": "7651 EE", "plaats": "Tubbergen", "merk": "StichtingOPEN", "puntType": "balie", "materialen": ["batterijen", "elektro-klein", "lampen"], "uitbetaling": [], "vrijToegankelijk": false, "gemeenteBeperking": null, "openingstijden": null, "latitude": 52.406571, "longitude": 6.780624, "bronId": "SP00026997"}}, {"type": "Feature", "geometry": {"type": "Point", "coordinates": [6.781898, 52.405306]}, "properties": {"type": "inleverpunt", "locatieNaam": "Expert Tubbergen", "straatNaam": "Grotestraat", "straatNr": "17", "postcode": "7651 CG", "plaats": "Tubbergen", "merk": "StichtingOPEN", "puntType": "balie", "materialen": ["elektro-middel", "lampen"], "uitbetaling": [], "vrijToegankelijk": false, "gemeenteBeperking": null, "openingstijden": null, "latitude": 52.405306, "longitude": 6.781898, "bronId": "SP00003553"}}, {"type": "Feature", "geometry": {"type": "Point", "coordinates": [6.78194, 52.406747]}, "properties": {"type": "inleverpunt", "locatieNaam": "EP: Electropan", "straatNaam": "Grotestraat", "straatNr": "44a", "postcode": "7651 CJ", "plaats": "Tubbergen", "merk": "StichtingOPEN", "puntType": "balie", "materialen": ["elektro-middel", "lampen", "tl-buizen"], "uitbetaling": [], "vrijToegankelijk": false, "gemeenteBeperking": null, "openingstijden": null, "latitude": 52.406747, "longitude": 6.78194, "bronId": "SP00020682"}}, {"type": "Feature", "geometry": {"type": "Point", "coordinates": [6.783405, 52.407331]}, "properties": {"type": "inleverpunt", "locatieNaam": "PLUS Tubbergen", "straatNaam": "De Eendracht", "straatNr": "11", "postcode": "7651 CZ", "plaats": "Tubbergen", "merk": "StichtingOPEN", "puntType": "balie", "materialen": ["batterijen", "lampen"], "uitbetaling": [], "vrijToegankelijk": false, "gemeenteBeperking": null, "openingstijden": null, "latitude": 52.407331, "longitude": 6.783405, "bronId": "SP00024019"}}, {"type": "Feature", "geometry": {"type": "Point", "coordinates": [6.788748, 52.401798]}, "properties": {"type": "inleverpunt", "locatieNaam": "Praxis Tubbergen - 2235", "straatNaam": "Galvanistraat", "straatNr": "3", "postcode": "7651 DH", "plaats": "Tubbergen", "merk": "StichtingOPEN", "puntType": "balie", "materialen": ["elektro-middel", "lampen", "tl-buizen"], "uitbetaling": [], "vrijToegankelijk": false, "gemeenteBeperking": null, "openingstijden": null, "latitude": 52.401798, "longitude": 6.788748, "bronId": "SP00004539"}}, {"type": "Feature", "geometry": {"type": "Point", "coordinates": [6.788658, 52.402305]}, "properties": {"type": "inleverpunt", "locatieNaam": "Kringloopwinkel De Beurs", "straatNaam": "Marconistraat", "straatNr": "2", "postcode": "7651 DG", "plaats": "Tubbergen", "merk": "StichtingOPEN", "puntType": "balie", "materialen": ["elektro-klein", "elektro-middel"], "uitbetaling": [], "vrijToegankelijk": false, "gemeenteBeperking": null, "openingstijden": null, "latitude": 52.402305, "longitude": 6.788658, "bronId": "SP00036683"}}, {"type": "Feature", "geometry": {"type": "Point", "coordinates": [6.792522, 52.401623]}, "properties": {"type": "inleverpunt", "locatieNaam": "EP:Eppink - losse apparaten", "straatNaam": "Newtonstraat", "straatNr": "15", "postcode": "7651 AP", "plaats": "Tubbergen", "merk": "StichtingOPEN", "puntType": "balie", "materialen": ["elektro-klein", "elektro-middel"], "uitbetaling": [], "vrijToegankelijk": false, "gemeenteBeperking": null, "openingstijden": null, "latitude": 52.401623, "longitude": 6.792522, "bronId": "SP00021232"}}, {"type": "Feature", "geometry": {"type": "Point", "coordinates": [6.791004, 52.400916]}, "properties": {"type": "inleverpunt", "locatieNaam": "Afvalbrengpunt Tubbergen", "straatNaam": "Galvanistraat", "straatNr": "6", "postcode": "7651 DH", "plaats": "Tubbergen", "merk": "StichtingOPEN", "puntType": "milieustraat", "materialen": ["batterijen", "elektro-groot", "elektro-klein", "elektro-middel", "lampen", "tl-buizen"], "uitbetaling": [], "vrijToegankelijk": false, "gemeenteBeperking": ["Tubbergen", "Dinkelland"], "openingstijden": null, "latitude": 52.400916, "longitude": 6.791004, "bronId": "SP00004368"}}, {"type": "Feature", "geometry": {"type": "Point", "coordinates": [6.7213615, 52.4217499]}, "properties": {"type": "inleverpunt", "locatieNaam": "Boerenbond Geesteren", "straatNaam": "Breemhaarsweg", "straatNr": "10", "postcode": "7678 TJ", "plaats": "Geesteren Ov", "merk": "Stibat", "puntType": "inzamelbak", "materialen": ["batterijen"], "uitbetaling": [], "vrijToegankelijk": false, "gemeenteBeperking": null, "openingstijden": null, "latitude": 52.4217499, "longitude": 6.7213615, "bronId": "L045371"}}, {"type": "Feature", "geometry": {"type": "Point", "coordinates": [6.7338782, 52.4199076]}, "properties": {"type": "inleverpunt", "locatieNaam": "Top1Toys", "straatNaam": "Dorpsstraat", "straatNr": "68", "postcode": "7678 AX", "plaats": "Geesteren", "merk": "Stibat", "puntType": "inzamelbak", "materialen": ["batterijen"], "uitbetaling": [], "vrijToegankelijk": false, "gemeenteBeperking": null, "openingstijden": null, "latitude": 52.4199076, "longitude": 6.7338782, "bronId": "L015786"}}, {"type": "Feature", "geometry": {"type": "Point", "coordinates": [6.7344385, 52.419872]}, "properties": {"type": "inleverpunt", "locatieNaam": "V.o.f. Haarhuis Gereedschappen", "straatNaam": "Dorpsstraat", "straatNr": "67", "postcode": "7678 AV", "plaats": "Geesteren", "merk": "Stibat", "puntType": "inzamelbak", "materialen": ["batterijen"], "uitbetaling": [], "vrijToegankelijk": false, "gemeenteBeperking": null, "openingstijden": null, "latitude": 52.419872, "longitude": 6.7344385, "bronId": "L017847"}}, {"type": "Feature", "geometry": {"type": "Point", "coordinates": [6.7356983, 52.4204345]}, "properties": {"type": "inleverpunt", "locatieNaam": "PLUS", "straatNaam": "De Veldstegge", "straatNr": "5", "postcode": "7678 AX", "plaats": "Geesteren Ov", "merk": "Stibat", "puntType": "inzamelbak", "materialen": ["batterijen"], "uitbetaling": [], "vrijToegankelijk": false, "gemeenteBeperking": null, "openingstijden": null, "latitude": 52.4204345, "longitude": 6.7356983, "bronId": "L010435"}}, {"type": "Feature", "geometry": {"type": "Point", "coordinates": [6.7359389, 52.4206284]}, "properties": {"type": "inleverpunt", "locatieNaam": "DA", "straatNaam": "De Veldstegge", "straatNr": "3", "postcode": "7678 AX", "plaats": "Geesteren Ov", "merk": "Stibat", "puntType": "inzamelbak", "materialen": ["batterijen"], "uitbetaling": [], "vrijToegankelijk": false, "gemeenteBeperking": null, "openingstijden": null, "latitude": 52.4206284, "longitude": 6.7359389, "bronId": "L025460"}}, {"type": "Feature", "geometry": {"type": "Point", "coordinates": [6.7613051, 52.3730926]}, "properties": {"type": "inleverpunt", "locatieNaam": "PLUS", "straatNaam": "Zenderseweg", "straatNr": "8", "postcode": "7665 TM", "plaats": "Albergen", "merk": "Stibat", "puntType": "inzamelbak", "materialen": ["batterijen"], "uitbetaling": [], "vrijToegankelijk": false, "gemeenteBeperking": null, "openingstijden": null, "latitude": 52.3730926, "longitude": 6.7613051, "bronId": "L029961"}}, {"type": "Feature", "geometry": {"type": "Point", "coordinates": [6.7351566, 52.4223557]}, "properties": {"type": "inleverpunt", "locatieNaam": "Euronics", "straatNaam": "Langeveenseweg", "straatNr": "20", "postcode": "7678 VE", "plaats": "Geesteren Ov", "merk": "Stibat", "puntType": "inzamelbak", "materialen": ["batterijen"], "uitbetaling": [], "vrijToegankelijk": false, "gemeenteBeperking": null, "openingstijden": null, "latitude": 52.4223557, "longitude": 6.7351566, "bronId": "L015323"}}, {"type": "Feature", "geometry": {"type": "Point", "coordinates": [6.7400749, 52.4211572]}, "properties": {"type": "inleverpunt", "locatieNaam": "Overmeer", "straatNaam": "Dorpsstraat", "straatNr": "6", "postcode": "7678 AW", "plaats": "Geesteren Ov", "merk": "Stibat", "puntType": "inzamelbak", "materialen": ["batterijen"], "uitbetaling": [], "vrijToegankelijk": false, "gemeenteBeperking": null, "openingstijden": null, "latitude": 52.4211572, "longitude": 6.7400749, "bronId": "L033999"}}, {"type": "Feature", "geometry": {"type": "Point", "coordinates": [6.7801274, 52.4056119]}, "properties": {"type": "inleverpunt", "locatieNaam": "Uw Groene Vakwinkel", "straatNaam": "Almeloseweg", "straatNr": "11", "postcode": "7651 NC", "plaats": "Tubbergen", "merk": "Stibat", "puntType": "inzamelbak", "materialen": ["batterijen"], "uitbetaling": [], "vrijToegankelijk": false, "gemeenteBeperking": null, "openingstijden": null, "latitude": 52.4056119, "longitude": 6.7801274, "bronId": "L020539"}}, {"type": "Feature", "geometry": {"type": "Point", "coordinates": [6.7806242, 52.4065711]}, "properties": {"type": "inleverpunt", "locatieNaam": "Aldi", "straatNaam": "Waldeckstraat", "straatNr": "6", "postcode": "7651 EE", "plaats": "Tubbergen", "merk": "Stibat", "puntType": "inzamelbak", "materialen": ["batterijen"], "uitbetaling": [], "vrijToegankelijk": false, "gemeenteBeperking": null, "openingstijden": null, "latitude": 52.4065711, "longitude": 6.7806242, "bronId": "L041503"}}, {"type": "Feature", "geometry": {"type": "Point", "coordinates": [6.7809072, 52.4060487]}, "properties": {"type": "inleverpunt", "locatieNaam": "Primera", "straatNaam": "Almeloseweg", "straatNr": "8", "postcode": "7651 NG", "plaats": "Tubbergen", "merk": "Stibat", "puntType": "inzamelbak", "materialen": ["batterijen"], "uitbetaling": [], "vrijToegankelijk": false, "gemeenteBeperking": null, "openingstijden": null, "latitude": 52.4060487, "longitude": 6.7809072, "bronId": "L046612"}}, {"type": "Feature", "geometry": {"type": "Point", "coordinates": [6.7808942, 52.4060959]}, "properties": {"type": "inleverpunt", "locatieNaam": "Primera", "straatNaam": "Almeloseweg", "straatNr": "8", "postcode": "7651 NG", "plaats": "Tubbergen", "merk": "Stibat", "puntType": "inzamelbak", "materialen": ["batterijen"], "uitbetaling": [], "vrijToegankelijk": false, "gemeenteBeperking": null, "openingstijden": null, "latitude": 52.4060959, "longitude": 6.7808942, "bronId": "L024343"}}, {"type": "Feature", "geometry": {"type": "Point", "coordinates": [6.7818367, 52.4053232]}, "properties": {"type": "inleverpunt", "locatieNaam": "Expert", "straatNaam": "Grotestraat", "straatNr": "17", "postcode": "7651 CG", "plaats": "Tubbergen", "merk": "Stibat", "puntType": "inzamelbak", "materialen": ["batterijen"], "uitbetaling": [], "vrijToegankelijk": false, "gemeenteBeperking": null, "openingstijden": null, "latitude": 52.4053232, "longitude": 6.7818367, "bronId": "L009957"}}, {"type": "Feature", "geometry": {"type": "Point", "coordinates": [6.7814519, 52.4064399]}, "properties": {"type": "inleverpunt", "locatieNaam": "Fietz Tubbergen", "straatNaam": "Grotestraat", "straatNr": "35", "postcode": "7651 CG", "plaats": "Tubbergen", "merk": "Stibat", "puntType": "inzamelbak", "materialen": ["batterijen"], "uitbetaling": [], "vrijToegankelijk": false, "gemeenteBeperking": null, "openingstijden": null, "latitude": 52.4064399, "longitude": 6.7814519, "bronId": "L026285"}}, {"type": "Feature", "geometry": {"type": "Point", "coordinates": [6.7814761, 52.4074376]}, "properties": {"type": "inleverpunt", "locatieNaam": "Van Boxtel hoorwinkel", "straatNaam": "Grotestraat", "straatNr": "59A", "postcode": "7651 CH", "plaats": "Tubbergen", "merk": "Stibat", "puntType": "inzamelbak", "materialen": ["batterijen"], "uitbetaling": [], "vrijToegankelijk": false, "gemeenteBeperking": null, "openingstijden": null, "latitude": 52.4074376, "longitude": 6.7814761, "bronId": "L036236"}}, {"type": "Feature", "geometry": {"type": "Point", "coordinates": [6.7819408, 52.4067475]}, "properties": {"type": "inleverpunt", "locatieNaam": "EP:", "straatNaam": "Grotestraat", "straatNr": "44a", "postcode": "7651 CJ", "plaats": "Tubbergen", "merk": "Stibat", "puntType": "inzamelbak", "materialen": ["batterijen"], "uitbetaling": [], "vrijToegankelijk": false, "gemeenteBeperking": null, "openingstijden": null, "latitude": 52.4067475, "longitude": 6.7819408, "bronId": "L031529"}}, {"type": "Feature", "geometry": {"type": "Point", "coordinates": [6.7819559, 52.4068498]}, "properties": {"type": "inleverpunt", "locatieNaam": "HEMA Tubbergen", "straatNaam": "Grotestraat", "straatNr": "46", "postcode": "7651 CJ", "plaats": "Tubbergen", "merk": "Stibat", "puntType": "inzamelbak", "materialen": ["batterijen"], "uitbetaling": [], "vrijToegankelijk": false, "gemeenteBeperking": null, "openingstijden": null, "latitude": 52.4068498, "longitude": 6.7819559, "bronId": "L046977"}}, {"type": "Feature", "geometry": {"type": "Point", "coordinates": [6.7819739, 52.4068878]}, "properties": {"type": "inleverpunt", "locatieNaam": "Kruidvat", "straatNaam": "Grotestraat", "straatNr": "46-48", "postcode": "7651 CJ", "plaats": "Tubbergen", "merk": "Stibat", "puntType": "inzamelbak", "materialen": ["batterijen"], "uitbetaling": [], "vrijToegankelijk": false, "gemeenteBeperking": null, "openingstijden": null, "latitude": 52.4068878, "longitude": 6.7819739, "bronId": "L018707"}}, {"type": "Feature", "geometry": {"type": "Point", "coordinates": [6.7834394, 52.4073512]}, "properties": {"type": "inleverpunt", "locatieNaam": "PLUS", "straatNaam": "De Eendracht", "straatNr": "11", "postcode": "7651 CZ", "plaats": "Tubbergen", "merk": "Stibat", "puntType": "inzamelbak", "materialen": ["batterijen"], "uitbetaling": [], "vrijToegankelijk": false, "gemeenteBeperking": null, "openingstijden": null, "latitude": 52.4073512, "longitude": 6.7834394, "bronId": "L009814"}}, {"type": "Feature", "geometry": {"type": "Point", "coordinates": [6.7886585, 52.4023055]}, "properties": {"type": "inleverpunt", "locatieNaam": "Kringloopbedrijf De Beurs", "straatNaam": "Marconistraat", "straatNr": "2", "postcode": "7651 DG", "plaats": "Tubbergen", "merk": "Stibat", "puntType": "inzamelbak", "materialen": ["batterijen"], "uitbetaling": [], "vrijToegankelijk": false, "gemeenteBeperking": null, "openingstijden": null, "latitude": 52.4023055, "longitude": 6.7886585, "bronId": "L031866"}}, {"type": "Feature", "geometry": {"type": "Point", "coordinates": [6.7893719, 52.4019227]}, "properties": {"type": "inleverpunt", "locatieNaam": "Praxis 2235", "straatNaam": "Galvanistraat", "straatNr": "3", "postcode": "7651 DH", "plaats": "Tubbergen", "merk": "Stibat", "puntType": "inzamelbak", "materialen": ["batterijen"], "uitbetaling": [], "vrijToegankelijk": false, "gemeenteBeperking": null, "openingstijden": null, "latitude": 52.4019227, "longitude": 6.7893719, "bronId": "L016017"}}, {"type": "Feature", "geometry": {"type": "Point", "coordinates": [6.7906482, 52.4012296]}, "properties": {"type": "inleverpunt", "locatieNaam": "Afvalbrengpunt Tubbergen", "straatNaam": "Galvanistraat", "straatNr": "6", "postcode": "7651 DH", "plaats": "Tubbergen", "merk": "Stibat", "puntType": "inzamelbak", "materialen": ["batterijen"], "uitbetaling": [], "vrijToegankelijk": false, "gemeenteBeperking": null, "openingstijden": null, "latitude": 52.4012296, "longitude": 6.7906482, "bronId": "L035861"}}, {"type": "Feature", "geometry": {"type": "Point", "coordinates": [6.7992364, 52.4111258]}, "properties": {"type": "inleverpunt", "locatieNaam": "Overheempark 'n Kaps", "straatNaam": "Tibsweg", "straatNr": "2", "postcode": "7651 KP", "plaats": "Tubbergen", "merk": "Stibat", "puntType": "inzamelbak", "materialen": ["batterijen"], "uitbetaling": [], "vrijToegankelijk": false, "gemeenteBeperking": null, "openingstijden": null, "latitude": 52.4111258, "longitude": 6.7992364, "bronId": "L003042"}}, {"type": "Feature", "geometry": {"type": "Point", "coordinates": [6.8338462, 52.3663033]}, "properties": {"type": "inleverpunt", "locatieNaam": "Camping 't Visoord", "straatNaam": "Oldenzaalseweg", "straatNr": "163", "postcode": "7667 RR", "plaats": "Reutum", "merk": "Stibat", "puntType": "inzamelbak", "materialen": ["batterijen"], "uitbetaling": [], "vrijToegankelijk": false, "gemeenteBeperking": null, "openingstijden": null, "latitude": 52.3663033, "longitude": 6.8338462, "bronId": "L009493"}}, {"type": "Feature", "geometry": {"type": "Point", "coordinates": [6.8448919, 52.3665581]}, "properties": {"type": "inleverpunt", "locatieNaam": "De Molenhof", "straatNaam": "Kleijsenweg", "straatNr": "7", "postcode": "7667 RS", "plaats": "Reutum", "merk": "Stibat", "puntType": "inzamelbak", "materialen": ["batterijen"], "uitbetaling": [], "vrijToegankelijk": false, "gemeenteBeperking": null, "openingstijden": null, "latitude": 52.3665581, "longitude": 6.8448919, "bronId": "L004602"}}, {"type": "Feature", "geometry": {"type": "Point", "coordinates": [6.8321471, 52.4334625]}, "properties": {"type": "inleverpunt", "locatieNaam": "PLUS", "straatNaam": "Denekamperweg", "straatNr": "190", "postcode": "7661 RL", "plaats": "Vasse", "merk": "Stibat", "puntType": "inzamelbak", "materialen": ["batterijen"], "uitbetaling": [], "vrijToegankelijk": false, "gemeenteBeperking": null, "openingstijden": null, "latitude": 52.4334625, "longitude": 6.8321471, "bronId": "L015916"}}, {"type": "Feature", "geometry": {"type": "Polygon", "coordinates": [[[6.7136410030420155, 52.342266004079974], [6.734497003062579, 52.33935500407731], [6.743685003071605, 52.336109004075], [6.7499540030777005, 52.33008400407112], [6.750679003078412, 52.32966500407087], [6.753772003081475, 52.33004400407092], [6.759035003086705, 52.33206100407189], [6.7595580030873315, 52.33899300407595], [6.760577003088381, 52.34194300407764], [6.762634003090438, 52.343437004078424], [6.773979003101689, 52.34656300407974], [6.778322003106035, 52.35021200408168], [6.783399003111195, 52.36011600408728], [6.806833003134352, 52.36221700408739], [6.817683003145099, 52.36509700408858], [6.8356630031628, 52.36263600408626], [6.851789003178695, 52.36216900408522], [6.8556740031825, 52.360288004083905], [6.857803003184611, 52.36120100408435], [6.863585003190348, 52.363731004085544], [6.863179003190071, 52.372789004090905], [6.863615003190707, 52.38803800409978], [6.862338003189714, 52.40781600411143], [6.856592003184087, 52.41045100411325], [6.851495003179122, 52.41458200411591], [6.8534110031811775, 52.42706200412311], [6.897116003224278, 52.43281500412426], [6.928525003255202, 52.43414800412348], [6.938776003265267, 52.432723004122124], [6.949224003275545, 52.432865004121666], [6.947300003273696, 52.436621004123964], [6.941657003268133, 52.43542600412351], [6.906080003233217, 52.442243004129274], [6.889062003216526, 52.44654500413266], [6.86181600318977, 52.451358004136786], [6.852542003180623, 52.4499140041364], [6.8542980031824765, 52.459706004141985], [6.8447330031730536, 52.459188004142135], [6.831788003160322, 52.4599610041432], [6.804488003133427, 52.45955200414429], [6.77458700310397, 52.45960100414575], [6.7527340030825, 52.4641110041494], [6.723771003054145, 52.47701700415816], [6.720459003050881, 52.477179004158444], [6.717707003048182, 52.478132004159114], [6.710083003040551, 52.47059900415511], [6.701595003032032, 52.461163004150016], [6.699682003030087, 52.457526004147994], [6.698917003029319, 52.45679500414761], [6.699526003029876, 52.45404100414597], [6.697748003028087, 52.45178000414476], [6.696618003026972, 52.451774004144774], [6.695961003026315, 52.4511810041445], [6.694871003025235, 52.45084200414438], [6.693872003024216, 52.4487820041432], [6.692491003022842, 52.448154004142886], [6.692082003022426, 52.447348004142455], [6.684476003014902, 52.446209004142155], [6.682858003013308, 52.44626600414224], [6.680241003010704, 52.44494200414157], [6.678940003009415, 52.444779004141516], [6.677820003008302, 52.44415700414122], [6.676361003006861, 52.44411300414127], [6.675362003005849, 52.44258300414044], [6.673334003003826, 52.44145100413986], [6.672524003002977, 52.43816400413799], [6.674503003004892, 52.4357770041365], [6.6735190030039, 52.43449500413583], [6.67440200300474, 52.43262600413469], [6.677268003007522, 52.42987000413299], [6.677306003007548, 52.42917300413255], [6.677901003008128, 52.42885400413235], [6.677886003008099, 52.42783200413172], [6.676918003007137, 52.42733400413149], [6.676293003006522, 52.42742900413157], [6.675656003005883, 52.426907004131294], [6.675140003005374, 52.42697200413138], [6.67399900300421, 52.42464700413006], [6.676549003006711, 52.423655004129365], [6.674257003004422, 52.42204800412855], [6.672551003002737, 52.42208500412863], [6.6715160030016945, 52.420695004127886], [6.67188000300204, 52.4202560041276], [6.670211003000378, 52.4189050041269], [6.669673002999819, 52.417367004125985], [6.67061900300075, 52.417122004125844], [6.672155003002248, 52.41608600412517], [6.672613003002681, 52.41482400412442], [6.673954003004004, 52.414743004124304], [6.673954003003995, 52.41442400412412], [6.675429003005444, 52.41395300412376], [6.675347003005352, 52.41322400412334], [6.678065003007995, 52.41077800412178], [6.69863500302803, 52.39374100411089], [6.697882003027249, 52.39127400410951], [6.705303003034364, 52.37813200410146], [6.7080980030371045, 52.376901004100624], [6.711050003040021, 52.37702300410053], [6.711624003040579, 52.376580004100234], [6.713465003042399, 52.37648900410014], [6.712676003041579, 52.374047004098735], [6.7156610030444055, 52.366549004094175], [6.718049003046693, 52.36216500409148], [6.719693003048308, 52.3612890040909], [6.720563003049018, 52.352329004085604], [6.714138003042579, 52.34679800408263], [6.7148850030433085, 52.34620500408225], [6.712007003040452, 52.345399004081905], [6.709741003038178, 52.34343500408086], [6.7136410030420155, 52.342266004079974]]]}, "properties": {"type": "boundary", "gemeente": "Tubbergen"}}]}