{"type": "FeatureCollection", "metadata": {"gemeente": "Tytsjerksteradiel", "slug": "tytsjerksteradiel", "generated_at": "2026-07-28T10:02:02.095237Z", "total_points": 70, "merken": ["StatiegeldNederland", "Stibat", "StichtingOPEN"], "bounds": [5.8836373, 53.1292946, 6.0634438, 53.2601648]}, "features": [{"type": "Feature", "geometry": {"type": "Point", "coordinates": [5.8914546, 53.2425119]}, "properties": {"type": "inleverpunt", "locatieNaam": "Albert Heijn", "straatNaam": "De Haven", "straatNr": "5", "postcode": "9061 DL", "plaats": "Giekerk", "merk": "StatiegeldNederland", "puntType": "automaat", "materialen": ["pet-groot", "pet-klein", "blik", "glas", "krat"], "uitbetaling": ["bonnetje", "donatie"], "vrijToegankelijk": true, "gemeenteBeperking": null, "openingstijden": {"ma": "08:00–20:00", "di": "08:00–20:00", "wo": "08:00–20:00", "do": "08:00–21:00", "vr": "08:00–21:00", "za": "08:00–20:00", "zo": "10:00–18:00"}, "latitude": 53.2425119, "longitude": 5.8914546, "bronId": "252121"}}, {"type": "Feature", "geometry": {"type": "Point", "coordinates": [5.9420535, 53.2138903]}, "properties": {"type": "inleverpunt", "locatieNaam": "Albert Heijn", "straatNaam": "Fuormanderij", "straatNr": "5", "postcode": "9254 GS", "plaats": "Hardegarijp", "merk": "StatiegeldNederland", "puntType": "automaat", "materialen": ["pet-groot", "pet-klein", "blik", "glas", "krat"], "uitbetaling": ["bonnetje", "donatie"], "vrijToegankelijk": true, "gemeenteBeperking": null, "openingstijden": {"ma": "08:00–20:00", "di": "08:00–20:00", "wo": "08:00–20:00", "do": "08:00–21:00", "vr": "08:00–21:00", "za": "08:00–20:00", "zo": "10:00–18:00"}, "latitude": 53.2138903, "longitude": 5.9420535, "bronId": "252230"}}, {"type": "Feature", "geometry": {"type": "Point", "coordinates": [5.9942982, 53.1914844]}, "properties": {"type": "inleverpunt", "locatieNaam": "Aldi", "straatNaam": "Markt", "straatNr": "88", "postcode": "9251 JS", "plaats": "Burgum", "merk": "StatiegeldNederland", "puntType": "automaat", "materialen": ["pet-groot", "pet-klein", "blik", "glas", "krat"], "uitbetaling": ["bonnetje"], "vrijToegankelijk": true, "gemeenteBeperking": null, "openingstijden": {"ma": "08:00–20:00", "di": "08:00–20:00", "wo": "08:00–20:00", "do": "08:00–20:00", "vr": "08:00–21:00", "za": "08:00–20:00", "zo": "10:00–18:00"}, "latitude": 53.1914844, "longitude": 5.9942982, "bronId": "253249"}}, {"type": "Feature", "geometry": {"type": "Point", "coordinates": [6.0592707, 53.1748772]}, "properties": {"type": "inleverpunt", "locatieNaam": "Alles Under Ien Dak", "straatNaam": "E.M.Beimasrjitte", "straatNr": "33", "postcode": "9261 VG", "plaats": "Eastermar", "merk": "StatiegeldNederland", "puntType": "balie", "materialen": ["pet-groot", "pet-klein", "blik"], "uitbetaling": [], "vrijToegankelijk": true, "gemeenteBeperking": null, "openingstijden": null, "latitude": 53.1748772, "longitude": 6.0592707, "bronId": "253476"}}, {"type": "Feature", "geometry": {"type": "Point", "coordinates": [6.0272326, 53.1881655]}, "properties": {"type": "inleverpunt", "locatieNaam": "Camping Bergumermeer", "straatNaam": "Solcamastraat", "straatNr": "30", "postcode": "9262 ND", "plaats": "Sumar", "merk": "StatiegeldNederland", "puntType": "automaat", "materialen": ["pet-groot", "pet-klein", "blik"], "uitbetaling": ["donatie", "tikkie"], "vrijToegankelijk": true, "gemeenteBeperking": null, "openingstijden": null, "latitude": 53.1881655, "longitude": 6.0272326, "bronId": "253979"}}, {"type": "Feature", "geometry": {"type": "Point", "coordinates": [5.993016, 53.19055]}, "properties": {"type": "inleverpunt", "locatieNaam": "Jumbo", "straatNaam": "Markt", "straatNr": "38", "postcode": "9251 JS", "plaats": "Burgum", "merk": "StatiegeldNederland", "puntType": "automaat", "materialen": ["pet-groot", "pet-klein", "blik", "glas", "krat"], "uitbetaling": ["bonnetje", "donatie"], "vrijToegankelijk": true, "gemeenteBeperking": null, "openingstijden": {"ma": "08:00–21:00", "di": "08:00–21:00", "wo": "08:00–21:00", "do": "08:00–21:00", "vr": "08:00–21:00", "za": "08:00–21:00", "zo": "08:00–19:00"}, "latitude": 53.19055, "longitude": 5.993016, "bronId": "255569"}}, {"type": "Feature", "geometry": {"type": "Point", "coordinates": [5.9050728, 53.2517287]}, "properties": {"type": "inleverpunt", "locatieNaam": "Kv Trynwalden", "straatNaam": "Hilleburen", "straatNr": "15", "postcode": "9005 PV", "plaats": "Wergea", "merk": "StatiegeldNederland", "puntType": "balie", "materialen": ["pet-groot", "pet-klein", "blik"], "uitbetaling": [], "vrijToegankelijk": false, "gemeenteBeperking": null, "openingstijden": {"ma": "24 uur geopend", "di": "24 uur geopend", "wo": "24 uur geopend", "do": "24 uur geopend", "vr": "24 uur geopend", "za": "24 uur geopend", "zo": "24 uur geopend"}, "latitude": 53.2517287, "longitude": 5.9050728, "bronId": "255979"}}, {"type": "Feature", "geometry": {"type": "Point", "coordinates": [5.992022, 53.1916092]}, "properties": {"type": "inleverpunt", "locatieNaam": "Plus", "straatNaam": "Markt", "straatNr": "53", "postcode": "9251 JR", "plaats": "Burgum", "merk": "StatiegeldNederland", "puntType": "automaat", "materialen": ["pet-groot", "pet-klein", "blik", "glas", "krat"], "uitbetaling": ["bonnetje"], "vrijToegankelijk": true, "gemeenteBeperking": null, "openingstijden": {"ma": "08:00–20:00", "di": "08:00–20:00", "wo": "08:00–20:00", "do": "08:00–21:00", "vr": "08:00–21:00", "za": "08:00–20:00", "zo": "09:00–18:00"}, "latitude": 53.1916092, "longitude": 5.992022, "bronId": "257417"}}, {"type": "Feature", "geometry": {"type": "Point", "coordinates": [5.9887866, 53.193986]}, "properties": {"type": "inleverpunt", "locatieNaam": "Poiesz", "straatNaam": "fr.Bosgraafstraat", "straatNr": "1", "postcode": "9251 CT", "plaats": "Burgum", "merk": "StatiegeldNederland", "puntType": "automaat", "materialen": ["pet-groot", "pet-klein", "blik", "glas", "krat"], "uitbetaling": ["bonnetje", "donatie"], "vrijToegankelijk": true, "gemeenteBeperking": null, "openingstijden": {"ma": "08:00–21:00", "di": "08:00–21:00", "wo": "08:00–21:00", "do": "08:00–21:00", "vr": "08:00–21:00", "za": "08:00–21:00", "zo": "09:00–19:00"}, "latitude": 53.193986, "longitude": 5.9887866, "bronId": "257638"}}, {"type": "Feature", "geometry": {"type": "Point", "coordinates": [6.0060819, 53.221587]}, "properties": {"type": "inleverpunt", "locatieNaam": "Poiesz", "straatNaam": "Rijksstraatweg", "straatNr": "27", "postcode": "9257 DR", "plaats": "Noardburgum", "merk": "StatiegeldNederland", "puntType": "automaat", "materialen": ["pet-groot", "pet-klein", "blik", "glas", "krat"], "uitbetaling": ["bonnetje", "donatie"], "vrijToegankelijk": true, "gemeenteBeperking": null, "openingstijden": {"ma": "08:00–20:00", "di": "08:00–20:00", "wo": "08:00–20:00", "do": "08:00–21:00", "vr": "08:00–21:00", "za": "08:00–20:00", "zo": "09:00–18:00"}, "latitude": 53.221587, "longitude": 6.0060819, "bronId": "257681"}}, {"type": "Feature", "geometry": {"type": "Point", "coordinates": [5.9435509, 53.2178918]}, "properties": {"type": "inleverpunt", "locatieNaam": "Poiesz", "straatNaam": "Swagermanstraat", "straatNr": "1", "postcode": "9254 CT", "plaats": "Hardegarijp", "merk": "StatiegeldNederland", "puntType": "automaat", "materialen": ["pet-groot", "pet-klein", "blik", "glas", "krat"], "uitbetaling": ["bonnetje", "donatie"], "vrijToegankelijk": true, "gemeenteBeperking": null, "openingstijden": {"ma": "08:00–20:00", "di": "08:00–20:00", "wo": "08:00–20:00", "do": "08:00–20:00", "vr": "08:00–21:00", "za": "08:00–18:00", "zo": "Gesloten"}, "latitude": 53.2178918, "longitude": 5.9435509, "bronId": "257690"}}, {"type": "Feature", "geometry": {"type": "Point", "coordinates": [5.9695689, 53.1670211]}, "properties": {"type": "inleverpunt", "locatieNaam": "Spar", "straatNaam": "GREATE BUORREN", "straatNr": "40", "postcode": "9263 PN", "plaats": "Garijp", "merk": "StatiegeldNederland", "puntType": "balie", "materialen": ["pet-groot", "pet-klein", "blik"], "uitbetaling": [], "vrijToegankelijk": true, "gemeenteBeperking": null, "openingstijden": {"ma": "08:00–19:00", "di": "08:00–19:00", "wo": "08:00–19:00", "do": "08:00–19:00", "vr": "08:00–20:00", "za": "08:00–18:00", "zo": "10:00–17:00"}, "latitude": 53.1670211, "longitude": 5.9695689, "bronId": "258358"}}, {"type": "Feature", "geometry": {"type": "Point", "coordinates": [6.0634438, 53.2117514]}, "properties": {"type": "inleverpunt", "locatieNaam": "ViaTim", "straatNaam": "Buorrefinnewei", "straatNr": "7", "postcode": "9258 CM", "plaats": "Jistrum", "merk": "StatiegeldNederland", "puntType": "balie", "materialen": ["pet-groot", "pet-klein", "blik"], "uitbetaling": ["tikkie"], "vrijToegankelijk": true, "gemeenteBeperking": null, "openingstijden": null, "latitude": 53.2117514, "longitude": 6.0634438, "bronId": "259238"}}, {"type": "Feature", "geometry": {"type": "Point", "coordinates": [6.0011603, 53.1922585]}, "properties": {"type": "inleverpunt", "locatieNaam": "ViaTim", "straatNaam": "Iikmounewei", "straatNr": "44", "postcode": "9251 EX", "plaats": "Burgum", "merk": "StatiegeldNederland", "puntType": "balie", "materialen": ["pet-groot", "pet-klein", "blik"], "uitbetaling": ["tikkie"], "vrijToegankelijk": true, "gemeenteBeperking": null, "openingstijden": null, "latitude": 53.1922585, "longitude": 6.0011603, "bronId": "259338"}}, {"type": "Feature", "geometry": {"type": "Point", "coordinates": [5.8836373, 53.2402384]}, "properties": {"type": "inleverpunt", "locatieNaam": "ViaTim", "straatNaam": "Van Meijersstrjitte", "straatNr": "1", "postcode": "9061 BA", "plaats": "Gytsjerk", "merk": "StatiegeldNederland", "puntType": "balie", "materialen": ["pet-groot", "pet-klein", "blik"], "uitbetaling": ["tikkie"], "vrijToegankelijk": true, "gemeenteBeperking": null, "openingstijden": {"ma": "15:00–21:00", "di": "15:00–21:00", "wo": "15:00–21:00", "do": "15:00–21:00", "vr": "15:00–21:00", "za": "Gesloten", "zo": "Gesloten"}, "latitude": 53.2402384, "longitude": 5.8836373, "bronId": "259510"}}, {"type": "Feature", "geometry": {"type": "Point", "coordinates": [5.96934, 53.167]}, "properties": {"type": "inleverpunt", "locatieNaam": "Spar Garyp", "straatNaam": "Greate Buorren", "straatNr": "40", "postcode": "9263 PN", "plaats": "Garyp", "merk": "StichtingOPEN", "puntType": "balie", "materialen": ["batterijen", "lampen"], "uitbetaling": [], "vrijToegankelijk": false, "gemeenteBeperking": null, "openingstijden": null, "latitude": 53.167, "longitude": 5.96934, "bronId": "SP00030041"}}, {"type": "Feature", "geometry": {"type": "Point", "coordinates": [5.991595, 53.189001]}, "properties": {"type": "inleverpunt", "locatieNaam": "Visser", "straatNaam": "burgumerdaam", "straatNr": "3", "postcode": "9251 GB", "plaats": "Burgum", "merk": "StichtingOPEN", "puntType": "balie", "materialen": ["lampen"], "uitbetaling": [], "vrijToegankelijk": false, "gemeenteBeperking": null, "openingstijden": null, "latitude": 53.189001, "longitude": 5.991595, "bronId": "SP00001467"}}, {"type": "Feature", "geometry": {"type": "Point", "coordinates": [5.994905, 53.188556]}, "properties": {"type": "inleverpunt", "locatieNaam": "Estafette Burgum", "straatNaam": "Mr. W.M. Oppedijk van Veenweg", "straatNr": "3", "postcode": "9251 GA", "plaats": "Burgum", "merk": "StichtingOPEN", "puntType": "balie", "materialen": ["elektro-klein", "elektro-middel", "lampen"], "uitbetaling": [], "vrijToegankelijk": false, "gemeenteBeperking": null, "openingstijden": null, "latitude": 53.188556, "longitude": 5.994905, "bronId": "SP00032654"}}, {"type": "Feature", "geometry": {"type": "Point", "coordinates": [5.993345, 53.190561]}, "properties": {"type": "inleverpunt", "locatieNaam": "Action Burgum 1326", "straatNaam": "Markt", "straatNr": "38a", "postcode": "9251 JS", "plaats": "Burgum", "merk": "StichtingOPEN", "puntType": "balie", "materialen": ["batterijen", "lampen"], "uitbetaling": [], "vrijToegankelijk": false, "gemeenteBeperking": null, "openingstijden": null, "latitude": 53.190561, "longitude": 5.993345, "bronId": "SP00007892"}}, {"type": "Feature", "geometry": {"type": "Point", "coordinates": [5.993886, 53.19112]}, "properties": {"type": "inleverpunt", "locatieNaam": "Jumbo Burgum", "straatNaam": "Markt", "straatNr": "38", "postcode": "9251 JS", "plaats": "Burgum", "merk": "StichtingOPEN", "puntType": "balie", "materialen": ["batterijen", "lampen"], "uitbetaling": [], "vrijToegankelijk": false, "gemeenteBeperking": null, "openingstijden": null, "latitude": 53.19112, "longitude": 5.993886, "bronId": "SP00025404"}}, {"type": "Feature", "geometry": {"type": "Point", "coordinates": [5.991809, 53.19184]}, "properties": {"type": "inleverpunt", "locatieNaam": "PLUS Burgum", "straatNaam": "Markt", "straatNr": "53", "postcode": "9251 JR", "plaats": "Burgum", "merk": "StichtingOPEN", "puntType": "balie", "materialen": ["batterijen", "lampen"], "uitbetaling": [], "vrijToegankelijk": false, "gemeenteBeperking": null, "openingstijden": null, "latitude": 53.19184, "longitude": 5.991809, "bronId": "SP00024108"}}, {"type": "Feature", "geometry": {"type": "Point", "coordinates": [5.99411, 53.191486]}, "properties": {"type": "inleverpunt", "locatieNaam": "Aldi Burgum", "straatNaam": "Markt", "straatNr": "88", "postcode": "9251 JS", "plaats": "Burgum", "merk": "StichtingOPEN", "puntType": "balie", "materialen": ["batterijen", "elektro-klein", "lampen"], "uitbetaling": [], "vrijToegankelijk": false, "gemeenteBeperking": null, "openingstijden": null, "latitude": 53.191486, "longitude": 5.99411, "bronId": "SP00026879"}}, {"type": "Feature", "geometry": {"type": "Point", "coordinates": [5.99422, 53.19165]}, "properties": {"type": "inleverpunt", "locatieNaam": "Kruidvat Burgum", "straatNaam": "Markt", "straatNr": "90", "postcode": "9251 JS", "plaats": "Burgum", "merk": "StichtingOPEN", "puntType": "balie", "materialen": ["batterijen", "lampen"], "uitbetaling": [], "vrijToegankelijk": false, "gemeenteBeperking": null, "openingstijden": null, "latitude": 53.19165, "longitude": 5.99422, "bronId": "SP00029560"}}, {"type": "Feature", "geometry": {"type": "Point", "coordinates": [5.988977, 53.194191]}, "properties": {"type": "inleverpunt", "locatieNaam": "Poiesz Burgum", "straatNaam": "Freerk Bosgraafstraat", "straatNr": "1", "postcode": "9251 CT", "plaats": "Burgum", "merk": "StichtingOPEN", "puntType": "balie", "materialen": ["batterijen", "lampen"], "uitbetaling": [], "vrijToegankelijk": false, "gemeenteBeperking": null, "openingstijden": null, "latitude": 53.194191, "longitude": 5.988977, "bronId": "SP00023810"}}, {"type": "Feature", "geometry": {"type": "Point", "coordinates": [5.983894, 53.204397]}, "properties": {"type": "inleverpunt", "locatieNaam": "KARWEI Burgum", "straatNaam": "Elingsloane", "straatNr": "6", "postcode": "9251 MN", "plaats": "Burgum", "merk": "StichtingOPEN", "puntType": "balie", "materialen": ["elektro-middel", "lampen", "tl-buizen"], "uitbetaling": [], "vrijToegankelijk": false, "gemeenteBeperking": null, "openingstijden": null, "latitude": 53.204397, "longitude": 5.983894, "bronId": "SP00003657"}}, {"type": "Feature", "geometry": {"type": "Point", "coordinates": [5.941738, 53.213899]}, "properties": {"type": "inleverpunt", "locatieNaam": "4031 Albert Heijn Hurdegaryp", "straatNaam": "Fuormanderij", "straatNr": "5", "postcode": "9254 GS", "plaats": "Hurdegaryp", "merk": "StichtingOPEN", "puntType": "balie", "materialen": ["batterijen", "elektro-klein", "lampen"], "uitbetaling": [], "vrijToegankelijk": false, "gemeenteBeperking": null, "openingstijden": null, "latitude": 53.213899, "longitude": 5.941738, "bronId": "SP00023193"}}, {"type": "Feature", "geometry": {"type": "Point", "coordinates": [5.984329, 53.205299]}, "properties": {"type": "inleverpunt", "locatieNaam": "Bouma Installatiebedrijf", "straatNaam": "Florynwei", "straatNr": "5", "postcode": "9251 MP", "plaats": "Burgum", "merk": "StichtingOPEN", "puntType": "balie", "materialen": ["lampen", "tl-buizen"], "uitbetaling": [], "vrijToegankelijk": false, "gemeenteBeperking": null, "openingstijden": null, "latitude": 53.205299, "longitude": 5.984329, "bronId": "SP00034581"}}, {"type": "Feature", "geometry": {"type": "Point", "coordinates": [5.943777, 53.217601]}, "properties": {"type": "inleverpunt", "locatieNaam": "Poiesz Hurdegaryp", "straatNaam": "Swagermanstraat", "straatNr": "1c", "postcode": "9254 CT", "plaats": "Hurdegaryp", "merk": "StichtingOPEN", "puntType": "balie", "materialen": ["batterijen", "lampen"], "uitbetaling": [], "vrijToegankelijk": false, "gemeenteBeperking": null, "openingstijden": null, "latitude": 53.217601, "longitude": 5.943777, "bronId": "SP00023815"}}, {"type": "Feature", "geometry": {"type": "Point", "coordinates": [5.982688, 53.220039]}, "properties": {"type": "inleverpunt", "locatieNaam": "Kiers Technische Installaties", "straatNaam": "Woudweg", "straatNr": "4A", "postcode": "9257 RN", "plaats": "Noardburgum", "merk": "StichtingOPEN", "puntType": "balie", "materialen": ["elektro-klein", "elektro-middel"], "uitbetaling": [], "vrijToegankelijk": false, "gemeenteBeperking": null, "openingstijden": null, "latitude": 53.220039, "longitude": 5.982688, "bronId": "SP00031538"}}, {"type": "Feature", "geometry": {"type": "Point", "coordinates": [5.891687, 53.241894]}, "properties": {"type": "inleverpunt", "locatieNaam": "8754 Albert Heijn Gytsjerk", "straatNaam": "Canterlandseweg", "straatNr": "5", "postcode": "9061 CB", "plaats": "Gytsjerk", "merk": "StichtingOPEN", "puntType": "balie", "materialen": ["batterijen", "elektro-klein", "lampen"], "uitbetaling": [], "vrijToegankelijk": false, "gemeenteBeperking": null, "openingstijden": null, "latitude": 53.241894, "longitude": 5.891687, "bronId": "SP00023355"}}, {"type": "Feature", "geometry": {"type": "Point", "coordinates": [5.896945, 53.250525]}, "properties": {"type": "inleverpunt", "locatieNaam": "Verduijn Elektro", "straatNaam": "Rengersweg", "straatNr": "42", "postcode": "9062 EE", "plaats": "Oenkerk", "merk": "StichtingOPEN", "puntType": "balie", "materialen": ["elektro-klein", "elektro-middel"], "uitbetaling": [], "vrijToegankelijk": false, "gemeenteBeperking": null, "openingstijden": null, "latitude": 53.250525, "longitude": 5.896945, "bronId": "SP00002660"}}, {"type": "Feature", "geometry": {"type": "Point", "coordinates": [5.993867, 53.188676]}, "properties": {"type": "inleverpunt", "locatieNaam": "Milieustraat Tytsjerksteradiel", "straatNaam": "Mr. W.M. Oppedijk van Veenweg", "straatNr": "10", "postcode": "9251 GA", "plaats": "Burgum", "merk": "StichtingOPEN", "puntType": "milieustraat", "materialen": ["batterijen", "elektro-groot", "elektro-klein", "elektro-middel", "lampen", "tl-buizen"], "uitbetaling": [], "vrijToegankelijk": false, "gemeenteBeperking": ["Tytsjerksteradiel"], "openingstijden": null, "latitude": 53.188676, "longitude": 5.993867, "bronId": "SP00001260"}}, {"type": "Feature", "geometry": {"type": "Point", "coordinates": [5.9385642, 53.1292946]}, "properties": {"type": "inleverpunt", "locatieNaam": "Supermarkt Wester Earnewâld", "straatNaam": "Wiidswei", "straatNr": "7", "postcode": "9264 TL", "plaats": "Earnewald", "merk": "Stibat", "puntType": "inzamelbak", "materialen": ["batterijen"], "uitbetaling": [], "vrijToegankelijk": false, "gemeenteBeperking": null, "openingstijden": null, "latitude": 53.1292946, "longitude": 5.9385642, "bronId": "L047960"}}, {"type": "Feature", "geometry": {"type": "Point", "coordinates": [5.9537119, 53.1346806]}, "properties": {"type": "inleverpunt", "locatieNaam": "Camping it Wiid", "straatNaam": "Koaidijk", "straatNr": "10", "postcode": "9264 TP", "plaats": "Earnewald", "merk": "Stibat", "puntType": "inzamelbak", "materialen": ["batterijen"], "uitbetaling": [], "vrijToegankelijk": false, "gemeenteBeperking": null, "openingstijden": null, "latitude": 53.1346806, "longitude": 5.9537119, "bronId": "L003548"}}, {"type": "Feature", "geometry": {"type": "Point", "coordinates": [5.9693541, 53.1669798]}, "properties": {"type": "inleverpunt", "locatieNaam": "Spar", "straatNaam": "Greate Buorren", "straatNr": "40", "postcode": "9263 PN", "plaats": "Garyp", "merk": "Stibat", "puntType": "inzamelbak", "materialen": ["batterijen"], "uitbetaling": [], "vrijToegankelijk": false, "gemeenteBeperking": null, "openingstijden": null, "latitude": 53.1669798, "longitude": 5.9693541, "bronId": "L036060"}}, {"type": "Feature", "geometry": {"type": "Point", "coordinates": [5.9909625, 53.1885397]}, "properties": {"type": "inleverpunt", "locatieNaam": "De Boer Tweewielers", "straatNaam": "Burgumerdaam", "straatNr": "8", "postcode": "9251 GD", "plaats": "Burgum", "merk": "Stibat", "puntType": "inzamelbak", "materialen": ["batterijen"], "uitbetaling": [], "vrijToegankelijk": false, "gemeenteBeperking": null, "openingstijden": null, "latitude": 53.1885397, "longitude": 5.9909625, "bronId": "L034221"}}, {"type": "Feature", "geometry": {"type": "Point", "coordinates": [5.9946272, 53.1882609]}, "properties": {"type": "inleverpunt", "locatieNaam": "Grofvuillocatie Burgum", "straatNaam": "Oppedijk van Veenweg", "straatNr": "10", "postcode": "9251 GA", "plaats": "Burgum", "merk": "Stibat", "puntType": "inzamelbak", "materialen": ["batterijen"], "uitbetaling": [], "vrijToegankelijk": false, "gemeenteBeperking": null, "openingstijden": null, "latitude": 53.1882609, "longitude": 5.9946272, "bronId": "L035906"}}, {"type": "Feature", "geometry": {"type": "Point", "coordinates": [5.9938866, 53.19112]}, "properties": {"type": "inleverpunt", "locatieNaam": "1326 Action", "straatNaam": "Markt", "straatNr": "38a", "postcode": "9251 JS", "plaats": "Burgum", "merk": "Stibat", "puntType": "inzamelbak", "materialen": ["batterijen"], "uitbetaling": [], "vrijToegankelijk": false, "gemeenteBeperking": null, "openingstijden": null, "latitude": 53.19112, "longitude": 5.9938866, "bronId": "L035387"}}, {"type": "Feature", "geometry": {"type": "Point", "coordinates": [5.9938866, 53.19112]}, "properties": {"type": "inleverpunt", "locatieNaam": "Jumbo", "straatNaam": "Markt", "straatNr": "38", "postcode": "9251 JS", "plaats": "Burgum", "merk": "Stibat", "puntType": "inzamelbak", "materialen": ["batterijen"], "uitbetaling": [], "vrijToegankelijk": false, "gemeenteBeperking": null, "openingstijden": null, "latitude": 53.19112, "longitude": 5.9938866, "bronId": "L035376"}}, {"type": "Feature", "geometry": {"type": "Point", "coordinates": [5.9897011, 53.192462]}, "properties": {"type": "inleverpunt", "locatieNaam": "HEMA Tsjibbe Geartsstrjitte", "straatNaam": "Tsjibbe Geartsstrjitte", "straatNr": "12-14", "postcode": "9251 BR", "plaats": "Burgum", "merk": "Stibat", "puntType": "inzamelbak", "materialen": ["batterijen"], "uitbetaling": [], "vrijToegankelijk": false, "gemeenteBeperking": null, "openingstijden": null, "latitude": 53.192462, "longitude": 5.9897011, "bronId": "L005906"}}, {"type": "Feature", "geometry": {"type": "Point", "coordinates": [5.9921223, 53.1919008]}, "properties": {"type": "inleverpunt", "locatieNaam": "PLUS", "straatNaam": "Markt", "straatNr": "53", "postcode": "9251 JR", "plaats": "Burgum", "merk": "Stibat", "puntType": "inzamelbak", "materialen": ["batterijen"], "uitbetaling": [], "vrijToegankelijk": false, "gemeenteBeperking": null, "openingstijden": null, "latitude": 53.1919008, "longitude": 5.9921223, "bronId": "L020494"}}, {"type": "Feature", "geometry": {"type": "Point", "coordinates": [5.99411, 53.191486]}, "properties": {"type": "inleverpunt", "locatieNaam": "Aldi", "straatNaam": "Markt", "straatNr": "88", "postcode": "9251 JS", "plaats": "Burgum", "merk": "Stibat", "puntType": "inzamelbak", "materialen": ["batterijen"], "uitbetaling": [], "vrijToegankelijk": false, "gemeenteBeperking": null, "openingstijden": null, "latitude": 53.191486, "longitude": 5.99411, "bronId": "L041576"}}, {"type": "Feature", "geometry": {"type": "Point", "coordinates": [5.9925773, 53.1918957]}, "properties": {"type": "inleverpunt", "locatieNaam": "Primera", "straatNaam": "Markt", "straatNr": "61", "postcode": "9251 JR", "plaats": "Bergum", "merk": "Stibat", "puntType": "inzamelbak", "materialen": ["batterijen"], "uitbetaling": [], "vrijToegankelijk": false, "gemeenteBeperking": null, "openingstijden": null, "latitude": 53.1918957, "longitude": 5.9925773, "bronId": "L023485"}}, {"type": "Feature", "geometry": {"type": "Point", "coordinates": [5.9894678, 53.192699]}, "properties": {"type": "inleverpunt", "locatieNaam": "Meindert Fietsspecialist", "straatNaam": "Tsjibbe Geartsstrjitte", "straatNr": "9", "postcode": "9251 BR", "plaats": "Burgum", "merk": "Stibat", "puntType": "inzamelbak", "materialen": ["batterijen"], "uitbetaling": [], "vrijToegankelijk": false, "gemeenteBeperking": null, "openingstijden": null, "latitude": 53.192699, "longitude": 5.9894678, "bronId": "L034220"}}, {"type": "Feature", "geometry": {"type": "Point", "coordinates": [5.9942275, 53.1916541]}, "properties": {"type": "inleverpunt", "locatieNaam": "Kruidvat", "straatNaam": "De Markt", "straatNr": "90", "postcode": "9251 JS", "plaats": "Burgum", "merk": "Stibat", "puntType": "inzamelbak", "materialen": ["batterijen"], "uitbetaling": [], "vrijToegankelijk": false, "gemeenteBeperking": null, "openingstijden": null, "latitude": 53.1916541, "longitude": 5.9942275, "bronId": "L015924"}}, {"type": "Feature", "geometry": {"type": "Point", "coordinates": [5.991169, 53.1923849]}, "properties": {"type": "inleverpunt", "locatieNaam": "Expert", "straatNaam": "Schoolstraat", "straatNr": "8", "postcode": "9251 EC", "plaats": "Burgum", "merk": "Stibat", "puntType": "inzamelbak", "materialen": ["batterijen"], "uitbetaling": [], "vrijToegankelijk": false, "gemeenteBeperking": null, "openingstijden": null, "latitude": 53.1923849, "longitude": 5.991169, "bronId": "L021693"}}, {"type": "Feature", "geometry": {"type": "Point", "coordinates": [5.9904852, 53.1927029]}, "properties": {"type": "inleverpunt", "locatieNaam": "Trekpleister", "straatNaam": "Schoolstraat", "straatNr": "7", "postcode": "9251 EA", "plaats": "Burgum", "merk": "Stibat", "puntType": "inzamelbak", "materialen": ["batterijen"], "uitbetaling": [], "vrijToegankelijk": false, "gemeenteBeperking": null, "openingstijden": null, "latitude": 53.1927029, "longitude": 5.9904852, "bronId": "L025774"}}, {"type": "Feature", "geometry": {"type": "Point", "coordinates": [5.9929065, 53.1925199]}, "properties": {"type": "inleverpunt", "locatieNaam": "Top1Toys", "straatNaam": "Schoolstraat", "straatNr": "64", "postcode": "9251 ED", "plaats": "Burgum", "merk": "Stibat", "puntType": "inzamelbak", "materialen": ["batterijen"], "uitbetaling": [], "vrijToegankelijk": false, "gemeenteBeperking": null, "openingstijden": null, "latitude": 53.1925199, "longitude": 5.9929065, "bronId": "L008121"}}, {"type": "Feature", "geometry": {"type": "Point", "coordinates": [5.9902542, 53.1933061]}, "properties": {"type": "inleverpunt", "locatieNaam": "Euronics", "straatNaam": "Bulthuissingel", "straatNr": "2 B", "postcode": "9251 BW", "plaats": "Burgum", "merk": "Stibat", "puntType": "inzamelbak", "materialen": ["batterijen"], "uitbetaling": [], "vrijToegankelijk": false, "gemeenteBeperking": null, "openingstijden": null, "latitude": 53.1933061, "longitude": 5.9902542, "bronId": "L022462"}}, {"type": "Feature", "geometry": {"type": "Point", "coordinates": [5.9921768, 53.1928902]}, "properties": {"type": "inleverpunt", "locatieNaam": "Zeeman", "straatNaam": "Schoolstraat", "straatNr": "31", "postcode": "9251 EA", "plaats": "Bergum", "merk": "Stibat", "puntType": "inzamelbak", "materialen": ["batterijen"], "uitbetaling": [], "vrijToegankelijk": false, "gemeenteBeperking": null, "openingstijden": null, "latitude": 53.1928902, "longitude": 5.9921768, "bronId": "L021275"}}, {"type": "Feature", "geometry": {"type": "Point", "coordinates": [5.9907623, 53.1943279]}, "properties": {"type": "inleverpunt", "locatieNaam": "Poiesz", "straatNaam": "Freerk Bosgraafstraat", "straatNr": "1", "postcode": "9251 CT", "plaats": "Burgum", "merk": "Stibat", "puntType": "inzamelbak", "materialen": ["batterijen"], "uitbetaling": [], "vrijToegankelijk": false, "gemeenteBeperking": null, "openingstijden": null, "latitude": 53.1943279, "longitude": 5.9907623, "bronId": "L006471"}}, {"type": "Feature", "geometry": {"type": "Point", "coordinates": [5.9844873, 53.1963311]}, "properties": {"type": "inleverpunt", "locatieNaam": "Oké PC", "straatNaam": "Westersingel", "straatNr": "49a", "postcode": "9251 HG", "plaats": "Burgum", "merk": "Stibat", "puntType": "inzamelbak", "materialen": ["batterijen"], "uitbetaling": [], "vrijToegankelijk": false, "gemeenteBeperking": null, "openingstijden": null, "latitude": 53.1963311, "longitude": 5.9844873, "bronId": "L027115"}}, {"type": "Feature", "geometry": {"type": "Point", "coordinates": [5.9869438, 53.1973483]}, "properties": {"type": "inleverpunt", "locatieNaam": "Esso", "straatNaam": "Noordersingel", "straatNr": "75", "postcode": "9251 BM", "plaats": "Burgum", "merk": "Stibat", "puntType": "inzamelbak", "materialen": ["batterijen"], "uitbetaling": [], "vrijToegankelijk": false, "gemeenteBeperking": null, "openingstijden": null, "latitude": 53.1973483, "longitude": 5.9869438, "bronId": "L026624"}}, {"type": "Feature", "geometry": {"type": "Point", "coordinates": [5.9869809, 53.1975003]}, "properties": {"type": "inleverpunt", "locatieNaam": "De Haan", "straatNaam": "Noordersingel", "straatNr": "75", "postcode": "9251 BM", "plaats": "Burgum", "merk": "Stibat", "puntType": "inzamelbak", "materialen": ["batterijen"], "uitbetaling": [], "vrijToegankelijk": false, "gemeenteBeperking": null, "openingstijden": null, "latitude": 53.1975003, "longitude": 5.9869809, "bronId": "L044798"}}, {"type": "Feature", "geometry": {"type": "Point", "coordinates": [6.0278876, 53.1901019]}, "properties": {"type": "inleverpunt", "locatieNaam": "Recreatiecentrum Bergumermeer", "straatNaam": "Solcamastraat", "straatNr": "30", "postcode": "9262 ND", "plaats": "Sumar", "merk": "Stibat", "puntType": "inzamelbak", "materialen": ["batterijen"], "uitbetaling": [], "vrijToegankelijk": false, "gemeenteBeperking": null, "openingstijden": null, "latitude": 53.1901019, "longitude": 6.0278876, "bronId": "L005429"}}, {"type": "Feature", "geometry": {"type": "Point", "coordinates": [5.9828119, 53.2037244]}, "properties": {"type": "inleverpunt", "locatieNaam": "Welkoop", "straatNaam": "Elingsloane", "straatNr": "10", "postcode": "9251 MN", "plaats": "Burgum", "merk": "Stibat", "puntType": "inzamelbak", "materialen": ["batterijen"], "uitbetaling": [], "vrijToegankelijk": false, "gemeenteBeperking": null, "openingstijden": null, "latitude": 53.2037244, "longitude": 5.9828119, "bronId": "L034730"}}, {"type": "Feature", "geometry": {"type": "Point", "coordinates": [5.9828118, 53.2037246]}, "properties": {"type": "inleverpunt", "locatieNaam": "Karwei", "straatNaam": "Elingsloane", "straatNr": "6", "postcode": "9251 MN", "plaats": "Burgum", "merk": "Stibat", "puntType": "inzamelbak", "materialen": ["batterijen"], "uitbetaling": [], "vrijToegankelijk": false, "gemeenteBeperking": null, "openingstijden": null, "latitude": 53.2037246, "longitude": 5.9828118, "bronId": "L012321"}}, {"type": "Feature", "geometry": {"type": "Point", "coordinates": [5.9428447, 53.2135554]}, "properties": {"type": "inleverpunt", "locatieNaam": "Primera", "straatNaam": "Fuormanderij", "straatNr": "51", "postcode": "9254 GS", "plaats": "Hardegarijp", "merk": "Stibat", "puntType": "inzamelbak", "materialen": ["batterijen"], "uitbetaling": [], "vrijToegankelijk": false, "gemeenteBeperking": null, "openingstijden": null, "latitude": 53.2135554, "longitude": 5.9428447, "bronId": "L023978"}}, {"type": "Feature", "geometry": {"type": "Point", "coordinates": [5.9417125, 53.213983]}, "properties": {"type": "inleverpunt", "locatieNaam": "Burcom Computers", "straatNaam": "Fuormanderij", "straatNr": "5A", "postcode": "9254 GS", "plaats": "Hurdegaryp", "merk": "Stibat", "puntType": "inzamelbak", "materialen": ["batterijen"], "uitbetaling": [], "vrijToegankelijk": false, "gemeenteBeperking": null, "openingstijden": null, "latitude": 53.213983, "longitude": 5.9417125, "bronId": "L015680"}}, {"type": "Feature", "geometry": {"type": "Point", "coordinates": [5.9416512, 53.2140827]}, "properties": {"type": "inleverpunt", "locatieNaam": "4031 Albert Heijn", "straatNaam": "Fuormanderij", "straatNr": "5", "postcode": "9254 GS", "plaats": "Hurdegaryp", "merk": "Stibat", "puntType": "inzamelbak", "materialen": ["batterijen"], "uitbetaling": [], "vrijToegankelijk": false, "gemeenteBeperking": null, "openingstijden": null, "latitude": 53.2140827, "longitude": 5.9416512, "bronId": "L032191"}}, {"type": "Feature", "geometry": {"type": "Point", "coordinates": [5.9423129, 53.2176104]}, "properties": {"type": "inleverpunt", "locatieNaam": "Hoekstra Doe het Zelf", "straatNaam": "Burgemeester Drijberweg", "straatNr": "3", "postcode": "9254 BE", "plaats": "Hurdegaryp", "merk": "Stibat", "puntType": "inzamelbak", "materialen": ["batterijen"], "uitbetaling": [], "vrijToegankelijk": false, "gemeenteBeperking": null, "openingstijden": null, "latitude": 53.2176104, "longitude": 5.9423129, "bronId": "L028635"}}, {"type": "Feature", "geometry": {"type": "Point", "coordinates": [5.9438277, 53.2178191]}, "properties": {"type": "inleverpunt", "locatieNaam": "Poiesz", "straatNaam": "Swagermanstraat", "straatNr": "1c", "postcode": "9254 CT", "plaats": "Hurdegaryp", "merk": "Stibat", "puntType": "inzamelbak", "materialen": ["batterijen"], "uitbetaling": [], "vrijToegankelijk": false, "gemeenteBeperking": null, "openingstijden": null, "latitude": 53.2178191, "longitude": 5.9438277, "bronId": "L012719"}}, {"type": "Feature", "geometry": {"type": "Point", "coordinates": [5.9476565, 53.2181845]}, "properties": {"type": "inleverpunt", "locatieNaam": "Hooghiemstra Hardegarijp BV", "straatNaam": "Rijksstraatweg", "straatNr": "121", "postcode": "9254 DD", "plaats": "Hurdegaryp", "merk": "Stibat", "puntType": "inzamelbak", "materialen": ["batterijen"], "uitbetaling": [], "vrijToegankelijk": false, "gemeenteBeperking": null, "openingstijden": null, "latitude": 53.2181845, "longitude": 5.9476565, "bronId": "L047144"}}, {"type": "Feature", "geometry": {"type": "Point", "coordinates": [5.9551228, 53.2183682]}, "properties": {"type": "inleverpunt", "locatieNaam": "Fietsspecialist Meindert", "straatNaam": "Rijksstraatweg", "straatNr": "126", "postcode": "9254 DL", "plaats": "Hardegarijp", "merk": "Stibat", "puntType": "inzamelbak", "materialen": ["batterijen"], "uitbetaling": [], "vrijToegankelijk": false, "gemeenteBeperking": null, "openingstijden": null, "latitude": 53.2183682, "longitude": 5.9551228, "bronId": "L034222"}}, {"type": "Feature", "geometry": {"type": "Point", "coordinates": [5.9539212, 53.2188384]}, "properties": {"type": "inleverpunt", "locatieNaam": "Joh. Bosgra BV", "straatNaam": "Rijksstraatweg", "straatNr": "139", "postcode": "9254 DD", "plaats": "Hurdegaryp", "merk": "Stibat", "puntType": "inzamelbak", "materialen": ["batterijen"], "uitbetaling": [], "vrijToegankelijk": false, "gemeenteBeperking": null, "openingstijden": null, "latitude": 53.2188384, "longitude": 5.9539212, "bronId": "L047044"}}, {"type": "Feature", "geometry": {"type": "Point", "coordinates": [5.8997428, 53.2364814]}, "properties": {"type": "inleverpunt", "locatieNaam": "Uw Groene Vakwinkel", "straatNaam": "Rinia van Nautaweg", "straatNr": "4 c", "postcode": "9061 AE", "plaats": "Giekerk", "merk": "Stibat", "puntType": "inzamelbak", "materialen": ["batterijen"], "uitbetaling": [], "vrijToegankelijk": false, "gemeenteBeperking": null, "openingstijden": null, "latitude": 53.2364814, "longitude": 5.8997428, "bronId": "L020482"}}, {"type": "Feature", "geometry": {"type": "Point", "coordinates": [5.8922762, 53.242498]}, "properties": {"type": "inleverpunt", "locatieNaam": "8754 Albert Heijn", "straatNaam": "De Haven", "straatNr": "5", "postcode": "9061 CB", "plaats": "Gytsjerk", "merk": "Stibat", "puntType": "inzamelbak", "materialen": ["batterijen"], "uitbetaling": [], "vrijToegankelijk": false, "gemeenteBeperking": null, "openingstijden": null, "latitude": 53.242498, "longitude": 5.8922762, "bronId": "L031626"}}, {"type": "Feature", "geometry": {"type": "Point", "coordinates": [6.0068937, 53.2214568]}, "properties": {"type": "inleverpunt", "locatieNaam": "Poiesz", "straatNaam": "Rijksstraatweg", "straatNr": "27", "postcode": "9257 DR", "plaats": "Noardburgum", "merk": "Stibat", "puntType": "inzamelbak", "materialen": ["batterijen"], "uitbetaling": [], "vrijToegankelijk": false, "gemeenteBeperking": null, "openingstijden": null, "latitude": 53.2214568, "longitude": 6.0068937, "bronId": "L045954"}}, {"type": "Feature", "geometry": {"type": "Point", "coordinates": [6.0445079, 53.2248398]}, "properties": {"type": "inleverpunt", "locatieNaam": "ST.E.F.", "straatNaam": "Rijksstraatweg", "straatNr": "13", "postcode": "9258 CX", "plaats": "Jistrum", "merk": "Stibat", "puntType": "inzamelbak", "materialen": ["batterijen"], "uitbetaling": [], "vrijToegankelijk": false, "gemeenteBeperking": null, "openingstijden": null, "latitude": 53.2248398, "longitude": 6.0445079, "bronId": "L031313"}}, {"type": "Feature", "geometry": {"type": "Point", "coordinates": [5.8963836, 53.2601648]}, "properties": {"type": "inleverpunt", "locatieNaam": "Marskramer", "straatNaam": "Van Sminiaweg", "straatNr": "4", "postcode": "9064 KA", "plaats": "Aldtsjerk", "merk": "Stibat", "puntType": "inzamelbak", "materialen": ["batterijen"], "uitbetaling": [], "vrijToegankelijk": false, "gemeenteBeperking": null, "openingstijden": null, "latitude": 53.2601648, "longitude": 5.8963836, "bronId": "L045845"}}, {"type": "Feature", "geometry": {"type": "Polygon", "coordinates": [[[5.943336002299698, 53.12160800453987], [5.9429360022993585, 53.12351800454088], [5.9429300022993585, 53.12386500454106], [5.943469002299893, 53.12394600454109], [5.943278002299719, 53.124442004541365], [5.948345002304737, 53.12625800454214], [5.950025002306379, 53.126150004542026], [5.950898002307254, 53.1267940045423], [5.951023002307395, 53.12748300454271], [5.955720002312049, 53.12924000454342], [5.965822002322032, 53.13215200454465], [5.967333002323539, 53.13302100454506], [5.967916002324101, 53.1327400045449], [5.974423002330532, 53.13462700454567], [5.996993002352998, 53.147772004551754], [6.012412002368273, 53.154415004554686], [6.019854002375592, 53.15537200455495], [6.042089002397396, 53.15656000455486], [6.046396002401621, 53.15668600455481], [6.047325002402523, 53.156370004554645], [6.078492002433048, 53.15682100455386], [6.078932002433469, 53.156455004553614], [6.085205002439671, 53.15898800455473], [6.087143002441542, 53.157837004554096], [6.085775002440187, 53.1571460045538], [6.085759002440154, 53.156484004553434], [6.088800002443072, 53.15392800455202], [6.090296002444551, 53.15462900455234], [6.0904690024447135, 53.1542850045522], [6.091455002445699, 53.15508300455252], [6.0939430024481585, 53.15613400455297], [6.104530002458384, 53.150421004549735], [6.114593002468834, 53.17597800456243], [6.109354002463735, 53.17705700456317], [6.10894700246332, 53.1763320045628], [6.105253002459777, 53.17924500456445], [6.104618002459157, 53.17934100456449], [6.099772002454566, 53.1857640045679], [6.091373002446484, 53.19125100457098], [6.087995002443224, 53.19316000457202], [6.085304002440614, 53.194223004572684], [6.084053002439428, 53.19576600457349], [6.081337002436885, 53.20052500457601], [6.08160800243719, 53.202087004576796], [6.0785580024343195, 53.20671600457922], [6.0805080024362335, 53.20702300457935], [6.084110002439789, 53.20846300457994], [6.0829290024386715, 53.20998300458073], [6.079336002435144, 53.20944100458059], [6.078724002434576, 53.21067800458121], [6.081905002437698, 53.21117100458139], [6.081448002437275, 53.2121770045819], [6.080138002436018, 53.21315500458245], [6.082426002438267, 53.21371200458263], [6.081700002437569, 53.21408600458286], [6.086289002442076, 53.215026004583194], [6.028366002385809, 53.230043004592616], [6.028235002385691, 53.23033000459276], [6.027244002384717, 53.23013300459269], [6.0239470023815835, 53.23377600459463], [6.019837002377742, 53.24086100459829], [6.017790002375754, 53.241242004598554], [6.016680002374665, 53.24109100459851], [5.983355002341787, 53.22984300459388], [5.973258002331876, 53.22842400459346], [5.972746002331368, 53.228289004593364], [5.97291000233152, 53.22793500459322], [5.967817002326531, 53.22769800459324], [5.966736002325483, 53.22808400459349], [5.96319000232201, 53.22784900459348], [5.961839002320695, 53.228092004593634], [5.955974002314956, 53.22805600459379], [5.95447300231355, 53.230405004595], [5.955033002314102, 53.230593004595015], [5.955092002314172, 53.231062004595344], [5.951917002311187, 53.23551200459762], [5.948897002308377, 53.240933004600436], [5.947090002306663, 53.2428510046015], [5.942992002302856, 53.25042800460538], [5.925652002285946, 53.25220100460678], [5.926089002286396, 53.252999004607155], [5.92591400228627, 53.25473000460804], [5.922955002283452, 53.25740500460943], [5.914480002275196, 53.258630004610325], [5.9129110022737015, 53.2600840046111], [5.9102870022711675, 53.26118200461172], [5.90807100226904, 53.26269800461255], [5.905165002266231, 53.26377900461319], [5.893196002254692, 53.26973400461648], [5.876935002239084, 53.280124004622095], [5.877512002239659, 53.2804390046223], [5.876691002238882, 53.28138700462275], [5.874493002236755, 53.282203004623234], [5.874611002236879, 53.28260200462341], [5.861322002224047, 53.28805400462651], [5.861838002224554, 53.288248004626546], [5.861177002223919, 53.2886490046268], [5.85437300221721, 53.286638004625985], [5.847661002210605, 53.2851630046254], [5.847498002210412, 53.284040004624885], [5.8458620022087535, 53.28205400462388], [5.838992002201854, 53.27569900462095], [5.838824002201664, 53.27493500462056], [5.835129002197926, 53.27068600461854], [5.832596002195387, 53.26865400461755], [5.832063002194622, 53.260339004613435], [5.830198002192745, 53.25844400461256], [5.82964300219216, 53.25719700461189], [5.831099002193436, 53.25203700460932], [5.833166002195332, 53.24774500460708], [5.8331270021952735, 53.24704500460674], [5.83200000219415, 53.246380004606436], [5.831259002193398, 53.245378004605946], [5.831199002193303, 53.2443050046054], [5.832160002194204, 53.242857004604666], [5.859241002220723, 53.243293004604155], [5.858114002219568, 53.24153200460331], [5.856979002218429, 53.24060600460285], [5.854060002215357, 53.23316900459918], [5.852554002213804, 53.23047700459787], [5.860282002221375, 53.230598004597745], [5.860256002221367, 53.23121200459803], [5.8686210022295615, 53.23146000459795], [5.8701110022310345, 53.23198900459818], [5.876230002237032, 53.232310004598176], [5.87787400223867, 53.233210004598575], [5.879885002240644, 53.23334100459857], [5.8806560022411585, 53.22497600459431], [5.8899920022503, 53.22499900459411], [5.88999700225029, 53.224531004593885], [5.889442002249746, 53.224473004593825], [5.889170002249433, 53.22281600459305], [5.896927002257029, 53.222962004592915], [5.8971170022571595, 53.22097000459186], [5.888953002249167, 53.220952004592114], [5.889016002249137, 53.21768200459044], [5.894209002254224, 53.21777300459036], [5.893821002253779, 53.2155180045892], [5.897900002257771, 53.21538800458903], [5.897864002257715, 53.214658004588635], [5.905932002265622, 53.21501400458861], [5.904993002264674, 53.21397700458809], [5.905004002264644, 53.212476004587344], [5.907100002266655, 53.21105400458658], [5.902258002261874, 53.20960000458597], [5.897892002257574, 53.20869700458566], [5.8577280022181055, 53.20406300458439], [5.8576630022180245, 53.20339600458404], [5.856986002217346, 53.202917004583846], [5.857465002217776, 53.201600004583156], [5.862061002222045, 53.19356500457897], [5.858807002218837, 53.19286600457867], [5.857441002217502, 53.192997004578835], [5.850956002211112, 53.191713004578325], [5.852486002212579, 53.1906080045777], [5.8535910022136175, 53.18909300457692], [5.857781002217445, 53.179512004571905], [5.861937002221286, 53.17151900456775], [5.862348002221686, 53.171410004567676], [5.8644610022237496, 53.17109700456749], [5.892948002251625, 53.169549004565894], [5.892847002251533, 53.16972900456595], [5.921942002280009, 53.16834600456448], [5.927712002285673, 53.168682004564495], [5.932721002290626, 53.1703650045652], [5.933746002291588, 53.168868004564395], [5.932024002289697, 53.161338004560584], [5.930610002288259, 53.15954700455972], [5.918962002276558, 53.149173004554754], [5.914956002272576, 53.14718400455386], [5.908629002266304, 53.14478000455279], [5.913708002271147, 53.13989200455012], [5.914448002271835, 53.13860000454944], [5.923356002280358, 53.13091000454524], [5.927298002284174, 53.12917500454424], [5.93174800228852, 53.128447004543744], [5.937219002293817, 53.12608600454239], [5.940759002297235, 53.1239720045412], [5.943336002299698, 53.12160800453987]]]}, "properties": {"type": "boundary", "gemeente": "Tytsjerksteradiel"}}]}