{"type": "FeatureCollection", "metadata": {"gemeente": "Uithoorn", "slug": "uithoorn", "generated_at": "2026-08-31T08:03:42.037366Z", "total_points": 51, "merken": ["StatiegeldNederland", "Stibat", "StichtingOPEN"], "bounds": [4.7934621, 52.2321225, 4.843254, 52.2590668]}, "features": [{"type": "Feature", "geometry": {"type": "Point", "coordinates": [4.8291717, 52.2324739]}, "properties": {"type": "inleverpunt", "locatieNaam": "Albert Heijn", "straatNaam": "Amstelplein", "straatNr": "37", "postcode": "1421 SB", "plaats": "Uithoorn", "merk": "StatiegeldNederland", "puntType": "automaat", "materialen": ["pet-groot", "pet-klein", "blik", "glas", "krat"], "uitbetaling": ["bonnetje", "donatie"], "vrijToegankelijk": true, "gemeenteBeperking": null, "openingstijden": {"ma": "07:00–21:00", "di": "07:00–21:00", "wo": "07:00–21:00", "do": "07:00–21:00", "vr": "07:00–21:00", "za": "07:00–21:00", "zo": "10:00–21:00"}, "latitude": 52.2324739, "longitude": 4.8291717, "bronId": "310051"}}, {"type": "Feature", "geometry": {"type": "Point", "coordinates": [4.826995, 52.2462075]}, "properties": {"type": "inleverpunt", "locatieNaam": "Albert Heijn", "straatNaam": "Zijdelwaardplein", "straatNr": "84", "postcode": "1422 DN", "plaats": "Uithoorn", "merk": "StatiegeldNederland", "puntType": "automaat", "materialen": ["pet-groot", "pet-klein", "blik", "glas", "krat"], "uitbetaling": ["bonnetje", "donatie"], "vrijToegankelijk": true, "gemeenteBeperking": null, "openingstijden": {"ma": "08:00–22:00", "di": "08:00–22:00", "wo": "08:00–22:00", "do": "08:00–22:00", "vr": "08:00–22:00", "za": "08:00–22:00", "zo": "10:00–22:00"}, "latitude": 52.2462075, "longitude": 4.826995, "bronId": "311031"}}, {"type": "Feature", "geometry": {"type": "Point", "coordinates": [4.815458, 52.242467]}, "properties": {"type": "inleverpunt", "locatieNaam": "Aldi", "straatNaam": "Sportlaan", "straatNr": "19", "postcode": "1421 TE", "plaats": "Uithoorn", "merk": "StatiegeldNederland", "puntType": "automaat", "materialen": ["pet-groot", "pet-klein", "blik", "glas", "krat"], "uitbetaling": ["bonnetje"], "vrijToegankelijk": true, "gemeenteBeperking": null, "openingstijden": {"ma": "08:00–20:00", "di": "08:00–20:00", "wo": "08:00–20:00", "do": "08:00–21:00", "vr": "08:00–21:00", "za": "08:00–20:00", "zo": "10:00–18:00"}, "latitude": 52.242467, "longitude": 4.815458, "bronId": "311448"}}, {"type": "Feature", "geometry": {"type": "Point", "coordinates": [4.818241, 52.2457689]}, "properties": {"type": "inleverpunt", "locatieNaam": "Alkwin Kollege", "straatNaam": "Weegbree", "straatNr": "55", "postcode": "1422 MT", "plaats": "Uithoorn", "merk": "StatiegeldNederland", "puntType": "automaat", "materialen": ["pet-klein", "blik"], "uitbetaling": ["donatie"], "vrijToegankelijk": false, "gemeenteBeperking": null, "openingstijden": {"ma": "09:00–18:00", "di": "09:00–18:00", "wo": "09:00–18:00", "do": "09:00–18:00", "vr": "09:00–18:00", "za": "09:00–18:00", "zo": "09:00–18:00"}, "latitude": 52.2457689, "longitude": 4.818241, "bronId": "311550"}}, {"type": "Feature", "geometry": {"type": "Point", "coordinates": [4.8322924, 52.2381757]}, "properties": {"type": "inleverpunt", "locatieNaam": "Cg 9222 Quaker Houghton", "straatNaam": "Industrieweg", "straatNr": "7", "postcode": "1422 AH", "plaats": "Uithoorn", "merk": "StatiegeldNederland", "puntType": "balie", "materialen": ["pet-groot", "pet-klein", "blik"], "uitbetaling": [], "vrijToegankelijk": true, "gemeenteBeperking": null, "openingstijden": {"ma": "08:00–15:30", "di": "08:00–15:30", "wo": "08:00–15:30", "do": "08:00–15:30", "vr": "08:00–15:30", "za": "Gesloten", "zo": "Gesloten"}, "latitude": 52.2381757, "longitude": 4.8322924, "bronId": "312386"}}, {"type": "Feature", "geometry": {"type": "Point", "coordinates": [4.7934621, 52.2385262]}, "properties": {"type": "inleverpunt", "locatieNaam": "Coop z.o. 1320 De Kwakel", "straatNaam": "Kerklaan", "straatNr": "24", "postcode": "1424 BK", "plaats": "De Kwakel", "merk": "StatiegeldNederland", "puntType": "automaat", "materialen": ["pet-groot", "pet-klein", "blik", "glas", "krat"], "uitbetaling": ["bonnetje"], "vrijToegankelijk": true, "gemeenteBeperking": null, "openingstijden": {"ma": "08:00–20:00", "di": "08:00–20:00", "wo": "08:00–20:00", "do": "08:00–20:00", "vr": "08:00–20:00", "za": "08:00–20:00", "zo": "10:00–18:00"}, "latitude": 52.2385262, "longitude": 4.7934621, "bronId": "312486"}}, {"type": "Feature", "geometry": {"type": "Point", "coordinates": [4.828226, 52.2466701]}, "properties": {"type": "inleverpunt", "locatieNaam": "Dirk", "straatNaam": "Zijdelwaardplein", "straatNr": "52B-56", "postcode": "1422 AN", "plaats": "Uithoorn", "merk": "StatiegeldNederland", "puntType": "automaat", "materialen": ["pet-groot", "pet-klein", "blik", "glas", "krat"], "uitbetaling": ["bonnetje", "donatie"], "vrijToegankelijk": true, "gemeenteBeperking": null, "openingstijden": {"ma": "08:00–21:00", "di": "08:00–21:00", "wo": "08:00–21:00", "do": "08:00–21:00", "vr": "08:00–21:00", "za": "08:00–21:00", "zo": "10:00–21:00"}, "latitude": 52.2466701, "longitude": 4.828226, "bronId": "312866"}}, {"type": "Feature", "geometry": {"type": "Point", "coordinates": [4.827601, 52.246622]}, "properties": {"type": "inleverpunt", "locatieNaam": "Jumbo", "straatNaam": "Zijdelwaardplein", "straatNr": "60", "postcode": "1422 DN", "plaats": "Uithoorn", "merk": "StatiegeldNederland", "puntType": "automaat", "materialen": ["pet-groot", "pet-klein", "blik", "glas", "krat"], "uitbetaling": ["bonnetje"], "vrijToegankelijk": true, "gemeenteBeperking": null, "openingstijden": {"ma": "07:00–21:00", "di": "07:00–21:00", "wo": "07:00–21:00", "do": "07:00–21:00", "vr": "07:00–21:00", "za": "07:00–21:00", "zo": "10:00–21:00"}, "latitude": 52.246622, "longitude": 4.827601, "bronId": "314196"}}, {"type": "Feature", "geometry": {"type": "Point", "coordinates": [4.8082238, 52.2546104]}, "properties": {"type": "inleverpunt", "locatieNaam": "Legmeervogels", "straatNaam": "Randhoornweg", "straatNr": "100", "postcode": "1422 NE", "plaats": "Uithoorn", "merk": "StatiegeldNederland", "puntType": "balie", "materialen": ["pet-groot", "pet-klein", "blik"], "uitbetaling": [], "vrijToegankelijk": false, "gemeenteBeperking": null, "openingstijden": null, "latitude": 52.2546104, "longitude": 4.8082238, "bronId": "314355"}}, {"type": "Feature", "geometry": {"type": "Point", "coordinates": [4.8013527, 52.2590668]}, "properties": {"type": "inleverpunt", "locatieNaam": "TICA Aalsmeer", "straatNaam": "Randweg", "straatNr": "155", "postcode": "1422 ND", "plaats": "Uithoorn", "merk": "StatiegeldNederland", "puntType": "automaat", "materialen": ["pet-klein", "blik"], "uitbetaling": ["donatie"], "vrijToegankelijk": false, "gemeenteBeperking": null, "openingstijden": {"ma": "08:30–21:00", "di": "08:30–17:00", "wo": "08:30–17:00", "do": "08:30–17:00", "vr": "08:30–17:00", "za": "10:00–17:00", "zo": "10:00–17:00"}, "latitude": 52.2590668, "longitude": 4.8013527, "bronId": "317388"}}, {"type": "Feature", "geometry": {"type": "Point", "coordinates": [4.8183696, 52.2434804]}, "properties": {"type": "inleverpunt", "locatieNaam": "Vakcollege Thamen", "straatNaam": "Den Uyllaan", "straatNr": "4", "postcode": "1421 NK", "plaats": "Uithoorn", "merk": "StatiegeldNederland", "puntType": "automaat", "materialen": ["pet-klein", "blik"], "uitbetaling": ["donatie"], "vrijToegankelijk": false, "gemeenteBeperking": null, "openingstijden": null, "latitude": 52.2434804, "longitude": 4.8183696, "bronId": "317572"}}, {"type": "Feature", "geometry": {"type": "Point", "coordinates": [4.8180521, 52.2484198]}, "properties": {"type": "inleverpunt", "locatieNaam": "Vomar", "straatNaam": "Legmeerplein", "straatNr": "18", "postcode": "1422 RG", "plaats": "Uithoorn", "merk": "StatiegeldNederland", "puntType": "automaat", "materialen": ["pet-groot", "pet-klein", "blik", "glas", "krat"], "uitbetaling": ["bonnetje", "donatie"], "vrijToegankelijk": true, "gemeenteBeperking": null, "openingstijden": {"ma": "07:30–22:00", "di": "07:30–22:00", "wo": "07:30–22:00", "do": "07:30–22:00", "vr": "07:30–22:00", "za": "07:30–22:00", "zo": "10:00–22:00"}, "latitude": 52.2484198, "longitude": 4.8180521, "bronId": "318213"}}, {"type": "Feature", "geometry": {"type": "Point", "coordinates": [4.8304385, 52.2329794]}, "properties": {"type": "inleverpunt", "locatieNaam": "Vomar", "straatNaam": "Prinses Irenelaan 1 -", "straatNr": "3", "postcode": "1421 AN", "plaats": "Uithoorn", "merk": "StatiegeldNederland", "puntType": "automaat", "materialen": ["pet-groot", "pet-klein", "blik", "glas", "krat"], "uitbetaling": ["bonnetje", "donatie"], "vrijToegankelijk": true, "gemeenteBeperking": null, "openingstijden": {"ma": "08:00–21:00", "di": "08:00–21:00", "wo": "08:00–21:00", "do": "08:00–21:00", "vr": "08:00–21:00", "za": "08:00–21:00", "zo": "10:00–21:00"}, "latitude": 52.2329794, "longitude": 4.8304385, "bronId": "318232"}}, {"type": "Feature", "geometry": {"type": "Point", "coordinates": [4.843254, 52.238507]}, "properties": {"type": "inleverpunt", "locatieNaam": "Alvearium", "straatNaam": "C. Verolmelaan", "straatNr": "194", "postcode": "1422 ZB", "plaats": "Uithoorn", "merk": "StichtingOPEN", "puntType": "balie", "materialen": ["elektro-groot", "elektro-klein", "elektro-middel"], "uitbetaling": [], "vrijToegankelijk": false, "gemeenteBeperking": null, "openingstijden": null, "latitude": 52.238507, "longitude": 4.843254, "bronId": "SP00008366"}}, {"type": "Feature", "geometry": {"type": "Point", "coordinates": [4.836761, 52.235807]}, "properties": {"type": "inleverpunt", "locatieNaam": "Sonel Elektrotechnisch Bureau", "straatNaam": "Burgemeester van Meetelenstraat", "straatNr": "15", "postcode": "1422 XP", "plaats": "Uithoorn", "merk": "StichtingOPEN", "puntType": "balie", "materialen": ["batterijen", "elektro-groot", "elektro-klein", "elektro-middel", "lampen", "tl-buizen"], "uitbetaling": [], "vrijToegankelijk": false, "gemeenteBeperking": null, "openingstijden": null, "latitude": 52.235807, "longitude": 4.836761, "bronId": "SP00030394"}}, {"type": "Feature", "geometry": {"type": "Point", "coordinates": [4.838977, 52.243392]}, "properties": {"type": "inleverpunt", "locatieNaam": "Stichting Kinderboerderij De Olievaar", "straatNaam": "Joh. Enschedeweg", "straatNr": "600", "postcode": "1422 DR", "plaats": "Uithoorn", "merk": "StichtingOPEN", "puntType": "balie", "materialen": ["elektro-middel"], "uitbetaling": [], "vrijToegankelijk": false, "gemeenteBeperking": null, "openingstijden": null, "latitude": 52.243392, "longitude": 4.838977, "bronId": "SP00007982"}}, {"type": "Feature", "geometry": {"type": "Point", "coordinates": [4.83051, 52.23289]}, "properties": {"type": "inleverpunt", "locatieNaam": "Vomar Uithoorn", "straatNaam": "Prinses Irenelaan", "straatNr": "1-3", "postcode": "1421 AN", "plaats": "Uithoorn", "merk": "StichtingOPEN", "puntType": "balie", "materialen": ["batterijen", "lampen"], "uitbetaling": [], "vrijToegankelijk": false, "gemeenteBeperking": null, "openingstijden": null, "latitude": 52.23289, "longitude": 4.83051, "bronId": "SP00030123"}}, {"type": "Feature", "geometry": {"type": "Point", "coordinates": [4.829539, 52.232242]}, "properties": {"type": "inleverpunt", "locatieNaam": "Kruidvat Uithoorn", "straatNaam": "Amstelplein", "straatNr": "99b", "postcode": "1421 SB", "plaats": "Uithoorn", "merk": "StichtingOPEN", "puntType": "balie", "materialen": ["batterijen", "lampen"], "uitbetaling": [], "vrijToegankelijk": false, "gemeenteBeperking": null, "openingstijden": null, "latitude": 52.232242, "longitude": 4.829539, "bronId": "SP00024843"}}, {"type": "Feature", "geometry": {"type": "Point", "coordinates": [4.828994, 52.232984]}, "properties": {"type": "inleverpunt", "locatieNaam": "8659 Albert Heijn Uithoorn", "straatNaam": "Amstelplein", "straatNr": "37", "postcode": "1421 SB", "plaats": "Uithoorn", "merk": "StichtingOPEN", "puntType": "balie", "materialen": ["batterijen"], "uitbetaling": [], "vrijToegankelijk": false, "gemeenteBeperking": null, "openingstijden": null, "latitude": 52.232984, "longitude": 4.828994, "bronId": "SP00022958"}}, {"type": "Feature", "geometry": {"type": "Point", "coordinates": [4.829481, 52.234684]}, "properties": {"type": "inleverpunt", "locatieNaam": "Expert Uithoorn B.V.", "straatNaam": "Admiraal Tromplaan", "straatNr": "67", "postcode": "1421 XV", "plaats": "Uithoorn", "merk": "StichtingOPEN", "puntType": "balie", "materialen": ["elektro-middel", "lampen"], "uitbetaling": [], "vrijToegankelijk": false, "gemeenteBeperking": null, "openingstijden": null, "latitude": 52.234684, "longitude": 4.829481, "bronId": "SP00002481"}}, {"type": "Feature", "geometry": {"type": "Point", "coordinates": [4.831329, 52.241341]}, "properties": {"type": "inleverpunt", "locatieNaam": "Praxis Uithoorn - 2449", "straatNaam": "Wiegerbruinlaan", "straatNr": "4a", "postcode": "1422 CB", "plaats": "Uithoorn", "merk": "StichtingOPEN", "puntType": "balie", "materialen": ["batterijen", "elektro-klein", "elektro-middel", "lampen", "tl-buizen"], "uitbetaling": [], "vrijToegankelijk": false, "gemeenteBeperking": null, "openingstijden": null, "latitude": 52.241341, "longitude": 4.831329, "bronId": "SP00005103"}}, {"type": "Feature", "geometry": {"type": "Point", "coordinates": [4.827884, 52.246552]}, "properties": {"type": "inleverpunt", "locatieNaam": "Jumbo Uithoorn", "straatNaam": "Zijdelwaardplein", "straatNr": "60", "postcode": "1422 DN", "plaats": "Uithoorn", "merk": "StichtingOPEN", "puntType": "balie", "materialen": ["batterijen", "lampen"], "uitbetaling": [], "vrijToegankelijk": false, "gemeenteBeperking": null, "openingstijden": null, "latitude": 52.246552, "longitude": 4.827884, "bronId": "SP00025271"}}, {"type": "Feature", "geometry": {"type": "Point", "coordinates": [4.826787, 52.246177]}, "properties": {"type": "inleverpunt", "locatieNaam": "1504 Albert Heijn Uithoorn", "straatNaam": "Zijdelwaardplein", "straatNr": "84", "postcode": "1422 DN", "plaats": "Uithoorn", "merk": "StichtingOPEN", "puntType": "balie", "materialen": ["batterijen", "elektro-klein", "lampen"], "uitbetaling": [], "vrijToegankelijk": false, "gemeenteBeperking": null, "openingstijden": null, "latitude": 52.246177, "longitude": 4.826787, "bronId": "SP00022962"}}, {"type": "Feature", "geometry": {"type": "Point", "coordinates": [4.829402, 52.239797]}, "properties": {"type": "inleverpunt", "locatieNaam": "Milieustraat Scheidingsdepot", "straatNaam": "Industrieweg", "straatNr": "29", "postcode": "1422 AH", "plaats": "Uithoorn", "merk": "StichtingOPEN", "puntType": "milieustraat", "materialen": ["batterijen", "elektro-groot", "elektro-klein", "elektro-middel", "lampen", "tl-buizen"], "uitbetaling": [], "vrijToegankelijk": false, "gemeenteBeperking": ["Uithoorn"], "openingstijden": null, "latitude": 52.239797, "longitude": 4.829402, "bronId": "SP00002984"}}, {"type": "Feature", "geometry": {"type": "Point", "coordinates": [4.8329811, 52.2331792]}, "properties": {"type": "inleverpunt", "locatieNaam": "Phone House", "straatNaam": "Marktplein", "straatNr": "23", "postcode": "1421 AC", "plaats": "Uithoorn", "merk": "Stibat", "puntType": "inzamelbak", "materialen": ["batterijen"], "uitbetaling": [], "vrijToegankelijk": false, "gemeenteBeperking": null, "openingstijden": null, "latitude": 52.2331792, "longitude": 4.8329811, "bronId": "L023379"}}, {"type": "Feature", "geometry": {"type": "Point", "coordinates": [4.8313662, 52.2328838]}, "properties": {"type": "inleverpunt", "locatieNaam": "Van der Schaft Tweewielers", "straatNaam": "Dorpsstraat", "straatNr": "41", "postcode": "1421 AS", "plaats": "Uithoorn", "merk": "Stibat", "puntType": "inzamelbak", "materialen": ["batterijen"], "uitbetaling": [], "vrijToegankelijk": false, "gemeenteBeperking": null, "openingstijden": null, "latitude": 52.2328838, "longitude": 4.8313662, "bronId": "L032769"}}, {"type": "Feature", "geometry": {"type": "Point", "coordinates": [4.8362077, 52.2400275]}, "properties": {"type": "inleverpunt", "locatieNaam": "Kampeer Perfect", "straatNaam": "Wiegerbruinlaan", "straatNr": "77", "postcode": "1422 CB", "plaats": "Uithoorn", "merk": "Stibat", "puntType": "inzamelbak", "materialen": ["batterijen"], "uitbetaling": [], "vrijToegankelijk": false, "gemeenteBeperking": null, "openingstijden": null, "latitude": 52.2400275, "longitude": 4.8362077, "bronId": "L037250"}}, {"type": "Feature", "geometry": {"type": "Point", "coordinates": [4.8304385, 52.2329794]}, "properties": {"type": "inleverpunt", "locatieNaam": "Vomar", "straatNaam": "Prinses Irenelaan", "straatNr": "1-3", "postcode": "1421 AN", "plaats": "Uithoorn", "merk": "Stibat", "puntType": "inzamelbak", "materialen": ["batterijen"], "uitbetaling": [], "vrijToegankelijk": false, "gemeenteBeperking": null, "openingstijden": null, "latitude": 52.2329794, "longitude": 4.8304385, "bronId": "L041998"}}, {"type": "Feature", "geometry": {"type": "Point", "coordinates": [4.8288454, 52.2321294]}, "properties": {"type": "inleverpunt", "locatieNaam": "Oorwerk", "straatNaam": "Schans", "straatNr": "2", "postcode": "1421 BB", "plaats": "Uithoorn", "merk": "Stibat", "puntType": "inzamelbak", "materialen": ["batterijen"], "uitbetaling": [], "vrijToegankelijk": false, "gemeenteBeperking": null, "openingstijden": null, "latitude": 52.2321294, "longitude": 4.8288454, "bronId": "L048274"}}, {"type": "Feature", "geometry": {"type": "Point", "coordinates": [4.8287918, 52.2322297]}, "properties": {"type": "inleverpunt", "locatieNaam": "Bruna", "straatNaam": "Amstelplein", "straatNr": "81", "postcode": "1421 SB", "plaats": "Uithoorn", "merk": "Stibat", "puntType": "inzamelbak", "materialen": ["batterijen"], "uitbetaling": [], "vrijToegankelijk": false, "gemeenteBeperking": null, "openingstijden": null, "latitude": 52.2322297, "longitude": 4.8287918, "bronId": "L023869"}}, {"type": "Feature", "geometry": {"type": "Point", "coordinates": [4.8308372, 52.2352661]}, "properties": {"type": "inleverpunt", "locatieNaam": "Expert", "straatNaam": "Admiraal Tromplaan", "straatNr": "65-67", "postcode": "1421 XV", "plaats": "Uithoorn", "merk": "Stibat", "puntType": "inzamelbak", "materialen": ["batterijen"], "uitbetaling": [], "vrijToegankelijk": false, "gemeenteBeperking": null, "openingstijden": null, "latitude": 52.2352661, "longitude": 4.8308372, "bronId": "L009449"}}, {"type": "Feature", "geometry": {"type": "Point", "coordinates": [4.8287654, 52.2325391]}, "properties": {"type": "inleverpunt", "locatieNaam": "8659 Albert Heijn", "straatNaam": "Amstelplein", "straatNr": "37", "postcode": "1421 SB", "plaats": "Uithoorn", "merk": "Stibat", "puntType": "inzamelbak", "materialen": ["batterijen"], "uitbetaling": [], "vrijToegankelijk": false, "gemeenteBeperking": null, "openingstijden": null, "latitude": 52.2325391, "longitude": 4.8287654, "bronId": "L007697"}}, {"type": "Feature", "geometry": {"type": "Point", "coordinates": [4.8279259, 52.2321225]}, "properties": {"type": "inleverpunt", "locatieNaam": "HEMA Uithoorn", "straatNaam": "Amstelplein", "straatNr": "61", "postcode": "1421 SB", "plaats": "Uithoorn", "merk": "Stibat", "puntType": "inzamelbak", "materialen": ["batterijen"], "uitbetaling": [], "vrijToegankelijk": false, "gemeenteBeperking": null, "openingstijden": null, "latitude": 52.2321225, "longitude": 4.8279259, "bronId": "L046803"}}, {"type": "Feature", "geometry": {"type": "Point", "coordinates": [4.8282153, 52.2326046]}, "properties": {"type": "inleverpunt", "locatieNaam": "DA Drogisterij", "straatNaam": "Amstelplein", "straatNr": "27", "postcode": "1421 SB", "plaats": "Uithoorn", "merk": "Stibat", "puntType": "inzamelbak", "materialen": ["batterijen"], "uitbetaling": [], "vrijToegankelijk": false, "gemeenteBeperking": null, "openingstijden": null, "latitude": 52.2326046, "longitude": 4.8282153, "bronId": "L043091"}}, {"type": "Feature", "geometry": {"type": "Point", "coordinates": [4.8287148, 52.2333214]}, "properties": {"type": "inleverpunt", "locatieNaam": "Kruidvat", "straatNaam": "Amstelplein", "straatNr": "99 B", "postcode": "1421 SB", "plaats": "Uithoorn", "merk": "Stibat", "puntType": "inzamelbak", "materialen": ["batterijen"], "uitbetaling": [], "vrijToegankelijk": false, "gemeenteBeperking": null, "openingstijden": null, "latitude": 52.2333214, "longitude": 4.8287148, "bronId": "L015358"}}, {"type": "Feature", "geometry": {"type": "Point", "coordinates": [4.8294374, 52.2398074]}, "properties": {"type": "inleverpunt", "locatieNaam": "Scheidingsdepot Uithoorn", "straatNaam": "Industrieweg", "straatNr": "29", "postcode": "1422 AH", "plaats": "Uithoorn", "merk": "Stibat", "puntType": "inzamelbak", "materialen": ["batterijen"], "uitbetaling": [], "vrijToegankelijk": false, "gemeenteBeperking": null, "openingstijden": null, "latitude": 52.2398074, "longitude": 4.8294374, "bronId": "L035582"}}, {"type": "Feature", "geometry": {"type": "Point", "coordinates": [4.8286717, 52.2402915]}, "properties": {"type": "inleverpunt", "locatieNaam": "Kringloopcentrum Stichting Ceres", "straatNaam": "Industrieweg", "straatNr": "33", "postcode": "1422 AH", "plaats": "Uithoorn", "merk": "Stibat", "puntType": "inzamelbak", "materialen": ["batterijen"], "uitbetaling": [], "vrijToegankelijk": false, "gemeenteBeperking": null, "openingstijden": null, "latitude": 52.2402915, "longitude": 4.8286717, "bronId": "L031985"}}, {"type": "Feature", "geometry": {"type": "Point", "coordinates": [4.828451, 52.2464533]}, "properties": {"type": "inleverpunt", "locatieNaam": "Trekpleister", "straatNaam": "Zijdelwaardplein", "straatNr": "57", "postcode": "1422 DL", "plaats": "Uithoorn", "merk": "Stibat", "puntType": "inzamelbak", "materialen": ["batterijen"], "uitbetaling": [], "vrijToegankelijk": false, "gemeenteBeperking": null, "openingstijden": null, "latitude": 52.2464533, "longitude": 4.828451, "bronId": "L027421"}}, {"type": "Feature", "geometry": {"type": "Point", "coordinates": [4.8285976, 52.2467701]}, "properties": {"type": "inleverpunt", "locatieNaam": "Dirk", "straatNaam": "Zijdelwaardplein", "straatNr": "52b-56", "postcode": "1422 AN", "plaats": "Uithoorn", "merk": "Stibat", "puntType": "inzamelbak", "materialen": ["batterijen"], "uitbetaling": [], "vrijToegankelijk": false, "gemeenteBeperking": null, "openingstijden": null, "latitude": 52.2467701, "longitude": 4.8285976, "bronId": "L049716"}}, {"type": "Feature", "geometry": {"type": "Point", "coordinates": [4.827251, 52.2456871]}, "properties": {"type": "inleverpunt", "locatieNaam": "Primera", "straatNaam": "Zijdelwaardplein", "straatNr": "91", "postcode": "1422 DL", "plaats": "Uithoorn", "merk": "Stibat", "puntType": "inzamelbak", "materialen": ["batterijen"], "uitbetaling": [], "vrijToegankelijk": false, "gemeenteBeperking": null, "openingstijden": null, "latitude": 52.2456871, "longitude": 4.827251, "bronId": "L022612"}}, {"type": "Feature", "geometry": {"type": "Point", "coordinates": [4.8278848, 52.2465527]}, "properties": {"type": "inleverpunt", "locatieNaam": "Jumbo", "straatNaam": "Zijdelwaardplein", "straatNr": "60", "postcode": "1422 DN", "plaats": "Uithoorn", "merk": "Stibat", "puntType": "inzamelbak", "materialen": ["batterijen"], "uitbetaling": [], "vrijToegankelijk": false, "gemeenteBeperking": null, "openingstijden": null, "latitude": 52.2465527, "longitude": 4.8278848, "bronId": "L036593"}}, {"type": "Feature", "geometry": {"type": "Point", "coordinates": [4.8275255, 52.2463828]}, "properties": {"type": "inleverpunt", "locatieNaam": "Zeeman", "straatNaam": "Zijdelwaardplein", "straatNr": "70", "postcode": "1422 DN", "plaats": "Uithoorn", "merk": "Stibat", "puntType": "inzamelbak", "materialen": ["batterijen"], "uitbetaling": [], "vrijToegankelijk": false, "gemeenteBeperking": null, "openingstijden": null, "latitude": 52.2463828, "longitude": 4.8275255, "bronId": "L020044"}}, {"type": "Feature", "geometry": {"type": "Point", "coordinates": [4.8273355, 52.2462391]}, "properties": {"type": "inleverpunt", "locatieNaam": "7801 Etos", "straatNaam": "Zijdelwaardplein", "straatNr": "75", "postcode": "1422 DL", "plaats": "Uithoorn", "merk": "Stibat", "puntType": "inzamelbak", "materialen": ["batterijen"], "uitbetaling": [], "vrijToegankelijk": false, "gemeenteBeperking": null, "openingstijden": null, "latitude": 52.2462391, "longitude": 4.8273355, "bronId": "L037274"}}, {"type": "Feature", "geometry": {"type": "Point", "coordinates": [4.8276304, 52.2468279]}, "properties": {"type": "inleverpunt", "locatieNaam": "The Read Shop Express", "straatNaam": "Zijdelwaardplein", "straatNr": "58c", "postcode": "1422 AN", "plaats": "Uithoorn", "merk": "Stibat", "puntType": "inzamelbak", "materialen": ["batterijen"], "uitbetaling": [], "vrijToegankelijk": false, "gemeenteBeperking": null, "openingstijden": null, "latitude": 52.2468279, "longitude": 4.8276304, "bronId": "L038454"}}, {"type": "Feature", "geometry": {"type": "Point", "coordinates": [4.8266871, 52.2459707]}, "properties": {"type": "inleverpunt", "locatieNaam": "Beter Horen", "straatNaam": "Zijdelwaardplein", "straatNr": "94", "postcode": "1422 DN", "plaats": "Uithoorn", "merk": "Stibat", "puntType": "inzamelbak", "materialen": ["batterijen"], "uitbetaling": [], "vrijToegankelijk": false, "gemeenteBeperking": null, "openingstijden": null, "latitude": 52.2459707, "longitude": 4.8266871, "bronId": "L028195"}}, {"type": "Feature", "geometry": {"type": "Point", "coordinates": [4.8267896, 52.2461798]}, "properties": {"type": "inleverpunt", "locatieNaam": "1504 Albert Heijn", "straatNaam": "Zijdelwaardplein", "straatNr": "84", "postcode": "1422 DN", "plaats": "Uithoorn", "merk": "Stibat", "puntType": "inzamelbak", "materialen": ["batterijen"], "uitbetaling": [], "vrijToegankelijk": false, "gemeenteBeperking": null, "openingstijden": null, "latitude": 52.2461798, "longitude": 4.8267896, "bronId": "L004848"}}, {"type": "Feature", "geometry": {"type": "Point", "coordinates": [4.8263665, 52.2495354]}, "properties": {"type": "inleverpunt", "locatieNaam": "Blom en Blom Fietsexperts", "straatNaam": "Arthur van Schendellaan", "straatNr": "40", "postcode": "1422 LD", "plaats": "Uithoorn", "merk": "Stibat", "puntType": "inzamelbak", "materialen": ["batterijen"], "uitbetaling": [], "vrijToegankelijk": false, "gemeenteBeperking": null, "openingstijden": null, "latitude": 52.2495354, "longitude": 4.8263665, "bronId": "L032499"}}, {"type": "Feature", "geometry": {"type": "Point", "coordinates": [4.8154576, 52.2424679]}, "properties": {"type": "inleverpunt", "locatieNaam": "Aldi", "straatNaam": "Sportlaan", "straatNr": "19", "postcode": "1421 TE", "plaats": "Uithoorn", "merk": "Stibat", "puntType": "inzamelbak", "materialen": ["batterijen"], "uitbetaling": [], "vrijToegankelijk": false, "gemeenteBeperking": null, "openingstijden": null, "latitude": 52.2424679, "longitude": 4.8154576, "bronId": "L047912"}}, {"type": "Feature", "geometry": {"type": "Point", "coordinates": [4.8182856, 52.2481936]}, "properties": {"type": "inleverpunt", "locatieNaam": "Aldi", "straatNaam": "Zilverschoon", "straatNr": "34", "postcode": "1422 NX", "plaats": "Uithoorn", "merk": "Stibat", "puntType": "inzamelbak", "materialen": ["batterijen"], "uitbetaling": [], "vrijToegankelijk": false, "gemeenteBeperking": null, "openingstijden": null, "latitude": 52.2481936, "longitude": 4.8182856, "bronId": "L041133"}}, {"type": "Feature", "geometry": {"type": "Point", "coordinates": [4.8180521, 52.2484198]}, "properties": {"type": "inleverpunt", "locatieNaam": "Vomar", "straatNaam": "Legmeerplein", "straatNr": "18", "postcode": "1422 RG", "plaats": "Uithoorn", "merk": "Stibat", "puntType": "inzamelbak", "materialen": ["batterijen"], "uitbetaling": [], "vrijToegankelijk": false, "gemeenteBeperking": null, "openingstijden": null, "latitude": 52.2484198, "longitude": 4.8180521, "bronId": "L045284"}}, {"type": "Feature", "geometry": {"type": "Point", "coordinates": [4.7938825, 52.2388429]}, "properties": {"type": "inleverpunt", "locatieNaam": "Coop", "straatNaam": "Kerklaan", "straatNr": "10", "postcode": "1424 BK", "plaats": "De Kwakel", "merk": "Stibat", "puntType": "inzamelbak", "materialen": ["batterijen"], "uitbetaling": [], "vrijToegankelijk": false, "gemeenteBeperking": null, "openingstijden": null, "latitude": 52.2388429, "longitude": 4.7938825, "bronId": "L036196"}}, {"type": "Feature", "geometry": {"type": "Polygon", "coordinates": [[[4.72970300105915, 52.210214004045035], [4.728766001058191, 52.209819004044746], [4.732585001061881, 52.20711600404314], [4.734339001063607, 52.206516004042776], [4.7356170010649254, 52.207314004043276], [4.739409001068914, 52.211139004045606], [4.741335001070906, 52.21240900404635], [4.743479001073167, 52.214725004047764], [4.747972001077673, 52.214868004047844], [4.750669001080415, 52.215721004048355], [4.753299001083135, 52.21746800404944], [4.759848001089697, 52.217586004049494], [4.7620740010919524, 52.218130004049826], [4.767308001097342, 52.221154004051655], [4.772078001102211, 52.223023004052784], [4.774603001104811, 52.22454700405373], [4.776400001106752, 52.22737300405539], [4.780986001111409, 52.22874100405624], [4.784936001115358, 52.22862600405613], [4.786875001117264, 52.227883004055705], [4.789313001119704, 52.2278900040557], [4.795441001125779, 52.22665400405497], [4.801755001132108, 52.226882004055085], [4.805404001135817, 52.227989004055715], [4.80881400113918, 52.22697100405514], [4.813514001143893, 52.227137004055265], [4.815769001146174, 52.22759600405551], [4.819140001149614, 52.228941004056274], [4.8208070011512785, 52.22883300405625], [4.8237100011542315, 52.22981100405682], [4.826561001157097, 52.230078004056985], [4.8295620011601335, 52.230750004057406], [4.832533001163189, 52.23241000405839], [4.834861001165542, 52.232866004058664], [4.838328001169127, 52.23525900406011], [4.842845001173653, 52.235347004060166], [4.842939001173816, 52.23673900406099], [4.846084001177013, 52.23771900406161], [4.847280001178305, 52.23976500406279], [4.848141001179167, 52.2397620040628], [4.850792001181764, 52.23860700406212], [4.851211001182189, 52.23870300406215], [4.852187001183223, 52.23985700406286], [4.851229001182357, 52.24180000406405], [4.85205300118319, 52.24201300406416], [4.834701001166193, 52.24966300406882], [4.834811001166316, 52.249947004068936], [4.7952110011272335, 52.26101600407566], [4.7946970011267025, 52.26068200407546], [4.795085001127066, 52.26025600407518], [4.782931001114654, 52.25514800407212], [4.780888001112532, 52.253520004071156], [4.7795680011112225, 52.253688004071215], [4.770867001102326, 52.24990900406897], [4.76888200110026, 52.24831100406804], [4.7678880010992, 52.24697700406723], [4.768065001099298, 52.24539400406628], [4.768507001099707, 52.24468700406586], [4.7732720011042975, 52.24103400406366], [4.723764001053523, 52.21657400404887], [4.72366000105335, 52.215227004048046], [4.72445600105411, 52.21448200404755], [4.724461001054029, 52.21275100404654], [4.727299001056788, 52.211131004045534], [4.72970300105915, 52.210214004045035]]]}, "properties": {"type": "boundary", "gemeente": "Uithoorn"}}]}