{"type": "FeatureCollection", "metadata": {"gemeente": "Veenendaal", "slug": "veenendaal", "generated_at": "2026-07-28T19:03:25.026558Z", "total_points": 139, "merken": ["StatiegeldNederland", "Stibat", "StichtingOPEN"], "bounds": [5.5320247, 52.005953, 5.581024, 52.0475953]}, "features": [{"type": "Feature", "geometry": {"type": "Point", "coordinates": [5.5566681, 52.0255681]}, "properties": {"type": "inleverpunt", "locatieNaam": "Albert Heijn", "straatNaam": "Passage", "straatNr": "50", "postcode": "3901 AZ", "plaats": "Veenendaal", "merk": "StatiegeldNederland", "puntType": "automaat", "materialen": ["pet-groot", "pet-klein", "blik", "glas", "krat"], "uitbetaling": ["bonnetje", "donatie"], "vrijToegankelijk": true, "gemeenteBeperking": null, "openingstijden": {"ma": "08:00–22:00", "di": "08:00–22:00", "wo": "08:00–22:00", "do": "08:00–22:00", "vr": "08:00–22:00", "za": "08:00–22:00", "zo": "10:00–20:00"}, "latitude": 52.0255681, "longitude": 5.5566681, "bronId": "252618"}}, {"type": "Feature", "geometry": {"type": "Point", "coordinates": [5.5803925, 52.0258828]}, "properties": {"type": "inleverpunt", "locatieNaam": "Albert Heijn", "straatNaam": "Stuivenbergheem", "straatNr": "15", "postcode": "3907 NH", "plaats": "Veenendaal", "merk": "StatiegeldNederland", "puntType": "automaat", "materialen": ["pet-groot", "pet-klein", "blik", "glas", "krat"], "uitbetaling": ["bonnetje", "donatie"], "vrijToegankelijk": true, "gemeenteBeperking": null, "openingstijden": {"ma": "08:00–22:00", "di": "08:00–22:00", "wo": "08:00–22:00", "do": "08:00–22:00", "vr": "08:00–22:00", "za": "08:00–22:00", "zo": "09:00–22:00"}, "latitude": 52.0258828, "longitude": 5.5803925, "bronId": "252788"}}, {"type": "Feature", "geometry": {"type": "Point", "coordinates": [5.5323736, 52.0287558]}, "properties": {"type": "inleverpunt", "locatieNaam": "Albert Heijn", "straatNaam": "Veenslag", "straatNr": "7", "postcode": "3905 SH", "plaats": "Veenendaal", "merk": "StatiegeldNederland", "puntType": "automaat", "materialen": ["pet-groot", "pet-klein", "blik", "glas", "krat"], "uitbetaling": ["bonnetje", "donatie"], "vrijToegankelijk": true, "gemeenteBeperking": null, "openingstijden": {"ma": "08:00–22:00", "di": "08:00–22:00", "wo": "08:00–22:00", "do": "08:00–22:00", "vr": "08:00–22:00", "za": "08:00–22:00", "zo": "09:00–21:00"}, "latitude": 52.0287558, "longitude": 5.5323736, "bronId": "252852"}}, {"type": "Feature", "geometry": {"type": "Point", "coordinates": [5.5427491, 52.0180461]}, "properties": {"type": "inleverpunt", "locatieNaam": "Aldi", "straatNaam": "Drs. Sl. De Bruïneplein", "straatNr": "15", "postcode": "3904 CX", "plaats": "Veenendaal", "merk": "StatiegeldNederland", "puntType": "automaat", "materialen": ["pet-groot", "pet-klein", "blik", "glas", "krat"], "uitbetaling": ["bonnetje"], "vrijToegankelijk": true, "gemeenteBeperking": null, "openingstijden": {"ma": "08:00–20:00", "di": "08:00–20:00", "wo": "08:00–20:00", "do": "08:00–21:00", "vr": "08:00–21:00", "za": "08:00–20:00", "zo": "10:00–18:00"}, "latitude": 52.0180461, "longitude": 5.5427491, "bronId": "253091"}}, {"type": "Feature", "geometry": {"type": "Point", "coordinates": [5.555887, 52.029632]}, "properties": {"type": "inleverpunt", "locatieNaam": "Aldi", "straatNaam": "Scheepjeshof", "straatNr": "40", "postcode": "3901 CV", "plaats": "Veenendaal", "merk": "StatiegeldNederland", "puntType": "automaat", "materialen": ["pet-groot", "pet-klein", "blik", "glas", "krat"], "uitbetaling": ["bonnetje"], "vrijToegankelijk": true, "gemeenteBeperking": null, "openingstijden": {"ma": "08:00–19:00", "di": "08:00–19:00", "wo": "08:00–19:00", "do": "08:00–20:00", "vr": "08:00–20:00", "za": "08:00–19:00", "zo": "Gesloten"}, "latitude": 52.029632, "longitude": 5.555887, "bronId": "253352"}}, {"type": "Feature", "geometry": {"type": "Point", "coordinates": [5.5660634, 52.0159171]}, "properties": {"type": "inleverpunt", "locatieNaam": "Amicale De Petanque \"les Sabots\"", "straatNaam": "Otterlaan", "straatNr": "11", "postcode": "3903 CW", "plaats": "Veenendaal", "merk": "StatiegeldNederland", "puntType": "balie", "materialen": ["pet-groot", "pet-klein", "blik"], "uitbetaling": [], "vrijToegankelijk": false, "gemeenteBeperking": null, "openingstijden": {"ma": "19:00–22:30", "di": "Gesloten", "wo": "14:00–17:00, 19:00–22:30", "do": "Gesloten", "vr": "Gesloten", "za": "14:00–17:00", "zo": "Gesloten"}, "latitude": 52.0159171, "longitude": 5.5660634, "bronId": "253489"}}, {"type": "Feature", "geometry": {"type": "Point", "coordinates": [5.5690665, 52.0108771]}, "properties": {"type": "inleverpunt", "locatieNaam": "Carwash&Co Veenendaal", "straatNaam": "Kernreactorstraat", "straatNr": "2", "postcode": "3903 LG", "plaats": "Veenendaal", "merk": "StatiegeldNederland", "puntType": "automaat", "materialen": ["pet-groot", "pet-klein", "blik"], "uitbetaling": ["bonnetje", "donatie", "tikkie"], "vrijToegankelijk": true, "gemeenteBeperking": null, "openingstijden": {"ma": "08:00–18:00", "di": "08:00–18:00", "wo": "08:00–18:00", "do": "08:00–18:00", "vr": "08:00–21:00", "za": "08:00–18:00", "zo": "10:00–17:00"}, "latitude": 52.0108771, "longitude": 5.5690665, "bronId": "253997"}}, {"type": "Feature", "geometry": {"type": "Point", "coordinates": [5.5436776, 52.0256264]}, "properties": {"type": "inleverpunt", "locatieNaam": "COG Het Perron", "straatNaam": "Sportlaan", "straatNr": "11-13", "postcode": "3905 AD", "plaats": "Veenendaal", "merk": "StatiegeldNederland", "puntType": "automaat", "materialen": ["pet-klein", "blik"], "uitbetaling": ["donatie"], "vrijToegankelijk": true, "gemeenteBeperking": null, "openingstijden": null, "latitude": 52.0256264, "longitude": 5.5436776, "bronId": "254188"}}, {"type": "Feature", "geometry": {"type": "Point", "coordinates": [5.5564744, 52.0302375]}, "properties": {"type": "inleverpunt", "locatieNaam": "Dekamarkt", "straatNaam": "Scheepjeshof", "straatNr": "30", "postcode": "3901 CV", "plaats": "Veenendaal", "merk": "StatiegeldNederland", "puntType": "automaat", "materialen": ["pet-groot", "pet-klein", "blik", "glas", "krat"], "uitbetaling": ["bonnetje", "donatie"], "vrijToegankelijk": true, "gemeenteBeperking": null, "openingstijden": {"ma": "08:00–20:00", "di": "08:00–20:00", "wo": "08:00–20:00", "do": "08:00–20:00", "vr": "08:00–21:00", "za": "08:00–20:00", "zo": "Gesloten"}, "latitude": 52.0302375, "longitude": 5.5564744, "bronId": "254383"}}, {"type": "Feature", "geometry": {"type": "Point", "coordinates": [5.557932, 52.010538]}, "properties": {"type": "inleverpunt", "locatieNaam": "Gulf", "straatNaam": "De Smalle Zijde", "straatNr": "1", "postcode": "3903 LL", "plaats": "Veenendaal", "merk": "StatiegeldNederland", "puntType": "balie", "materialen": ["pet-groot", "pet-klein", "blik"], "uitbetaling": [], "vrijToegankelijk": true, "gemeenteBeperking": null, "openingstijden": {"ma": "24 uur geopend", "di": "24 uur geopend", "wo": "24 uur geopend", "do": "24 uur geopend", "vr": "24 uur geopend", "za": "24 uur geopend", "zo": "Gesloten"}, "latitude": 52.010538, "longitude": 5.557932, "bronId": "254902"}}, {"type": "Feature", "geometry": {"type": "Point", "coordinates": [5.541248, 52.038022]}, "properties": {"type": "inleverpunt", "locatieNaam": "Gulf", "straatNaam": "Gildetrom", "straatNr": "2", "postcode": "3905 TC", "plaats": "Veenendaal", "merk": "StatiegeldNederland", "puntType": "balie", "materialen": ["pet-groot", "pet-klein", "blik"], "uitbetaling": [], "vrijToegankelijk": true, "gemeenteBeperking": null, "openingstijden": {"ma": "24 uur geopend", "di": "24 uur geopend", "wo": "24 uur geopend", "do": "24 uur geopend", "vr": "24 uur geopend", "za": "24 uur geopend", "zo": "24 uur geopend"}, "latitude": 52.038022, "longitude": 5.541248, "bronId": "254904"}}, {"type": "Feature", "geometry": {"type": "Point", "coordinates": [5.5399429, 52.0290674]}, "properties": {"type": "inleverpunt", "locatieNaam": "Gvvv", "straatNaam": "Verlengde sportlaan", "straatNr": "2", "postcode": "3905 AE", "plaats": "Veenendaal", "merk": "StatiegeldNederland", "puntType": "balie", "materialen": ["pet-groot", "pet-klein", "blik"], "uitbetaling": [], "vrijToegankelijk": false, "gemeenteBeperking": null, "openingstijden": {"ma": "18:00–22:30", "di": "Gesloten", "wo": "18:00–23:30", "do": "18:00–00:00", "vr": "Gesloten", "za": "07:00–19:00", "zo": "Gesloten"}, "latitude": 52.0290674, "longitude": 5.5399429, "bronId": "254918"}}, {"type": "Feature", "geometry": {"type": "Point", "coordinates": [5.5582781, 52.0265642]}, "properties": {"type": "inleverpunt", "locatieNaam": "Hoogvliet", "straatNaam": "Brouwersgracht", "straatNr": "100", "postcode": "3901 TJ", "plaats": "Veenendaal", "merk": "StatiegeldNederland", "puntType": "automaat", "materialen": ["pet-groot", "pet-klein", "blik", "glas", "krat"], "uitbetaling": ["bonnetje", "donatie"], "vrijToegankelijk": true, "gemeenteBeperking": null, "openingstijden": {"ma": "08:00–21:00", "di": "08:00–21:00", "wo": "08:00–21:00", "do": "08:00–21:00", "vr": "08:00–21:00", "za": "08:00–21:00", "zo": "09:00–20:00"}, "latitude": 52.0265642, "longitude": 5.5582781, "bronId": "255039"}}, {"type": "Feature", "geometry": {"type": "Point", "coordinates": [5.5501846, 52.0307325]}, "properties": {"type": "inleverpunt", "locatieNaam": "Hoogvliet", "straatNaam": "J.P.C. Leinweberstraat", "straatNr": "6", "postcode": "3905 EJ", "plaats": "Veenendaal", "merk": "StatiegeldNederland", "puntType": "automaat", "materialen": ["pet-groot", "pet-klein", "blik", "glas", "krat"], "uitbetaling": ["bonnetje", "donatie"], "vrijToegankelijk": true, "gemeenteBeperking": null, "openingstijden": {"ma": "08:00–21:00", "di": "08:00–21:00", "wo": "08:00–21:00", "do": "08:00–21:00", "vr": "08:00–21:00", "za": "08:00–21:00", "zo": "Gesloten"}, "latitude": 52.0307325, "longitude": 5.5501846, "bronId": "255058"}}, {"type": "Feature", "geometry": {"type": "Point", "coordinates": [5.5420195, 52.018182]}, "properties": {"type": "inleverpunt", "locatieNaam": "Jumbo", "straatNaam": "Dr. Slotenmaker De Bruinestraat", "straatNr": "20", "postcode": "3904 CB", "plaats": "Veenendaal", "merk": "StatiegeldNederland", "puntType": "automaat", "materialen": ["pet-groot", "pet-klein", "blik", "glas", "krat"], "uitbetaling": ["bonnetje", "donatie"], "vrijToegankelijk": true, "gemeenteBeperking": null, "openingstijden": {"ma": "08:00–21:00", "di": "08:00–21:00", "wo": "08:00–21:00", "do": "08:00–21:00", "vr": "08:00–21:00", "za": "08:00–21:00", "zo": "Gesloten"}, "latitude": 52.018182, "longitude": 5.5420195, "bronId": "255339"}}, {"type": "Feature", "geometry": {"type": "Point", "coordinates": [5.553395, 52.005953]}, "properties": {"type": "inleverpunt", "locatieNaam": "Jumbo", "straatNaam": "Paddestoelenlaan", "straatNr": "40", "postcode": "3903 GG", "plaats": "Veenendaal", "merk": "StatiegeldNederland", "puntType": "automaat", "materialen": ["pet-groot", "pet-klein", "blik", "glas", "krat"], "uitbetaling": ["bonnetje", "donatie"], "vrijToegankelijk": true, "gemeenteBeperking": null, "openingstijden": {"ma": "07:00–21:00", "di": "07:00–21:00", "wo": "07:00–21:00", "do": "07:00–21:00", "vr": "07:00–21:00", "za": "07:00–21:00", "zo": "12:00–18:00"}, "latitude": 52.005953, "longitude": 5.553395, "bronId": "255653"}}, {"type": "Feature", "geometry": {"type": "Point", "coordinates": [5.569442, 52.032377]}, "properties": {"type": "inleverpunt", "locatieNaam": "Jumbo", "straatNaam": "Ronde Erf", "straatNr": "66", "postcode": "3902 CZ", "plaats": "Veenendaal", "merk": "StatiegeldNederland", "puntType": "automaat", "materialen": ["pet-groot", "pet-klein", "blik", "glas", "krat"], "uitbetaling": ["bonnetje", "donatie"], "vrijToegankelijk": true, "gemeenteBeperking": null, "openingstijden": {"ma": "07:00–20:00", "di": "07:00–20:00", "wo": "07:00–20:00", "do": "07:00–20:00", "vr": "07:00–21:00", "za": "07:00–20:00", "zo": "Gesloten"}, "latitude": 52.032377, "longitude": 5.569442, "bronId": "255721"}}, {"type": "Feature", "geometry": {"type": "Point", "coordinates": [5.543782, 52.0298835]}, "properties": {"type": "inleverpunt", "locatieNaam": "Jumbo", "straatNaam": "W. Alexanderpark", "straatNr": "617", "postcode": "3905 CT", "plaats": "Veenendaal", "merk": "StatiegeldNederland", "puntType": "automaat", "materialen": ["pet-groot", "pet-klein", "blik", "glas", "krat"], "uitbetaling": ["bonnetje", "donatie"], "vrijToegankelijk": true, "gemeenteBeperking": null, "openingstijden": {"ma": "07:00–21:00", "di": "07:00–21:00", "wo": "07:00–21:00", "do": "07:00–21:00", "vr": "07:00–21:00", "za": "07:00–21:00", "zo": "Gesloten"}, "latitude": 52.0298835, "longitude": 5.543782, "bronId": "255840"}}, {"type": "Feature", "geometry": {"type": "Point", "coordinates": [5.5654601, 52.016]}, "properties": {"type": "inleverpunt", "locatieNaam": "Korfbalvereniging Speelt Korfbal Fair", "straatNaam": "Wageningselaan", "straatNr": "1", "postcode": "3903 LA", "plaats": "Veenendaal", "merk": "StatiegeldNederland", "puntType": "balie", "materialen": ["pet-groot", "pet-klein", "blik"], "uitbetaling": [], "vrijToegankelijk": false, "gemeenteBeperking": null, "openingstijden": null, "latitude": 52.016, "longitude": 5.5654601, "bronId": "255945"}}, {"type": "Feature", "geometry": {"type": "Point", "coordinates": [5.5481715, 52.0145242]}, "properties": {"type": "inleverpunt", "locatieNaam": "Krab Horeca - Vtc Tennisvereniging", "straatNaam": "Dennenlaan 13 a", "straatNr": "", "postcode": "3905 AH", "plaats": "Veenendaal", "merk": "StatiegeldNederland", "puntType": "balie", "materialen": ["pet-groot", "pet-klein", "blik"], "uitbetaling": [], "vrijToegankelijk": false, "gemeenteBeperking": null, "openingstijden": {"ma": "16:00–23:00", "di": "16:00–23:00", "wo": "12:00–23:00", "do": "16:00–23:00", "vr": "12:00–20:00", "za": "12:00–20:00", "zo": "12:00–18:00"}, "latitude": 52.0145242, "longitude": 5.5481715, "bronId": "255958"}}, {"type": "Feature", "geometry": {"type": "Point", "coordinates": [5.5804522, 52.0253565]}, "properties": {"type": "inleverpunt", "locatieNaam": "Lidl", "straatNaam": "Stuivenbergheem", "straatNr": "1", "postcode": "3907 NH", "plaats": "Veenendaal", "merk": "StatiegeldNederland", "puntType": "automaat", "materialen": ["pet-groot", "pet-klein", "blik", "glas", "krat"], "uitbetaling": ["bonnetje", "donatie"], "vrijToegankelijk": true, "gemeenteBeperking": null, "openingstijden": {"ma": "08:00–21:00", "di": "08:00–21:00", "wo": "08:00–21:00", "do": "08:00–22:00", "vr": "08:00–22:00", "za": "08:00–21:00", "zo": "09:00–20:00"}, "latitude": 52.0253565, "longitude": 5.5804522, "bronId": "256406"}}, {"type": "Feature", "geometry": {"type": "Point", "coordinates": [5.5564696, 52.0246334]}, "properties": {"type": "inleverpunt", "locatieNaam": "Medikamente die Grenze", "straatNaam": "Corridor", "straatNr": "56", "postcode": "3901 AC", "plaats": "Veenendaal", "merk": "StatiegeldNederland", "puntType": "automaat", "materialen": ["pet-groot", "pet-klein", "blik"], "uitbetaling": ["bonnetje"], "vrijToegankelijk": true, "gemeenteBeperking": null, "openingstijden": {"ma": "09:00–18:00", "di": "09:00–18:00", "wo": "09:00–18:00", "do": "09:00–18:00", "vr": "09:00–21:00", "za": "09:00–18:00", "zo": "12:00–17:00"}, "latitude": 52.0246334, "longitude": 5.5564696, "bronId": "256702"}}, {"type": "Feature", "geometry": {"type": "Point", "coordinates": [5.5603804, 52.0284423]}, "properties": {"type": "inleverpunt", "locatieNaam": "Odin Veenendaal", "straatNaam": "Vijgendam", "straatNr": "2A", "postcode": "3901 SL", "plaats": "Veenendaal", "merk": "StatiegeldNederland", "puntType": "balie", "materialen": ["pet-groot", "pet-klein", "blik"], "uitbetaling": [], "vrijToegankelijk": true, "gemeenteBeperking": null, "openingstijden": {"ma": "08:30–18:00", "di": "08:30–18:00", "wo": "08:30–18:00", "do": "08:30–18:00", "vr": "08:30–18:00", "za": "08:30–17:00", "zo": "Gesloten"}, "latitude": 52.0284423, "longitude": 5.5603804, "bronId": "256982"}}, {"type": "Feature", "geometry": {"type": "Point", "coordinates": [5.5398661, 52.0282537]}, "properties": {"type": "inleverpunt", "locatieNaam": "Schietsport Centrum Veenendaal", "straatNaam": "Verlengde Sportlaan", "straatNr": "1", "postcode": "3905 AE", "plaats": "Veenendeel", "merk": "StatiegeldNederland", "puntType": "balie", "materialen": ["pet-groot", "pet-klein", "blik"], "uitbetaling": [], "vrijToegankelijk": false, "gemeenteBeperking": null, "openingstijden": null, "latitude": 52.0282537, "longitude": 5.5398661, "bronId": "257976"}}, {"type": "Feature", "geometry": {"type": "Point", "coordinates": [5.542141, 52.029456]}, "properties": {"type": "inleverpunt", "locatieNaam": "Shell", "straatNaam": "Rondweg-West", "straatNr": "15", "postcode": "3905 LV", "plaats": "Veenendaal", "merk": "StatiegeldNederland", "puntType": "balie", "materialen": ["pet-groot", "pet-klein", "blik"], "uitbetaling": [], "vrijToegankelijk": true, "gemeenteBeperking": null, "openingstijden": {"ma": "24 uur geopend", "di": "24 uur geopend", "wo": "24 uur geopend", "do": "24 uur geopend", "vr": "24 uur geopend", "za": "24 uur geopend", "zo": "24 uur geopend"}, "latitude": 52.029456, "longitude": 5.542141, "bronId": "258213"}}, {"type": "Feature", "geometry": {"type": "Point", "coordinates": [5.575088, 52.02965]}, "properties": {"type": "inleverpunt", "locatieNaam": "Tv Spitsbergen", "straatNaam": "Spitsbergenweg", "straatNr": "54", "postcode": "3902 HL", "plaats": "Veenendaal", "merk": "StatiegeldNederland", "puntType": "balie", "materialen": ["pet-groot", "pet-klein", "blik"], "uitbetaling": [], "vrijToegankelijk": false, "gemeenteBeperking": null, "openingstijden": {"ma": "08:45–12:30, 15:00–00:00", "di": "09:00–12:30, 15:00–00:00", "wo": "15:00–00:00", "do": "08:45–12:30, 15:00–00:00", "vr": "10:00–12:30, 15:00–00:00", "za": "09:00–18:00", "zo": "09:00–16:00"}, "latitude": 52.02965, "longitude": 5.575088, "bronId": "259074"}}, {"type": "Feature", "geometry": {"type": "Point", "coordinates": [5.5676029, 52.0154892]}, "properties": {"type": "inleverpunt", "locatieNaam": "Voetbal Vereniging De Merinos", "straatNaam": "Wageningselaan", "straatNr": "5", "postcode": "3903 LA", "plaats": "Veenendaal", "merk": "StatiegeldNederland", "puntType": "balie", "materialen": ["pet-groot", "pet-klein", "blik"], "uitbetaling": [], "vrijToegankelijk": false, "gemeenteBeperking": null, "openingstijden": {"ma": "24 uur geopend", "di": "24 uur geopend", "wo": "24 uur geopend", "do": "24 uur geopend", "vr": "24 uur geopend", "za": "24 uur geopend", "zo": "24 uur geopend"}, "latitude": 52.0154892, "longitude": 5.5676029, "bronId": "259559"}}, {"type": "Feature", "geometry": {"type": "Point", "coordinates": [5.5754616, 52.0285623]}, "properties": {"type": "inleverpunt", "locatieNaam": "Vv Vrc Veenendaal", "straatNaam": "Postbus", "straatNr": "1013", "postcode": "3900 BA", "plaats": "Veenendaal", "merk": "StatiegeldNederland", "puntType": "balie", "materialen": ["pet-groot", "pet-klein", "blik"], "uitbetaling": [], "vrijToegankelijk": false, "gemeenteBeperking": null, "openingstijden": {"ma": "17:30–22:30", "di": "17:30–22:30", "wo": "17:30–22:30", "do": "17:30–23:30", "vr": "Gesloten", "za": "08:00–19:30", "zo": "Gesloten"}, "latitude": 52.0285623, "longitude": 5.5754616, "bronId": "259820"}}, {"type": "Feature", "geometry": {"type": "Point", "coordinates": [5.5416036, 52.0265313]}, "properties": {"type": "inleverpunt", "locatieNaam": "Vzc", "straatNaam": "Sportlaan", "straatNr": "5B", "postcode": "3905 AD", "plaats": "Veenendaal", "merk": "StatiegeldNederland", "puntType": "balie", "materialen": ["pet-groot", "pet-klein", "blik"], "uitbetaling": [], "vrijToegankelijk": false, "gemeenteBeperking": null, "openingstijden": {"ma": "24 uur geopend", "di": "24 uur geopend", "wo": "24 uur geopend", "do": "24 uur geopend", "vr": "24 uur geopend", "za": "24 uur geopend", "zo": "24 uur geopend"}, "latitude": 52.0265313, "longitude": 5.5416036, "bronId": "259837"}}, {"type": "Feature", "geometry": {"type": "Point", "coordinates": [5.532759, 52.029421]}, "properties": {"type": "inleverpunt", "locatieNaam": "1254 Albert Heijn Veenendaal", "straatNaam": "Veenslag", "straatNr": "7", "postcode": "3905 SH", "plaats": "Veenendaal", "merk": "StichtingOPEN", "puntType": "balie", "materialen": ["batterijen", "elektro-klein", "lampen"], "uitbetaling": [], "vrijToegankelijk": false, "gemeenteBeperking": null, "openingstijden": null, "latitude": 52.029421, "longitude": 5.532759, "bronId": "SP00022811"}}, {"type": "Feature", "geometry": {"type": "Point", "coordinates": [5.533283, 52.028294]}, "properties": {"type": "inleverpunt", "locatieNaam": "Kruidvat Veenendaal", "straatNaam": "Veenslag", "straatNr": "88", "postcode": "3905 SL", "plaats": "Veenendaal", "merk": "StichtingOPEN", "puntType": "balie", "materialen": ["batterijen", "lampen"], "uitbetaling": [], "vrijToegankelijk": false, "gemeenteBeperking": null, "openingstijden": null, "latitude": 52.028294, "longitude": 5.533283, "bronId": "SP00024629"}}, {"type": "Feature", "geometry": {"type": "Point", "coordinates": [5.543436, 52.029791]}, "properties": {"type": "inleverpunt", "locatieNaam": "Jumbo Veenendaal", "straatNaam": "Prins Willem-Alexanderpark", "straatNr": "617", "postcode": "3905 CT", "plaats": "Veenendaal", "merk": "StichtingOPEN", "puntType": "balie", "materialen": ["batterijen", "lampen"], "uitbetaling": [], "vrijToegankelijk": false, "gemeenteBeperking": null, "openingstijden": null, "latitude": 52.029791, "longitude": 5.543436, "bronId": "SP00025194"}}, {"type": "Feature", "geometry": {"type": "Point", "coordinates": [5.551091, 52.030043]}, "properties": {"type": "inleverpunt", "locatieNaam": "350 Hoogvliet Veenendaal", "straatNaam": "J.P.C. Leinweberstraat", "straatNr": "6", "postcode": "3905 EJ", "plaats": "Veenendaal", "merk": "StichtingOPEN", "puntType": "balie", "materialen": ["batterijen", "lampen"], "uitbetaling": [], "vrijToegankelijk": false, "gemeenteBeperking": null, "openingstijden": null, "latitude": 52.030043, "longitude": 5.551091, "bronId": "SP00023929"}}, {"type": "Feature", "geometry": {"type": "Point", "coordinates": [5.542218, 52.018148]}, "properties": {"type": "inleverpunt", "locatieNaam": "Jumbo Veenendaal", "straatNaam": "Dr. Slotemaker de Bruïnestraat", "straatNr": "20", "postcode": "3904 CB", "plaats": "Veenendaal", "merk": "StichtingOPEN", "puntType": "balie", "materialen": ["batterijen", "lampen"], "uitbetaling": [], "vrijToegankelijk": false, "gemeenteBeperking": null, "openingstijden": null, "latitude": 52.018148, "longitude": 5.542218, "bronId": "SP00025186"}}, {"type": "Feature", "geometry": {"type": "Point", "coordinates": [5.54166, 52.01749]}, "properties": {"type": "inleverpunt", "locatieNaam": "Kruidvat Veenendaal", "straatNaam": "Dr. Slotemaker de Bruïneplein", "straatNr": "15", "postcode": "3904 CX", "plaats": "Veenendaal", "merk": "StichtingOPEN", "puntType": "balie", "materialen": ["batterijen", "lampen"], "uitbetaling": [], "vrijToegankelijk": false, "gemeenteBeperking": null, "openingstijden": null, "latitude": 52.01749, "longitude": 5.54166, "bronId": "SP00029741"}}, {"type": "Feature", "geometry": {"type": "Point", "coordinates": [5.542741, 52.018023]}, "properties": {"type": "inleverpunt", "locatieNaam": "Aldi Veenendaal", "straatNaam": "Dr. Sl. de Bruïnestraat", "straatNr": "2", "postcode": "3904 CB", "plaats": "Veenendaal", "merk": "StichtingOPEN", "puntType": "balie", "materialen": ["batterijen", "elektro-klein", "lampen"], "uitbetaling": [], "vrijToegankelijk": false, "gemeenteBeperking": null, "openingstijden": null, "latitude": 52.018023, "longitude": 5.542741, "bronId": "SP00026814"}}, {"type": "Feature", "geometry": {"type": "Point", "coordinates": [5.555887, 52.029632]}, "properties": {"type": "inleverpunt", "locatieNaam": "Aldi Veenendaal", "straatNaam": "Scheepjeshof", "straatNr": "40", "postcode": "3901 CV", "plaats": "Veenendaal", "merk": "StichtingOPEN", "puntType": "balie", "materialen": ["batterijen", "elektro-klein", "lampen"], "uitbetaling": [], "vrijToegankelijk": false, "gemeenteBeperking": null, "openingstijden": null, "latitude": 52.029632, "longitude": 5.555887, "bronId": "SP00026826"}}, {"type": "Feature", "geometry": {"type": "Point", "coordinates": [5.556474, 52.030237]}, "properties": {"type": "inleverpunt", "locatieNaam": "Jumbo Veenendaal Scheepjeshof", "straatNaam": "Scheepjeshof", "straatNr": "30", "postcode": "3901 CV", "plaats": "Veenendaal", "merk": "StichtingOPEN", "puntType": "balie", "materialen": ["batterijen", "elektro-klein", "lampen"], "uitbetaling": [], "vrijToegankelijk": false, "gemeenteBeperking": null, "openingstijden": null, "latitude": 52.030237, "longitude": 5.556474, "bronId": "SP00033118"}}, {"type": "Feature", "geometry": {"type": "Point", "coordinates": [5.556282, 52.029902]}, "properties": {"type": "inleverpunt", "locatieNaam": "Action Veenendaal 1221", "straatNaam": "Scheepjeshof", "straatNr": "34", "postcode": "3901 CV", "plaats": "Veenendaal", "merk": "StichtingOPEN", "puntType": "balie", "materialen": ["batterijen", "lampen"], "uitbetaling": [], "vrijToegankelijk": false, "gemeenteBeperking": null, "openingstijden": null, "latitude": 52.029902, "longitude": 5.556282, "bronId": "SP00007798"}}, {"type": "Feature", "geometry": {"type": "Point", "coordinates": [5.556062, 52.027678]}, "properties": {"type": "inleverpunt", "locatieNaam": "Kruidvat Veenendaal", "straatNaam": "Hoofdstraat", "straatNr": "6769", "postcode": "3901 AE", "plaats": "Veenendaal", "merk": "StichtingOPEN", "puntType": "balie", "materialen": ["batterijen", "lampen"], "uitbetaling": [], "vrijToegankelijk": false, "gemeenteBeperking": null, "openingstijden": null, "latitude": 52.027678, "longitude": 5.556062, "bronId": "SP00024627"}}, {"type": "Feature", "geometry": {"type": "Point", "coordinates": [5.556196, 52.027854]}, "properties": {"type": "inleverpunt", "locatieNaam": "Xenos Veenendaal", "straatNaam": "Hoofdstraat", "straatNr": "77", "postcode": "3901 AG", "plaats": "Veenendaal", "merk": "StichtingOPEN", "puntType": "balie", "materialen": ["batterijen", "lampen"], "uitbetaling": [], "vrijToegankelijk": false, "gemeenteBeperking": null, "openingstijden": null, "latitude": 52.027854, "longitude": 5.556196, "bronId": "SP00025703"}}, {"type": "Feature", "geometry": {"type": "Point", "coordinates": [5.556876, 52.026116]}, "properties": {"type": "inleverpunt", "locatieNaam": "Kruidvat Veenendaal", "straatNaam": "Passage", "straatNr": "38", "postcode": "3901 AZ", "plaats": "Veenendaal", "merk": "StichtingOPEN", "puntType": "balie", "materialen": ["batterijen", "lampen"], "uitbetaling": [], "vrijToegankelijk": false, "gemeenteBeperking": null, "openingstijden": null, "latitude": 52.026116, "longitude": 5.556876, "bronId": "SP00024624"}}, {"type": "Feature", "geometry": {"type": "Point", "coordinates": [5.556734, 52.025603]}, "properties": {"type": "inleverpunt", "locatieNaam": "1520 Albert Heijn Veenendaal", "straatNaam": "Passage", "straatNr": "50", "postcode": "3901 AZ", "plaats": "Veenendaal", "merk": "StichtingOPEN", "puntType": "balie", "materialen": ["batterijen", "elektro-klein", "lampen"], "uitbetaling": [], "vrijToegankelijk": false, "gemeenteBeperking": null, "openingstijden": null, "latitude": 52.025603, "longitude": 5.556734, "bronId": "SP00022808"}}, {"type": "Feature", "geometry": {"type": "Point", "coordinates": [5.558879, 52.028011]}, "properties": {"type": "inleverpunt", "locatieNaam": "MMC Store", "straatNaam": "Brouwersgracht", "straatNr": "234", "postcode": "3901 TM", "plaats": "Veenendaal", "merk": "StichtingOPEN", "puntType": "balie", "materialen": ["batterijen", "elektro-klein", "elektro-middel"], "uitbetaling": [], "vrijToegankelijk": false, "gemeenteBeperking": null, "openingstijden": null, "latitude": 52.028011, "longitude": 5.558879, "bronId": "SP00033395"}}, {"type": "Feature", "geometry": {"type": "Point", "coordinates": [5.55808, 52.026095]}, "properties": {"type": "inleverpunt", "locatieNaam": "Action Veenendaal", "straatNaam": "Brouwersgracht", "straatNr": "98", "postcode": "3901 TK", "plaats": "Veenendaal", "merk": "StichtingOPEN", "puntType": "balie", "materialen": ["batterijen", "lampen"], "uitbetaling": [], "vrijToegankelijk": false, "gemeenteBeperking": null, "openingstijden": null, "latitude": 52.026095, "longitude": 5.55808, "bronId": "SP00029862"}}, {"type": "Feature", "geometry": {"type": "Point", "coordinates": [5.558458, 52.026319]}, "properties": {"type": "inleverpunt", "locatieNaam": "Hoogvliet Veenendaal", "straatNaam": "Brouwersgracht", "straatNr": "100", "postcode": "3901 TJ", "plaats": "Veenendaal", "merk": "StichtingOPEN", "puntType": "balie", "materialen": ["batterijen", "elektro-klein", "lampen"], "uitbetaling": [], "vrijToegankelijk": false, "gemeenteBeperking": null, "openingstijden": null, "latitude": 52.026319, "longitude": 5.558458, "bronId": "SP00028447"}}, {"type": "Feature", "geometry": {"type": "Point", "coordinates": [5.557483, 52.02492]}, "properties": {"type": "inleverpunt", "locatieNaam": "Spar Bleskensgraaf ca", "straatNaam": "Lindenstraat", "straatNr": "4", "postcode": "2971 AR", "plaats": "Bleskensgraaf ca", "merk": "StichtingOPEN", "puntType": "balie", "materialen": ["batterijen", "lampen"], "uitbetaling": [], "vrijToegankelijk": false, "gemeenteBeperking": null, "openingstijden": null, "latitude": 52.02492, "longitude": 5.557483, "bronId": "SP00022420"}}, {"type": "Feature", "geometry": {"type": "Point", "coordinates": [5.560285, 52.028432]}, "properties": {"type": "inleverpunt", "locatieNaam": "Multaparts Veenendaal", "straatNaam": "Verlaat", "straatNr": "9", "postcode": "3901 RD", "plaats": "Veenendaal", "merk": "StichtingOPEN", "puntType": "balie", "materialen": ["batterijen", "elektro-klein", "elektro-middel", "lampen", "tl-buizen"], "uitbetaling": [], "vrijToegankelijk": false, "gemeenteBeperking": null, "openingstijden": null, "latitude": 52.028432, "longitude": 5.560285, "bronId": "SP00020258"}}, {"type": "Feature", "geometry": {"type": "Point", "coordinates": [5.569866, 52.037498]}, "properties": {"type": "inleverpunt", "locatieNaam": "Gamma Veenendaal", "straatNaam": "Einsteinstraat", "straatNr": "2", "postcode": "3902 HN", "plaats": "Veenendaal", "merk": "StichtingOPEN", "puntType": "balie", "materialen": ["batterijen", "elektro-klein", "elektro-middel", "lampen", "tl-buizen"], "uitbetaling": [], "vrijToegankelijk": false, "gemeenteBeperking": null, "openingstijden": null, "latitude": 52.037498, "longitude": 5.569866, "bronId": "SP00000546"}}, {"type": "Feature", "geometry": {"type": "Point", "coordinates": [5.569644, 52.032462]}, "properties": {"type": "inleverpunt", "locatieNaam": "Jumbo Veenendaal", "straatNaam": "Ronde Erf", "straatNr": "66", "postcode": "3902 CZ", "plaats": "Veenendaal", "merk": "StichtingOPEN", "puntType": "balie", "materialen": ["batterijen", "lampen"], "uitbetaling": [], "vrijToegankelijk": false, "gemeenteBeperking": null, "openingstijden": null, "latitude": 52.032462, "longitude": 5.569644, "bronId": "SP00025197"}}, {"type": "Feature", "geometry": {"type": "Point", "coordinates": [5.558238, 52.016668]}, "properties": {"type": "inleverpunt", "locatieNaam": "Huibers Electra bv (LP)", "straatNaam": "Laan der Techniek", "straatNr": "3", "postcode": "3903 AS", "plaats": "Veenendaal", "merk": "StichtingOPEN", "puntType": "balie", "materialen": ["elektro-klein", "elektro-middel"], "uitbetaling": [], "vrijToegankelijk": false, "gemeenteBeperking": null, "openingstijden": null, "latitude": 52.016668, "longitude": 5.558238, "bronId": "SP00001149"}}, {"type": "Feature", "geometry": {"type": "Point", "coordinates": [5.55889, 52.011849]}, "properties": {"type": "inleverpunt", "locatieNaam": "Praxis Veenendaal MEGA - 2089", "straatNaam": "Groeneveldselaan", "straatNr": "49", "postcode": "3903 AX", "plaats": "Veenendaal", "merk": "StichtingOPEN", "puntType": "balie", "materialen": ["elektro-middel", "lampen", "tl-buizen"], "uitbetaling": [], "vrijToegankelijk": false, "gemeenteBeperking": null, "openingstijden": null, "latitude": 52.011849, "longitude": 5.55889, "bronId": "SP00004515"}}, {"type": "Feature", "geometry": {"type": "Point", "coordinates": [5.553589, 52.006078]}, "properties": {"type": "inleverpunt", "locatieNaam": "Jumbo Veenendaal", "straatNaam": "Paddestoelenlaan", "straatNr": "40", "postcode": "3903 GG", "plaats": "Veenendaal", "merk": "StichtingOPEN", "puntType": "balie", "materialen": ["batterijen", "lampen"], "uitbetaling": [], "vrijToegankelijk": false, "gemeenteBeperking": null, "openingstijden": null, "latitude": 52.006078, "longitude": 5.553589, "bronId": "SP00025181"}}, {"type": "Feature", "geometry": {"type": "Point", "coordinates": [5.56214, 52.012303]}, "properties": {"type": "inleverpunt", "locatieNaam": "KARWEI Veenendaal", "straatNaam": "Groeneveldselaan", "straatNr": "33", "postcode": "3902 HA", "plaats": "Veenendaal", "merk": "StichtingOPEN", "puntType": "balie", "materialen": ["batterijen", "elektro-klein", "elektro-middel", "lampen", "tl-buizen"], "uitbetaling": [], "vrijToegankelijk": false, "gemeenteBeperking": null, "openingstijden": null, "latitude": 52.012303, "longitude": 5.56214, "bronId": "SP00000753"}}, {"type": "Feature", "geometry": {"type": "Point", "coordinates": [5.5804, 52.02616]}, "properties": {"type": "inleverpunt", "locatieNaam": "Lidl Veenendaal", "straatNaam": "Stuivenbergheem", "straatNr": "111", "postcode": "3907 NH", "plaats": "Veenendaal", "merk": "StichtingOPEN", "puntType": "balie", "materialen": ["batterijen", "lampen"], "uitbetaling": [], "vrijToegankelijk": false, "gemeenteBeperking": null, "openingstijden": null, "latitude": 52.02616, "longitude": 5.5804, "bronId": "SP00030001"}}, {"type": "Feature", "geometry": {"type": "Point", "coordinates": [5.576727, 52.008732]}, "properties": {"type": "inleverpunt", "locatieNaam": "Afvalbrengstation Veenendaal (ACV)", "straatNaam": "Wageningselaan", "straatNr": "58", "postcode": "3903 LA", "plaats": "Veenendaal", "merk": "StichtingOPEN", "puntType": "milieustraat", "materialen": ["batterijen", "elektro-groot", "elektro-klein", "elektro-middel", "lampen", "tl-buizen"], "uitbetaling": [], "vrijToegankelijk": false, "gemeenteBeperking": ["Veenendaal"], "openingstijden": null, "latitude": 52.008732, "longitude": 5.576727, "bronId": "SP00000552"}}, {"type": "Feature", "geometry": {"type": "Point", "coordinates": [5.5320247, 52.028461]}, "properties": {"type": "inleverpunt", "locatieNaam": "Zeeman", "straatNaam": "Veenslag", "straatNr": "50-52", "postcode": "3905 SL", "plaats": "Veenendaal", "merk": "Stibat", "puntType": "inzamelbak", "materialen": ["batterijen"], "uitbetaling": [], "vrijToegankelijk": false, "gemeenteBeperking": null, "openingstijden": null, "latitude": 52.028461, "longitude": 5.5320247, "bronId": "L026737"}}, {"type": "Feature", "geometry": {"type": "Point", "coordinates": [5.532508, 52.028935]}, "properties": {"type": "inleverpunt", "locatieNaam": "HEMA Veenendaal-Ellekoot", "straatNaam": "Veenslag", "straatNr": "3", "postcode": "3905 SH", "plaats": "Veenendaal", "merk": "Stibat", "puntType": "inzamelbak", "materialen": ["batterijen"], "uitbetaling": [], "vrijToegankelijk": false, "gemeenteBeperking": null, "openingstijden": null, "latitude": 52.028935, "longitude": 5.532508, "bronId": "L046901"}}, {"type": "Feature", "geometry": {"type": "Point", "coordinates": [5.532487, 52.0287498]}, "properties": {"type": "inleverpunt", "locatieNaam": "1254 Albert Heijn", "straatNaam": "Veenslag", "straatNr": "7", "postcode": "3905 SH", "plaats": "Veenendaal", "merk": "Stibat", "puntType": "inzamelbak", "materialen": ["batterijen"], "uitbetaling": [], "vrijToegankelijk": false, "gemeenteBeperking": null, "openingstijden": null, "latitude": 52.0287498, "longitude": 5.532487, "bronId": "L008026"}}, {"type": "Feature", "geometry": {"type": "Point", "coordinates": [5.5326529, 52.028405]}, "properties": {"type": "inleverpunt", "locatieNaam": "6279 Etos", "straatNaam": "Veenslag", "straatNr": "74 A", "postcode": "3905 SL", "plaats": "Veenendaal", "merk": "Stibat", "puntType": "inzamelbak", "materialen": ["batterijen"], "uitbetaling": [], "vrijToegankelijk": false, "gemeenteBeperking": null, "openingstijden": null, "latitude": 52.028405, "longitude": 5.5326529, "bronId": "L023109"}}, {"type": "Feature", "geometry": {"type": "Point", "coordinates": [5.533271, 52.028641]}, "properties": {"type": "inleverpunt", "locatieNaam": "Hans Anders", "straatNaam": "Veenslag", "straatNr": "17-19", "postcode": "3905 SH", "plaats": "Veenendaal", "merk": "Stibat", "puntType": "inzamelbak", "materialen": ["batterijen"], "uitbetaling": [], "vrijToegankelijk": false, "gemeenteBeperking": null, "openingstijden": null, "latitude": 52.028641, "longitude": 5.533271, "bronId": "L037947"}}, {"type": "Feature", "geometry": {"type": "Point", "coordinates": [5.5331059, 52.028324]}, "properties": {"type": "inleverpunt", "locatieNaam": "Bruna", "straatNaam": "Veenslag", "straatNr": "86", "postcode": "3905 SL", "plaats": "Veenendaal", "merk": "Stibat", "puntType": "inzamelbak", "materialen": ["batterijen"], "uitbetaling": [], "vrijToegankelijk": false, "gemeenteBeperking": null, "openingstijden": null, "latitude": 52.028324, "longitude": 5.5331059, "bronId": "L023244"}}, {"type": "Feature", "geometry": {"type": "Point", "coordinates": [5.5332924, 52.0282863]}, "properties": {"type": "inleverpunt", "locatieNaam": "Kruidvat", "straatNaam": "Veenslag", "straatNr": "88", "postcode": "3905 SL", "plaats": "Veenendaal", "merk": "Stibat", "puntType": "inzamelbak", "materialen": ["batterijen"], "uitbetaling": [], "vrijToegankelijk": false, "gemeenteBeperking": null, "openingstijden": null, "latitude": 52.0282863, "longitude": 5.5332924, "bronId": "L015486"}}, {"type": "Feature", "geometry": {"type": "Point", "coordinates": [5.5437465, 52.0297839]}, "properties": {"type": "inleverpunt", "locatieNaam": "Jumbo", "straatNaam": "Prins Willem-Alexanderpark", "straatNr": "617", "postcode": "3905 CT", "plaats": "Veenendaal", "merk": "Stibat", "puntType": "inzamelbak", "materialen": ["batterijen"], "uitbetaling": [], "vrijToegankelijk": false, "gemeenteBeperking": null, "openingstijden": null, "latitude": 52.0297839, "longitude": 5.5437465, "bronId": "L035960"}}, {"type": "Feature", "geometry": {"type": "Point", "coordinates": [5.5585593, 52.0475953]}, "properties": {"type": "inleverpunt", "locatieNaam": "Van den Heuvel Elektrotechnisch Installatieburo", "straatNaam": "Nieuweweg-noord", "straatNr": "314-B1", "postcode": "3905 LX", "plaats": "Veenendaal", "merk": "Stibat", "puntType": "inzamelbak", "materialen": ["batterijen"], "uitbetaling": [], "vrijToegankelijk": false, "gemeenteBeperking": null, "openingstijden": null, "latitude": 52.0475953, "longitude": 5.5585593, "bronId": "L025062"}}, {"type": "Feature", "geometry": {"type": "Point", "coordinates": [5.5474539, 52.0300827]}, "properties": {"type": "inleverpunt", "locatieNaam": "Rein Veenendaal Fietsen", "straatNaam": "Davidsplein", "straatNr": "1", "postcode": "3905 AZ", "plaats": "Veenendaal", "merk": "Stibat", "puntType": "inzamelbak", "materialen": ["batterijen"], "uitbetaling": [], "vrijToegankelijk": false, "gemeenteBeperking": null, "openingstijden": null, "latitude": 52.0300827, "longitude": 5.5474539, "bronId": "L033275"}}, {"type": "Feature", "geometry": {"type": "Point", "coordinates": [5.5472275, 52.0297385]}, "properties": {"type": "inleverpunt", "locatieNaam": "Intertoys", "straatNaam": "Davidsplein", "straatNr": "9-10", "postcode": "3905 AZ", "plaats": "Veenendaal", "merk": "Stibat", "puntType": "inzamelbak", "materialen": ["batterijen"], "uitbetaling": [], "vrijToegankelijk": false, "gemeenteBeperking": null, "openingstijden": null, "latitude": 52.0297385, "longitude": 5.5472275, "bronId": "L007760"}}, {"type": "Feature", "geometry": {"type": "Point", "coordinates": [5.5477017, 52.0300432]}, "properties": {"type": "inleverpunt", "locatieNaam": "Rein Veenendaal Fietsen", "straatNaam": "Davidsplein", "straatNr": "1", "postcode": "3905 AZ", "plaats": "Veenendaal", "merk": "Stibat", "puntType": "inzamelbak", "materialen": ["batterijen"], "uitbetaling": [], "vrijToegankelijk": false, "gemeenteBeperking": null, "openingstijden": null, "latitude": 52.0300432, "longitude": 5.5477017, "bronId": "L049263"}}, {"type": "Feature", "geometry": {"type": "Point", "coordinates": [5.5498884, 52.0304868]}, "properties": {"type": "inleverpunt", "locatieNaam": "350 Hoogvliet", "straatNaam": "J.P.C. Leinweberstraat", "straatNr": "6", "postcode": "3905 EJ", "plaats": "Veenendaal", "merk": "Stibat", "puntType": "inzamelbak", "materialen": ["batterijen"], "uitbetaling": [], "vrijToegankelijk": false, "gemeenteBeperking": null, "openingstijden": null, "latitude": 52.0304868, "longitude": 5.5498884, "bronId": "L028133"}}, {"type": "Feature", "geometry": {"type": "Point", "coordinates": [5.5416394, 52.0180215]}, "properties": {"type": "inleverpunt", "locatieNaam": "Primera", "straatNaam": "Dr. Slotemaker de Bruineplein", "straatNr": "31", "postcode": "3904 CX", "plaats": "Veenendaal", "merk": "Stibat", "puntType": "inzamelbak", "materialen": ["batterijen"], "uitbetaling": [], "vrijToegankelijk": false, "gemeenteBeperking": null, "openingstijden": null, "latitude": 52.0180215, "longitude": 5.5416394, "bronId": "L024594"}}, {"type": "Feature", "geometry": {"type": "Point", "coordinates": [5.5415025, 52.0178111]}, "properties": {"type": "inleverpunt", "locatieNaam": "DA", "straatNaam": "Dr. Slotemaker de Bruineplein", "straatNr": "25", "postcode": "3904 CX", "plaats": "Veenendaal", "merk": "Stibat", "puntType": "inzamelbak", "materialen": ["batterijen"], "uitbetaling": [], "vrijToegankelijk": false, "gemeenteBeperking": null, "openingstijden": null, "latitude": 52.0178111, "longitude": 5.5415025, "bronId": "L025206"}}, {"type": "Feature", "geometry": {"type": "Point", "coordinates": [5.5421699, 52.0183888]}, "properties": {"type": "inleverpunt", "locatieNaam": "Jumbo", "straatNaam": "Dr. Slotemaker de Bruinestraat", "straatNr": "20", "postcode": "3904 CB", "plaats": "Veenendaal", "merk": "Stibat", "puntType": "inzamelbak", "materialen": ["batterijen"], "uitbetaling": [], "vrijToegankelijk": false, "gemeenteBeperking": null, "openingstijden": null, "latitude": 52.0183888, "longitude": 5.5421699, "bronId": "L031343"}}, {"type": "Feature", "geometry": {"type": "Point", "coordinates": [5.5416641, 52.0175179]}, "properties": {"type": "inleverpunt", "locatieNaam": "Kruidvat", "straatNaam": "Dr. Slotemaker de Bruineplein", "straatNr": "15", "postcode": "3904 CX", "plaats": "Veenendaal", "merk": "Stibat", "puntType": "inzamelbak", "materialen": ["batterijen"], "uitbetaling": [], "vrijToegankelijk": false, "gemeenteBeperking": null, "openingstijden": null, "latitude": 52.0175179, "longitude": 5.5416641, "bronId": "L034867"}}, {"type": "Feature", "geometry": {"type": "Point", "coordinates": [5.542741, 52.018023]}, "properties": {"type": "inleverpunt", "locatieNaam": "Aldi", "straatNaam": "Dr. Sl. de Bruïnestraat", "straatNr": "2", "postcode": "3904 CB", "plaats": "Veenendaal", "merk": "Stibat", "puntType": "inzamelbak", "materialen": ["batterijen"], "uitbetaling": [], "vrijToegankelijk": false, "gemeenteBeperking": null, "openingstijden": null, "latitude": 52.018023, "longitude": 5.542741, "bronId": "L041255"}}, {"type": "Feature", "geometry": {"type": "Point", "coordinates": [5.5547898, 52.0292564]}, "properties": {"type": "inleverpunt", "locatieNaam": "KiK Veenendaal", "straatNaam": "Scheepjeshof", "straatNr": "62", "postcode": "3901 CW", "plaats": "Veenendaal", "merk": "Stibat", "puntType": "inzamelbak", "materialen": ["batterijen"], "uitbetaling": [], "vrijToegankelijk": false, "gemeenteBeperking": null, "openingstijden": null, "latitude": 52.0292564, "longitude": 5.5547898, "bronId": "L036044"}}, {"type": "Feature", "geometry": {"type": "Point", "coordinates": [5.546554, 52.0189356]}, "properties": {"type": "inleverpunt", "locatieNaam": "Bike Totaal Dirk Methorst", "straatNaam": "Patrimoniumlaan", "straatNr": "25", "postcode": "3904 AB", "plaats": "Veenendaal", "merk": "Stibat", "puntType": "inzamelbak", "materialen": ["batterijen"], "uitbetaling": [], "vrijToegankelijk": false, "gemeenteBeperking": null, "openingstijden": null, "latitude": 52.0189356, "longitude": 5.546554, "bronId": "L033271"}}, {"type": "Feature", "geometry": {"type": "Point", "coordinates": [5.5551538, 52.029184]}, "properties": {"type": "inleverpunt", "locatieNaam": "GSM Repair Service", "straatNaam": "Scheepjeshof", "straatNr": "126", "postcode": "3901 CX", "plaats": "Veenendaal", "merk": "Stibat", "puntType": "inzamelbak", "materialen": ["batterijen"], "uitbetaling": [], "vrijToegankelijk": false, "gemeenteBeperking": null, "openingstijden": null, "latitude": 52.029184, "longitude": 5.5551538, "bronId": "L040644"}}, {"type": "Feature", "geometry": {"type": "Point", "coordinates": [5.5529597, 52.026202]}, "properties": {"type": "inleverpunt", "locatieNaam": "Bike Totaal van Wijk", "straatNaam": "Achterkerkstraat", "straatNr": "14", "postcode": "3901 DS", "plaats": "Veenendaal", "merk": "Stibat", "puntType": "inzamelbak", "materialen": ["batterijen"], "uitbetaling": [], "vrijToegankelijk": false, "gemeenteBeperking": null, "openingstijden": null, "latitude": 52.026202, "longitude": 5.5529597, "bronId": "L048814"}}, {"type": "Feature", "geometry": {"type": "Point", "coordinates": [5.5560927, 52.0299356]}, "properties": {"type": "inleverpunt", "locatieNaam": "1221 Action", "straatNaam": "Scheepjeshof", "straatNr": "34", "postcode": "3901 CV", "plaats": "Veenendaal", "merk": "Stibat", "puntType": "inzamelbak", "materialen": ["batterijen"], "uitbetaling": [], "vrijToegankelijk": false, "gemeenteBeperking": null, "openingstijden": null, "latitude": 52.0299356, "longitude": 5.5560927, "bronId": "L028806"}}, {"type": "Feature", "geometry": {"type": "Point", "coordinates": [5.5558874, 52.0296323]}, "properties": {"type": "inleverpunt", "locatieNaam": "Aldi", "straatNaam": "Scheepjeshof", "straatNr": "40", "postcode": "3901 CV", "plaats": "Veenendaal", "merk": "Stibat", "puntType": "inzamelbak", "materialen": ["batterijen"], "uitbetaling": [], "vrijToegankelijk": false, "gemeenteBeperking": null, "openingstijden": null, "latitude": 52.0296323, "longitude": 5.5558874, "bronId": "L041254"}}, {"type": "Feature", "geometry": {"type": "Point", "coordinates": [5.5564744, 52.0302375]}, "properties": {"type": "inleverpunt", "locatieNaam": "Dekamarkt", "straatNaam": "Scheepjeshof", "straatNr": "30", "postcode": "3901 CV", "plaats": "Veenendaal", "merk": "Stibat", "puntType": "inzamelbak", "materialen": ["batterijen"], "uitbetaling": [], "vrijToegankelijk": false, "gemeenteBeperking": null, "openingstijden": null, "latitude": 52.0302375, "longitude": 5.5564744, "bronId": "L046472"}}, {"type": "Feature", "geometry": {"type": "Point", "coordinates": [5.5562862, 52.0297972]}, "properties": {"type": "inleverpunt", "locatieNaam": "CIGO", "straatNaam": "Scheepjeshof", "straatNr": "78", "postcode": "3901 CW", "plaats": "Veenendaal", "merk": "Stibat", "puntType": "inzamelbak", "materialen": ["batterijen"], "uitbetaling": [], "vrijToegankelijk": false, "gemeenteBeperking": null, "openingstijden": null, "latitude": 52.0297972, "longitude": 5.5562862, "bronId": "L031217"}}, {"type": "Feature", "geometry": {"type": "Point", "coordinates": [5.5639418, 52.040586]}, "properties": {"type": "inleverpunt", "locatieNaam": "Zorggroep Charim", "straatNaam": "Wiltonstraat", "straatNr": "42", "postcode": "3905 KW", "plaats": "Veenendaal", "merk": "Stibat", "puntType": "inzamelbak", "materialen": ["batterijen"], "uitbetaling": [], "vrijToegankelijk": false, "gemeenteBeperking": null, "openingstijden": null, "latitude": 52.040586, "longitude": 5.5639418, "bronId": "L039129"}}, {"type": "Feature", "geometry": {"type": "Point", "coordinates": [5.5629418, 52.0383405]}, "properties": {"type": "inleverpunt", "locatieNaam": "Hupra Computers", "straatNaam": "Fokkerstraat", "straatNr": "32", "postcode": "3905 KV", "plaats": "Veenendaal", "merk": "Stibat", "puntType": "inzamelbak", "materialen": ["batterijen"], "uitbetaling": [], "vrijToegankelijk": false, "gemeenteBeperking": null, "openingstijden": null, "latitude": 52.0383405, "longitude": 5.5629418, "bronId": "L026995"}}, {"type": "Feature", "geometry": {"type": "Point", "coordinates": [5.5549514, 52.0263624]}, "properties": {"type": "inleverpunt", "locatieNaam": "DOUGLAS", "straatNaam": "Hoofdstraat", "straatNr": "17", "postcode": "3901 AA", "plaats": "Veenendaal", "merk": "Stibat", "puntType": "inzamelbak", "materialen": ["batterijen"], "uitbetaling": [], "vrijToegankelijk": false, "gemeenteBeperking": null, "openingstijden": null, "latitude": 52.0263624, "longitude": 5.5549514, "bronId": "L049181"}}, {"type": "Feature", "geometry": {"type": "Point", "coordinates": [5.5559787, 52.0276728]}, "properties": {"type": "inleverpunt", "locatieNaam": "Kruidvat", "straatNaam": "Hoofdstraat", "straatNr": "67-69", "postcode": "3901 AE", "plaats": "Veenendaal", "merk": "Stibat", "puntType": "inzamelbak", "materialen": ["batterijen"], "uitbetaling": [], "vrijToegankelijk": false, "gemeenteBeperking": null, "openingstijden": null, "latitude": 52.0276728, "longitude": 5.5559787, "bronId": "L014397"}}, {"type": "Feature", "geometry": {"type": "Point", "coordinates": [5.5553034, 52.0267064]}, "properties": {"type": "inleverpunt", "locatieNaam": "Wibra", "straatNaam": "Hoofdstraat", "straatNr": "31", "postcode": "3901 AB", "plaats": "Veenendaal", "merk": "Stibat", "puntType": "inzamelbak", "materialen": ["batterijen"], "uitbetaling": [], "vrijToegankelijk": false, "gemeenteBeperking": null, "openingstijden": null, "latitude": 52.0267064, "longitude": 5.5553034, "bronId": "L023279"}}, {"type": "Feature", "geometry": {"type": "Point", "coordinates": [5.5552592, 52.0266415]}, "properties": {"type": "inleverpunt", "locatieNaam": "Bruna", "straatNaam": "Hoofdstraat", "straatNr": "29", "postcode": "3901 AB", "plaats": "Veenendaal", "merk": "Stibat", "puntType": "inzamelbak", "materialen": ["batterijen"], "uitbetaling": [], "vrijToegankelijk": false, "gemeenteBeperking": null, "openingstijden": null, "latitude": 52.0266415, "longitude": 5.5552592, "bronId": "L022775"}}, {"type": "Feature", "geometry": {"type": "Point", "coordinates": [5.5561687, 52.0278343]}, "properties": {"type": "inleverpunt", "locatieNaam": "Xenos", "straatNaam": "Hoofdstraat", "straatNr": "77", "postcode": "3901 AG", "plaats": "Veenendaal", "merk": "Stibat", "puntType": "inzamelbak", "materialen": ["batterijen"], "uitbetaling": [], "vrijToegankelijk": false, "gemeenteBeperking": null, "openingstijden": null, "latitude": 52.0278343, "longitude": 5.5561687, "bronId": "L036914"}}, {"type": "Feature", "geometry": {"type": "Point", "coordinates": [5.55614, 52.027735]}, "properties": {"type": "inleverpunt", "locatieNaam": "Specsavers", "straatNaam": "Hoofdstraat", "straatNr": "71", "postcode": "3901 AG", "plaats": "Veenendaal", "merk": "Stibat", "puntType": "inzamelbak", "materialen": ["batterijen"], "uitbetaling": [], "vrijToegankelijk": false, "gemeenteBeperking": null, "openingstijden": null, "latitude": 52.027735, "longitude": 5.55614, "bronId": "L023652"}}, {"type": "Feature", "geometry": {"type": "Point", "coordinates": [5.5566285, 52.0283652]}, "properties": {"type": "inleverpunt", "locatieNaam": "GSM Reparatie Shop", "straatNaam": "Hoofdstraat", "straatNr": "95", "postcode": "3901 AJ", "plaats": "Veenendaal", "merk": "Stibat", "puntType": "inzamelbak", "materialen": ["batterijen"], "uitbetaling": [], "vrijToegankelijk": false, "gemeenteBeperking": null, "openingstijden": null, "latitude": 52.0283652, "longitude": 5.5566285, "bronId": "L034810"}}, {"type": "Feature", "geometry": {"type": "Point", "coordinates": [5.5555709, 52.0264611]}, "properties": {"type": "inleverpunt", "locatieNaam": "Zeeman", "straatNaam": "Hoofdstraat", "straatNr": "26", "postcode": "3901 AN", "plaats": "Veenendaal", "merk": "Stibat", "puntType": "inzamelbak", "materialen": ["batterijen"], "uitbetaling": [], "vrijToegankelijk": false, "gemeenteBeperking": null, "openingstijden": null, "latitude": 52.0264611, "longitude": 5.5555709, "bronId": "L019417"}}, {"type": "Feature", "geometry": {"type": "Point", "coordinates": [5.555718, 52.0266331]}, "properties": {"type": "inleverpunt", "locatieNaam": "HEMA Hoofdstraat", "straatNaam": "Hoofdstraat", "straatNr": "30-32", "postcode": "3901 AN", "plaats": "Veenendaal", "merk": "Stibat", "puntType": "inzamelbak", "materialen": ["batterijen"], "uitbetaling": [], "vrijToegankelijk": false, "gemeenteBeperking": null, "openingstijden": null, "latitude": 52.0266331, "longitude": 5.555718, "bronId": "L006834"}}, {"type": "Feature", "geometry": {"type": "Point", "coordinates": [5.5556684, 52.0265138]}, "properties": {"type": "inleverpunt", "locatieNaam": "6281 Etos", "straatNaam": "Hoofdstraat", "straatNr": "28", "postcode": "3901 AN", "plaats": "Veenendaal", "merk": "Stibat", "puntType": "inzamelbak", "materialen": ["batterijen"], "uitbetaling": [], "vrijToegankelijk": false, "gemeenteBeperking": null, "openingstijden": null, "latitude": 52.0265138, "longitude": 5.5556684, "bronId": "L045401"}}, {"type": "Feature", "geometry": {"type": "Point", "coordinates": [5.556239, 52.02725]}, "properties": {"type": "inleverpunt", "locatieNaam": "Hans Anders", "straatNaam": "Corridor", "straatNr": "52", "postcode": "3901 AC", "plaats": "Veenendaal", "merk": "Stibat", "puntType": "inzamelbak", "materialen": ["batterijen"], "uitbetaling": [], "vrijToegankelijk": false, "gemeenteBeperking": null, "openingstijden": null, "latitude": 52.02725, "longitude": 5.556239, "bronId": "L037948"}}, {"type": "Feature", "geometry": {"type": "Point", "coordinates": [5.5516857, 52.0212164]}, "properties": {"type": "inleverpunt", "locatieNaam": "Zorggroep Charim (De Engelenburgh)", "straatNaam": "Kerkewijk", "straatNr": "77", "postcode": "3901 ED", "plaats": "Veenendaal", "merk": "Stibat", "puntType": "inzamelbak", "materialen": ["batterijen"], "uitbetaling": [], "vrijToegankelijk": false, "gemeenteBeperking": null, "openingstijden": null, "latitude": 52.0212164, "longitude": 5.5516857, "bronId": "L034523"}}, {"type": "Feature", "geometry": {"type": "Point", "coordinates": [5.5579272, 52.0290404]}, "properties": {"type": "inleverpunt", "locatieNaam": "Schoonenberg Hoorcomfort", "straatNaam": "Hoogstraat", "straatNr": "3", "postcode": "3901 CE", "plaats": "Veenendaal", "merk": "Stibat", "puntType": "inzamelbak", "materialen": ["batterijen"], "uitbetaling": [], "vrijToegankelijk": false, "gemeenteBeperking": null, "openingstijden": null, "latitude": 52.0290404, "longitude": 5.5579272, "bronId": "L028522"}}, {"type": "Feature", "geometry": {"type": "Point", "coordinates": [5.5495552, 52.0185007]}, "properties": {"type": "inleverpunt", "locatieNaam": "Beter Horen", "straatNaam": "Spoorlaan", "straatNr": "3", "postcode": "3903 XS", "plaats": "Veenendaal", "merk": "Stibat", "puntType": "inzamelbak", "materialen": ["batterijen"], "uitbetaling": [], "vrijToegankelijk": false, "gemeenteBeperking": null, "openingstijden": null, "latitude": 52.0185007, "longitude": 5.5495552, "bronId": "L018308"}}, {"type": "Feature", "geometry": {"type": "Point", "coordinates": [5.5562661, 52.0266118]}, "properties": {"type": "inleverpunt", "locatieNaam": "HTS Telecom", "straatNaam": "Passage", "straatNr": "16", "postcode": "3901 AZ", "plaats": "Veenendaal", "merk": "Stibat", "puntType": "inzamelbak", "materialen": ["batterijen"], "uitbetaling": [], "vrijToegankelijk": false, "gemeenteBeperking": null, "openingstijden": null, "latitude": 52.0266118, "longitude": 5.5562661, "bronId": "L035949"}}, {"type": "Feature", "geometry": {"type": "Point", "coordinates": [5.5571658, 52.0277706]}, "properties": {"type": "inleverpunt", "locatieNaam": "ANWB", "straatNaam": "Bernard van Kreelpoort", "straatNr": "3", "postcode": "3901 AK", "plaats": "Veenendaal", "merk": "Stibat", "puntType": "inzamelbak", "materialen": ["batterijen"], "uitbetaling": [], "vrijToegankelijk": false, "gemeenteBeperking": null, "openingstijden": null, "latitude": 52.0277706, "longitude": 5.5571658, "bronId": "L044589"}}, {"type": "Feature", "geometry": {"type": "Point", "coordinates": [5.5570814, 52.0264308]}, "properties": {"type": "inleverpunt", "locatieNaam": "Intertoys", "straatNaam": "Passage", "straatNr": "31", "postcode": "3901 AZ", "plaats": "Veenendaal", "merk": "Stibat", "puntType": "inzamelbak", "materialen": ["batterijen"], "uitbetaling": [], "vrijToegankelijk": false, "gemeenteBeperking": null, "openingstijden": null, "latitude": 52.0264308, "longitude": 5.5570814, "bronId": "L043511"}}, {"type": "Feature", "geometry": {"type": "Point", "coordinates": [5.5568069, 52.0259855]}, "properties": {"type": "inleverpunt", "locatieNaam": "Kruidvat", "straatNaam": "Passage", "straatNr": "38", "postcode": "3901 AZ", "plaats": "Veenendaal", "merk": "Stibat", "puntType": "inzamelbak", "materialen": ["batterijen"], "uitbetaling": [], "vrijToegankelijk": false, "gemeenteBeperking": null, "openingstijden": null, "latitude": 52.0259855, "longitude": 5.5568069, "bronId": "L015631"}}, {"type": "Feature", "geometry": {"type": "Point", "coordinates": [5.5590143, 52.0289177]}, "properties": {"type": "inleverpunt", "locatieNaam": "Expert Veenendaal B.V.", "straatNaam": "Gelderland", "straatNr": "1-3", "postcode": "3901 BB", "plaats": "Veenendaal", "merk": "Stibat", "puntType": "inzamelbak", "materialen": ["batterijen"], "uitbetaling": [], "vrijToegankelijk": false, "gemeenteBeperking": null, "openingstijden": null, "latitude": 52.0289177, "longitude": 5.5590143, "bronId": "L048747"}}, {"type": "Feature", "geometry": {"type": "Point", "coordinates": [5.5567369, 52.0256052]}, "properties": {"type": "inleverpunt", "locatieNaam": "1520 Albert Heijn", "straatNaam": "Passage", "straatNr": "50", "postcode": "3901 AZ", "plaats": "Veenendaal", "merk": "Stibat", "puntType": "inzamelbak", "materialen": ["batterijen"], "uitbetaling": [], "vrijToegankelijk": false, "gemeenteBeperking": null, "openingstijden": null, "latitude": 52.0256052, "longitude": 5.5567369, "bronId": "L005849"}}, {"type": "Feature", "geometry": {"type": "Point", "coordinates": [5.5581041, 52.0271345]}, "properties": {"type": "inleverpunt", "locatieNaam": "ToyChamp XL", "straatNaam": "Brouwersgracht", "straatNr": "162", "postcode": "3901 TM", "plaats": "Veenendaal", "merk": "Stibat", "puntType": "inzamelbak", "materialen": ["batterijen"], "uitbetaling": [], "vrijToegankelijk": false, "gemeenteBeperking": null, "openingstijden": null, "latitude": 52.0271345, "longitude": 5.5581041, "bronId": "L044447"}}, {"type": "Feature", "geometry": {"type": "Point", "coordinates": [5.5588795, 52.0280119]}, "properties": {"type": "inleverpunt", "locatieNaam": "Multimedia Center Veenendaal", "straatNaam": "Brouwersgracht", "straatNr": "234", "postcode": "3901 TM", "plaats": "Veenendaal", "merk": "Stibat", "puntType": "inzamelbak", "materialen": ["batterijen"], "uitbetaling": [], "vrijToegankelijk": false, "gemeenteBeperking": null, "openingstijden": null, "latitude": 52.0280119, "longitude": 5.5588795, "bronId": "L030299"}}, {"type": "Feature", "geometry": {"type": "Point", "coordinates": [5.5564602, 52.0247958]}, "properties": {"type": "inleverpunt", "locatieNaam": "BelCompany", "straatNaam": "De Corridor", "straatNr": "53", "postcode": "3901 AN", "plaats": "Veenendaal", "merk": "Stibat", "puntType": "inzamelbak", "materialen": ["batterijen"], "uitbetaling": [], "vrijToegankelijk": false, "gemeenteBeperking": null, "openingstijden": null, "latitude": 52.0247958, "longitude": 5.5564602, "bronId": "L014922"}}, {"type": "Feature", "geometry": {"type": "Point", "coordinates": [5.5608265, 52.0305833]}, "properties": {"type": "inleverpunt", "locatieNaam": "Drogisterij v.d. Kraats", "straatNaam": "Prins Bernhardlaan", "straatNr": "62", "postcode": "3901 CD", "plaats": "Veenendaal", "merk": "Stibat", "puntType": "inzamelbak", "materialen": ["batterijen"], "uitbetaling": [], "vrijToegankelijk": false, "gemeenteBeperking": null, "openingstijden": null, "latitude": 52.0305833, "longitude": 5.5608265, "bronId": "L026862"}}, {"type": "Feature", "geometry": {"type": "Point", "coordinates": [5.5605508, 52.0301888]}, "properties": {"type": "inleverpunt", "locatieNaam": "Comp4you", "straatNaam": "Prins Bernhardlaan", "straatNr": "48", "postcode": "3901 CC", "plaats": "Veenendaal", "merk": "Stibat", "puntType": "inzamelbak", "materialen": ["batterijen"], "uitbetaling": [], "vrijToegankelijk": false, "gemeenteBeperking": null, "openingstijden": null, "latitude": 52.0301888, "longitude": 5.5605508, "bronId": "L025664"}}, {"type": "Feature", "geometry": {"type": "Point", "coordinates": [5.556436, 52.024622]}, "properties": {"type": "inleverpunt", "locatieNaam": "Prenatal VEENENDAAL", "straatNaam": "Corridor", "straatNr": "54", "postcode": "3901 AC", "plaats": "Veenendaal", "merk": "Stibat", "puntType": "inzamelbak", "materialen": ["batterijen"], "uitbetaling": [], "vrijToegankelijk": false, "gemeenteBeperking": null, "openingstijden": null, "latitude": 52.024622, "longitude": 5.556436, "bronId": "L039608"}}, {"type": "Feature", "geometry": {"type": "Point", "coordinates": [5.5655703, 52.0376213]}, "properties": {"type": "inleverpunt", "locatieNaam": "Total", "straatNaam": "Wiltonstraat", "straatNr": "2 B", "postcode": "3905 KW", "plaats": "Veenendaal", "merk": "Stibat", "puntType": "inzamelbak", "materialen": ["batterijen"], "uitbetaling": [], "vrijToegankelijk": false, "gemeenteBeperking": null, "openingstijden": null, "latitude": 52.0376213, "longitude": 5.5655703, "bronId": "L019540"}}, {"type": "Feature", "geometry": {"type": "Point", "coordinates": [5.5616652, 52.0316176]}, "properties": {"type": "inleverpunt", "locatieNaam": "Bike Totaal J. van Wijk Fietsen", "straatNaam": "Prins Bernhardlaan", "straatNr": "110", "postcode": "3905 JD", "plaats": "Veenendaal", "merk": "Stibat", "puntType": "inzamelbak", "materialen": ["batterijen"], "uitbetaling": [], "vrijToegankelijk": false, "gemeenteBeperking": null, "openingstijden": null, "latitude": 52.0316176, "longitude": 5.5616652, "bronId": "L018224"}}, {"type": "Feature", "geometry": {"type": "Point", "coordinates": [5.558211, 52.0261254]}, "properties": {"type": "inleverpunt", "locatieNaam": "1401 Action", "straatNaam": "Brouwersgracht", "straatNr": "98", "postcode": "3901 TJ", "plaats": "Veenendaal", "merk": "Stibat", "puntType": "inzamelbak", "materialen": ["batterijen"], "uitbetaling": [], "vrijToegankelijk": false, "gemeenteBeperking": null, "openingstijden": null, "latitude": 52.0261254, "longitude": 5.558211, "bronId": "L040235"}}, {"type": "Feature", "geometry": {"type": "Point", "coordinates": [5.559945, 52.028431]}, "properties": {"type": "inleverpunt", "locatieNaam": "Van Boxtel hoorwinkel", "straatNaam": "Verlaat", "straatNr": "1", "postcode": "3901 RD", "plaats": "Veenendaal", "merk": "Stibat", "puntType": "inzamelbak", "materialen": ["batterijen"], "uitbetaling": [], "vrijToegankelijk": false, "gemeenteBeperking": null, "openingstijden": null, "latitude": 52.028431, "longitude": 5.559945, "bronId": "L031728"}}, {"type": "Feature", "geometry": {"type": "Point", "coordinates": [5.557434, 52.0248557]}, "properties": {"type": "inleverpunt", "locatieNaam": "Vermaas Lederwaren Tabak en Gemak", "straatNaam": "Passage", "straatNr": "97", "postcode": "3901 AZ", "plaats": "Veenendaal", "merk": "Stibat", "puntType": "inzamelbak", "materialen": ["batterijen"], "uitbetaling": [], "vrijToegankelijk": false, "gemeenteBeperking": null, "openingstijden": null, "latitude": 52.0248557, "longitude": 5.557434, "bronId": "L043251"}}, {"type": "Feature", "geometry": {"type": "Point", "coordinates": [5.5601542, 52.0282657]}, "properties": {"type": "inleverpunt", "locatieNaam": "Plentyparts", "straatNaam": "Verlaat", "straatNr": "9", "postcode": "3901 RD", "plaats": "Veenendaal", "merk": "Stibat", "puntType": "inzamelbak", "materialen": ["batterijen"], "uitbetaling": [], "vrijToegankelijk": false, "gemeenteBeperking": null, "openingstijden": null, "latitude": 52.0282657, "longitude": 5.5601542, "bronId": "L017004"}}, {"type": "Feature", "geometry": {"type": "Point", "coordinates": [5.5580926, 52.0253571]}, "properties": {"type": "inleverpunt", "locatieNaam": "290 Hoogvliet", "straatNaam": "Brouwersgracht", "straatNr": "100", "postcode": "3901 TJ", "plaats": "Veenendaal", "merk": "Stibat", "puntType": "inzamelbak", "materialen": ["batterijen"], "uitbetaling": [], "vrijToegankelijk": false, "gemeenteBeperking": null, "openingstijden": null, "latitude": 52.0253571, "longitude": 5.5580926, "bronId": "L009874"}}, {"type": "Feature", "geometry": {"type": "Point", "coordinates": [5.5618617, 52.0267384]}, "properties": {"type": "inleverpunt", "locatieNaam": "Beek Veenendaal", "straatNaam": "Valleistraat", "straatNr": "12", "postcode": "3901 RT", "plaats": "Veenendaal", "merk": "Stibat", "puntType": "inzamelbak", "materialen": ["batterijen"], "uitbetaling": [], "vrijToegankelijk": false, "gemeenteBeperking": null, "openingstijden": null, "latitude": 52.0267384, "longitude": 5.5618617, "bronId": "L033269"}}, {"type": "Feature", "geometry": {"type": "Point", "coordinates": [5.5693389, 52.037487]}, "properties": {"type": "inleverpunt", "locatieNaam": "Gamma", "straatNaam": "Einsteinstraat", "straatNr": "2", "postcode": "3902 HN", "plaats": "Veenendaal", "merk": "Stibat", "puntType": "inzamelbak", "materialen": ["batterijen"], "uitbetaling": [], "vrijToegankelijk": false, "gemeenteBeperking": null, "openingstijden": null, "latitude": 52.037487, "longitude": 5.5693389, "bronId": "L005800"}}, {"type": "Feature", "geometry": {"type": "Point", "coordinates": [5.5553196, 52.0167043]}, "properties": {"type": "inleverpunt", "locatieNaam": "Afvalbrengstation Veenendaal", "straatNaam": "Nijverheidslaan", "straatNr": "2", "postcode": "3903 AP", "plaats": "Veenendaal", "merk": "Stibat", "puntType": "inzamelbak", "materialen": ["batterijen"], "uitbetaling": [], "vrijToegankelijk": false, "gemeenteBeperking": null, "openingstijden": null, "latitude": 52.0167043, "longitude": 5.5553196, "bronId": "L035698"}}, {"type": "Feature", "geometry": {"type": "Point", "coordinates": [5.569276, 52.0329738]}, "properties": {"type": "inleverpunt", "locatieNaam": "Trekpleister", "straatNaam": "Ronde Erf", "straatNr": "59", "postcode": "3902 CZ", "plaats": "Veenendaal", "merk": "Stibat", "puntType": "inzamelbak", "materialen": ["batterijen"], "uitbetaling": [], "vrijToegankelijk": false, "gemeenteBeperking": null, "openingstijden": null, "latitude": 52.0329738, "longitude": 5.569276, "bronId": "L018202"}}, {"type": "Feature", "geometry": {"type": "Point", "coordinates": [5.5699313, 52.032081]}, "properties": {"type": "inleverpunt", "locatieNaam": "Jumbo", "straatNaam": "Ronde Erf", "straatNr": "66", "postcode": "3902 CZ", "plaats": "Veenendaal", "merk": "Stibat", "puntType": "inzamelbak", "materialen": ["batterijen"], "uitbetaling": [], "vrijToegankelijk": false, "gemeenteBeperking": null, "openingstijden": null, "latitude": 52.032081, "longitude": 5.5699313, "bronId": "L028297"}}, {"type": "Feature", "geometry": {"type": "Point", "coordinates": [5.5579477, 52.0121605]}, "properties": {"type": "inleverpunt", "locatieNaam": "Restore Kringloop", "straatNaam": "Groeneveldselaan", "straatNr": "14", "postcode": "3903 AZ", "plaats": "Veenendaal", "merk": "Stibat", "puntType": "inzamelbak", "materialen": ["batterijen"], "uitbetaling": [], "vrijToegankelijk": false, "gemeenteBeperking": null, "openingstijden": null, "latitude": 52.0121605, "longitude": 5.5579477, "bronId": "L031232"}}, {"type": "Feature", "geometry": {"type": "Point", "coordinates": [5.5586712, 52.0116341]}, "properties": {"type": "inleverpunt", "locatieNaam": "Kwantum", "straatNaam": "Groeneveldselaan", "straatNr": "51", "postcode": "3903 AX", "plaats": "Veenendaal", "merk": "Stibat", "puntType": "inzamelbak", "materialen": ["batterijen"], "uitbetaling": [], "vrijToegankelijk": false, "gemeenteBeperking": null, "openingstijden": null, "latitude": 52.0116341, "longitude": 5.5586712, "bronId": "L016766"}}, {"type": "Feature", "geometry": {"type": "Point", "coordinates": [5.5614622, 52.014777]}, "properties": {"type": "inleverpunt", "locatieNaam": "Welkoop", "straatNaam": "Groeneveldselaan", "straatNr": "27", "postcode": "3902 HA", "plaats": "Veenendaal", "merk": "Stibat", "puntType": "inzamelbak", "materialen": ["batterijen"], "uitbetaling": [], "vrijToegankelijk": false, "gemeenteBeperking": null, "openingstijden": null, "latitude": 52.014777, "longitude": 5.5614622, "bronId": "L038388"}}, {"type": "Feature", "geometry": {"type": "Point", "coordinates": [5.5588905, 52.0118495]}, "properties": {"type": "inleverpunt", "locatieNaam": "Praxis Mega 2089", "straatNaam": "Groeneveldselaan", "straatNr": "49", "postcode": "3903 AX", "plaats": "Veenendaal", "merk": "Stibat", "puntType": "inzamelbak", "materialen": ["batterijen"], "uitbetaling": [], "vrijToegankelijk": false, "gemeenteBeperking": null, "openingstijden": null, "latitude": 52.0118495, "longitude": 5.5588905, "bronId": "L015113"}}, {"type": "Feature", "geometry": {"type": "Point", "coordinates": [5.5533982, 52.0059554]}, "properties": {"type": "inleverpunt", "locatieNaam": "Jumbo", "straatNaam": "Paddestoelenlaan", "straatNr": "40", "postcode": "3903 GG", "plaats": "Veenendaal", "merk": "Stibat", "puntType": "inzamelbak", "materialen": ["batterijen"], "uitbetaling": [], "vrijToegankelijk": false, "gemeenteBeperking": null, "openingstijden": null, "latitude": 52.0059554, "longitude": 5.5533982, "bronId": "L005794"}}, {"type": "Feature", "geometry": {"type": "Point", "coordinates": [5.5609881, 52.0140528]}, "properties": {"type": "inleverpunt", "locatieNaam": "Karwei", "straatNaam": "Groeneveldselaan", "straatNr": "33", "postcode": "3902 HA", "plaats": "Veenendaal", "merk": "Stibat", "puntType": "inzamelbak", "materialen": ["batterijen"], "uitbetaling": [], "vrijToegankelijk": false, "gemeenteBeperking": null, "openingstijden": null, "latitude": 52.0140528, "longitude": 5.5609881, "bronId": "L012916"}}, {"type": "Feature", "geometry": {"type": "Point", "coordinates": [5.5623501, 52.0151964]}, "properties": {"type": "inleverpunt", "locatieNaam": "Belcompany/Telefoonkopen.nl", "straatNaam": "Wageningselaan", "straatNr": "2", "postcode": "3903 LA", "plaats": "Veenendaal", "merk": "Stibat", "puntType": "inzamelbak", "materialen": ["batterijen"], "uitbetaling": [], "vrijToegankelijk": false, "gemeenteBeperking": null, "openingstijden": null, "latitude": 52.0151964, "longitude": 5.5623501, "bronId": "L009068"}}, {"type": "Feature", "geometry": {"type": "Point", "coordinates": [5.5607093, 52.0131103]}, "properties": {"type": "inleverpunt", "locatieNaam": "Leen Bakker", "straatNaam": "Groeneveldselaan", "straatNr": "39", "postcode": "3903 AX", "plaats": "Veenendaal", "merk": "Stibat", "puntType": "inzamelbak", "materialen": ["batterijen"], "uitbetaling": [], "vrijToegankelijk": false, "gemeenteBeperking": null, "openingstijden": null, "latitude": 52.0131103, "longitude": 5.5607093, "bronId": "L018080"}}, {"type": "Feature", "geometry": {"type": "Point", "coordinates": [5.5772482, 52.0320119]}, "properties": {"type": "inleverpunt", "locatieNaam": "Zorggroep Charim (De Meent)", "straatNaam": "Grote Beer", "straatNr": "10", "postcode": "3902 HK", "plaats": "Veenendaal", "merk": "Stibat", "puntType": "inzamelbak", "materialen": ["batterijen"], "uitbetaling": [], "vrijToegankelijk": false, "gemeenteBeperking": null, "openingstijden": null, "latitude": 52.0320119, "longitude": 5.5772482, "bronId": "L034521"}}, {"type": "Feature", "geometry": {"type": "Point", "coordinates": [5.5605383, 52.0075513]}, "properties": {"type": "inleverpunt", "locatieNaam": "AEDSupermarkt.nl", "straatNaam": "Middelbuurtseweg", "straatNr": "5D", "postcode": "3903 LB", "plaats": "Veenendaal", "merk": "Stibat", "puntType": "inzamelbak", "materialen": ["batterijen"], "uitbetaling": [], "vrijToegankelijk": false, "gemeenteBeperking": null, "openingstijden": null, "latitude": 52.0075513, "longitude": 5.5605383, "bronId": "L049523"}}, {"type": "Feature", "geometry": {"type": "Point", "coordinates": [5.5798348, 52.0303258]}, "properties": {"type": "inleverpunt", "locatieNaam": "Esso", "straatNaam": "Rondweg-oost", "straatNr": "11", "postcode": "3902 HZ", "plaats": "Veenendaal", "merk": "Stibat", "puntType": "inzamelbak", "materialen": ["batterijen"], "uitbetaling": [], "vrijToegankelijk": false, "gemeenteBeperking": null, "openingstijden": null, "latitude": 52.0303258, "longitude": 5.5798348, "bronId": "L030136"}}, {"type": "Feature", "geometry": {"type": "Point", "coordinates": [5.580646, 52.0259277]}, "properties": {"type": "inleverpunt", "locatieNaam": "2215 Albert Heijn", "straatNaam": "Stuivenbergheem", "straatNr": "15", "postcode": "3907 NH", "plaats": "Veenendaal", "merk": "Stibat", "puntType": "inzamelbak", "materialen": ["batterijen"], "uitbetaling": [], "vrijToegankelijk": false, "gemeenteBeperking": null, "openingstijden": null, "latitude": 52.0259277, "longitude": 5.580646, "bronId": "L042624"}}, {"type": "Feature", "geometry": {"type": "Point", "coordinates": [5.5807518, 52.025305]}, "properties": {"type": "inleverpunt", "locatieNaam": "Lidl", "straatNaam": "Stuivenbergheem", "straatNr": "1", "postcode": "3907 NH", "plaats": "Veenendaal", "merk": "Stibat", "puntType": "inzamelbak", "materialen": ["batterijen"], "uitbetaling": [], "vrijToegankelijk": false, "gemeenteBeperking": null, "openingstijden": null, "latitude": 52.025305, "longitude": 5.5807518, "bronId": "L040785"}}, {"type": "Feature", "geometry": {"type": "Point", "coordinates": [5.581024, 52.0255788]}, "properties": {"type": "inleverpunt", "locatieNaam": "Kruidvat", "straatNaam": "Stuivenbergheem", "straatNr": "5", "postcode": "3907 NH", "plaats": "Veenendaal", "merk": "Stibat", "puntType": "inzamelbak", "materialen": ["batterijen"], "uitbetaling": [], "vrijToegankelijk": false, "gemeenteBeperking": null, "openingstijden": null, "latitude": 52.0255788, "longitude": 5.581024, "bronId": "L042485"}}, {"type": "Feature", "geometry": {"type": "Point", "coordinates": [5.5680269, 52.0091393]}, "properties": {"type": "inleverpunt", "locatieNaam": "Picnic", "straatNaam": "Generatorstraat", "straatNr": "10-A", "postcode": "3903 LJ", "plaats": "Veenendaal", "merk": "Stibat", "puntType": "inzamelbak", "materialen": ["batterijen"], "uitbetaling": [], "vrijToegankelijk": false, "gemeenteBeperking": null, "openingstijden": null, "latitude": 52.0091393, "longitude": 5.5680269, "bronId": "L043712"}}, {"type": "Feature", "geometry": {"type": "Point", "coordinates": [5.5664425, 52.0063015]}, "properties": {"type": "inleverpunt", "locatieNaam": "Bus Veenendaal", "straatNaam": "De Smalle Zijde", "straatNr": "36", "postcode": "3903 LP", "plaats": "Veenendaal", "merk": "Stibat", "puntType": "inzamelbak", "materialen": ["batterijen"], "uitbetaling": [], "vrijToegankelijk": false, "gemeenteBeperking": null, "openingstijden": null, "latitude": 52.0063015, "longitude": 5.5664425, "bronId": "L043249"}}, {"type": "Feature", "geometry": {"type": "Point", "coordinates": [5.573437, 52.0099641]}, "properties": {"type": "inleverpunt", "locatieNaam": "Isero Veenendaal", "straatNaam": "Wageningselaan", "straatNr": "38", "postcode": "3903 LA", "plaats": "Veenendaal", "merk": "Stibat", "puntType": "inzamelbak", "materialen": ["batterijen"], "uitbetaling": [], "vrijToegankelijk": false, "gemeenteBeperking": null, "openingstijden": null, "latitude": 52.0099641, "longitude": 5.573437, "bronId": "L032031"}}, {"type": "Feature", "geometry": {"type": "Polygon", "coordinates": [[[5.553234001875988, 51.999036003908216], [5.558045001880987, 52.003632003911], [5.570479001893223, 51.99695800390663], [5.58948900191275, 52.009456003914], [5.58601500190935, 52.01177600391557], [5.586751001910106, 52.012286003915875], [5.586922001910401, 52.01571300391799], [5.589622001913106, 52.01559500391789], [5.590242001913897, 52.02026700392074], [5.587200001910851, 52.0204500039209], [5.587511001911388, 52.02662800392473], [5.586503001910469, 52.02917100392633], [5.586712001910755, 52.03129000392766], [5.589589001913631, 52.031177003927546], [5.590030001914193, 52.03438700392953], [5.583540001907758, 52.03644800393094], [5.567386001891706, 52.04060600393383], [5.568657001893045, 52.04239700393489], [5.570045001894476, 52.043401003935514], [5.569981001894492, 52.0456840039369], [5.570853001895449, 52.04799700393835], [5.557903001882492, 52.04886500393912], [5.557875001882456, 52.04864100393896], [5.554524001879115, 52.04920900393935], [5.55447800187906, 52.048955003939206], [5.544640001869211, 52.04937300393962], [5.541600001865984, 52.044564003936685], [5.541042001865368, 52.04303700393581], [5.5388190018630725, 52.04126500393474], [5.53541000185966, 52.04147800393493], [5.531686001855868, 52.039880003933995], [5.531420001855584, 52.03946900393374], [5.529348001853535, 52.04020200393423], [5.512592001835917, 52.01851600392105], [5.5279060018510995, 52.013555003917716], [5.533677001856861, 52.012665003917036], [5.532366001855481, 52.01090000391601], [5.535819001858913, 52.01005100391541], [5.535141001858191, 52.0088870039147], [5.5403440018633425, 52.00698100391339], [5.551095001873869, 51.99980700390871], [5.553234001875988, 51.999036003908216]]]}, "properties": {"type": "boundary", "gemeente": "Veenendaal"}}]}