{"type": "FeatureCollection", "metadata": {"gemeente": "Voorne aan Zee", "slug": "voorne-aan-zee", "generated_at": "2026-07-28T09:25:50.134599Z", "total_points": 142, "merken": ["StatiegeldNederland", "Stibat", "StichtingOPEN"], "bounds": [4.0540803, 51.8248324, 4.2231314, 51.9230506]}, "features": [{"type": "Feature", "geometry": {"type": "Point", "coordinates": [4.1305556, 51.8333333]}, "properties": {"type": "inleverpunt", "locatieNaam": "Albert Heijn", "straatNaam": "Evertsenplein", "straatNr": "68", "postcode": "3221 BL", "plaats": "Hellevoetsluis", "merk": "StatiegeldNederland", "puntType": "automaat", "materialen": ["pet-groot", "pet-klein", "blik", "glas", "krat"], "uitbetaling": ["bonnetje", "donatie"], "vrijToegankelijk": true, "gemeenteBeperking": null, "openingstijden": {"ma": "08:00–21:00", "di": "08:00–21:00", "wo": "08:00–21:00", "do": "08:00–21:00", "vr": "08:00–21:00", "za": "08:00–21:00", "zo": "08:00–21:00"}, "latitude": 51.8333333, "longitude": 4.1305556, "bronId": "252219"}}, {"type": "Feature", "geometry": {"type": "Point", "coordinates": [4.1009765, 51.9143002]}, "properties": {"type": "inleverpunt", "locatieNaam": "Albert Heijn", "straatNaam": "Stationsweg", "straatNr": "16", "postcode": "3233 CT", "plaats": "Oostvoorne", "merk": "StatiegeldNederland", "puntType": "automaat", "materialen": ["pet-groot", "pet-klein", "blik", "glas", "krat"], "uitbetaling": ["bonnetje", "donatie"], "vrijToegankelijk": true, "gemeenteBeperking": null, "openingstijden": {"ma": "08:00–21:00", "di": "08:00–22:00", "wo": "08:00–22:00", "do": "08:00–22:00", "vr": "08:00–22:00", "za": "08:00–22:00", "zo": "08:00–21:00"}, "latitude": 51.9143002, "longitude": 4.1009765, "bronId": "252771"}}, {"type": "Feature", "geometry": {"type": "Point", "coordinates": [4.1448276, 51.8305101]}, "properties": {"type": "inleverpunt", "locatieNaam": "Albert Heijn", "straatNaam": "Struytse Hoeck", "straatNr": "91A", "postcode": "3224 HB", "plaats": "Hellevoetsluis", "merk": "StatiegeldNederland", "puntType": "automaat", "materialen": ["pet-groot", "pet-klein", "blik", "glas", "krat"], "uitbetaling": ["bonnetje", "donatie"], "vrijToegankelijk": true, "gemeenteBeperking": null, "openingstijden": {"ma": "08:00–22:00", "di": "08:00–22:00", "wo": "08:00–22:00", "do": "08:00–22:00", "vr": "08:00–22:00", "za": "08:00–22:00", "zo": "08:00–21:00"}, "latitude": 51.8305101, "longitude": 4.1448276, "bronId": "252787"}}, {"type": "Feature", "geometry": {"type": "Point", "coordinates": [4.1711633, 51.9005231]}, "properties": {"type": "inleverpunt", "locatieNaam": "Albert Heijn", "straatNaam": "Thoelaverweg", "straatNr": "2", "postcode": "3231 KD", "plaats": "Brielle", "merk": "StatiegeldNederland", "puntType": "automaat", "materialen": ["pet-groot", "pet-klein", "blik", "glas", "krat"], "uitbetaling": ["bonnetje", "donatie"], "vrijToegankelijk": true, "gemeenteBeperking": null, "openingstijden": {"ma": "08:00–21:00", "di": "08:00–21:00", "wo": "08:00–21:00", "do": "08:00–21:00", "vr": "08:00–21:00", "za": "08:00–21:00", "zo": "09:00–21:00"}, "latitude": 51.9005231, "longitude": 4.1711633, "bronId": "252808"}}, {"type": "Feature", "geometry": {"type": "Point", "coordinates": [4.1816775, 51.8710822]}, "properties": {"type": "inleverpunt", "locatieNaam": "Albert Heijn To Go", "straatNaam": "RIJKSWEG 1 N57 WEST", "straatNr": "", "postcode": "3237 MC", "plaats": "Vierpolders", "merk": "StatiegeldNederland", "puntType": "balie", "materialen": ["pet-groot", "pet-klein", "blik"], "uitbetaling": [], "vrijToegankelijk": true, "gemeenteBeperking": null, "openingstijden": {"ma": "24 uur geopend", "di": "24 uur geopend", "wo": "24 uur geopend", "do": "24 uur geopend", "vr": "24 uur geopend", "za": "24 uur geopend", "zo": "24 uur geopend"}, "latitude": 51.8710822, "longitude": 4.1816775, "bronId": "252972"}}, {"type": "Feature", "geometry": {"type": "Point", "coordinates": [4.1711633, 51.9005231]}, "properties": {"type": "inleverpunt", "locatieNaam": "Albert Heijn To Go", "straatNaam": "Rijksweg N57 Westzijde", "straatNr": "", "postcode": "3237 ME", "plaats": "Brielle", "merk": "StatiegeldNederland", "puntType": "balie", "materialen": ["pet-groot", "pet-klein", "blik"], "uitbetaling": [], "vrijToegankelijk": true, "gemeenteBeperking": null, "openingstijden": {"ma": "08:00–21:00", "di": "08:00–21:00", "wo": "08:00–21:00", "do": "08:00–21:00", "vr": "08:00–21:00", "za": "08:00–21:00", "zo": "09:00–21:00"}, "latitude": 51.9005231, "longitude": 4.1711633, "bronId": "252977"}}, {"type": "Feature", "geometry": {"type": "Point", "coordinates": [4.1524534, 51.8258443]}, "properties": {"type": "inleverpunt", "locatieNaam": "Aldi", "straatNaam": "Kastanjelaan", "straatNr": "42", "postcode": "3224 TJ", "plaats": "Hellevoetsluis", "merk": "StatiegeldNederland", "puntType": "automaat", "materialen": ["pet-groot", "pet-klein", "blik", "glas", "krat"], "uitbetaling": ["bonnetje"], "vrijToegankelijk": true, "gemeenteBeperking": null, "openingstijden": {"ma": "08:00–20:00", "di": "08:00–20:00", "wo": "08:00–20:00", "do": "08:00–20:00", "vr": "08:00–20:00", "za": "08:00–18:00", "zo": "12:00–17:00"}, "latitude": 51.8258443, "longitude": 4.1524534, "bronId": "253199"}}, {"type": "Feature", "geometry": {"type": "Point", "coordinates": [4.2231314, 51.8816348]}, "properties": {"type": "inleverpunt", "locatieNaam": "Attent Zwartewaal", "straatNaam": "DORPSSTRAAT 1-", "straatNr": "5", "postcode": "3238 BA", "plaats": "Zwartewaal", "merk": "StatiegeldNederland", "puntType": "balie", "materialen": ["pet-groot", "pet-klein", "blik"], "uitbetaling": [], "vrijToegankelijk": true, "gemeenteBeperking": null, "openingstijden": null, "latitude": 51.8816348, "longitude": 4.2231314, "bronId": "253779"}}, {"type": "Feature", "geometry": {"type": "Point", "coordinates": [4.1655811, 51.8329657]}, "properties": {"type": "inleverpunt", "locatieNaam": "Boon‘s Markt", "straatNaam": "Forel 2 E", "straatNr": "", "postcode": "3225 PA", "plaats": "Hellevoetsluis", "merk": "StatiegeldNederland", "puntType": "automaat", "materialen": ["pet-groot", "pet-klein", "blik", "glas", "krat"], "uitbetaling": ["bonnetje", "donatie"], "vrijToegankelijk": true, "gemeenteBeperking": null, "openingstijden": {"ma": "08:00–20:00", "di": "08:00–20:00", "wo": "08:00–20:00", "do": "08:00–20:00", "vr": "08:00–20:00", "za": "08:00–20:00", "zo": "Gesloten"}, "latitude": 51.8329657, "longitude": 4.1655811, "bronId": "253852"}}, {"type": "Feature", "geometry": {"type": "Point", "coordinates": [4.0901286, 51.8369683]}, "properties": {"type": "inleverpunt", "locatieNaam": "EuroParcs Poort van Zeeland", "straatNaam": "Parkweg", "straatNr": "2", "postcode": "3221 LV", "plaats": "Hellevoetsluis", "merk": "StatiegeldNederland", "puntType": "automaat", "materialen": ["pet-groot", "pet-klein", "blik"], "uitbetaling": ["bonnetje", "donatie", "tikkie"], "vrijToegankelijk": true, "gemeenteBeperking": null, "openingstijden": null, "latitude": 51.8369683, "longitude": 4.0901286, "bronId": "254748"}}, {"type": "Feature", "geometry": {"type": "Point", "coordinates": [4.156256, 51.8251883]}, "properties": {"type": "inleverpunt", "locatieNaam": "Fc Vlotbrug", "straatNaam": "Ebstroom", "straatNr": "152", "postcode": "3224 CC", "plaats": "Hellevoetsluis", "merk": "StatiegeldNederland", "puntType": "balie", "materialen": ["pet-groot", "pet-klein", "blik"], "uitbetaling": [], "vrijToegankelijk": false, "gemeenteBeperking": null, "openingstijden": null, "latitude": 51.8251883, "longitude": 4.156256, "bronId": "254775"}}, {"type": "Feature", "geometry": {"type": "Point", "coordinates": [4.1213645, 51.8344728]}, "properties": {"type": "inleverpunt", "locatieNaam": "Helinium", "straatNaam": "Fazantenlaan", "straatNr": "1", "postcode": "3222 AM", "plaats": "Hellevoetsluis", "merk": "StatiegeldNederland", "puntType": "automaat", "materialen": ["pet-klein", "blik"], "uitbetaling": ["donatie"], "vrijToegankelijk": false, "gemeenteBeperking": null, "openingstijden": {"ma": "13:00–18:00", "di": "09:30–18:00", "wo": "09:30–18:00", "do": "09:30–18:00", "vr": "09:30–21:00", "za": "09:30–17:00", "zo": "12:00–17:00"}, "latitude": 51.8344728, "longitude": 4.1213645, "bronId": "254957"}}, {"type": "Feature", "geometry": {"type": "Point", "coordinates": [4.15271, 51.842447]}, "properties": {"type": "inleverpunt", "locatieNaam": "Jumbo", "straatNaam": "Jachthoorn", "straatNr": "9", "postcode": "3223 HA", "plaats": "Hellevoetsluis", "merk": "StatiegeldNederland", "puntType": "automaat", "materialen": ["pet-groot", "pet-klein", "blik", "glas", "krat"], "uitbetaling": ["bonnetje", "donatie"], "vrijToegankelijk": true, "gemeenteBeperking": null, "openingstijden": {"ma": "08:00–21:00", "di": "08:00–21:00", "wo": "08:00–21:00", "do": "08:00–21:00", "vr": "08:00–21:00", "za": "08:00–21:00", "zo": "09:00–20:00"}, "latitude": 51.842447, "longitude": 4.15271, "bronId": "255449"}}, {"type": "Feature", "geometry": {"type": "Point", "coordinates": [4.144655, 51.834368]}, "properties": {"type": "inleverpunt", "locatieNaam": "Jumbo", "straatNaam": "Struytse Hoeck", "straatNr": "349", "postcode": "3223 DE", "plaats": "Hellevoetsluis", "merk": "StatiegeldNederland", "puntType": "automaat", "materialen": ["pet-groot", "pet-klein", "blik", "glas", "krat"], "uitbetaling": ["bonnetje", "donatie"], "vrijToegankelijk": true, "gemeenteBeperking": null, "openingstijden": {"ma": "08:00–22:00", "di": "08:00–22:00", "wo": "08:00–22:00", "do": "08:00–22:00", "vr": "08:00–22:00", "za": "08:00–22:00", "zo": "08:00–21:00"}, "latitude": 51.834368, "longitude": 4.144655, "bronId": "255788"}}, {"type": "Feature", "geometry": {"type": "Point", "coordinates": [4.1687778, 51.89992]}, "properties": {"type": "inleverpunt", "locatieNaam": "Jumbo", "straatNaam": "Thoelaverweg", "straatNr": "1", "postcode": "3231 KD", "plaats": "Brielle", "merk": "StatiegeldNederland", "puntType": "automaat", "materialen": ["pet-groot", "pet-klein", "blik", "glas", "krat"], "uitbetaling": ["bonnetje", "donatie"], "vrijToegankelijk": true, "gemeenteBeperking": null, "openingstijden": {"ma": "08:00–20:00", "di": "08:00–20:00", "wo": "08:00–20:00", "do": "08:00–20:00", "vr": "08:00–21:00", "za": "08:00–20:00", "zo": "09:00–20:00"}, "latitude": 51.89992, "longitude": 4.1687778, "bronId": "255796"}}, {"type": "Feature", "geometry": {"type": "Point", "coordinates": [4.1321971, 51.8366238]}, "properties": {"type": "inleverpunt", "locatieNaam": "Lidl", "straatNaam": "Hoonaartstraat", "straatNr": "27", "postcode": "3222 CK", "plaats": "Hellevoetsluis", "merk": "StatiegeldNederland", "puntType": "automaat", "materialen": ["pet-groot", "pet-klein", "blik", "glas", "krat"], "uitbetaling": ["bonnetje", "donatie"], "vrijToegankelijk": true, "gemeenteBeperking": null, "openingstijden": {"ma": "07:00–21:00", "di": "07:00–21:00", "wo": "07:00–21:00", "do": "07:00–21:00", "vr": "07:00–21:00", "za": "07:00–21:00", "zo": "08:00–21:00"}, "latitude": 51.8366238, "longitude": 4.1321971, "bronId": "256203"}}, {"type": "Feature", "geometry": {"type": "Point", "coordinates": [4.15403, 51.8997]}, "properties": {"type": "inleverpunt", "locatieNaam": "Lidl", "straatNaam": "Ruggeplein", "straatNr": "12", "postcode": "3232 AH", "plaats": "Brielle", "merk": "StatiegeldNederland", "puntType": "automaat", "materialen": ["pet-groot", "pet-klein", "blik", "glas", "krat"], "uitbetaling": ["bonnetje", "donatie"], "vrijToegankelijk": true, "gemeenteBeperking": null, "openingstijden": {"ma": "07:00–21:00", "di": "07:00–21:00", "wo": "07:00–21:00", "do": "07:00–21:00", "vr": "07:00–21:00", "za": "07:00–20:00", "zo": "10:00–18:00"}, "latitude": 51.8997, "longitude": 4.15403, "bronId": "256368"}}, {"type": "Feature", "geometry": {"type": "Point", "coordinates": [4.14696, 51.83156]}, "properties": {"type": "inleverpunt", "locatieNaam": "Lidl", "straatNaam": "Struytse Hoeck", "straatNr": "59", "postcode": "3224 HB", "plaats": "Hellevoetsluis", "merk": "StatiegeldNederland", "puntType": "automaat", "materialen": ["pet-groot", "pet-klein", "blik", "glas", "krat"], "uitbetaling": ["bonnetje", "donatie"], "vrijToegankelijk": true, "gemeenteBeperking": null, "openingstijden": {"ma": "08:00–21:00", "di": "08:00–21:00", "wo": "08:00–21:00", "do": "08:00–21:00", "vr": "07:00–21:00", "za": "07:00–21:00", "zo": "08:00–21:00"}, "latitude": 51.83156, "longitude": 4.14696, "bronId": "256405"}}, {"type": "Feature", "geometry": {"type": "Point", "coordinates": [4.1631, 51.8671]}, "properties": {"type": "inleverpunt", "locatieNaam": "Manege Stal Flicka", "straatNaam": "Achterdijk", "straatNr": "10", "postcode": "3223 LA", "plaats": "Hellevoetsluis", "merk": "StatiegeldNederland", "puntType": "balie", "materialen": ["pet-groot", "pet-klein", "blik"], "uitbetaling": [], "vrijToegankelijk": false, "gemeenteBeperking": null, "openingstijden": {"ma": "Gesloten", "di": "08:00–23:00", "wo": "08:00–23:00", "do": "08:00–23:00", "vr": "08:00–23:00", "za": "08:00–19:00", "zo": "08:00–19:00"}, "latitude": 51.8671, "longitude": 4.1631, "bronId": "256548"}}, {"type": "Feature", "geometry": {"type": "Point", "coordinates": [4.1562797, 51.8961054]}, "properties": {"type": "inleverpunt", "locatieNaam": "Markies 60086 - Bahurim", "straatNaam": "Mgr. Smitstraat", "straatNr": "3", "postcode": "3232 BN", "plaats": "Brielle", "merk": "StatiegeldNederland", "puntType": "balie", "materialen": ["pet-groot", "pet-klein", "blik"], "uitbetaling": [], "vrijToegankelijk": true, "gemeenteBeperking": null, "openingstijden": {"ma": "07:30–17:00", "di": "07:30–17:00", "wo": "07:30–17:00", "do": "07:30–17:00", "vr": "07:30–17:00", "za": "Gesloten", "zo": "Gesloten"}, "latitude": 51.8961054, "longitude": 4.1562797, "bronId": "256655"}}, {"type": "Feature", "geometry": {"type": "Point", "coordinates": [4.1924941, 51.8248324]}, "properties": {"type": "inleverpunt", "locatieNaam": "Ohvv", "straatNaam": "Eeweg", "straatNr": "31", "postcode": "3227 AH", "plaats": "Oudenhoorn", "merk": "StatiegeldNederland", "puntType": "balie", "materialen": ["pet-groot", "pet-klein", "blik"], "uitbetaling": [], "vrijToegankelijk": false, "gemeenteBeperking": null, "openingstijden": null, "latitude": 51.8248324, "longitude": 4.1924941, "bronId": "256994"}}, {"type": "Feature", "geometry": {"type": "Point", "coordinates": [4.069066, 51.8743244]}, "properties": {"type": "inleverpunt", "locatieNaam": "Plus", "straatNaam": "Dorpsplein", "straatNr": "22", "postcode": "3235 AD", "plaats": "Rockanje", "merk": "StatiegeldNederland", "puntType": "automaat", "materialen": ["pet-groot", "pet-klein", "blik", "glas", "krat"], "uitbetaling": ["bonnetje", "donatie"], "vrijToegankelijk": true, "gemeenteBeperking": null, "openingstijden": {"ma": "08:00–20:00", "di": "08:00–20:00", "wo": "08:00–20:00", "do": "08:00–20:00", "vr": "08:00–20:00", "za": "08:00–20:00", "zo": "Gesloten"}, "latitude": 51.8743244, "longitude": 4.069066, "bronId": "257270"}}, {"type": "Feature", "geometry": {"type": "Point", "coordinates": [4.132575, 51.838375]}, "properties": {"type": "inleverpunt", "locatieNaam": "Plus", "straatNaam": "Moriaanseweg", "straatNr": "56", "postcode": "3222 AD", "plaats": "Hellevoetsluis", "merk": "StatiegeldNederland", "puntType": "automaat", "materialen": ["pet-groot", "pet-klein", "blik", "glas", "krat"], "uitbetaling": ["bonnetje"], "vrijToegankelijk": true, "gemeenteBeperking": null, "openingstijden": {"ma": "08:00–21:00", "di": "08:00–21:00", "wo": "08:00–21:00", "do": "08:00–21:00", "vr": "08:00–21:00", "za": "08:00–21:00", "zo": "08:00–21:00"}, "latitude": 51.838375, "longitude": 4.132575, "bronId": "257441"}}, {"type": "Feature", "geometry": {"type": "Point", "coordinates": [4.1018788, 51.9138976]}, "properties": {"type": "inleverpunt", "locatieNaam": "Plus", "straatNaam": "Rakkerweg", "straatNr": "15", "postcode": "3233 CX", "plaats": "Oostvoorne", "merk": "StatiegeldNederland", "puntType": "automaat", "materialen": ["pet-groot", "pet-klein", "blik", "glas", "krat"], "uitbetaling": ["bonnetje"], "vrijToegankelijk": true, "gemeenteBeperking": null, "openingstijden": {"ma": "08:00–20:00", "di": "08:00–20:00", "wo": "08:00–20:00", "do": "08:00–20:00", "vr": "08:00–20:00", "za": "08:00–20:00", "zo": "08:00–18:00"}, "latitude": 51.9138976, "longitude": 4.1018788, "bronId": "257502"}}, {"type": "Feature", "geometry": {"type": "Point", "coordinates": [4.162292, 51.8931302]}, "properties": {"type": "inleverpunt", "locatieNaam": "Plus", "straatNaam": "Reede", "straatNr": "36", "postcode": "3232 EK", "plaats": "Brielle", "merk": "StatiegeldNederland", "puntType": "automaat", "materialen": ["pet-groot", "pet-klein", "blik", "glas", "krat"], "uitbetaling": ["bonnetje"], "vrijToegankelijk": true, "gemeenteBeperking": null, "openingstijden": {"ma": "08:00–20:00", "di": "08:00–20:00", "wo": "08:00–20:00", "do": "08:00–20:00", "vr": "08:00–20:00", "za": "08:00–20:00", "zo": "10:00–18:00"}, "latitude": 51.8931302, "longitude": 4.162292, "bronId": "257504"}}, {"type": "Feature", "geometry": {"type": "Point", "coordinates": [4.1151555, 51.9141111]}, "properties": {"type": "inleverpunt", "locatieNaam": "Shell", "straatNaam": "Brielseweg", "straatNr": "115", "postcode": "3233 AC", "plaats": "Oostvoorne", "merk": "StatiegeldNederland", "puntType": "balie", "materialen": ["pet-groot", "pet-klein", "blik"], "uitbetaling": [], "vrijToegankelijk": true, "gemeenteBeperking": null, "openingstijden": {"ma": "24 uur geopend", "di": "24 uur geopend", "wo": "24 uur geopend", "do": "24 uur geopend", "vr": "24 uur geopend", "za": "24 uur geopend", "zo": "24 uur geopend"}, "latitude": 51.9141111, "longitude": 4.1151555, "bronId": "258038"}}, {"type": "Feature", "geometry": {"type": "Point", "coordinates": [4.1591607, 51.8964884]}, "properties": {"type": "inleverpunt", "locatieNaam": "Shell", "straatNaam": "De Rik", "straatNr": "9", "postcode": "3232 LA", "plaats": "Brielle", "merk": "StatiegeldNederland", "puntType": "balie", "materialen": ["pet-groot", "pet-klein", "blik"], "uitbetaling": [], "vrijToegankelijk": true, "gemeenteBeperking": null, "openingstijden": {"ma": "06:00–22:30", "di": "06:00–22:30", "wo": "06:00–22:30", "do": "06:00–22:30", "vr": "06:00–22:30", "za": "08:00–22:30", "zo": "09:00–22:30"}, "latitude": 51.8964884, "longitude": 4.1591607, "bronId": "258050"}}, {"type": "Feature", "geometry": {"type": "Point", "coordinates": [4.1572081, 51.8954216]}, "properties": {"type": "inleverpunt", "locatieNaam": "Tafeltennisvereniging De Sprint", "straatNaam": "De Rik", "straatNr": "22B", "postcode": "3232 LA", "plaats": "Brielle", "merk": "StatiegeldNederland", "puntType": "balie", "materialen": ["pet-groot", "pet-klein", "blik"], "uitbetaling": [], "vrijToegankelijk": false, "gemeenteBeperking": null, "openingstijden": {"ma": "Gesloten", "di": "09:30–12:00, 19:30–23:30", "wo": "Gesloten", "do": "19:30–23:30", "vr": "19:30–23:30", "za": "Gesloten", "zo": "Gesloten"}, "latitude": 51.8954216, "longitude": 4.1572081, "bronId": "258873"}}, {"type": "Feature", "geometry": {"type": "Point", "coordinates": [4.2156958, 51.8847667]}, "properties": {"type": "inleverpunt", "locatieNaam": "Tennisvereniging Zwartewaal", "straatNaam": "Sluisweg", "straatNr": "2", "postcode": "3238 LE", "plaats": "Zwartewaal", "merk": "StatiegeldNederland", "puntType": "balie", "materialen": ["pet-groot", "pet-klein", "blik"], "uitbetaling": [], "vrijToegankelijk": false, "gemeenteBeperking": null, "openingstijden": null, "latitude": 51.8847667, "longitude": 4.2156958, "bronId": "258956"}}, {"type": "Feature", "geometry": {"type": "Point", "coordinates": [4.0821208, 51.8549389]}, "properties": {"type": "inleverpunt", "locatieNaam": "Vakantiesuper Rockanje", "straatNaam": "Schapengorsedijk", "straatNr": "19", "postcode": "3235 LA", "plaats": "Rockanje", "merk": "StatiegeldNederland", "puntType": "automaat", "materialen": ["pet-groot", "pet-klein", "blik"], "uitbetaling": ["bonnetje", "donatie"], "vrijToegankelijk": true, "gemeenteBeperking": null, "openingstijden": null, "latitude": 51.8549389, "longitude": 4.0821208, "bronId": "259157"}}, {"type": "Feature", "geometry": {"type": "Point", "coordinates": [4.1530773, 51.8251187]}, "properties": {"type": "inleverpunt", "locatieNaam": "ViaTim", "straatNaam": "de Brinio", "straatNr": "15", "postcode": "3224 GE", "plaats": "Hellevoetsluis", "merk": "StatiegeldNederland", "puntType": "balie", "materialen": ["pet-groot", "pet-klein", "blik"], "uitbetaling": ["tikkie"], "vrijToegankelijk": true, "gemeenteBeperking": null, "openingstijden": null, "latitude": 51.8251187, "longitude": 4.1530773, "bronId": "259248"}}, {"type": "Feature", "geometry": {"type": "Point", "coordinates": [4.1494066, 51.8736077]}, "properties": {"type": "inleverpunt", "locatieNaam": "ViaTim", "straatNaam": "Sluisweg", "straatNr": "2", "postcode": "3222 LJ", "plaats": "Hellevoetsluis", "merk": "StatiegeldNederland", "puntType": "balie", "materialen": ["pet-groot", "pet-klein", "blik"], "uitbetaling": ["tikkie"], "vrijToegankelijk": true, "gemeenteBeperking": null, "openingstijden": null, "latitude": 51.8736077, "longitude": 4.1494066, "bronId": "259482"}}, {"type": "Feature", "geometry": {"type": "Point", "coordinates": [4.22297, 51.88162]}, "properties": {"type": "inleverpunt", "locatieNaam": "SparZwartewaal", "straatNaam": "Dorpsstraat", "straatNr": "1-5", "postcode": "3238 BA", "plaats": "Zwartewaal", "merk": "StichtingOPEN", "puntType": "balie", "materialen": ["batterijen", "lampen"], "uitbetaling": [], "vrijToegankelijk": false, "gemeenteBeperking": null, "openingstijden": null, "latitude": 51.88162, "longitude": 4.22297, "bronId": "SP00030138"}}, {"type": "Feature", "geometry": {"type": "Point", "coordinates": [4.188668, 51.895119]}, "properties": {"type": "inleverpunt", "locatieNaam": "Praxis Brielle - 2285", "straatNaam": "Seggelant-Noord", "straatNr": "1", "postcode": "3237 MG", "plaats": "Vierpolders", "merk": "StichtingOPEN", "puntType": "balie", "materialen": ["lampen", "tl-buizen"], "uitbetaling": [], "vrijToegankelijk": false, "gemeenteBeperking": null, "openingstijden": null, "latitude": 51.895119, "longitude": 4.188668, "bronId": "SP00022210"}}, {"type": "Feature", "geometry": {"type": "Point", "coordinates": [4.171213, 51.90041]}, "properties": {"type": "inleverpunt", "locatieNaam": "1597 Albert Heijn Vierpolders", "straatNaam": "Thoelaverweg", "straatNr": "2", "postcode": "3231 KD", "plaats": "Vierpolders", "merk": "StichtingOPEN", "puntType": "balie", "materialen": ["batterijen", "elektro-klein", "lampen"], "uitbetaling": [], "vrijToegankelijk": false, "gemeenteBeperking": null, "openingstijden": null, "latitude": 51.90041, "longitude": 4.171213, "bronId": "SP00022717"}}, {"type": "Feature", "geometry": {"type": "Point", "coordinates": [4.168933, 51.899901]}, "properties": {"type": "inleverpunt", "locatieNaam": "Jumbo Vierpolders", "straatNaam": "Thoelaverweg", "straatNr": "1", "postcode": "3231 KD", "plaats": "Vierpolders", "merk": "StichtingOPEN", "puntType": "balie", "materialen": ["batterijen", "lampen"], "uitbetaling": [], "vrijToegankelijk": false, "gemeenteBeperking": null, "openingstijden": null, "latitude": 51.899901, "longitude": 4.168933, "bronId": "SP00025137"}}, {"type": "Feature", "geometry": {"type": "Point", "coordinates": [4.167451, 51.901871]}, "properties": {"type": "inleverpunt", "locatieNaam": "Action Brielle", "straatNaam": "Slagveld", "straatNr": "23", "postcode": "3231 AN", "plaats": "Brielle", "merk": "StichtingOPEN", "puntType": "balie", "materialen": ["batterijen", "lampen"], "uitbetaling": [], "vrijToegankelijk": false, "gemeenteBeperking": null, "openingstijden": null, "latitude": 51.901871, "longitude": 4.167451, "bronId": "SP00025560"}}, {"type": "Feature", "geometry": {"type": "Point", "coordinates": [4.163222, 51.900425]}, "properties": {"type": "inleverpunt", "locatieNaam": "Kruidvat Brielle", "straatNaam": "Nobelstraat", "straatNr": "7173", "postcode": "3231 BB", "plaats": "Brielle", "merk": "StichtingOPEN", "puntType": "balie", "materialen": ["batterijen", "lampen"], "uitbetaling": [], "vrijToegankelijk": false, "gemeenteBeperking": null, "openingstijden": null, "latitude": 51.900425, "longitude": 4.163222, "bronId": "SP00024577"}}, {"type": "Feature", "geometry": {"type": "Point", "coordinates": [4.162656, 51.893102]}, "properties": {"type": "inleverpunt", "locatieNaam": "PLUS Brielle", "straatNaam": "Reede", "straatNr": "36", "postcode": "3232 CZ", "plaats": "Brielle", "merk": "StichtingOPEN", "puntType": "balie", "materialen": ["batterijen", "lampen"], "uitbetaling": [], "vrijToegankelijk": false, "gemeenteBeperking": null, "openingstijden": null, "latitude": 51.893102, "longitude": 4.162656, "bronId": "SP00024164"}}, {"type": "Feature", "geometry": {"type": "Point", "coordinates": [4.154118, 51.899667]}, "properties": {"type": "inleverpunt", "locatieNaam": "Lidl Brielle", "straatNaam": "Ruggeplein", "straatNr": "1020", "postcode": "3232 AH", "plaats": "Brielle", "merk": "StichtingOPEN", "puntType": "balie", "materialen": ["batterijen", "lampen"], "uitbetaling": [], "vrijToegankelijk": false, "gemeenteBeperking": null, "openingstijden": null, "latitude": 51.899667, "longitude": 4.154118, "bronId": "SP00025679"}}, {"type": "Feature", "geometry": {"type": "Point", "coordinates": [4.190211, 51.82928]}, "properties": {"type": "inleverpunt", "locatieNaam": "D.A.C. Westenrijck", "straatNaam": "Molenweg", "straatNr": "5", "postcode": "3227 AR", "plaats": "Oudenhoorn", "merk": "StichtingOPEN", "puntType": "balie", "materialen": ["elektro-middel", "lampen", "tl-buizen"], "uitbetaling": [], "vrijToegankelijk": false, "gemeenteBeperking": null, "openingstijden": null, "latitude": 51.82928, "longitude": 4.190211, "bronId": "SP00022141"}}, {"type": "Feature", "geometry": {"type": "Point", "coordinates": [4.171829, 51.844686]}, "properties": {"type": "inleverpunt", "locatieNaam": "GroenRijk Aralia", "straatNaam": "Kreekweg", "straatNr": "2A", "postcode": "3223 LJ", "plaats": "Hellevoetsluis", "merk": "StichtingOPEN", "puntType": "balie", "materialen": ["elektro-middel", "lampen"], "uitbetaling": [], "vrijToegankelijk": false, "gemeenteBeperking": null, "openingstijden": null, "latitude": 51.844686, "longitude": 4.171829, "bronId": "SP00006061"}}, {"type": "Feature", "geometry": {"type": "Point", "coordinates": [4.168272, 51.837864]}, "properties": {"type": "inleverpunt", "locatieNaam": "GAMMA Hellevoetsluis", "straatNaam": "Einsteinweg", "straatNr": "8", "postcode": "3225 LT", "plaats": "Hellevoetsluis", "merk": "StichtingOPEN", "puntType": "balie", "materialen": ["batterijen", "elektro-middel", "lampen", "tl-buizen"], "uitbetaling": [], "vrijToegankelijk": false, "gemeenteBeperking": null, "openingstijden": null, "latitude": 51.837864, "longitude": 4.168272, "bronId": "SP00004680"}}, {"type": "Feature", "geometry": {"type": "Point", "coordinates": [4.16528, 51.838714]}, "properties": {"type": "inleverpunt", "locatieNaam": "Praxis Hellevoetsluis - 2273", "straatNaam": "Marconiweg", "straatNr": "22", "postcode": "3225 LV", "plaats": "Hellevoetsluis", "merk": "StichtingOPEN", "puntType": "balie", "materialen": ["elektro-middel", "lampen", "tl-buizen"], "uitbetaling": [], "vrijToegankelijk": false, "gemeenteBeperking": null, "openingstijden": null, "latitude": 51.838714, "longitude": 4.16528, "bronId": "SP00004888"}}, {"type": "Feature", "geometry": {"type": "Point", "coordinates": [4.165218, 51.83293]}, "properties": {"type": "inleverpunt", "locatieNaam": "MCD Hellevoetsluis", "straatNaam": "Forel", "straatNr": "2e", "postcode": "3225 PA", "plaats": "Hellevoetsluis", "merk": "StichtingOPEN", "puntType": "balie", "materialen": ["batterijen", "lampen"], "uitbetaling": [], "vrijToegankelijk": false, "gemeenteBeperking": null, "openingstijden": null, "latitude": 51.83293, "longitude": 4.165218, "bronId": "SP00023401"}}, {"type": "Feature", "geometry": {"type": "Point", "coordinates": [4.118774, 51.910327]}, "properties": {"type": "inleverpunt", "locatieNaam": "Praxis Oostvoorne - 2298", "straatNaam": "Westvoorneweg", "straatNr": "20", "postcode": "3233 LD", "plaats": "Oostvoorne", "merk": "StichtingOPEN", "puntType": "balie", "materialen": ["elektro-klein", "elektro-middel", "lampen", "tl-buizen"], "uitbetaling": [], "vrijToegankelijk": false, "gemeenteBeperking": null, "openingstijden": null, "latitude": 51.910327, "longitude": 4.118774, "bronId": "SP00026457"}}, {"type": "Feature", "geometry": {"type": "Point", "coordinates": [4.154077, 51.829616]}, "properties": {"type": "inleverpunt", "locatieNaam": "Kinderboerderij De Kerkestee", "straatNaam": "Plattendijk", "straatNr": "1", "postcode": "3224 AV", "plaats": "Hellevoetsluis", "merk": "StichtingOPEN", "puntType": "balie", "materialen": ["elektro-middel"], "uitbetaling": [], "vrijToegankelijk": false, "gemeenteBeperking": null, "openingstijden": null, "latitude": 51.829616, "longitude": 4.154077, "bronId": "SP00005682"}}, {"type": "Feature", "geometry": {"type": "Point", "coordinates": [4.152292, 51.82593]}, "properties": {"type": "inleverpunt", "locatieNaam": "Aldi Hellevoetsluis", "straatNaam": "Kastanjelaan", "straatNr": "42", "postcode": "3224 TJ", "plaats": "Hellevoetsluis", "merk": "StichtingOPEN", "puntType": "balie", "materialen": ["batterijen", "elektro-klein", "lampen"], "uitbetaling": [], "vrijToegankelijk": false, "gemeenteBeperking": null, "openingstijden": null, "latitude": 51.82593, "longitude": 4.152292, "bronId": "SP00027216"}}, {"type": "Feature", "geometry": {"type": "Point", "coordinates": [4.145789, 51.832787]}, "properties": {"type": "inleverpunt", "locatieNaam": "Kruidvat Hellevoetsluis", "straatNaam": "Struytse Hoeck", "straatNr": "336", "postcode": "3223 DE", "plaats": "Hellevoetsluis", "merk": "StichtingOPEN", "puntType": "balie", "materialen": ["batterijen", "lampen"], "uitbetaling": [], "vrijToegankelijk": false, "gemeenteBeperking": null, "openingstijden": null, "latitude": 51.832787, "longitude": 4.145789, "bronId": "SP00024553"}}, {"type": "Feature", "geometry": {"type": "Point", "coordinates": [4.102299, 51.914135]}, "properties": {"type": "inleverpunt", "locatieNaam": "Kruidvat Oostvoorne", "straatNaam": "Pastorielaan", "straatNr": "2", "postcode": "3233 CZ", "plaats": "Oostvoorne", "merk": "StichtingOPEN", "puntType": "balie", "materialen": ["batterijen", "lampen"], "uitbetaling": [], "vrijToegankelijk": false, "gemeenteBeperking": null, "openingstijden": null, "latitude": 51.914135, "longitude": 4.102299, "bronId": "SP00024903"}}, {"type": "Feature", "geometry": {"type": "Point", "coordinates": [4.10224, 51.91372]}, "properties": {"type": "inleverpunt", "locatieNaam": "Coop", "straatNaam": "Rakkerweg", "straatNr": "15", "postcode": "3233 CX", "plaats": "Oostvoorne", "merk": "StichtingOPEN", "puntType": "balie", "materialen": ["batterijen", "lampen"], "uitbetaling": [], "vrijToegankelijk": false, "gemeenteBeperking": null, "openingstijden": null, "latitude": 51.91372, "longitude": 4.10224, "bronId": "SP00030185"}}, {"type": "Feature", "geometry": {"type": "Point", "coordinates": [4.145665, 51.83057]}, "properties": {"type": "inleverpunt", "locatieNaam": "Xenos Hellevoetsluis", "straatNaam": "Struytse Hoeck", "straatNr": "58", "postcode": "3224 HB", "plaats": "Hellevoetsluis", "merk": "StichtingOPEN", "puntType": "balie", "materialen": ["batterijen", "lampen"], "uitbetaling": [], "vrijToegankelijk": false, "gemeenteBeperking": null, "openingstijden": null, "latitude": 51.83057, "longitude": 4.145665, "bronId": "SP00025696"}}, {"type": "Feature", "geometry": {"type": "Point", "coordinates": [4.101094, 51.914232]}, "properties": {"type": "inleverpunt", "locatieNaam": "1675 Albert Heijn Oostvoorne", "straatNaam": "Stationsweg", "straatNr": "16", "postcode": "3233 CT", "plaats": "Oostvoorne", "merk": "StichtingOPEN", "puntType": "balie", "materialen": ["batterijen", "elektro-klein", "lampen"], "uitbetaling": [], "vrijToegankelijk": false, "gemeenteBeperking": null, "openingstijden": null, "latitude": 51.914232, "longitude": 4.101094, "bronId": "SP00022725"}}, {"type": "Feature", "geometry": {"type": "Point", "coordinates": [4.135927, 51.838468]}, "properties": {"type": "inleverpunt", "locatieNaam": "Action Hellevoetsluis 1234", "straatNaam": "Moriaanseweg Oost", "straatNr": "76", "postcode": "3223 AK", "plaats": "Hellevoetsluis", "merk": "StichtingOPEN", "puntType": "balie", "materialen": ["batterijen", "lampen"], "uitbetaling": [], "vrijToegankelijk": false, "gemeenteBeperking": null, "openingstijden": null, "latitude": 51.838468, "longitude": 4.135927, "bronId": "SP00007811"}}, {"type": "Feature", "geometry": {"type": "Point", "coordinates": [4.132565, 51.838173]}, "properties": {"type": "inleverpunt", "locatieNaam": "PLUS Hellevoetsluis", "straatNaam": "Moriaanseweg West", "straatNr": "56", "postcode": "3222 AD", "plaats": "Hellevoetsluis", "merk": "StichtingOPEN", "puntType": "balie", "materialen": ["batterijen", "lampen"], "uitbetaling": [], "vrijToegankelijk": false, "gemeenteBeperking": null, "openingstijden": null, "latitude": 51.838173, "longitude": 4.132565, "bronId": "SP00024117"}}, {"type": "Feature", "geometry": {"type": "Point", "coordinates": [4.069229, 51.874307]}, "properties": {"type": "inleverpunt", "locatieNaam": "PLUS Rockanje", "straatNaam": "Dorpsplein", "straatNr": "22", "postcode": "3235 AD", "plaats": "Rockanje", "merk": "StichtingOPEN", "puntType": "balie", "materialen": ["batterijen", "lampen"], "uitbetaling": [], "vrijToegankelijk": false, "gemeenteBeperking": null, "openingstijden": null, "latitude": 51.874307, "longitude": 4.069229, "bronId": "SP00024034"}}, {"type": "Feature", "geometry": {"type": "Point", "coordinates": [4.06901, 51.874116]}, "properties": {"type": "inleverpunt", "locatieNaam": "Kruidvat Rockanje", "straatNaam": "Dorpsplein", "straatNr": "2", "postcode": "3235 AD", "plaats": "Rockanje", "merk": "StichtingOPEN", "puntType": "balie", "materialen": ["batterijen", "lampen"], "uitbetaling": [], "vrijToegankelijk": false, "gemeenteBeperking": null, "openingstijden": null, "latitude": 51.874116, "longitude": 4.06901, "bronId": "SP00024567"}}, {"type": "Feature", "geometry": {"type": "Point", "coordinates": [4.14011, 51.847788]}, "properties": {"type": "inleverpunt", "locatieNaam": "Milieustation Hellevoetsluis", "straatNaam": "Rijksstraatweg", "straatNr": "252A", "postcode": "3223 KE", "plaats": "Hellevoetsluis", "merk": "StichtingOPEN", "puntType": "milieustraat", "materialen": ["batterijen", "elektro-groot", "elektro-klein", "elektro-middel", "lampen", "tl-buizen"], "uitbetaling": [], "vrijToegankelijk": false, "gemeenteBeperking": ["Voorne aan Zee"], "openingstijden": null, "latitude": 51.847788, "longitude": 4.14011, "bronId": "SP00001133"}}, {"type": "Feature", "geometry": {"type": "Point", "coordinates": [4.160475, 51.888653]}, "properties": {"type": "inleverpunt", "locatieNaam": "Stadswerf 't Woud", "straatNaam": "'t Woud", "straatNr": "53", "postcode": "3232 LN", "plaats": "Brielle", "merk": "StichtingOPEN", "puntType": "milieustraat", "materialen": ["batterijen", "elektro-groot", "elektro-klein", "elektro-middel", "lampen", "tl-buizen"], "uitbetaling": [], "vrijToegankelijk": false, "gemeenteBeperking": ["Voorne aan Zee"], "openingstijden": null, "latitude": 51.888653, "longitude": 4.160475, "bronId": "SP00004404"}}, {"type": "Feature", "geometry": {"type": "Point", "coordinates": [4.11687, 51.910266]}, "properties": {"type": "inleverpunt", "locatieNaam": "Gemeentewerf Oostvoorne", "straatNaam": "Langeweg", "straatNr": "26", "postcode": "3233 LM", "plaats": "Oostvoorne", "merk": "StichtingOPEN", "puntType": "milieustraat", "materialen": ["batterijen", "elektro-groot", "elektro-klein", "elektro-middel", "lampen", "tl-buizen"], "uitbetaling": [], "vrijToegankelijk": false, "gemeenteBeperking": ["Voorne aan Zee"], "openingstijden": null, "latitude": 51.910266, "longitude": 4.11687, "bronId": "SP00004398"}}, {"type": "Feature", "geometry": {"type": "Point", "coordinates": [4.184243, 51.9099356]}, "properties": {"type": "inleverpunt", "locatieNaam": "Supermarkt Krabbeplaat", "straatNaam": "Oude Veerdam", "straatNr": "4", "postcode": "3231 NC", "plaats": "BRIELLE", "merk": "Stibat", "puntType": "inzamelbak", "materialen": ["batterijen"], "uitbetaling": [], "vrijToegankelijk": false, "gemeenteBeperking": null, "openingstijden": null, "latitude": 51.9099356, "longitude": 4.184243, "bronId": "L029269"}}, {"type": "Feature", "geometry": {"type": "Point", "coordinates": [4.184243, 51.9099356]}, "properties": {"type": "inleverpunt", "locatieNaam": "Camping De Krabbeplaat", "straatNaam": "Oude Veerdam", "straatNr": "4", "postcode": "3231 NC", "plaats": "BRIELLE", "merk": "Stibat", "puntType": "inzamelbak", "materialen": ["batterijen"], "uitbetaling": [], "vrijToegankelijk": false, "gemeenteBeperking": null, "openingstijden": null, "latitude": 51.9099356, "longitude": 4.184243, "bronId": "L005374"}}, {"type": "Feature", "geometry": {"type": "Point", "coordinates": [4.1886682, 51.8951193]}, "properties": {"type": "inleverpunt", "locatieNaam": "Praxis 2285", "straatNaam": "Seggelant-Noord", "straatNr": "1", "postcode": "3237 MG", "plaats": "VIERPOLDERS", "merk": "Stibat", "puntType": "inzamelbak", "materialen": ["batterijen"], "uitbetaling": [], "vrijToegankelijk": false, "gemeenteBeperking": null, "openingstijden": null, "latitude": 51.8951193, "longitude": 4.1886682, "bronId": "L040449"}}, {"type": "Feature", "geometry": {"type": "Point", "coordinates": [4.1757308, 51.9065846]}, "properties": {"type": "inleverpunt", "locatieNaam": "Camping de Meeuw", "straatNaam": "Batterijweg", "straatNr": "1", "postcode": "3231 AA", "plaats": "BRIELLE", "merk": "Stibat", "puntType": "inzamelbak", "materialen": ["batterijen"], "uitbetaling": [], "vrijToegankelijk": false, "gemeenteBeperking": null, "openingstijden": null, "latitude": 51.9065846, "longitude": 4.1757308, "bronId": "L017801"}}, {"type": "Feature", "geometry": {"type": "Point", "coordinates": [4.1705418, 51.9000657]}, "properties": {"type": "inleverpunt", "locatieNaam": "1597 Albert Heijn", "straatNaam": "Thoelaverweg", "straatNr": "2", "postcode": "3231 KD", "plaats": "BRIELLE", "merk": "Stibat", "puntType": "inzamelbak", "materialen": ["batterijen"], "uitbetaling": [], "vrijToegankelijk": false, "gemeenteBeperking": null, "openingstijden": null, "latitude": 51.9000657, "longitude": 4.1705418, "bronId": "L007153"}}, {"type": "Feature", "geometry": {"type": "Point", "coordinates": [4.1688999, 51.9001952]}, "properties": {"type": "inleverpunt", "locatieNaam": "Jumbo", "straatNaam": "Thoelaverweg", "straatNr": "1", "postcode": "3231 KD", "plaats": "BRIELLE", "merk": "Stibat", "puntType": "inzamelbak", "materialen": ["batterijen"], "uitbetaling": [], "vrijToegankelijk": false, "gemeenteBeperking": null, "openingstijden": null, "latitude": 51.9001952, "longitude": 4.1688999, "bronId": "L013037"}}, {"type": "Feature", "geometry": {"type": "Point", "coordinates": [4.1674543, 51.9018208]}, "properties": {"type": "inleverpunt", "locatieNaam": "1365 Action", "straatNaam": "Slagveld", "straatNr": "2-3", "postcode": "3231 AN", "plaats": "BRIELLE", "merk": "Stibat", "puntType": "inzamelbak", "materialen": ["batterijen"], "uitbetaling": [], "vrijToegankelijk": false, "gemeenteBeperking": null, "openingstijden": null, "latitude": 51.9018208, "longitude": 4.1674543, "bronId": "L038783"}}, {"type": "Feature", "geometry": {"type": "Point", "coordinates": [4.1658032, 51.9021745]}, "properties": {"type": "inleverpunt", "locatieNaam": "Expert", "straatNaam": "Visstraat", "straatNr": "11", "postcode": "3231 AV", "plaats": "BRIELLE", "merk": "Stibat", "puntType": "inzamelbak", "materialen": ["batterijen"], "uitbetaling": [], "vrijToegankelijk": false, "gemeenteBeperking": null, "openingstijden": null, "latitude": 51.9021745, "longitude": 4.1658032, "bronId": "L010581"}}, {"type": "Feature", "geometry": {"type": "Point", "coordinates": [4.1646853, 51.9017868]}, "properties": {"type": "inleverpunt", "locatieNaam": "7930 Etos", "straatNaam": "Nobelstraat", "straatNr": "11", "postcode": "3231 BA", "plaats": "BRIELLE", "merk": "Stibat", "puntType": "inzamelbak", "materialen": ["batterijen"], "uitbetaling": [], "vrijToegankelijk": false, "gemeenteBeperking": null, "openingstijden": null, "latitude": 51.9017868, "longitude": 4.1646853, "bronId": "L029102"}}, {"type": "Feature", "geometry": {"type": "Point", "coordinates": [4.1646951, 51.9008943]}, "properties": {"type": "inleverpunt", "locatieNaam": "HEMA Turfkade", "straatNaam": "Turfkade", "straatNr": "25", "postcode": "3231 AR", "plaats": "BRIELLE", "merk": "Stibat", "puntType": "inzamelbak", "materialen": ["batterijen"], "uitbetaling": [], "vrijToegankelijk": false, "gemeenteBeperking": null, "openingstijden": null, "latitude": 51.9008943, "longitude": 4.1646951, "bronId": "L011457"}}, {"type": "Feature", "geometry": {"type": "Point", "coordinates": [4.163955, 51.9008815]}, "properties": {"type": "inleverpunt", "locatieNaam": "Kruidvat", "straatNaam": "Nobelstraat", "straatNr": "71-73", "postcode": "3231 BB", "plaats": "BRIELLE", "merk": "Stibat", "puntType": "inzamelbak", "materialen": ["batterijen"], "uitbetaling": [], "vrijToegankelijk": false, "gemeenteBeperking": null, "openingstijden": null, "latitude": 51.9008815, "longitude": 4.163955, "bronId": "L014274"}}, {"type": "Feature", "geometry": {"type": "Point", "coordinates": [4.1631987, 51.9008028]}, "properties": {"type": "inleverpunt", "locatieNaam": "Zeeman", "straatNaam": "Nobelstraat", "straatNr": "52-54", "postcode": "3231 BD", "plaats": "Brielle", "merk": "Stibat", "puntType": "inzamelbak", "materialen": ["batterijen"], "uitbetaling": [], "vrijToegankelijk": false, "gemeenteBeperking": null, "openingstijden": null, "latitude": 51.9008028, "longitude": 4.1631987, "bronId": "L020850"}}, {"type": "Feature", "geometry": {"type": "Point", "coordinates": [4.1629567, 51.8930628]}, "properties": {"type": "inleverpunt", "locatieNaam": "PLUS", "straatNaam": "Reede", "straatNr": "36", "postcode": "3232 CZ", "plaats": "BRIELLE", "merk": "Stibat", "puntType": "inzamelbak", "materialen": ["batterijen"], "uitbetaling": [], "vrijToegankelijk": false, "gemeenteBeperking": null, "openingstijden": null, "latitude": 51.8930628, "longitude": 4.1629567, "bronId": "L008843"}}, {"type": "Feature", "geometry": {"type": "Point", "coordinates": [4.162721, 51.8933435]}, "properties": {"type": "inleverpunt", "locatieNaam": "Primera", "straatNaam": "Reede", "straatNr": "48", "postcode": "3232 CZ", "plaats": "BRIELLE", "merk": "Stibat", "puntType": "inzamelbak", "materialen": ["batterijen"], "uitbetaling": [], "vrijToegankelijk": false, "gemeenteBeperking": null, "openingstijden": null, "latitude": 51.8933435, "longitude": 4.162721, "bronId": "L024438"}}, {"type": "Feature", "geometry": {"type": "Point", "coordinates": [4.160066, 51.894618]}, "properties": {"type": "inleverpunt", "locatieNaam": "FixFiets.nl", "straatNaam": "Logger", "straatNr": "7", "postcode": "3232 CP", "plaats": "BRIELLE", "merk": "Stibat", "puntType": "inzamelbak", "materialen": ["batterijen"], "uitbetaling": [], "vrijToegankelijk": false, "gemeenteBeperking": null, "openingstijden": null, "latitude": 51.894618, "longitude": 4.160066, "bronId": "L044481"}}, {"type": "Feature", "geometry": {"type": "Point", "coordinates": [4.1623156, 51.8891396]}, "properties": {"type": "inleverpunt", "locatieNaam": "Bike Totaal van Oudenaarden", "straatNaam": "'t Woud", "straatNr": "4", "postcode": "3232 LN", "plaats": "Brielle", "merk": "Stibat", "puntType": "inzamelbak", "materialen": ["batterijen"], "uitbetaling": [], "vrijToegankelijk": false, "gemeenteBeperking": null, "openingstijden": null, "latitude": 51.8891396, "longitude": 4.1623156, "bronId": "L033114"}}, {"type": "Feature", "geometry": {"type": "Point", "coordinates": [4.1603749, 51.8885377]}, "properties": {"type": "inleverpunt", "locatieNaam": "Stadswerf Brielle", "straatNaam": "’t Woud", "straatNr": "53", "postcode": "3232 LN", "plaats": "BRIELLE", "merk": "Stibat", "puntType": "inzamelbak", "materialen": ["batterijen"], "uitbetaling": [], "vrijToegankelijk": false, "gemeenteBeperking": null, "openingstijden": null, "latitude": 51.8885377, "longitude": 4.1603749, "bronId": "L035662"}}, {"type": "Feature", "geometry": {"type": "Point", "coordinates": [4.154129, 51.899274]}, "properties": {"type": "inleverpunt", "locatieNaam": "Lidl", "straatNaam": "Ruggeplein", "straatNr": "10-20", "postcode": "3232 AH", "plaats": "BRIELLE", "merk": "Stibat", "puntType": "inzamelbak", "materialen": ["batterijen"], "uitbetaling": [], "vrijToegankelijk": false, "gemeenteBeperking": null, "openingstijden": null, "latitude": 51.899274, "longitude": 4.154129, "bronId": "L029737"}}, {"type": "Feature", "geometry": {"type": "Point", "coordinates": [4.1536138, 51.900042]}, "properties": {"type": "inleverpunt", "locatieNaam": "DA", "straatNaam": "Ruggeplein", "straatNr": "26", "postcode": "3232 AH", "plaats": "BRIELLE", "merk": "Stibat", "puntType": "inzamelbak", "materialen": ["batterijen"], "uitbetaling": [], "vrijToegankelijk": false, "gemeenteBeperking": null, "openingstijden": null, "latitude": 51.900042, "longitude": 4.1536138, "bronId": "L023791"}}, {"type": "Feature", "geometry": {"type": "Point", "coordinates": [4.171711, 51.8446879]}, "properties": {"type": "inleverpunt", "locatieNaam": "Tuincentrum Aralia", "straatNaam": "Kreekweg", "straatNr": "2 A", "postcode": "3223 LJ", "plaats": "HELLEVOETSLUIS", "merk": "Stibat", "puntType": "inzamelbak", "materialen": ["batterijen"], "uitbetaling": [], "vrijToegankelijk": false, "gemeenteBeperking": null, "openingstijden": null, "latitude": 51.8446879, "longitude": 4.171711, "bronId": "L043238"}}, {"type": "Feature", "geometry": {"type": "Point", "coordinates": [4.1697021, 51.8388459]}, "properties": {"type": "inleverpunt", "locatieNaam": "Toolstation", "straatNaam": "Nijverheidsweg", "straatNr": "19", "postcode": "3225 LL", "plaats": "HELLEVOETSLUIS", "merk": "Stibat", "puntType": "inzamelbak", "materialen": ["batterijen"], "uitbetaling": [], "vrijToegankelijk": false, "gemeenteBeperking": null, "openingstijden": null, "latitude": 51.8388459, "longitude": 4.1697021, "bronId": "L043625"}}, {"type": "Feature", "geometry": {"type": "Point", "coordinates": [4.1652809, 51.8387149]}, "properties": {"type": "inleverpunt", "locatieNaam": "Praxis 2273", "straatNaam": "Marconiweg", "straatNr": "22", "postcode": "3225 LV", "plaats": "HELLEVOETSLUIS", "merk": "Stibat", "puntType": "inzamelbak", "materialen": ["batterijen"], "uitbetaling": [], "vrijToegankelijk": false, "gemeenteBeperking": null, "openingstijden": null, "latitude": 51.8387149, "longitude": 4.1652809, "bronId": "L040368"}}, {"type": "Feature", "geometry": {"type": "Point", "coordinates": [4.1666825, 51.8362315]}, "properties": {"type": "inleverpunt", "locatieNaam": "Gamma", "straatNaam": "Einsteinweg", "straatNr": "8", "postcode": "3225 LT", "plaats": "HELLEVOETSLUIS", "merk": "Stibat", "puntType": "inzamelbak", "materialen": ["batterijen"], "uitbetaling": [], "vrijToegankelijk": false, "gemeenteBeperking": null, "openingstijden": null, "latitude": 51.8362315, "longitude": 4.1666825, "bronId": "L005872"}}, {"type": "Feature", "geometry": {"type": "Point", "coordinates": [4.1652185, 51.8329302]}, "properties": {"type": "inleverpunt", "locatieNaam": "Primera", "straatNaam": "Forel", "straatNr": "2E", "postcode": "3225 PA", "plaats": "HELLEVOETSLUIS", "merk": "Stibat", "puntType": "inzamelbak", "materialen": ["batterijen"], "uitbetaling": [], "vrijToegankelijk": false, "gemeenteBeperking": null, "openingstijden": null, "latitude": 51.8329302, "longitude": 4.1652185, "bronId": "L023551"}}, {"type": "Feature", "geometry": {"type": "Point", "coordinates": [4.1652185, 51.8329302]}, "properties": {"type": "inleverpunt", "locatieNaam": "Boons markt", "straatNaam": "Forel", "straatNr": "2E", "postcode": "3225 PA", "plaats": "HELLEVOETSLUIS", "merk": "Stibat", "puntType": "inzamelbak", "materialen": ["batterijen"], "uitbetaling": [], "vrijToegankelijk": false, "gemeenteBeperking": null, "openingstijden": null, "latitude": 51.8329302, "longitude": 4.1652185, "bronId": "L010957"}}, {"type": "Feature", "geometry": {"type": "Point", "coordinates": [4.1178817, 51.9230506]}, "properties": {"type": "inleverpunt", "locatieNaam": "Recreatiepark Kruiniger Gors", "straatNaam": "Gorsplein", "straatNr": "2", "postcode": "3233 XC", "plaats": "OOSTVOORNE", "merk": "Stibat", "puntType": "inzamelbak", "materialen": ["batterijen"], "uitbetaling": [], "vrijToegankelijk": false, "gemeenteBeperking": null, "openingstijden": null, "latitude": 51.9230506, "longitude": 4.1178817, "bronId": "L002866"}}, {"type": "Feature", "geometry": {"type": "Point", "coordinates": [4.1187742, 51.9103275]}, "properties": {"type": "inleverpunt", "locatieNaam": "Praxis 2298", "straatNaam": "Westvoorneweg", "straatNr": "20", "postcode": "3233 LD", "plaats": "OOSTVOORNE", "merk": "Stibat", "puntType": "inzamelbak", "materialen": ["batterijen"], "uitbetaling": [], "vrijToegankelijk": false, "gemeenteBeperking": null, "openingstijden": null, "latitude": 51.9103275, "longitude": 4.1187742, "bronId": "L040908"}}, {"type": "Feature", "geometry": {"type": "Point", "coordinates": [4.1525438, 51.8421582]}, "properties": {"type": "inleverpunt", "locatieNaam": "Jumbo", "straatNaam": "Jachthoorn", "straatNr": "9", "postcode": "3223 HA", "plaats": "HELLEVOETSLUIS", "merk": "Stibat", "puntType": "inzamelbak", "materialen": ["batterijen"], "uitbetaling": [], "vrijToegankelijk": false, "gemeenteBeperking": null, "openingstijden": null, "latitude": 51.8421582, "longitude": 4.1525438, "bronId": "L036605"}}, {"type": "Feature", "geometry": {"type": "Point", "coordinates": [4.1171923, 51.9102031]}, "properties": {"type": "inleverpunt", "locatieNaam": "Gemeentewerf Oostvoorne", "straatNaam": "Langeweg", "straatNr": "26", "postcode": "3233 LM", "plaats": "OOSTVOORNE", "merk": "Stibat", "puntType": "inzamelbak", "materialen": ["batterijen"], "uitbetaling": [], "vrijToegankelijk": false, "gemeenteBeperking": null, "openingstijden": null, "latitude": 51.9102031, "longitude": 4.1171923, "bronId": "L035663"}}, {"type": "Feature", "geometry": {"type": "Point", "coordinates": [4.150203, 51.8359759]}, "properties": {"type": "inleverpunt", "locatieNaam": "Koffiekamer Hofstaete", "straatNaam": "Hofwijckstraat", "straatNr": "118", "postcode": "3223 VD", "plaats": "HELLEVOETSLUIS", "merk": "Stibat", "puntType": "inzamelbak", "materialen": ["batterijen"], "uitbetaling": [], "vrijToegankelijk": false, "gemeenteBeperking": null, "openingstijden": null, "latitude": 51.8359759, "longitude": 4.150203, "bronId": "L028988"}}, {"type": "Feature", "geometry": {"type": "Point", "coordinates": [4.149583, 51.832232]}, "properties": {"type": "inleverpunt", "locatieNaam": "Shell", "straatNaam": "de Sprong", "straatNr": "2", "postcode": "3224 HC", "plaats": "HELLEVOETSLUIS", "merk": "Stibat", "puntType": "inzamelbak", "materialen": ["batterijen"], "uitbetaling": [], "vrijToegankelijk": false, "gemeenteBeperking": null, "openingstijden": null, "latitude": 51.832232, "longitude": 4.149583, "bronId": "L025598"}}, {"type": "Feature", "geometry": {"type": "Point", "coordinates": [4.1395637, 51.8477133]}, "properties": {"type": "inleverpunt", "locatieNaam": "Afvalinzamelstation Hellevoetsluis", "straatNaam": "Rijksstraatweg", "straatNr": "252a", "postcode": "3223 KE", "plaats": "HELLEVOETSLUIS", "merk": "Stibat", "puntType": "inzamelbak", "materialen": ["batterijen"], "uitbetaling": [], "vrijToegankelijk": false, "gemeenteBeperking": null, "openingstijden": null, "latitude": 51.8477133, "longitude": 4.1395637, "bronId": "L035661"}}, {"type": "Feature", "geometry": {"type": "Point", "coordinates": [4.1050401, 51.9158255]}, "properties": {"type": "inleverpunt", "locatieNaam": "Voorne Tweewielers", "straatNaam": "Burgemeester Letteweg", "straatNr": "42", "postcode": "3233 AG", "plaats": "OOSTVOORNE", "merk": "Stibat", "puntType": "inzamelbak", "materialen": ["batterijen"], "uitbetaling": [], "vrijToegankelijk": false, "gemeenteBeperking": null, "openingstijden": null, "latitude": 51.9158255, "longitude": 4.1050401, "bronId": "L033115"}}, {"type": "Feature", "geometry": {"type": "Point", "coordinates": [4.147021, 51.8345508]}, "properties": {"type": "inleverpunt", "locatieNaam": "Schoonenberg Hoorcomfort", "straatNaam": "Bruggehoofd", "straatNr": "34", "postcode": "3223 DD", "plaats": "HELLEVOETSLUIS", "merk": "Stibat", "puntType": "inzamelbak", "materialen": ["batterijen"], "uitbetaling": [], "vrijToegankelijk": false, "gemeenteBeperking": null, "openingstijden": null, "latitude": 51.8345508, "longitude": 4.147021, "bronId": "L020957"}}, {"type": "Feature", "geometry": {"type": "Point", "coordinates": [4.1522921, 51.82593]}, "properties": {"type": "inleverpunt", "locatieNaam": "Aldi", "straatNaam": "Kastanjelaan", "straatNr": "42", "postcode": "3224 TJ", "plaats": "Hellevoetsluis", "merk": "Stibat", "puntType": "inzamelbak", "materialen": ["batterijen"], "uitbetaling": [], "vrijToegankelijk": false, "gemeenteBeperking": null, "openingstijden": null, "latitude": 51.82593, "longitude": 4.1522921, "bronId": "L041220"}}, {"type": "Feature", "geometry": {"type": "Point", "coordinates": [4.1472506, 51.8319666]}, "properties": {"type": "inleverpunt", "locatieNaam": "Xenos", "straatNaam": "Struytse Hoeck", "straatNr": "61a", "postcode": "3224 HA", "plaats": "HELLEVOETSLUIS", "merk": "Stibat", "puntType": "inzamelbak", "materialen": ["batterijen"], "uitbetaling": [], "vrijToegankelijk": false, "gemeenteBeperking": null, "openingstijden": null, "latitude": 51.8319666, "longitude": 4.1472506, "bronId": "L036928"}}, {"type": "Feature", "geometry": {"type": "Point", "coordinates": [4.1468899, 51.8315535]}, "properties": {"type": "inleverpunt", "locatieNaam": "Lidl", "straatNaam": "Struytse Hoeck", "straatNr": "59", "postcode": "3224 HA", "plaats": "Hellevoetsluis", "merk": "Stibat", "puntType": "inzamelbak", "materialen": ["batterijen"], "uitbetaling": [], "vrijToegankelijk": false, "gemeenteBeperking": null, "openingstijden": null, "latitude": 51.8315535, "longitude": 4.1468899, "bronId": "L017567"}}, {"type": "Feature", "geometry": {"type": "Point", "coordinates": [4.1455026, 51.8333988]}, "properties": {"type": "inleverpunt", "locatieNaam": "DOUGLAS", "straatNaam": "Struytse Hoeck", "straatNr": "311", "postcode": "3223 DE", "plaats": "HELLEVOETSLUIS", "merk": "Stibat", "puntType": "inzamelbak", "materialen": ["batterijen"], "uitbetaling": [], "vrijToegankelijk": false, "gemeenteBeperking": null, "openingstijden": null, "latitude": 51.8333988, "longitude": 4.1455026, "bronId": "L049191"}}, {"type": "Feature", "geometry": {"type": "Point", "coordinates": [4.1453493, 51.833528]}, "properties": {"type": "inleverpunt", "locatieNaam": "Bruna", "straatNaam": "De Struytse Hoeck", "straatNr": "310", "postcode": "3223 DE", "plaats": "HELLEVOETSLUIS", "merk": "Stibat", "puntType": "inzamelbak", "materialen": ["batterijen"], "uitbetaling": [], "vrijToegankelijk": false, "gemeenteBeperking": null, "openingstijden": null, "latitude": 51.833528, "longitude": 4.1453493, "bronId": "L024695"}}, {"type": "Feature", "geometry": {"type": "Point", "coordinates": [4.1452197, 51.8334907]}, "properties": {"type": "inleverpunt", "locatieNaam": "Jumbo", "straatNaam": "Struytse Hoeck", "straatNr": "349", "postcode": "3223 DE", "plaats": "HELLEVOETSLUIS", "merk": "Stibat", "puntType": "inzamelbak", "materialen": ["batterijen"], "uitbetaling": [], "vrijToegankelijk": false, "gemeenteBeperking": null, "openingstijden": null, "latitude": 51.8334907, "longitude": 4.1452197, "bronId": "L020018"}}, {"type": "Feature", "geometry": {"type": "Point", "coordinates": [4.1458636, 51.8322424]}, "properties": {"type": "inleverpunt", "locatieNaam": "ANWB", "straatNaam": "Struytse Hoeck", "straatNr": "63D", "postcode": "3224 HA", "plaats": "HELLEVOETSLUIS", "merk": "Stibat", "puntType": "inzamelbak", "materialen": ["batterijen"], "uitbetaling": [], "vrijToegankelijk": false, "gemeenteBeperking": null, "openingstijden": null, "latitude": 51.8322424, "longitude": 4.1458636, "bronId": "L044618"}}, {"type": "Feature", "geometry": {"type": "Point", "coordinates": [4.1465198, 51.8310198]}, "properties": {"type": "inleverpunt", "locatieNaam": "Telecombinatie", "straatNaam": "Struytse Hoeck", "straatNr": "90a", "postcode": "3224 HB", "plaats": "HELLEVOETSLUIS", "merk": "Stibat", "puntType": "inzamelbak", "materialen": ["batterijen"], "uitbetaling": [], "vrijToegankelijk": false, "gemeenteBeperking": null, "openingstijden": null, "latitude": 51.8310198, "longitude": 4.1465198, "bronId": "L039736"}}, {"type": "Feature", "geometry": {"type": "Point", "coordinates": [4.1467098, 51.8306645]}, "properties": {"type": "inleverpunt", "locatieNaam": "BelCompany", "straatNaam": "Struytse Hoeck", "straatNr": "60 F", "postcode": "3224 HB", "plaats": "HELLEVOETSLUIS", "merk": "Stibat", "puntType": "inzamelbak", "materialen": ["batterijen"], "uitbetaling": [], "vrijToegankelijk": false, "gemeenteBeperking": null, "openingstijden": null, "latitude": 51.8306645, "longitude": 4.1467098, "bronId": "L024072"}}, {"type": "Feature", "geometry": {"type": "Point", "coordinates": [4.1467098, 51.8306645]}, "properties": {"type": "inleverpunt", "locatieNaam": "Wibra", "straatNaam": "Struytse Hoeck", "straatNr": "60d", "postcode": "3224 HB", "plaats": "HELLEVOETSLUIS", "merk": "Stibat", "puntType": "inzamelbak", "materialen": ["batterijen"], "uitbetaling": [], "vrijToegankelijk": false, "gemeenteBeperking": null, "openingstijden": null, "latitude": 51.8306645, "longitude": 4.1467098, "bronId": "L030113"}}, {"type": "Feature", "geometry": {"type": "Point", "coordinates": [4.1460603, 51.8309701]}, "properties": {"type": "inleverpunt", "locatieNaam": "Primera", "straatNaam": "Struytse Hoeck", "straatNr": "38", "postcode": "3224 HB", "plaats": "HELLEVOETSLUIS", "merk": "Stibat", "puntType": "inzamelbak", "materialen": ["batterijen"], "uitbetaling": [], "vrijToegankelijk": false, "gemeenteBeperking": null, "openingstijden": null, "latitude": 51.8309701, "longitude": 4.1460603, "bronId": "L023018"}}, {"type": "Feature", "geometry": {"type": "Point", "coordinates": [4.102299, 51.914135]}, "properties": {"type": "inleverpunt", "locatieNaam": "Kruidvat", "straatNaam": "Pastorielaan", "straatNr": "2", "postcode": "3233 CZ", "plaats": "OOSTVOORNE", "merk": "Stibat", "puntType": "inzamelbak", "materialen": ["batterijen"], "uitbetaling": [], "vrijToegankelijk": false, "gemeenteBeperking": null, "openingstijden": null, "latitude": 51.914135, "longitude": 4.102299, "bronId": "L015454"}}, {"type": "Feature", "geometry": {"type": "Point", "coordinates": [4.1023187, 51.9138396]}, "properties": {"type": "inleverpunt", "locatieNaam": "Plus", "straatNaam": "Rakkerweg", "straatNr": "15", "postcode": "3233 CX", "plaats": "OOSTVOORNE", "merk": "Stibat", "puntType": "inzamelbak", "materialen": ["batterijen"], "uitbetaling": [], "vrijToegankelijk": false, "gemeenteBeperking": null, "openingstijden": null, "latitude": 51.9138396, "longitude": 4.1023187, "bronId": "L046074"}}, {"type": "Feature", "geometry": {"type": "Point", "coordinates": [4.1457102, 51.830609]}, "properties": {"type": "inleverpunt", "locatieNaam": "Zeeman", "straatNaam": "Struytse Hoeck", "straatNr": "21-23", "postcode": "3224 HA", "plaats": "Hellevoetsluis", "merk": "Stibat", "puntType": "inzamelbak", "materialen": ["batterijen"], "uitbetaling": [], "vrijToegankelijk": false, "gemeenteBeperking": null, "openingstijden": null, "latitude": 51.830609, "longitude": 4.1457102, "bronId": "L019401"}}, {"type": "Feature", "geometry": {"type": "Point", "coordinates": [4.145665, 51.830588]}, "properties": {"type": "inleverpunt", "locatieNaam": "Hans Anders", "straatNaam": "Struytse Hoeck", "straatNr": "20", "postcode": "3224 HB", "plaats": "HELLEVOETSLUIS", "merk": "Stibat", "puntType": "inzamelbak", "materialen": ["batterijen"], "uitbetaling": [], "vrijToegankelijk": false, "gemeenteBeperking": null, "openingstijden": null, "latitude": 51.830588, "longitude": 4.145665, "bronId": "L037834"}}, {"type": "Feature", "geometry": {"type": "Point", "coordinates": [4.145638, 51.8305992]}, "properties": {"type": "inleverpunt", "locatieNaam": "7829 Etos", "straatNaam": "Struytse Hoeck", "straatNr": "24", "postcode": "3224 HB", "plaats": "HELLEVOETSLUIS", "merk": "Stibat", "puntType": "inzamelbak", "materialen": ["batterijen"], "uitbetaling": [], "vrijToegankelijk": false, "gemeenteBeperking": null, "openingstijden": null, "latitude": 51.8305992, "longitude": 4.145638, "bronId": "L022312"}}, {"type": "Feature", "geometry": {"type": "Point", "coordinates": [4.1456358, 51.8305791]}, "properties": {"type": "inleverpunt", "locatieNaam": "Specsavers", "straatNaam": "Struytse Hoeck", "straatNr": "60A", "postcode": "3224 HB", "plaats": "Hellevoetsluis", "merk": "Stibat", "puntType": "inzamelbak", "materialen": ["batterijen"], "uitbetaling": [], "vrijToegankelijk": false, "gemeenteBeperking": null, "openingstijden": null, "latitude": 51.8305791, "longitude": 4.1456358, "bronId": "L045046"}}, {"type": "Feature", "geometry": {"type": "Point", "coordinates": [4.1018567, 51.9141291]}, "properties": {"type": "inleverpunt", "locatieNaam": "Bruna", "straatNaam": "Stationsweg", "straatNr": "8a", "postcode": "3233 CT", "plaats": "OOSTVOORNE", "merk": "Stibat", "puntType": "inzamelbak", "materialen": ["batterijen"], "uitbetaling": [], "vrijToegankelijk": false, "gemeenteBeperking": null, "openingstijden": null, "latitude": 51.9141291, "longitude": 4.1018567, "bronId": "L022611"}}, {"type": "Feature", "geometry": {"type": "Point", "coordinates": [4.1454449, 51.830759]}, "properties": {"type": "inleverpunt", "locatieNaam": "Halfords", "straatNaam": "Struytse Hoeck", "straatNr": "90", "postcode": "3224 HB", "plaats": "HELLEVOETSLUIS", "merk": "Stibat", "puntType": "inzamelbak", "materialen": ["batterijen"], "uitbetaling": [], "vrijToegankelijk": false, "gemeenteBeperking": null, "openingstijden": null, "latitude": 51.830759, "longitude": 4.1454449, "bronId": "L015087"}}, {"type": "Feature", "geometry": {"type": "Point", "coordinates": [4.1453719, 51.8307762]}, "properties": {"type": "inleverpunt", "locatieNaam": "Intertoys", "straatNaam": "Struytse Hoeck", "straatNr": "90a", "postcode": "3224 HB", "plaats": "HELLEVOETSLUIS", "merk": "Stibat", "puntType": "inzamelbak", "materialen": ["batterijen"], "uitbetaling": [], "vrijToegankelijk": false, "gemeenteBeperking": null, "openingstijden": null, "latitude": 51.8307762, "longitude": 4.1453719, "bronId": "L006705"}}, {"type": "Feature", "geometry": {"type": "Point", "coordinates": [4.1453693, 51.830774]}, "properties": {"type": "inleverpunt", "locatieNaam": "Full Service Telecom", "straatNaam": "Struytse Hoeck", "straatNr": "90A", "postcode": "3224 HB", "plaats": "HELLEVOETSLUIS", "merk": "Stibat", "puntType": "inzamelbak", "materialen": ["batterijen"], "uitbetaling": [], "vrijToegankelijk": false, "gemeenteBeperking": null, "openingstijden": null, "latitude": 51.830774, "longitude": 4.1453693, "bronId": "L047246"}}, {"type": "Feature", "geometry": {"type": "Point", "coordinates": [4.1454192, 51.8306418]}, "properties": {"type": "inleverpunt", "locatieNaam": "HEMA Struytse Hoeck", "straatNaam": "Struytse Hoeck", "straatNr": "91", "postcode": "3224 HA", "plaats": "HELLEVOETSLUIS", "merk": "Stibat", "puntType": "inzamelbak", "materialen": ["batterijen"], "uitbetaling": [], "vrijToegankelijk": false, "gemeenteBeperking": null, "openingstijden": null, "latitude": 51.8306418, "longitude": 4.1454192, "bronId": "L007150"}}, {"type": "Feature", "geometry": {"type": "Point", "coordinates": [4.1453469, 51.8306321]}, "properties": {"type": "inleverpunt", "locatieNaam": "1596 Albert Heijn", "straatNaam": "Struytse Hoeck", "straatNr": "91A", "postcode": "3224 HA", "plaats": "HELLEVOETSLUIS", "merk": "Stibat", "puntType": "inzamelbak", "materialen": ["batterijen"], "uitbetaling": [], "vrijToegankelijk": false, "gemeenteBeperking": null, "openingstijden": null, "latitude": 51.8306321, "longitude": 4.1453469, "bronId": "L006774"}}, {"type": "Feature", "geometry": {"type": "Point", "coordinates": [4.1452737, 51.8301279]}, "properties": {"type": "inleverpunt", "locatieNaam": "Beter Horen", "straatNaam": "Struytse Hoeck", "straatNr": "93", "postcode": "3224 HA", "plaats": "HELLEVOETSLUIS", "merk": "Stibat", "puntType": "inzamelbak", "materialen": ["batterijen"], "uitbetaling": [], "vrijToegankelijk": false, "gemeenteBeperking": null, "openingstijden": null, "latitude": 51.8301279, "longitude": 4.1452737, "bronId": "L023894"}}, {"type": "Feature", "geometry": {"type": "Point", "coordinates": [4.1010971, 51.914235]}, "properties": {"type": "inleverpunt", "locatieNaam": "1675 Albert Heijn", "straatNaam": "Stationsweg", "straatNr": "16", "postcode": "3233 CT", "plaats": "OOSTVOORNE", "merk": "Stibat", "puntType": "inzamelbak", "materialen": ["batterijen"], "uitbetaling": [], "vrijToegankelijk": false, "gemeenteBeperking": null, "openingstijden": null, "latitude": 51.914235, "longitude": 4.1010971, "bronId": "L005575"}}, {"type": "Feature", "geometry": {"type": "Point", "coordinates": [4.1448976, 51.830088]}, "properties": {"type": "inleverpunt", "locatieNaam": "R.S. Cycle/Parts", "straatNaam": "Struytse Hoeck", "straatNr": "94", "postcode": "3224 HB", "plaats": "HELLEVOETSLUIS", "merk": "Stibat", "puntType": "inzamelbak", "materialen": ["batterijen"], "uitbetaling": [], "vrijToegankelijk": false, "gemeenteBeperking": null, "openingstijden": null, "latitude": 51.830088, "longitude": 4.1448976, "bronId": "L033112"}}, {"type": "Feature", "geometry": {"type": "Point", "coordinates": [4.1447326, 51.8296616]}, "properties": {"type": "inleverpunt", "locatieNaam": "Kruidvat", "straatNaam": "Struytse Hoeck", "straatNr": "336", "postcode": "3223 DE", "plaats": "HELLEVOETSLUIS", "merk": "Stibat", "puntType": "inzamelbak", "materialen": ["batterijen"], "uitbetaling": [], "vrijToegankelijk": false, "gemeenteBeperking": null, "openingstijden": null, "latitude": 51.8296616, "longitude": 4.1447326, "bronId": "L015151"}}, {"type": "Feature", "geometry": {"type": "Point", "coordinates": [4.1005148, 51.9139024]}, "properties": {"type": "inleverpunt", "locatieNaam": "HEMA Oostvoorne", "straatNaam": "Stationsweg", "straatNr": "25", "postcode": "3233 CR", "plaats": "Oostvoorne", "merk": "Stibat", "puntType": "inzamelbak", "materialen": ["batterijen"], "uitbetaling": [], "vrijToegankelijk": false, "gemeenteBeperking": null, "openingstijden": null, "latitude": 51.9139024, "longitude": 4.1005148, "bronId": "L046879"}}, {"type": "Feature", "geometry": {"type": "Point", "coordinates": [4.1375382, 51.8362411]}, "properties": {"type": "inleverpunt", "locatieNaam": "WK Bikes", "straatNaam": "Sportlaan", "straatNr": "9", "postcode": "3223 EV", "plaats": "HELLEVOETSLUIS", "merk": "Stibat", "puntType": "inzamelbak", "materialen": ["batterijen"], "uitbetaling": [], "vrijToegankelijk": false, "gemeenteBeperking": null, "openingstijden": null, "latitude": 51.8362411, "longitude": 4.1375382, "bronId": "L048881"}}, {"type": "Feature", "geometry": {"type": "Point", "coordinates": [4.135927, 51.8384683]}, "properties": {"type": "inleverpunt", "locatieNaam": "1234 Action", "straatNaam": "Moriaanseweg Oost", "straatNr": "76", "postcode": "3223 AK", "plaats": "HELLEVOETSLUIS", "merk": "Stibat", "puntType": "inzamelbak", "materialen": ["batterijen"], "uitbetaling": [], "vrijToegankelijk": false, "gemeenteBeperking": null, "openingstijden": null, "latitude": 51.8384683, "longitude": 4.135927, "bronId": "L030194"}}, {"type": "Feature", "geometry": {"type": "Point", "coordinates": [4.1322007, 51.8384927]}, "properties": {"type": "inleverpunt", "locatieNaam": "Anton van Putten Rijwielen", "straatNaam": "Moriaanseweg West", "straatNr": "103", "postcode": "3222 AC", "plaats": "HELLEVOETSLUIS", "merk": "Stibat", "puntType": "inzamelbak", "materialen": ["batterijen"], "uitbetaling": [], "vrijToegankelijk": false, "gemeenteBeperking": null, "openingstijden": null, "latitude": 51.8384927, "longitude": 4.1322007, "bronId": "L033111"}}, {"type": "Feature", "geometry": {"type": "Point", "coordinates": [4.1332991, 51.8364708]}, "properties": {"type": "inleverpunt", "locatieNaam": "Computerwinkel Hellevoetsluis", "straatNaam": "Rijksstraatweg", "straatNr": "56", "postcode": "3223 KA", "plaats": "HELLEVOETSLUIS", "merk": "Stibat", "puntType": "inzamelbak", "materialen": ["batterijen"], "uitbetaling": [], "vrijToegankelijk": false, "gemeenteBeperking": null, "openingstijden": null, "latitude": 51.8364708, "longitude": 4.1332991, "bronId": "L038818"}}, {"type": "Feature", "geometry": {"type": "Point", "coordinates": [4.1321335, 51.836636]}, "properties": {"type": "inleverpunt", "locatieNaam": "Lidl", "straatNaam": "Hoonaartstraat", "straatNr": "27", "postcode": "3222 CK", "plaats": "HELLEVOETSLUIS", "merk": "Stibat", "puntType": "inzamelbak", "materialen": ["batterijen"], "uitbetaling": [], "vrijToegankelijk": false, "gemeenteBeperking": null, "openingstijden": null, "latitude": 51.836636, "longitude": 4.1321335, "bronId": "L018507"}}, {"type": "Feature", "geometry": {"type": "Point", "coordinates": [4.1310229, 51.8333742]}, "properties": {"type": "inleverpunt", "locatieNaam": "Primera", "straatNaam": "Evertsenplein", "straatNr": "98", "postcode": "3221 BL", "plaats": "HELLEVOETSLUIS", "merk": "Stibat", "puntType": "inzamelbak", "materialen": ["batterijen"], "uitbetaling": [], "vrijToegankelijk": false, "gemeenteBeperking": null, "openingstijden": null, "latitude": 51.8333742, "longitude": 4.1310229, "bronId": "L024049"}}, {"type": "Feature", "geometry": {"type": "Point", "coordinates": [4.1346988, 51.8274536]}, "properties": {"type": "inleverpunt", "locatieNaam": "Klaassens Rijwielen", "straatNaam": "Waterpoortstraat", "straatNr": "24", "postcode": "3221 XW", "plaats": "HELLEVOETSLUIS", "merk": "Stibat", "puntType": "inzamelbak", "materialen": ["batterijen"], "uitbetaling": [], "vrijToegankelijk": false, "gemeenteBeperking": null, "openingstijden": null, "latitude": 51.8274536, "longitude": 4.1346988, "bronId": "L033110"}}, {"type": "Feature", "geometry": {"type": "Point", "coordinates": [4.1307398, 51.8336409]}, "properties": {"type": "inleverpunt", "locatieNaam": "6266 Etos", "straatNaam": "Evertsenplein", "straatNr": "76 -78", "postcode": "3221 BL", "plaats": "HELLEVOETSLUIS", "merk": "Stibat", "puntType": "inzamelbak", "materialen": ["batterijen"], "uitbetaling": [], "vrijToegankelijk": false, "gemeenteBeperking": null, "openingstijden": null, "latitude": 51.8336409, "longitude": 4.1307398, "bronId": "L023945"}}, {"type": "Feature", "geometry": {"type": "Point", "coordinates": [4.0874361, 51.9186174]}, "properties": {"type": "inleverpunt", "locatieNaam": "Hotel 't Wapen van Marion", "straatNaam": "Zeeweg", "straatNr": "60", "postcode": "3233 CV", "plaats": "OOSTVOORNE", "merk": "Stibat", "puntType": "inzamelbak", "materialen": ["batterijen"], "uitbetaling": [], "vrijToegankelijk": false, "gemeenteBeperking": null, "openingstijden": null, "latitude": 51.9186174, "longitude": 4.0874361, "bronId": "L031644"}}, {"type": "Feature", "geometry": {"type": "Point", "coordinates": [4.1308526, 51.8332375]}, "properties": {"type": "inleverpunt", "locatieNaam": "1858 Albert Heijn", "straatNaam": "Evertsenplein", "straatNr": "68", "postcode": "3221 BL", "plaats": "HELLEVOETSLUIS", "merk": "Stibat", "puntType": "inzamelbak", "materialen": ["batterijen"], "uitbetaling": [], "vrijToegankelijk": false, "gemeenteBeperking": null, "openingstijden": null, "latitude": 51.8332375, "longitude": 4.1308526, "bronId": "L005509"}}, {"type": "Feature", "geometry": {"type": "Point", "coordinates": [4.0862918, 51.8954866]}, "properties": {"type": "inleverpunt", "locatieNaam": "Welkoop", "straatNaam": "Achterstrijpseweg", "straatNr": "15", "postcode": "3235 NB", "plaats": "ROCKANJE", "merk": "Stibat", "puntType": "inzamelbak", "materialen": ["batterijen"], "uitbetaling": [], "vrijToegankelijk": false, "gemeenteBeperking": null, "openingstijden": null, "latitude": 51.8954866, "longitude": 4.0862918, "bronId": "L016722"}}, {"type": "Feature", "geometry": {"type": "Point", "coordinates": [4.0930317, 51.8565448]}, "properties": {"type": "inleverpunt", "locatieNaam": "Midi-camping van der Burgh", "straatNaam": "Voet of Kraagweg", "straatNr": "9", "postcode": "3235 LL", "plaats": "ROCKANJE", "merk": "Stibat", "puntType": "inzamelbak", "materialen": ["batterijen"], "uitbetaling": [], "vrijToegankelijk": false, "gemeenteBeperking": null, "openingstijden": null, "latitude": 51.8565448, "longitude": 4.0930317, "bronId": "L005009"}}, {"type": "Feature", "geometry": {"type": "Point", "coordinates": [4.0746527, 51.8741239]}, "properties": {"type": "inleverpunt", "locatieNaam": "Shop Rockanje (Ron van den Hoek B.V.)", "straatNaam": "Middeldijk", "straatNr": "8", "postcode": "3235 XD", "plaats": "ROCKANJE", "merk": "Stibat", "puntType": "inzamelbak", "materialen": ["batterijen"], "uitbetaling": [], "vrijToegankelijk": false, "gemeenteBeperking": null, "openingstijden": null, "latitude": 51.8741239, "longitude": 4.0746527, "bronId": "L025610"}}, {"type": "Feature", "geometry": {"type": "Point", "coordinates": [4.0819106, 51.8561273]}, "properties": {"type": "inleverpunt", "locatieNaam": "Molecaten park Rondeweibos", "straatNaam": "Schapengorsedijk", "straatNr": "19", "postcode": "3235 LA", "plaats": "Rockanje", "merk": "Stibat", "puntType": "inzamelbak", "materialen": ["batterijen"], "uitbetaling": [], "vrijToegankelijk": false, "gemeenteBeperking": null, "openingstijden": null, "latitude": 51.8561273, "longitude": 4.0819106, "bronId": "L031162"}}, {"type": "Feature", "geometry": {"type": "Point", "coordinates": [4.0697092, 51.8744335]}, "properties": {"type": "inleverpunt", "locatieNaam": "The Read Shop Express", "straatNaam": "Dorpsplein", "straatNr": "20", "postcode": "3235 AD", "plaats": "ROCKANJE", "merk": "Stibat", "puntType": "inzamelbak", "materialen": ["batterijen"], "uitbetaling": [], "vrijToegankelijk": false, "gemeenteBeperking": null, "openingstijden": null, "latitude": 51.8744335, "longitude": 4.0697092, "bronId": "L039224"}}, {"type": "Feature", "geometry": {"type": "Point", "coordinates": [4.0693959, 51.8741933]}, "properties": {"type": "inleverpunt", "locatieNaam": "PLUS", "straatNaam": "Dorpsplein", "straatNr": "22", "postcode": "3235 AD", "plaats": "ROCKANJE", "merk": "Stibat", "puntType": "inzamelbak", "materialen": ["batterijen"], "uitbetaling": [], "vrijToegankelijk": false, "gemeenteBeperking": null, "openingstijden": null, "latitude": 51.8741933, "longitude": 4.0693959, "bronId": "L027355"}}, {"type": "Feature", "geometry": {"type": "Point", "coordinates": [4.0688621, 51.8744494]}, "properties": {"type": "inleverpunt", "locatieNaam": "HEMA Rockanje", "straatNaam": "Dorpsplein", "straatNr": "14a", "postcode": "3235 AD", "plaats": "Rockanje", "merk": "Stibat", "puntType": "inzamelbak", "materialen": ["batterijen"], "uitbetaling": [], "vrijToegankelijk": false, "gemeenteBeperking": null, "openingstijden": null, "latitude": 51.8744494, "longitude": 4.0688621, "bronId": "L046990"}}, {"type": "Feature", "geometry": {"type": "Point", "coordinates": [4.0688053, 51.8741777]}, "properties": {"type": "inleverpunt", "locatieNaam": "Kruidvat", "straatNaam": "Dorpsplein", "straatNr": "2", "postcode": "3235 AD", "plaats": "ROCKANJE", "merk": "Stibat", "puntType": "inzamelbak", "materialen": ["batterijen"], "uitbetaling": [], "vrijToegankelijk": false, "gemeenteBeperking": null, "openingstijden": null, "latitude": 51.8741777, "longitude": 4.0688053, "bronId": "L015697"}}, {"type": "Feature", "geometry": {"type": "Point", "coordinates": [4.0540803, 51.8800784]}, "properties": {"type": "inleverpunt", "locatieNaam": "Molecaten Park Waterbos", "straatNaam": "Duinrand", "straatNr": "11", "postcode": "3235 CC", "plaats": "ROCKANJE", "merk": "Stibat", "puntType": "inzamelbak", "materialen": ["batterijen"], "uitbetaling": [], "vrijToegankelijk": false, "gemeenteBeperking": null, "openingstijden": null, "latitude": 51.8800784, "longitude": 4.0540803, "bronId": "L003770"}}, {"type": "Feature", "geometry": {"type": "Point", "coordinates": [4.0541399, 51.8753814]}, "properties": {"type": "inleverpunt", "locatieNaam": "Van Itersoncamping", "straatNaam": "Van Kleijburgweg", "straatNr": "3", "postcode": "3235 AB", "plaats": "ROCKANJE", "merk": "Stibat", "puntType": "inzamelbak", "materialen": ["batterijen"], "uitbetaling": [], "vrijToegankelijk": false, "gemeenteBeperking": null, "openingstijden": null, "latitude": 51.8753814, "longitude": 4.0541399, "bronId": "L004685"}}, {"type": "Feature", "geometry": {"type": "MultiPolygon", "coordinates": [[[[4.152435000458113, 51.80291800378681], [4.171340000476556, 51.79298800378072], [4.175183000480348, 51.79173800377997], [4.184066000489331, 51.79266100378065], [4.186276000491544, 51.7924940037806], [4.192632000497858, 51.79111300377978], [4.194576000500708, 51.807083003790055], [4.196673000502892, 51.80843200379095], [4.195633000501856, 51.80866100379109], [4.195564000501804, 51.808942003791266], [4.197478000503711, 51.80859600379109], [4.201105000507487, 51.81095300379259], [4.20959800051617, 51.81354000379437], [4.212352000518964, 51.81402500379476], [4.213475000520193, 51.81583000379589], [4.212941000519917, 51.820525003798906], [4.216828000523976, 51.82322600380062], [4.219708000526947, 51.82456000380156], [4.2177740005250905, 51.82611300380255], [4.218134000525465, 51.826347003802695], [4.2191100005264115, 51.82572300380232], [4.2201100005274395, 51.82616400380255], [4.221970000529246, 51.82501900380185], [4.222215000529577, 51.826537003802855], [4.220512000527908, 51.82726700380329], [4.2202550005276995, 51.82821300380392], [4.2138610005214865, 51.83203600380628], [4.213248000520877, 51.83210400380631], [4.208798000516571, 51.83512100380815], [4.207183000514974, 51.83558900380846], [4.202035000509777, 51.83513600380808], [4.200433000508178, 51.8353300038082], [4.197142000504849, 51.83490800380789], [4.195545000503343, 51.836724003809], [4.195609000503547, 51.83918700381062], [4.195709000503674, 51.83968300381092], [4.198245000506224, 51.83969500381096], [4.198528000506716, 51.84339300381332], [4.196524000504687, 51.843150003813136], [4.196448000504634, 51.84351000381339], [4.193474000501614, 51.84294600381299], [4.192735000500896, 51.84343000381327], [4.194727000502943, 51.844217003813796], [4.19620900050455, 51.84630300381514], [4.197610000505995, 51.847002003815575], [4.198257000506808, 51.84988900381745], [4.1966570005052235, 51.85028000381767], [4.194852000503405, 51.850200003817605], [4.191417000499882, 51.848936003816775], [4.189383000497867, 51.849398003817036], [4.185273000493754, 51.849708003817156], [4.239383000549418, 51.87298600383266], [4.235519000545662, 51.875214003834046], [4.2329700005432285, 51.87748600383544], [4.231263000541647, 51.8798420038369], [4.229222000539898, 51.88524500384029], [4.227692000538501, 51.88772200384184], [4.220820000532028, 51.89539200384664], [4.2162710005276525, 51.89873100384872], [4.209000000520539, 51.90208700385073], [4.206667000518282, 51.90354900385161], [4.197099000508944, 51.908301003854504], [4.1853710004974305, 51.912886003857224], [4.1799590004921585, 51.915658003858915], [4.17647500048879, 51.9179200038603], [4.168187000480541, 51.919057003860935], [4.167597000480106, 51.92186700386266], [4.166199000478831, 51.92407200386405], [4.163833000476571, 51.92605100386524], [4.159786000472608, 51.927745003866306], [4.151879000464737, 51.92880400386683], [4.147221000460176, 51.93076900386799], [4.142399000455404, 51.93189000386861], [4.113056000426195, 51.93574100387064], [4.112675000425758, 51.934798003870036], [4.107724000420871, 51.936142003870785], [4.101720000414319, 51.92700900386497], [4.102003000414401, 51.92353000386276], [4.0928940004057885, 51.93252800386829], [4.08101400039395, 51.9337590038689], [4.071722000384615, 51.93346100386855], [4.0635150003763085, 51.93213300386758], [3.9726170002839347, 51.91096500385269], [3.9555800002636605, 51.85765400381858], [4.035203000343589, 51.858598003820575], [4.039835000347273, 51.842114003810174], [4.041217000348549, 51.840191003808975], [4.049503000356345, 51.83124000380338], [4.058029000364525, 51.82472200379934], [4.062654000369008, 51.82192000379762], [4.072571000378784, 51.81876200379578], [4.09838700040446, 51.81437200379336], [4.106742000412755, 51.81266800379243], [4.110600000416559, 51.81141600379167], [4.119800000425581, 51.80749400378928], [4.1234330004291735, 51.80651000378868], [4.127847000433608, 51.80652700378882], [4.131472000437291, 51.80721300378927], [4.135863000441712, 51.807362003789436], [4.1419670004478295, 51.80704800378929], [4.147107000452946, 51.80619900378884], [4.14932600045514, 51.80556300378846], [4.152435000458113, 51.80291800378681]]], [[[4.220084000527391, 51.82574600380232], [4.220126000527451, 51.82608400380256], [4.219791000527106, 51.825942003802446], [4.220084000527391, 51.82574600380232]]]]}, "properties": {"type": "boundary", "gemeente": "Voorne aan Zee"}}]}