{"type": "FeatureCollection", "metadata": {"gemeente": "Waalre", "slug": "waalre", "generated_at": "2026-09-07T06:58:27.146480Z", "total_points": 21, "merken": ["StatiegeldNederland", "Stibat", "StichtingOPEN"], "bounds": [5.437804, 51.386283, 5.481708, 51.4034271]}, "features": [{"type": "Feature", "geometry": {"type": "Point", "coordinates": [5.4457302, 51.386976]}, "properties": {"type": "inleverpunt", "locatieNaam": "Albert Heijn", "straatNaam": "De Bus", "straatNr": "38", "postcode": "5581 GP", "plaats": "Waalre", "merk": "StatiegeldNederland", "puntType": "automaat", "materialen": ["pet-groot", "pet-klein", "blik", "glas", "krat"], "uitbetaling": ["bonnetje", "donatie"], "vrijToegankelijk": true, "gemeenteBeperking": null, "openingstijden": {"ma": "08:00–21:00", "di": "08:00–21:00", "wo": "08:00–21:00", "do": "08:00–21:00", "vr": "08:00–21:00", "za": "08:00–21:00", "zo": "10:00–20:00"}, "latitude": 51.386976, "longitude": 5.4457302, "bronId": "327139"}}, {"type": "Feature", "geometry": {"type": "Point", "coordinates": [5.4744478, 51.3954739]}, "properties": {"type": "inleverpunt", "locatieNaam": "Albert Heijn", "straatNaam": "Den Hof", "straatNr": "4-6", "postcode": "5582 JZ", "plaats": "Waalre / Aalst", "merk": "StatiegeldNederland", "puntType": "automaat", "materialen": ["pet-groot", "pet-klein", "blik", "glas", "krat"], "uitbetaling": ["bonnetje", "donatie"], "vrijToegankelijk": true, "gemeenteBeperking": null, "openingstijden": {"ma": "08:00–21:00", "di": "08:00–21:00", "wo": "08:00–21:00", "do": "08:00–21:00", "vr": "08:00–21:00", "za": "08:00–21:00", "zo": "10:00–20:00"}, "latitude": 51.3954739, "longitude": 5.4744478, "bronId": "327174"}}, {"type": "Feature", "geometry": {"type": "Point", "coordinates": [5.481708, 51.4034271]}, "properties": {"type": "inleverpunt", "locatieNaam": "Appel 2083 - Wvb Waalre", "straatNaam": "Eindhovenseweg", "straatNr": "128", "postcode": "5582 HW", "plaats": "Waalre", "merk": "StatiegeldNederland", "puntType": "balie", "materialen": ["pet-groot", "pet-klein", "blik"], "uitbetaling": [], "vrijToegankelijk": true, "gemeenteBeperking": null, "openingstijden": {"ma": "08:30–17:00", "di": "08:30–17:00", "wo": "08:30–17:00", "do": "08:30–17:00", "vr": "08:30–17:00", "za": "Gesloten", "zo": "Gesloten"}, "latitude": 51.4034271, "longitude": 5.481708, "bronId": "328550"}}, {"type": "Feature", "geometry": {"type": "Point", "coordinates": [5.469597, 51.399843]}, "properties": {"type": "inleverpunt", "locatieNaam": "Jumbo", "straatNaam": "Hortensialaan", "straatNr": "2", "postcode": "5582 CL", "plaats": "Aalst", "merk": "StatiegeldNederland", "puntType": "automaat", "materialen": ["pet-groot", "pet-klein", "blik", "glas", "krat"], "uitbetaling": ["bonnetje", "donatie"], "vrijToegankelijk": true, "gemeenteBeperking": null, "openingstijden": {"ma": "08:00–20:00", "di": "08:00–20:00", "wo": "08:00–20:00", "do": "08:00–20:00", "vr": "08:00–20:00", "za": "08:00–20:00", "zo": "10:00–20:00"}, "latitude": 51.399843, "longitude": 5.469597, "bronId": "330520"}}, {"type": "Feature", "geometry": {"type": "Point", "coordinates": [5.44637, 51.38701]}, "properties": {"type": "inleverpunt", "locatieNaam": "Lidl", "straatNaam": "W.C. De Bus", "straatNr": "4", "postcode": "5581 GP", "plaats": "Waalre", "merk": "StatiegeldNederland", "puntType": "automaat", "materialen": ["pet-groot", "pet-klein", "blik", "glas", "krat"], "uitbetaling": ["bonnetje", "donatie"], "vrijToegankelijk": true, "gemeenteBeperking": null, "openingstijden": {"ma": "08:00–20:00", "di": "08:00–20:00", "wo": "08:00–20:00", "do": "08:00–20:00", "vr": "08:00–20:00", "za": "08:00–20:00", "zo": "10:00–18:00"}, "latitude": 51.38701, "longitude": 5.44637, "bronId": "331548"}}, {"type": "Feature", "geometry": {"type": "Point", "coordinates": [5.437804, 51.386283]}, "properties": {"type": "inleverpunt", "locatieNaam": "Rkvv Waalre", "straatNaam": "Dreefstraat", "straatNr": "48", "postcode": "5581 BH", "plaats": "Waalre", "merk": "StatiegeldNederland", "puntType": "balie", "materialen": ["pet-groot", "pet-klein", "blik"], "uitbetaling": [], "vrijToegankelijk": false, "gemeenteBeperking": null, "openingstijden": null, "latitude": 51.386283, "longitude": 5.437804, "bronId": "333050"}}, {"type": "Feature", "geometry": {"type": "Point", "coordinates": [5.474831, 51.401203]}, "properties": {"type": "inleverpunt", "locatieNaam": "Action Waalre 1007", "straatNaam": "Burgemeester Mollaan", "straatNr": "52", "postcode": "5582 CK", "plaats": "Waalre", "merk": "StichtingOPEN", "puntType": "balie", "materialen": ["batterijen", "lampen"], "uitbetaling": [], "vrijToegankelijk": false, "gemeenteBeperking": null, "openingstijden": null, "latitude": 51.401203, "longitude": 5.474831, "bronId": "SP00007611"}}, {"type": "Feature", "geometry": {"type": "Point", "coordinates": [5.474138, 51.401046]}, "properties": {"type": "inleverpunt", "locatieNaam": "Action Waalre", "straatNaam": "Burgemeester Mollaan", "straatNr": "52", "postcode": "5582 CK", "plaats": "Waalre", "merk": "StichtingOPEN", "puntType": "balie", "materialen": ["batterijen"], "uitbetaling": [], "vrijToegankelijk": false, "gemeenteBeperking": null, "openingstijden": null, "latitude": 51.401046, "longitude": 5.474138, "bronId": "SP00033718"}}, {"type": "Feature", "geometry": {"type": "Point", "coordinates": [5.469528, 51.400005]}, "properties": {"type": "inleverpunt", "locatieNaam": "Jumbo Waalre", "straatNaam": "Hortensialaan", "straatNr": "2", "postcode": "5582 CL", "plaats": "Waalre", "merk": "StichtingOPEN", "puntType": "balie", "materialen": ["batterijen", "lampen"], "uitbetaling": [], "vrijToegankelijk": false, "gemeenteBeperking": null, "openingstijden": null, "latitude": 51.400005, "longitude": 5.469528, "bronId": "SP00024980"}}, {"type": "Feature", "geometry": {"type": "Point", "coordinates": [5.476037, 51.395109]}, "properties": {"type": "inleverpunt", "locatieNaam": "Kruidvat Waalre", "straatNaam": "Den Hof", "straatNr": "94", "postcode": "5582 JZ", "plaats": "Waalre", "merk": "StichtingOPEN", "puntType": "balie", "materialen": ["batterijen", "lampen"], "uitbetaling": [], "vrijToegankelijk": false, "gemeenteBeperking": null, "openingstijden": null, "latitude": 51.395109, "longitude": 5.476037, "bronId": "SP00024473"}}, {"type": "Feature", "geometry": {"type": "Point", "coordinates": [5.445718, 51.386908]}, "properties": {"type": "inleverpunt", "locatieNaam": "Kruidvat Waalre", "straatNaam": "De Bus", "straatNr": "39a", "postcode": "5581 GP", "plaats": "Waalre", "merk": "StichtingOPEN", "puntType": "balie", "materialen": ["batterijen", "lampen"], "uitbetaling": [], "vrijToegankelijk": false, "gemeenteBeperking": null, "openingstijden": null, "latitude": 51.386908, "longitude": 5.445718, "bronId": "SP00024472"}}, {"type": "Feature", "geometry": {"type": "Point", "coordinates": [5.4741405, 51.4010667]}, "properties": {"type": "inleverpunt", "locatieNaam": "1007 Action", "straatNaam": "Burgemeester Mollaan", "straatNr": "52", "postcode": "5582 CK", "plaats": "Waalre", "merk": "Stibat", "puntType": "inzamelbak", "materialen": ["batterijen"], "uitbetaling": [], "vrijToegankelijk": false, "gemeenteBeperking": null, "openingstijden": null, "latitude": 51.4010667, "longitude": 5.4741405, "bronId": "L030253"}}, {"type": "Feature", "geometry": {"type": "Point", "coordinates": [5.4695124, 51.3999846]}, "properties": {"type": "inleverpunt", "locatieNaam": "Jumbo", "straatNaam": "Hortensialaan", "straatNr": "2", "postcode": "5582 CL", "plaats": "Waalre", "merk": "Stibat", "puntType": "inzamelbak", "materialen": ["batterijen"], "uitbetaling": [], "vrijToegankelijk": false, "gemeenteBeperking": null, "openingstijden": null, "latitude": 51.3999846, "longitude": 5.4695124, "bronId": "L034905"}}, {"type": "Feature", "geometry": {"type": "Point", "coordinates": [5.4749356, 51.3954503]}, "properties": {"type": "inleverpunt", "locatieNaam": "8561 Albert Heijn (Retourette)", "straatNaam": "Den Hof", "straatNr": "4", "postcode": "5582 JZ", "plaats": "Waalre", "merk": "Stibat", "puntType": "inzamelbak", "materialen": ["batterijen"], "uitbetaling": [], "vrijToegankelijk": false, "gemeenteBeperking": null, "openingstijden": null, "latitude": 51.3954503, "longitude": 5.4749356, "bronId": "L017148"}}, {"type": "Feature", "geometry": {"type": "Point", "coordinates": [5.4739488, 51.3949909]}, "properties": {"type": "inleverpunt", "locatieNaam": "6333 Etos", "straatNaam": "Den Hof", "straatNr": "18", "postcode": "5582 JZ", "plaats": "Waalre", "merk": "Stibat", "puntType": "inzamelbak", "materialen": ["batterijen"], "uitbetaling": [], "vrijToegankelijk": false, "gemeenteBeperking": null, "openingstijden": null, "latitude": 51.3949909, "longitude": 5.4739488, "bronId": "L026079"}}, {"type": "Feature", "geometry": {"type": "Point", "coordinates": [5.4748302, 51.3950465]}, "properties": {"type": "inleverpunt", "locatieNaam": "Bruna", "straatNaam": "Den Hof", "straatNr": "20", "postcode": "5582 JZ", "plaats": "Waalre", "merk": "Stibat", "puntType": "inzamelbak", "materialen": ["batterijen"], "uitbetaling": [], "vrijToegankelijk": false, "gemeenteBeperking": null, "openingstijden": null, "latitude": 51.3950465, "longitude": 5.4748302, "bronId": "L023901"}}, {"type": "Feature", "geometry": {"type": "Point", "coordinates": [5.4760204, 51.3951566]}, "properties": {"type": "inleverpunt", "locatieNaam": "Kruidvat", "straatNaam": "Den Hof", "straatNr": "94", "postcode": "5582 JZ", "plaats": "Waalre", "merk": "Stibat", "puntType": "inzamelbak", "materialen": ["batterijen"], "uitbetaling": [], "vrijToegankelijk": false, "gemeenteBeperking": null, "openingstijden": null, "latitude": 51.3951566, "longitude": 5.4760204, "bronId": "L014398"}}, {"type": "Feature", "geometry": {"type": "Point", "coordinates": [5.4751646, 51.3949827]}, "properties": {"type": "inleverpunt", "locatieNaam": "Fijn Fietsen", "straatNaam": "Den Hof", "straatNr": "56", "postcode": "5582 JZ", "plaats": "Waalre", "merk": "Stibat", "puntType": "inzamelbak", "materialen": ["batterijen"], "uitbetaling": [], "vrijToegankelijk": false, "gemeenteBeperking": null, "openingstijden": null, "latitude": 51.3949827, "longitude": 5.4751646, "bronId": "L033592"}}, {"type": "Feature", "geometry": {"type": "Point", "coordinates": [5.4456874, 51.3870948]}, "properties": {"type": "inleverpunt", "locatieNaam": "8617 Albert Heijn", "straatNaam": "De Bus", "straatNr": "38", "postcode": "5581 GP", "plaats": "Waalre", "merk": "Stibat", "puntType": "inzamelbak", "materialen": ["batterijen"], "uitbetaling": [], "vrijToegankelijk": false, "gemeenteBeperking": null, "openingstijden": null, "latitude": 51.3870948, "longitude": 5.4456874, "bronId": "L007437"}}, {"type": "Feature", "geometry": {"type": "Point", "coordinates": [5.4464172, 51.387019]}, "properties": {"type": "inleverpunt", "locatieNaam": "Lidl", "straatNaam": "De Bus", "straatNr": "4", "postcode": "5581 GP", "plaats": "Waalre", "merk": "Stibat", "puntType": "inzamelbak", "materialen": ["batterijen"], "uitbetaling": [], "vrijToegankelijk": false, "gemeenteBeperking": null, "openingstijden": null, "latitude": 51.387019, "longitude": 5.4464172, "bronId": "L017064"}}, {"type": "Feature", "geometry": {"type": "Point", "coordinates": [5.4457707, 51.3869384]}, "properties": {"type": "inleverpunt", "locatieNaam": "Kruidvat", "straatNaam": "De Bus", "straatNr": "39A", "postcode": "5581 GP", "plaats": "Waalre", "merk": "Stibat", "puntType": "inzamelbak", "materialen": ["batterijen"], "uitbetaling": [], "vrijToegankelijk": false, "gemeenteBeperking": null, "openingstijden": null, "latitude": 51.3869384, "longitude": 5.4457707, "bronId": "L032392"}}, {"type": "Feature", "geometry": {"type": "Polygon", "coordinates": [[[5.437497001735536, 51.366341003498256], [5.438125001736163, 51.36608700349807], [5.43922200173728, 51.36625200349816], [5.441895001740032, 51.367485003498984], [5.445234001743439, 51.368151003499364], [5.44528400174348, 51.36788100349919], [5.448642001746891, 51.36813700349932], [5.4665360017650855, 51.370078003500346], [5.492480001791508, 51.37415100350272], [5.493634001792664, 51.37380200350246], [5.494505001793549, 51.37391600350253], [5.495454001794497, 51.3736100035023], [5.495658001794686, 51.37317200350198], [5.496477001795517, 51.37313700350197], [5.501661001800807, 51.374280003502655], [5.508479001807655, 51.37276600350153], [5.516418001815899, 51.378336003505154], [5.513636001813194, 51.38135200350724], [5.512004001811637, 51.38381100350894], [5.504874001805031, 51.40015500352007], [5.504256001804401, 51.400047003520015], [5.503624001803819, 51.401522003521016], [5.501545001801775, 51.403110003522116], [5.499851001800087, 51.40385800352264], [5.497824001798049, 51.40426800352297], [5.4910870017912465, 51.40464400352333], [5.489923001790062, 51.404455003523225], [5.489050001789187, 51.404713003523405], [5.4810710017811095, 51.404593003523466], [5.469322001769244, 51.40535000352415], [5.468625001768528, 51.40503400352392], [5.468381001768292, 51.40529800352413], [5.463326001763171, 51.40527300352418], [5.462543001762367, 51.404935003523946], [5.460741001760544, 51.40499400352404], [5.4604020017602135, 51.405245003524215], [5.453510001753239, 51.40529300352436], [5.451746001751439, 51.404900003524084], [5.451486001751188, 51.40524900352434], [5.436189001735693, 51.40497600352437], [5.436327001735815, 51.40448600352402], [5.435797001735269, 51.404290003523926], [5.435451001734887, 51.403446003523406], [5.433619001732999, 51.402572003522835], [5.431657001731002, 51.40233900352264], [5.4312160017305455, 51.402049003522464], [5.430965001730316, 51.40263700352289], [5.428754001728081, 51.402801003523024], [5.427992001727305, 51.402580003522885], [5.427582001726901, 51.402922003523116], [5.426633001725917, 51.40233000352275], [5.4268940017261675, 51.40202500352253], [5.42587100172511, 51.40139700352214], [5.425718001724932, 51.40076400352171], [5.425024001724227, 51.40074200352169], [5.423854001723002, 51.399648003520944], [5.423838001722967, 51.39918800352067], [5.424363001723497, 51.39912000352061], [5.4233540017224575, 51.39868700352035], [5.423982001723082, 51.39838400352012], [5.423829001722915, 51.39802700351988], [5.422096001721109, 51.396739003519045], [5.422159001721109, 51.39513100351796], [5.423051001722009, 51.39499100351782], [5.421573001720459, 51.39360600351691], [5.421600001720456, 51.39287000351642], [5.4195190017183235, 51.39215300351598], [5.420045001718844, 51.391843003515795], [5.418303001717038, 51.39072700351502], [5.417805001716514, 51.39018400351469], [5.418246001716941, 51.38971600351437], [5.4174390017161, 51.38915600351397], [5.4184610017171275, 51.38895700351382], [5.417720001716356, 51.38834600351342], [5.417805001716424, 51.387901003513115], [5.418840001717446, 51.38717700351263], [5.419402001718015, 51.38721700351263], [5.419759001718342, 51.386336003512035], [5.420883001719476, 51.386254003511965], [5.4202230017187825, 51.385558003511505], [5.421116001719692, 51.38572800351161], [5.420351001718889, 51.38498400351113], [5.421678001720216, 51.384535003510805], [5.421092001719606, 51.38415400351054], [5.42196800172047, 51.38347400351007], [5.4241820017225715, 51.37990200350764], [5.425589001723975, 51.379364003507234], [5.424783001723154, 51.3791570035071], [5.424862001723214, 51.378681003506806], [5.423824001722125, 51.377674003506115], [5.424263001722529, 51.37665300350546], [5.423509001721745, 51.37613200350507], [5.423172001721338, 51.374354003503896], [5.424653001722819, 51.373958003503574], [5.424301001722439, 51.3733270035032], [5.424898001723018, 51.372624003502715], [5.426752001724897, 51.37272300350272], [5.427366001725504, 51.372266003502425], [5.427072001725185, 51.37171400350205], [5.427555001725679, 51.37189300350216], [5.427911001726021, 51.37142200350185], [5.428641001726764, 51.371549003501926], [5.429444001727559, 51.37091400350148], [5.429070001727149, 51.37020400350098], [5.431173001729272, 51.37002600350083], [5.4313970017294855, 51.36967900350059], [5.431985001730082, 51.369684003500616], [5.4315570017296375, 51.36936400350038], [5.432028001730102, 51.36910000350021], [5.4324780017305665, 51.369304003500346], [5.435331001733415, 51.36823600349956], [5.436301001734321, 51.36623900349819], [5.437280001735303, 51.36601300349804], [5.437497001735536, 51.366341003498256]]]}, "properties": {"type": "boundary", "gemeente": "Waalre"}}]}