{"type": "FeatureCollection", "metadata": {"gemeente": "Wassenaar", "slug": "wassenaar", "generated_at": "2026-07-28T19:03:25.026558Z", "total_points": 42, "merken": ["StatiegeldNederland", "Stibat", "StichtingOPEN"], "bounds": [4.3434618, 52.1108177, 4.4318629, 52.157994]}, "features": [{"type": "Feature", "geometry": {"type": "Point", "coordinates": [4.4036898, 52.1446066]}, "properties": {"type": "inleverpunt", "locatieNaam": "Albert Heijn", "straatNaam": "Stadhoudersplein", "straatNr": "4", "postcode": "2241 EB", "plaats": "Wassenaar", "merk": "StatiegeldNederland", "puntType": "automaat", "materialen": ["pet-groot", "pet-klein", "blik", "glas", "krat"], "uitbetaling": ["bonnetje", "donatie"], "vrijToegankelijk": true, "gemeenteBeperking": null, "openingstijden": {"ma": "07:30–22:00", "di": "07:30–22:00", "wo": "07:30–22:00", "do": "07:30–22:00", "vr": "07:30–22:00", "za": "07:30–22:00", "zo": "10:00–20:00"}, "latitude": 52.1446066, "longitude": 4.4036898, "bronId": "252756"}}, {"type": "Feature", "geometry": {"type": "Point", "coordinates": [4.4030254, 52.1449193]}, "properties": {"type": "inleverpunt", "locatieNaam": "Aldi", "straatNaam": "Hofcampweg", "straatNr": "57", "postcode": "2241 KD", "plaats": "Wassenaar", "merk": "StatiegeldNederland", "puntType": "automaat", "materialen": ["pet-groot", "pet-klein", "blik", "glas", "krat"], "uitbetaling": ["bonnetje"], "vrijToegankelijk": true, "gemeenteBeperking": null, "openingstijden": {"ma": "08:00–20:00", "di": "08:00–20:00", "wo": "08:00–20:00", "do": "08:00–20:00", "vr": "08:00–20:00", "za": "08:00–20:00", "zo": "12:00–18:00"}, "latitude": 52.1449193, "longitude": 4.4030254, "bronId": "253155"}}, {"type": "Feature", "geometry": {"type": "Point", "coordinates": [4.4012126, 52.1477551]}, "properties": {"type": "inleverpunt", "locatieNaam": "Dirk", "straatNaam": "Starrenburglaan", "straatNr": "47", "postcode": "2241 NB", "plaats": "Wassenaar", "merk": "StatiegeldNederland", "puntType": "automaat", "materialen": ["pet-groot", "pet-klein", "blik", "glas", "krat"], "uitbetaling": ["bonnetje", "donatie"], "vrijToegankelijk": true, "gemeenteBeperking": null, "openingstijden": {"ma": "08:00–21:00", "di": "08:00–21:00", "wo": "08:00–21:00", "do": "08:00–21:00", "vr": "08:00–21:00", "za": "08:00–21:00", "zo": "10:00–18:00"}, "latitude": 52.1477551, "longitude": 4.4012126, "bronId": "254547"}}, {"type": "Feature", "geometry": {"type": "Point", "coordinates": [4.3848838, 52.1455773]}, "properties": {"type": "inleverpunt", "locatieNaam": "Duinrell", "straatNaam": "Duinrell", "straatNr": "1", "postcode": "2242 JP", "plaats": "Wassenaar", "merk": "StatiegeldNederland", "puntType": "automaat", "materialen": ["pet-groot", "pet-klein", "blik"], "uitbetaling": ["donatie", "tikkie"], "vrijToegankelijk": true, "gemeenteBeperking": null, "openingstijden": null, "latitude": 52.1455773, "longitude": 4.3848838, "bronId": "254605"}}, {"type": "Feature", "geometry": {"type": "Point", "coordinates": [4.3943776, 52.1436309]}, "properties": {"type": "inleverpunt", "locatieNaam": "Ekoplaza", "straatNaam": "LANGESTRAAT", "straatNr": "63", "postcode": "2242 KK", "plaats": "Wassenaar", "merk": "StatiegeldNederland", "puntType": "balie", "materialen": ["pet-groot", "pet-klein", "blik"], "uitbetaling": [], "vrijToegankelijk": true, "gemeenteBeperking": null, "openingstijden": {"ma": "10:00–18:00", "di": "09:00–18:00", "wo": "09:00–18:00", "do": "09:00–18:00", "vr": "09:00–18:00", "za": "09:00–18:00", "zo": "Gesloten"}, "latitude": 52.1436309, "longitude": 4.3943776, "bronId": "254663"}}, {"type": "Feature", "geometry": {"type": "Point", "coordinates": [4.394572, 52.145623]}, "properties": {"type": "inleverpunt", "locatieNaam": "Jumbo", "straatNaam": "Luifelbaan", "straatNr": "1", "postcode": "2242 KT", "plaats": "Wassenaar", "merk": "StatiegeldNederland", "puntType": "automaat", "materialen": ["pet-groot", "pet-klein", "blik", "glas", "krat"], "uitbetaling": ["bonnetje", "donatie"], "vrijToegankelijk": true, "gemeenteBeperking": null, "openingstijden": {"ma": "08:00–21:00", "di": "08:00–21:00", "wo": "08:00–21:00", "do": "08:00–21:00", "vr": "08:00–21:00", "za": "08:00–21:00", "zo": "10:00–18:00"}, "latitude": 52.145623, "longitude": 4.394572, "bronId": "255550"}}, {"type": "Feature", "geometry": {"type": "Point", "coordinates": [4.4199637, 52.1328533]}, "properties": {"type": "inleverpunt", "locatieNaam": "Manege Santhorst V.o.f.", "straatNaam": "Papeweg", "straatNr": "43", "postcode": "2245 AG", "plaats": "Wassenaar", "merk": "StatiegeldNederland", "puntType": "balie", "materialen": ["pet-groot", "pet-klein", "blik"], "uitbetaling": [], "vrijToegankelijk": false, "gemeenteBeperking": null, "openingstijden": {"ma": "08:00–22:00", "di": "08:00–22:00", "wo": "08:00–22:00", "do": "08:00–22:00", "vr": "08:00–22:00", "za": "08:00–19:30", "zo": "08:00–19:30"}, "latitude": 52.1328533, "longitude": 4.4199637, "bronId": "256547"}}, {"type": "Feature", "geometry": {"type": "Point", "coordinates": [4.4101058, 52.139059]}, "properties": {"type": "inleverpunt", "locatieNaam": "Swart & Strous Carservices", "straatNaam": "Rijksstraatweg", "straatNr": "447", "postcode": "2245 AC", "plaats": "Wassenaar", "merk": "StatiegeldNederland", "puntType": "automaat", "materialen": ["pet-groot", "pet-klein", "blik"], "uitbetaling": ["bonnetje", "donatie", "tikkie"], "vrijToegankelijk": true, "gemeenteBeperking": null, "openingstijden": {"ma": "10:00–17:00", "di": "10:00–17:00", "wo": "10:00–17:00", "do": "10:00–17:00", "vr": "10:00–17:00", "za": "10:00–17:00", "zo": "Gesloten"}, "latitude": 52.139059, "longitude": 4.4101058, "bronId": "258867"}}, {"type": "Feature", "geometry": {"type": "Point", "coordinates": [4.4173, 52.150547]}, "properties": {"type": "inleverpunt", "locatieNaam": "Kinderboerderij Wassenaar", "straatNaam": "Rodenburglaan", "straatNr": "80", "postcode": "2241 WT", "plaats": "Wassenaar", "merk": "StichtingOPEN", "puntType": "balie", "materialen": ["elektro-middel"], "uitbetaling": [], "vrijToegankelijk": false, "gemeenteBeperking": null, "openingstijden": null, "latitude": 52.150547, "longitude": 4.4173, "bronId": "SP00005581"}}, {"type": "Feature", "geometry": {"type": "Point", "coordinates": [4.404416, 52.144896]}, "properties": {"type": "inleverpunt", "locatieNaam": "1091 Albert Heijn Wassenaar", "straatNaam": "Stadhoudersplein", "straatNr": "4", "postcode": "2241 EB", "plaats": "Wassenaar", "merk": "StichtingOPEN", "puntType": "balie", "materialen": ["batterijen", "elektro-klein", "lampen"], "uitbetaling": [], "vrijToegankelijk": false, "gemeenteBeperking": null, "openingstijden": null, "latitude": 52.144896, "longitude": 4.404416, "bronId": "SP00022906"}}, {"type": "Feature", "geometry": {"type": "Point", "coordinates": [4.403122, 52.144972]}, "properties": {"type": "inleverpunt", "locatieNaam": "Aldi Wassenaar", "straatNaam": "Hofcampweg", "straatNr": "57", "postcode": "2241 KD", "plaats": "Wassenaar", "merk": "StichtingOPEN", "puntType": "balie", "materialen": ["batterijen", "elektro-klein", "lampen"], "uitbetaling": [], "vrijToegankelijk": false, "gemeenteBeperking": null, "openingstijden": null, "latitude": 52.144972, "longitude": 4.403122, "bronId": "SP00027249"}}, {"type": "Feature", "geometry": {"type": "Point", "coordinates": [4.401128, 52.14778]}, "properties": {"type": "inleverpunt", "locatieNaam": "Dirk Wassenaar", "straatNaam": "Starrenburglaan", "straatNr": "47", "postcode": "2241 NB", "plaats": "Wassenaar", "merk": "StichtingOPEN", "puntType": "balie", "materialen": ["batterijen", "lampen"], "uitbetaling": [], "vrijToegankelijk": false, "gemeenteBeperking": null, "openingstijden": null, "latitude": 52.14778, "longitude": 4.401128, "bronId": "SP00023447"}}, {"type": "Feature", "geometry": {"type": "Point", "coordinates": [4.399612, 52.147216]}, "properties": {"type": "inleverpunt", "locatieNaam": "KlusWijs Wassenaar", "straatNaam": "Van Hallstraat", "straatNr": "40", "postcode": "2241 KT", "plaats": "Wassenaar", "merk": "StichtingOPEN", "puntType": "balie", "materialen": ["elektro-middel", "lampen"], "uitbetaling": [], "vrijToegankelijk": false, "gemeenteBeperking": null, "openingstijden": null, "latitude": 52.147216, "longitude": 4.399612, "bronId": "SP00005839"}}, {"type": "Feature", "geometry": {"type": "Point", "coordinates": [4.3967089, 52.1480117]}, "properties": {"type": "inleverpunt", "locatieNaam": "Gamma Wassenaar", "straatNaam": "Hofcampweg", "straatNr": "296300", "postcode": "2241 KM", "plaats": "Wassenaar", "merk": "StichtingOPEN", "puntType": "balie", "materialen": ["batterijen", "elektro-middel", "lampen"], "uitbetaling": [], "vrijToegankelijk": false, "gemeenteBeperking": null, "openingstijden": null, "latitude": 52.1480117, "longitude": 4.3967089, "bronId": "SP00025743"}}, {"type": "Feature", "geometry": {"type": "Point", "coordinates": [4.3962424, 52.1481254]}, "properties": {"type": "inleverpunt", "locatieNaam": "Gamma Wassenaar", "straatNaam": "Hofcampweg", "straatNr": "296", "postcode": "2241 KM", "plaats": "Wassenaar", "merk": "StichtingOPEN", "puntType": "balie", "materialen": ["elektro-middel", "lampen", "tl-buizen"], "uitbetaling": [], "vrijToegankelijk": false, "gemeenteBeperking": null, "openingstijden": null, "latitude": 52.1481254, "longitude": 4.3962424, "bronId": "SP00020832"}}, {"type": "Feature", "geometry": {"type": "Point", "coordinates": [4.395368, 52.142662]}, "properties": {"type": "inleverpunt", "locatieNaam": "Kruidvat Wassenaar", "straatNaam": "Langstraat", "straatNr": "188190", "postcode": "2242 JZ", "plaats": "Wassenaar", "merk": "StichtingOPEN", "puntType": "balie", "materialen": ["batterijen", "lampen"], "uitbetaling": [], "vrijToegankelijk": false, "gemeenteBeperking": null, "openingstijden": null, "latitude": 52.142662, "longitude": 4.395368, "bronId": "SP00024680"}}, {"type": "Feature", "geometry": {"type": "Point", "coordinates": [4.394495, 52.145701]}, "properties": {"type": "inleverpunt", "locatieNaam": "Jumbo Wassenaar", "straatNaam": "Luifelbaan", "straatNr": "1", "postcode": "2242 KT", "plaats": "Wassenaar", "merk": "StichtingOPEN", "puntType": "balie", "materialen": ["batterijen", "lampen"], "uitbetaling": [], "vrijToegankelijk": false, "gemeenteBeperking": null, "openingstijden": null, "latitude": 52.145701, "longitude": 4.394495, "bronId": "SP00025240"}}, {"type": "Feature", "geometry": {"type": "Point", "coordinates": [4.392897, 52.144025]}, "properties": {"type": "inleverpunt", "locatieNaam": "Bibliotheek Wassenaar", "straatNaam": "Langstraat", "straatNr": "40", "postcode": "2242 KM", "plaats": "Wassenaar", "merk": "StichtingOPEN", "puntType": "balie", "materialen": ["batterijen", "elektro-klein", "lampen"], "uitbetaling": [], "vrijToegankelijk": false, "gemeenteBeperking": null, "openingstijden": null, "latitude": 52.144025, "longitude": 4.392897, "bronId": "SP00020845"}}, {"type": "Feature", "geometry": {"type": "Point", "coordinates": [4.424784, 52.157994]}, "properties": {"type": "inleverpunt", "locatieNaam": "Milieustraat Wassenaar", "straatNaam": "Hogeboomseweg", "straatNr": "6", "postcode": "2241 BG", "plaats": "Wassenaar", "merk": "StichtingOPEN", "puntType": "milieustraat", "materialen": ["batterijen", "elektro-groot", "elektro-klein", "elektro-middel", "lampen", "tl-buizen"], "uitbetaling": [], "vrijToegankelijk": false, "gemeenteBeperking": ["Wassenaar", "Delft", "Rijswijk", "Midden-Delfland", "Leidschendam-Voorburg", "Pijnacker-Nootdorp"], "openingstijden": null, "latitude": 52.157994, "longitude": 4.424784, "bronId": "SP00002541"}}, {"type": "Feature", "geometry": {"type": "Point", "coordinates": [4.4318629, 52.1508005]}, "properties": {"type": "inleverpunt", "locatieNaam": "Kruyt", "straatNaam": "Marineweg", "straatNr": "21", "postcode": "2241 TX", "plaats": "Wassenaar", "merk": "Stibat", "puntType": "inzamelbak", "materialen": ["batterijen"], "uitbetaling": [], "vrijToegankelijk": false, "gemeenteBeperking": null, "openingstijden": null, "latitude": 52.1508005, "longitude": 4.4318629, "bronId": "L045246"}}, {"type": "Feature", "geometry": {"type": "Point", "coordinates": [4.4238684, 52.1578044]}, "properties": {"type": "inleverpunt", "locatieNaam": "Afvalbrengstation Wassenaar", "straatNaam": "Hogeboomseweg", "straatNr": "6", "postcode": "2241 BG", "plaats": "Wassenaar", "merk": "Stibat", "puntType": "inzamelbak", "materialen": ["batterijen"], "uitbetaling": [], "vrijToegankelijk": false, "gemeenteBeperking": null, "openingstijden": null, "latitude": 52.1578044, "longitude": 4.4238684, "bronId": "L035619"}}, {"type": "Feature", "geometry": {"type": "Point", "coordinates": [4.4121152, 52.1390986]}, "properties": {"type": "inleverpunt", "locatieNaam": "Tuincentrum de Bosrand", "straatNaam": "Rijksstraatweg", "straatNr": "361b", "postcode": "2245 AB", "plaats": "Wassenaar", "merk": "Stibat", "puntType": "inzamelbak", "materialen": ["batterijen"], "uitbetaling": [], "vrijToegankelijk": false, "gemeenteBeperking": null, "openingstijden": null, "latitude": 52.1390986, "longitude": 4.4121152, "bronId": "L039187"}}, {"type": "Feature", "geometry": {"type": "Point", "coordinates": [4.4043484, 52.1450223]}, "properties": {"type": "inleverpunt", "locatieNaam": "7936 Etos", "straatNaam": "Stadhoudersplein", "straatNr": "22", "postcode": "2241 EB", "plaats": "Wassenaar", "merk": "Stibat", "puntType": "inzamelbak", "materialen": ["batterijen"], "uitbetaling": [], "vrijToegankelijk": false, "gemeenteBeperking": null, "openingstijden": null, "latitude": 52.1450223, "longitude": 4.4043484, "bronId": "L023315"}}, {"type": "Feature", "geometry": {"type": "Point", "coordinates": [4.4036587, 52.1445766]}, "properties": {"type": "inleverpunt", "locatieNaam": "1091 Albert Heijn", "straatNaam": "Stadhoudersplein", "straatNr": "4", "postcode": "2241 EB", "plaats": "Wassenaar", "merk": "Stibat", "puntType": "inzamelbak", "materialen": ["batterijen"], "uitbetaling": [], "vrijToegankelijk": false, "gemeenteBeperking": null, "openingstijden": null, "latitude": 52.1445766, "longitude": 4.4036587, "bronId": "L007061"}}, {"type": "Feature", "geometry": {"type": "Point", "coordinates": [4.403122, 52.144972]}, "properties": {"type": "inleverpunt", "locatieNaam": "Aldi", "straatNaam": "Hofcampweg", "straatNr": "57", "postcode": "2241 KD", "plaats": "Wassenaar", "merk": "Stibat", "puntType": "inzamelbak", "materialen": ["batterijen"], "uitbetaling": [], "vrijToegankelijk": false, "gemeenteBeperking": null, "openingstijden": null, "latitude": 52.144972, "longitude": 4.403122, "bronId": "L041174"}}, {"type": "Feature", "geometry": {"type": "Point", "coordinates": [4.4010164, 52.1478373]}, "properties": {"type": "inleverpunt", "locatieNaam": "Dirk", "straatNaam": "Starrenburglaan", "straatNr": "47", "postcode": "2241 NB", "plaats": "Wassenaar", "merk": "Stibat", "puntType": "inzamelbak", "materialen": ["batterijen"], "uitbetaling": [], "vrijToegankelijk": false, "gemeenteBeperking": null, "openingstijden": null, "latitude": 52.1478373, "longitude": 4.4010164, "bronId": "L013675"}}, {"type": "Feature", "geometry": {"type": "Point", "coordinates": [4.3995447, 52.1472328]}, "properties": {"type": "inleverpunt", "locatieNaam": "KlusWijs", "straatNaam": "Van Hallstraat", "straatNr": "40", "postcode": "2241 KT", "plaats": "Wassenaar", "merk": "Stibat", "puntType": "inzamelbak", "materialen": ["batterijen"], "uitbetaling": [], "vrijToegankelijk": false, "gemeenteBeperking": null, "openingstijden": null, "latitude": 52.1472328, "longitude": 4.3995447, "bronId": "L011548"}}, {"type": "Feature", "geometry": {"type": "Point", "coordinates": [4.3964762, 52.1480287]}, "properties": {"type": "inleverpunt", "locatieNaam": "Gamma", "straatNaam": "Hofcampweg", "straatNr": "296-300", "postcode": "2241 KM", "plaats": "Wassenaar", "merk": "Stibat", "puntType": "inzamelbak", "materialen": ["batterijen"], "uitbetaling": [], "vrijToegankelijk": false, "gemeenteBeperking": null, "openingstijden": null, "latitude": 52.1480287, "longitude": 4.3964762, "bronId": "L039387"}}, {"type": "Feature", "geometry": {"type": "Point", "coordinates": [4.3957933, 52.1427286]}, "properties": {"type": "inleverpunt", "locatieNaam": "Intertoys", "straatNaam": "Langstraat", "straatNr": "123", "postcode": "2242 KL", "plaats": "Wassenaar", "merk": "Stibat", "puntType": "inzamelbak", "materialen": ["batterijen"], "uitbetaling": [], "vrijToegankelijk": false, "gemeenteBeperking": null, "openingstijden": null, "latitude": 52.1427286, "longitude": 4.3957933, "bronId": "L025820"}}, {"type": "Feature", "geometry": {"type": "Point", "coordinates": [4.3953067, 52.1424916]}, "properties": {"type": "inleverpunt", "locatieNaam": "Kruidvat", "straatNaam": "Langstraat", "straatNr": "188-190", "postcode": "2242 JZ", "plaats": "Wassenaar", "merk": "Stibat", "puntType": "inzamelbak", "materialen": ["batterijen"], "uitbetaling": [], "vrijToegankelijk": false, "gemeenteBeperking": null, "openingstijden": null, "latitude": 52.1424916, "longitude": 4.3953067, "bronId": "L015325"}}, {"type": "Feature", "geometry": {"type": "Point", "coordinates": [4.3951505, 52.1426618]}, "properties": {"type": "inleverpunt", "locatieNaam": "Elektro Specialist Greenways", "straatNaam": "Langstraat", "straatNr": "160", "postcode": "2242 JZ", "plaats": "Wassenaar", "merk": "Stibat", "puntType": "inzamelbak", "materialen": ["batterijen"], "uitbetaling": [], "vrijToegankelijk": false, "gemeenteBeperking": null, "openingstijden": null, "latitude": 52.1426618, "longitude": 4.3951505, "bronId": "L030932"}}, {"type": "Feature", "geometry": {"type": "Point", "coordinates": [4.3951313, 52.1428395]}, "properties": {"type": "inleverpunt", "locatieNaam": "HEMA Langstraat", "straatNaam": "Langstraat", "straatNr": "154", "postcode": "2242 JZ", "plaats": "Wassenaar", "merk": "Stibat", "puntType": "inzamelbak", "materialen": ["batterijen"], "uitbetaling": [], "vrijToegankelijk": false, "gemeenteBeperking": null, "openingstijden": null, "latitude": 52.1428395, "longitude": 4.3951313, "bronId": "L006413"}}, {"type": "Feature", "geometry": {"type": "Point", "coordinates": [4.3948108, 52.1432891]}, "properties": {"type": "inleverpunt", "locatieNaam": "7309 Etos", "straatNaam": "Langstraat", "straatNr": "115 -117", "postcode": "2242 KL", "plaats": "Wassenaar", "merk": "Stibat", "puntType": "inzamelbak", "materialen": ["batterijen"], "uitbetaling": [], "vrijToegankelijk": false, "gemeenteBeperking": null, "openingstijden": null, "latitude": 52.1432891, "longitude": 4.3948108, "bronId": "L022756"}}, {"type": "Feature", "geometry": {"type": "Point", "coordinates": [4.3944959, 52.1430362]}, "properties": {"type": "inleverpunt", "locatieNaam": "DOUGLAS", "straatNaam": "Molenstraat", "straatNr": "6", "postcode": "2242 HT", "plaats": "Wassenaar", "merk": "Stibat", "puntType": "inzamelbak", "materialen": ["batterijen"], "uitbetaling": [], "vrijToegankelijk": false, "gemeenteBeperking": null, "openingstijden": null, "latitude": 52.1430362, "longitude": 4.3944959, "bronId": "L049184"}}, {"type": "Feature", "geometry": {"type": "Point", "coordinates": [4.39477, 52.1453465]}, "properties": {"type": "inleverpunt", "locatieNaam": "Bruna", "straatNaam": "Van Hogendorpstraat", "straatNr": "135", "postcode": "2242 PE", "plaats": "Wassenaar", "merk": "Stibat", "puntType": "inzamelbak", "materialen": ["batterijen"], "uitbetaling": [], "vrijToegankelijk": false, "gemeenteBeperking": null, "openingstijden": null, "latitude": 52.1453465, "longitude": 4.39477, "bronId": "L024011"}}, {"type": "Feature", "geometry": {"type": "Point", "coordinates": [4.3946236, 52.1452626]}, "properties": {"type": "inleverpunt", "locatieNaam": "Makker Hoorspecialisten", "straatNaam": "Van Hogendorpstraat", "straatNr": "131", "postcode": "2242 PE", "plaats": "Wassenaar", "merk": "Stibat", "puntType": "inzamelbak", "materialen": ["batterijen"], "uitbetaling": [], "vrijToegankelijk": false, "gemeenteBeperking": null, "openingstijden": null, "latitude": 52.1452626, "longitude": 4.3946236, "bronId": "L049334"}}, {"type": "Feature", "geometry": {"type": "Point", "coordinates": [4.3945112, 52.1457201]}, "properties": {"type": "inleverpunt", "locatieNaam": "Jumbo", "straatNaam": "Luifelbaan", "straatNr": "1", "postcode": "2242 KT", "plaats": "Wassenaar", "merk": "Stibat", "puntType": "inzamelbak", "materialen": ["batterijen"], "uitbetaling": [], "vrijToegankelijk": false, "gemeenteBeperking": null, "openingstijden": null, "latitude": 52.1457201, "longitude": 4.3945112, "bronId": "L036121"}}, {"type": "Feature", "geometry": {"type": "Point", "coordinates": [4.3940976, 52.1445752]}, "properties": {"type": "inleverpunt", "locatieNaam": "Beter Horen", "straatNaam": "v. Hogendorpstraat", "straatNr": "16 E", "postcode": "2242 KZ", "plaats": "Wassenaar", "merk": "Stibat", "puntType": "inzamelbak", "materialen": ["batterijen"], "uitbetaling": [], "vrijToegankelijk": false, "gemeenteBeperking": null, "openingstijden": null, "latitude": 52.1445752, "longitude": 4.3940976, "bronId": "L017012"}}, {"type": "Feature", "geometry": {"type": "Point", "coordinates": [4.3937659, 52.1437543]}, "properties": {"type": "inleverpunt", "locatieNaam": "Zeeman", "straatNaam": "Langstraat", "straatNr": "52", "postcode": "2242 KN", "plaats": "Wassenaar", "merk": "Stibat", "puntType": "inzamelbak", "materialen": ["batterijen"], "uitbetaling": [], "vrijToegankelijk": false, "gemeenteBeperking": null, "openingstijden": null, "latitude": 52.1437543, "longitude": 4.3937659, "bronId": "L019973"}}, {"type": "Feature", "geometry": {"type": "Point", "coordinates": [4.3930949, 52.1423614]}, "properties": {"type": "inleverpunt", "locatieNaam": "Marco Tweewielers", "straatNaam": "Kerkstraat", "straatNr": "33", "postcode": "2242 HB", "plaats": "Wassenaar", "merk": "Stibat", "puntType": "inzamelbak", "materialen": ["batterijen"], "uitbetaling": [], "vrijToegankelijk": false, "gemeenteBeperking": null, "openingstijden": null, "latitude": 52.1423614, "longitude": 4.3930949, "bronId": "L032932"}}, {"type": "Feature", "geometry": {"type": "Point", "coordinates": [4.3931238, 52.1443781]}, "properties": {"type": "inleverpunt", "locatieNaam": "Ringfoto", "straatNaam": "Langstraat", "straatNr": "33", "postcode": "2242 KJ", "plaats": "Wassenaar", "merk": "Stibat", "puntType": "inzamelbak", "materialen": ["batterijen"], "uitbetaling": [], "vrijToegankelijk": false, "gemeenteBeperking": null, "openingstijden": null, "latitude": 52.1443781, "longitude": 4.3931238, "bronId": "L047051"}}, {"type": "Feature", "geometry": {"type": "Point", "coordinates": [4.3434618, 52.1108177]}, "properties": {"type": "inleverpunt", "locatieNaam": "Camping Duinhorst", "straatNaam": "Buurtweg", "straatNr": "135", "postcode": "2244 BH", "plaats": "Wassenaar", "merk": "Stibat", "puntType": "inzamelbak", "materialen": ["batterijen"], "uitbetaling": [], "vrijToegankelijk": false, "gemeenteBeperking": null, "openingstijden": null, "latitude": 52.1108177, "longitude": 4.3434618, "bronId": "L003737"}}, {"type": "Feature", "geometry": {"type": "Polygon", "coordinates": [[[4.327484000650231, 52.09556700397283], [4.336004000658904, 52.09808300397443], [4.337253000660193, 52.09877000397488], [4.338573000661441, 52.09743500397407], [4.341362000664286, 52.098342003974665], [4.342318000665194, 52.097482003974136], [4.350046000673134, 52.1010470039764], [4.358489000681853, 52.105761003979396], [4.360982000684256, 52.10406800397837], [4.365076000688133, 52.10003600397595], [4.370029000692878, 52.096098003973545], [4.3704560006933155, 52.096233003973666], [4.372709000695491, 52.094773003972755], [4.389310000712628, 52.10392200397856], [4.400934000724696, 52.11161600398341], [4.413549000737878, 52.1216050039896], [4.413125000737482, 52.122142003989936], [4.418305000742794, 52.12443600399136], [4.427316000752299, 52.133190003996845], [4.443939000769647, 52.146041004004765], [4.443191000768927, 52.146607004005155], [4.438865000764958, 52.15326400400919], [4.439232000765403, 52.15470700401003], [4.440478000766704, 52.15565300401067], [4.440144000766378, 52.155846004010776], [4.43476300076106, 52.157149004011465], [4.431125000757494, 52.15848700401229], [4.425974000752377, 52.15923000401269], [4.419772000746339, 52.162344004014564], [4.417786000744303, 52.16147800401403], [4.41500800074157, 52.16233400401452], [4.413136000739777, 52.163824004015396], [4.411595000738216, 52.1634790040152], [4.40987400073669, 52.167064004017384], [4.410193000737049, 52.1678030040178], [4.409319000736257, 52.16934200401871], [4.404802000731639, 52.16750200401754], [4.404112000730997, 52.16840500401813], [4.399024000726093, 52.17184800402016], [4.397704000724847, 52.17315100402095], [4.3960170007231865, 52.17368300402126], [4.39509100072231, 52.17460600402181], [4.392278000719524, 52.175077004022086], [4.391647000718934, 52.175888004022575], [4.37501600070289, 52.18661300402893], [4.360002000688207, 52.19267700403247], [4.332640000659476, 52.168437004017456], [4.309982000635778, 52.150255004006105], [4.290063000614983, 52.13503600399663], [4.302506000627075, 52.12861600399284], [4.329885000653358, 52.10851900398081], [4.333060000656383, 52.105731003979116], [4.330317000653558, 52.10434200397826], [4.332264000655436, 52.10304000397742], [4.323282000646224, 52.09921700397504], [4.327484000650231, 52.09556700397283]]]}, "properties": {"type": "boundary", "gemeente": "Wassenaar"}}]}