{"type": "FeatureCollection", "metadata": {"gemeente": "Waterland", "slug": "waterland", "generated_at": "2026-09-07T06:58:27.146480Z", "total_points": 16, "merken": ["StatiegeldNederland", "Stibat", "StichtingOPEN"], "bounds": [4.9503083, 52.4275888, 5.1053585, 52.4869515]}, "features": [{"type": "Feature", "geometry": {"type": "Point", "coordinates": [5.1053585, 52.4560811]}, "properties": {"type": "inleverpunt", "locatieNaam": "Albert Heijn", "straatNaam": "Boxenring", "straatNr": "40A", "postcode": "1156 DL", "plaats": "Marken", "merk": "StatiegeldNederland", "puntType": "automaat", "materialen": ["pet-groot", "pet-klein", "blik", "glas", "krat"], "uitbetaling": ["bonnetje", "donatie"], "vrijToegankelijk": true, "gemeenteBeperking": null, "openingstijden": {"ma": "09:00–18:30", "di": "09:00–18:30", "wo": "09:00–18:30", "do": "09:00–18:30", "vr": "09:00–18:30", "za": "09:00–18:30", "zo": "10:00–18:00"}, "latitude": 52.4560811, "longitude": 5.1053585, "bronId": "327072"}}, {"type": "Feature", "geometry": {"type": "Point", "coordinates": [5.0366306, 52.4500908]}, "properties": {"type": "inleverpunt", "locatieNaam": "Albert Heijn", "straatNaam": "t Spil", "straatNr": "37", "postcode": "1141 SG", "plaats": "Monnickendam", "merk": "StatiegeldNederland", "puntType": "automaat", "materialen": ["pet-groot", "pet-klein", "blik", "glas", "krat"], "uitbetaling": ["bonnetje", "donatie"], "vrijToegankelijk": true, "gemeenteBeperking": null, "openingstijden": {"ma": "08:00–21:00", "di": "08:00–21:00", "wo": "08:00–21:00", "do": "08:00–21:00", "vr": "08:00–21:00", "za": "08:00–21:00", "zo": "08:00–21:00"}, "latitude": 52.4500908, "longitude": 5.0366306, "bronId": "327814"}}, {"type": "Feature", "geometry": {"type": "Point", "coordinates": [4.9503083, 52.46359]}, "properties": {"type": "inleverpunt", "locatieNaam": "Anne En Co", "straatNaam": "Dorpsstraat", "straatNr": "8", "postcode": "1452 PD", "plaats": "Ilpendam", "merk": "StatiegeldNederland", "puntType": "balie", "materialen": ["pet-groot", "pet-klein", "blik"], "uitbetaling": [], "vrijToegankelijk": true, "gemeenteBeperking": null, "openingstijden": {"ma": "08:30–18:00", "di": "08:30–18:00", "wo": "08:30–18:00", "do": "08:30–18:00", "vr": "08:30–18:00", "za": "08:30–13:30", "zo": "08:30–12:00"}, "latitude": 52.46359, "longitude": 4.9503083, "bronId": "328525"}}, {"type": "Feature", "geometry": {"type": "Point", "coordinates": [5.0403665, 52.4548948]}, "properties": {"type": "inleverpunt", "locatieNaam": "Dekamarkt", "straatNaam": "Graaf Willemlaan", "straatNr": "24", "postcode": "1141 XL", "plaats": "Monnickendam", "merk": "StatiegeldNederland", "puntType": "automaat", "materialen": ["blik"], "uitbetaling": ["bonnetje"], "vrijToegankelijk": true, "gemeenteBeperking": null, "openingstijden": {"ma": "07:30–21:00", "di": "07:30–21:00", "wo": "07:30–21:00", "do": "07:30–21:00", "vr": "07:30–21:00", "za": "07:30–21:00", "zo": "08:00–20:00"}, "latitude": 52.4548948, "longitude": 5.0403665, "bronId": "329284"}}, {"type": "Feature", "geometry": {"type": "Point", "coordinates": [5.0403665, 52.4548948]}, "properties": {"type": "inleverpunt", "locatieNaam": "Dekamarkt", "straatNaam": "Graaf Willemstraat", "straatNr": "24", "postcode": "1141 XL", "plaats": "Monnickendam", "merk": "StatiegeldNederland", "puntType": "automaat", "materialen": ["pet-groot", "pet-klein", "blik", "glas", "krat"], "uitbetaling": ["bonnetje", "donatie"], "vrijToegankelijk": true, "gemeenteBeperking": null, "openingstijden": {"ma": "07:30–21:00", "di": "07:30–21:00", "wo": "07:30–21:00", "do": "07:30–21:00", "vr": "07:30–21:00", "za": "07:30–21:00", "zo": "08:00–20:00"}, "latitude": 52.4548948, "longitude": 5.0403665, "bronId": "329285"}}, {"type": "Feature", "geometry": {"type": "Point", "coordinates": [5.036382, 52.458104]}, "properties": {"type": "inleverpunt", "locatieNaam": "Doe Het Zelf Centrum De Jong B.v>", "straatNaam": "Niesenoort", "straatNr": "14", "postcode": "1141 BM", "plaats": "Monnickendam", "merk": "StichtingOPEN", "puntType": "balie", "materialen": ["batterijen", "lampen", "tl-buizen"], "uitbetaling": [], "vrijToegankelijk": false, "gemeenteBeperking": null, "openingstijden": null, "latitude": 52.458104, "longitude": 5.036382, "bronId": "SP00020362"}}, {"type": "Feature", "geometry": {"type": "Point", "coordinates": [5.0742048, 52.4275888]}, "properties": {"type": "inleverpunt", "locatieNaam": "Europarcs Resort Poort van Amsterdam", "straatNaam": "Zeedijk", "straatNr": "2", "postcode": "1154 PP", "plaats": "Uitdam", "merk": "Stibat", "puntType": "inzamelbak", "materialen": ["batterijen"], "uitbetaling": [], "vrijToegankelijk": false, "gemeenteBeperking": null, "openingstijden": null, "latitude": 52.4275888, "longitude": 5.0742048, "bronId": "L009875"}}, {"type": "Feature", "geometry": {"type": "Point", "coordinates": [5.1053585, 52.4560811]}, "properties": {"type": "inleverpunt", "locatieNaam": "2258 Albert Heijn", "straatNaam": "Boxenring", "straatNr": "40 A", "postcode": "1156 DL", "plaats": "Marken", "merk": "Stibat", "puntType": "inzamelbak", "materialen": ["batterijen"], "uitbetaling": [], "vrijToegankelijk": false, "gemeenteBeperking": null, "openingstijden": null, "latitude": 52.4560811, "longitude": 5.1053585, "bronId": "L044260"}}, {"type": "Feature", "geometry": {"type": "Point", "coordinates": [4.9968425, 52.4339076]}, "properties": {"type": "inleverpunt", "locatieNaam": "Wimtweewielers", "straatNaam": "Laan", "straatNr": "44", "postcode": "1151 AB", "plaats": "Broek in Waterland", "merk": "Stibat", "puntType": "inzamelbak", "materialen": ["batterijen"], "uitbetaling": [], "vrijToegankelijk": false, "gemeenteBeperking": null, "openingstijden": null, "latitude": 52.4339076, "longitude": 4.9968425, "bronId": "L032720"}}, {"type": "Feature", "geometry": {"type": "Point", "coordinates": [5.0373739, 52.4499114]}, "properties": {"type": "inleverpunt", "locatieNaam": "Primera", "straatNaam": "'t Spil", "straatNr": "44", "postcode": "1141 SH", "plaats": "Monnickendam", "merk": "Stibat", "puntType": "inzamelbak", "materialen": ["batterijen"], "uitbetaling": [], "vrijToegankelijk": false, "gemeenteBeperking": null, "openingstijden": null, "latitude": 52.4499114, "longitude": 5.0373739, "bronId": "L039436"}}, {"type": "Feature", "geometry": {"type": "Point", "coordinates": [5.0371077, 52.4501616]}, "properties": {"type": "inleverpunt", "locatieNaam": "6316 Etos", "straatNaam": "'t Spil", "straatNr": "43", "postcode": "1141 SG", "plaats": "Monnickendam", "merk": "Stibat", "puntType": "inzamelbak", "materialen": ["batterijen"], "uitbetaling": [], "vrijToegankelijk": false, "gemeenteBeperking": null, "openingstijden": null, "latitude": 52.4501616, "longitude": 5.0371077, "bronId": "L038735"}}, {"type": "Feature", "geometry": {"type": "Point", "coordinates": [5.0363973, 52.4502511]}, "properties": {"type": "inleverpunt", "locatieNaam": "2261 Albert Heijn", "straatNaam": "'t Spil", "straatNr": "37", "postcode": "1141 SG", "plaats": "Monnickendam", "merk": "Stibat", "puntType": "inzamelbak", "materialen": ["batterijen"], "uitbetaling": [], "vrijToegankelijk": false, "gemeenteBeperking": null, "openingstijden": null, "latitude": 52.4502511, "longitude": 5.0363973, "bronId": "L044002"}}, {"type": "Feature", "geometry": {"type": "Point", "coordinates": [5.0403667, 52.4547638]}, "properties": {"type": "inleverpunt", "locatieNaam": "Dekamarkt Monnickendam", "straatNaam": "Graaf Willemlaan", "straatNr": "24", "postcode": "1141 XL", "plaats": "Monnickendam", "merk": "Stibat", "puntType": "inzamelbak", "materialen": ["batterijen"], "uitbetaling": [], "vrijToegankelijk": false, "gemeenteBeperking": null, "openingstijden": null, "latitude": 52.4547638, "longitude": 5.0403667, "bronId": "L044086"}}, {"type": "Feature", "geometry": {"type": "Point", "coordinates": [5.0402736, 52.4576057]}, "properties": {"type": "inleverpunt", "locatieNaam": "Gemeentewerf Waterland", "straatNaam": "Galgeriet", "straatNr": "10", "postcode": "1141 GM", "plaats": "Monnickendam", "merk": "Stibat", "puntType": "inzamelbak", "materialen": ["batterijen"], "uitbetaling": [], "vrijToegankelijk": false, "gemeenteBeperking": null, "openingstijden": null, "latitude": 52.4576057, "longitude": 5.0402736, "bronId": "L035571"}}, {"type": "Feature", "geometry": {"type": "Point", "coordinates": [5.0363695, 52.4581169]}, "properties": {"type": "inleverpunt", "locatieNaam": "Doe Het Zelf Centrum De Jong B.V.", "straatNaam": "Niesenoort", "straatNr": "14", "postcode": "1141 BM", "plaats": "Monnickendam", "merk": "Stibat", "puntType": "inzamelbak", "materialen": ["batterijen"], "uitbetaling": [], "vrijToegankelijk": false, "gemeenteBeperking": null, "openingstijden": null, "latitude": 52.4581169, "longitude": 5.0363695, "bronId": "L043855"}}, {"type": "Feature", "geometry": {"type": "Point", "coordinates": [5.0324587, 52.4869515]}, "properties": {"type": "inleverpunt", "locatieNaam": "Hotel Volendam (van der Valk)", "straatNaam": "Wagenweg", "straatNr": "1c", "postcode": "1145 PW", "plaats": "Katwoude", "merk": "Stibat", "puntType": "inzamelbak", "materialen": ["batterijen"], "uitbetaling": [], "vrijToegankelijk": false, "gemeenteBeperking": null, "openingstijden": null, "latitude": 52.4869515, "longitude": 5.0324587, "bronId": "L034586"}}, {"type": "Feature", "geometry": {"type": "Polygon", "coordinates": [[[5.021611001361061, 52.42122200416991], [5.023559001362961, 52.42026600416933], [5.026501001365887, 52.42006400416919], [5.02835700136771, 52.41941600416881], [5.0297280013690004, 52.417707004167795], [5.030045001369226, 52.4156430041666], [5.033468001372685, 52.41668500416718], [5.034405001373674, 52.41781400416781], [5.035470001374758, 52.418274004168076], [5.042590001381804, 52.41698500416731], [5.049177001388293, 52.415129004166154], [5.0577570013969195, 52.41653800416696], [5.062556001401692, 52.41617300416667], [5.065413001404594, 52.4172390041673], [5.068270001407414, 52.41655800416685], [5.074262001413271, 52.413838004165214], [5.07916200141704, 52.38865400415042], [5.137331001476288, 52.415553004165744], [5.185490001524353, 52.41564400416535], [5.15102400149216, 52.466360004195266], [5.112988001455628, 52.49788600421387], [5.061008001403285, 52.48577500420725], [5.058646001400918, 52.4855250042071], [5.059095001401609, 52.49095600421024], [5.0472150013896995, 52.489392004209485], [5.04253400138502, 52.4891190042093], [5.0386120013810745, 52.48831700420888], [5.035928001378396, 52.48821900420886], [5.031904001374406, 52.48867200420913], [5.030994001373488, 52.48846300420902], [5.030619001373049, 52.48704800420817], [5.024634001366972, 52.48456800420678], [5.024792001367142, 52.484863004206936], [4.997964001340855, 52.49473300421281], [4.974010001315849, 52.47040400419884], [4.969052001310907, 52.47046600419888], [4.963941001305863, 52.4715820041996], [4.960713001302623, 52.4711010041993], [4.958790001300719, 52.47139100419948], [4.95799500129992, 52.471227004199434], [4.956209001298239, 52.47335700420067], [4.9547300012968005, 52.474120004201104], [4.953617001295764, 52.47569400420199], [4.9535680012959595, 52.48082200420499], [4.953998001296486, 52.48293900420622], [4.94831600129087, 52.48400500420685], [4.947172001289527, 52.47963800420434], [4.9468770012887235, 52.46888300419808], [4.950661001292015, 52.45859500419207], [4.947982001289044, 52.45226000418844], [4.9508790012912, 52.43663200417928], [4.950690001290399, 52.423596004171664], [4.947789001287406, 52.42156200417048], [4.948526001288137, 52.42142500417041], [4.949710001289341, 52.4219250041707], [4.95148100129111, 52.42193000417067], [4.9513320012910205, 52.423226004171426], [4.952770001292478, 52.42367900417169], [4.952610001292299, 52.423256004171456], [4.953602001293239, 52.42221500417084], [4.955878001295522, 52.42244000417096], [4.955950001295571, 52.42195400417069], [4.973320001312944, 52.422797004171116], [4.9826360013224225, 52.426762004173376], [4.987101001326697, 52.42284200417105], [4.987769001327384, 52.4232680041713], [4.9891840013288, 52.42337200417133], [4.990406001330073, 52.424518004172], [4.99044500133016, 52.4255210041726], [5.000157001339846, 52.42544300417253], [5.018205001357564, 52.41906000416864], [5.020314001359705, 52.41989900416913], [5.021611001361061, 52.42122200416991]]]}, "properties": {"type": "boundary", "gemeente": "Waterland"}}]}