{"type": "FeatureCollection", "metadata": {"gemeente": "Westervoort", "slug": "westervoort", "generated_at": "2026-08-17T03:07:05.158046Z", "total_points": 23, "merken": ["StatiegeldNederland", "Stibat", "StichtingOPEN"], "bounds": [5.9664419, 51.9431831, 5.9827418, 51.9662577]}, "features": [{"type": "Feature", "geometry": {"type": "Point", "coordinates": [5.9677038, 51.962162]}, "properties": {"type": "inleverpunt", "locatieNaam": "Albert Heijn", "straatNaam": "Dorpsplein", "straatNr": "6", "postcode": "6931 CZ", "plaats": "Westervoort", "merk": "StatiegeldNederland", "puntType": "automaat", "materialen": ["pet-groot", "pet-klein", "blik", "glas", "krat"], "uitbetaling": ["bonnetje", "donatie"], "vrijToegankelijk": true, "gemeenteBeperking": null, "openingstijden": {"ma": "08:00–20:00", "di": "08:00–20:00", "wo": "08:00–20:00", "do": "08:00–21:00", "vr": "08:00–21:00", "za": "08:00–20:00", "zo": "10:00–19:00"}, "latitude": 51.962162, "longitude": 5.9677038, "bronId": "276667"}}, {"type": "Feature", "geometry": {"type": "Point", "coordinates": [5.972927, 51.954932]}, "properties": {"type": "inleverpunt", "locatieNaam": "Jumbo", "straatNaam": "Broeklanden", "straatNr": "8", "postcode": "6931 XS", "plaats": "Westervoort", "merk": "StatiegeldNederland", "puntType": "automaat", "materialen": ["pet-groot", "pet-klein", "blik", "glas", "krat"], "uitbetaling": ["bonnetje", "donatie"], "vrijToegankelijk": true, "gemeenteBeperking": null, "openingstijden": {"ma": "08:00–20:00", "di": "08:00–20:00", "wo": "08:00–20:00", "do": "08:00–21:00", "vr": "08:00–21:00", "za": "08:00–20:00", "zo": "09:00–19:00"}, "latitude": 51.954932, "longitude": 5.972927, "bronId": "279980"}}, {"type": "Feature", "geometry": {"type": "Point", "coordinates": [5.9827418, 51.9443182]}, "properties": {"type": "inleverpunt", "locatieNaam": "Korfbalvereniging Wesstar", "straatNaam": "Achterse Weide", "straatNr": "1", "postcode": "6932 PK", "plaats": "Westervoort", "merk": "StatiegeldNederland", "puntType": "balie", "materialen": ["pet-groot", "pet-klein", "blik"], "uitbetaling": [], "vrijToegankelijk": false, "gemeenteBeperking": null, "openingstijden": null, "latitude": 51.9443182, "longitude": 5.9827418, "bronId": "280684"}}, {"type": "Feature", "geometry": {"type": "Point", "coordinates": [5.9665531, 51.9627925]}, "properties": {"type": "inleverpunt", "locatieNaam": "Lidl", "straatNaam": "Dorpsplein", "straatNr": "70", "postcode": "6931 CZ", "plaats": "Westervoort", "merk": "StatiegeldNederland", "puntType": "automaat", "materialen": ["pet-groot", "pet-klein", "blik", "glas", "krat"], "uitbetaling": ["bonnetje", "donatie"], "vrijToegankelijk": true, "gemeenteBeperking": null, "openingstijden": {"ma": "08:00–20:00", "di": "08:00–20:00", "wo": "08:00–20:00", "do": "08:00–21:00", "vr": "08:00–21:00", "za": "08:00–20:00", "zo": "10:00–18:00"}, "latitude": 51.9627925, "longitude": 5.9665531, "bronId": "280864"}}, {"type": "Feature", "geometry": {"type": "Point", "coordinates": [5.9784032, 51.9476604]}, "properties": {"type": "inleverpunt", "locatieNaam": "Plus", "straatNaam": "Korte Griet", "straatNr": "3-7", "postcode": "6932 LK", "plaats": "Westervoort", "merk": "StatiegeldNederland", "puntType": "automaat", "materialen": ["pet-groot", "pet-klein", "blik", "glas", "krat"], "uitbetaling": ["bonnetje"], "vrijToegankelijk": true, "gemeenteBeperking": null, "openingstijden": {"ma": "08:00–20:00", "di": "08:00–20:00", "wo": "08:00–20:00", "do": "08:00–20:00", "vr": "08:00–21:00", "za": "08:00–20:00", "zo": "10:00–18:00"}, "latitude": 51.9476604, "longitude": 5.9784032, "bronId": "282143"}}, {"type": "Feature", "geometry": {"type": "Point", "coordinates": [5.9686353, 51.9662577]}, "properties": {"type": "inleverpunt", "locatieNaam": "Sportclub Westervoort", "straatNaam": "Brouwerslaan", "straatNr": "7", "postcode": "6931 ED", "plaats": "Westervoort", "merk": "StatiegeldNederland", "puntType": "balie", "materialen": ["pet-groot", "pet-klein", "blik"], "uitbetaling": [], "vrijToegankelijk": false, "gemeenteBeperking": null, "openingstijden": {"ma": "18:00–21:00", "di": "18:00–22:30", "wo": "18:00–21:00", "do": "18:00–00:00", "vr": "18:00–21:00", "za": "08:00–18:30", "zo": "08:00–18:30"}, "latitude": 51.9662577, "longitude": 5.9686353, "bronId": "283393"}}, {"type": "Feature", "geometry": {"type": "Point", "coordinates": [5.97635, 51.9431831]}, "properties": {"type": "inleverpunt", "locatieNaam": "ViaTim", "straatNaam": "De Rosmolen", "straatNr": "65", "postcode": "6932 NB", "plaats": "Westervoort", "merk": "StatiegeldNederland", "puntType": "balie", "materialen": ["pet-groot", "pet-klein", "blik"], "uitbetaling": ["tikkie"], "vrijToegankelijk": true, "gemeenteBeperking": null, "openingstijden": null, "latitude": 51.9431831, "longitude": 5.97635, "bronId": "284049"}}, {"type": "Feature", "geometry": {"type": "Point", "coordinates": [5.967336, 51.962221]}, "properties": {"type": "inleverpunt", "locatieNaam": "8705 Albert Heijn (Retourette) Westervoort", "straatNaam": "Dorpsplein", "straatNr": "6", "postcode": "6931 CZ", "plaats": "Westervoort", "merk": "StichtingOPEN", "puntType": "balie", "materialen": ["batterijen", "elektro-klein", "lampen"], "uitbetaling": [], "vrijToegankelijk": false, "gemeenteBeperking": null, "openingstijden": null, "latitude": 51.962221, "longitude": 5.967336, "bronId": "SP00022767"}}, {"type": "Feature", "geometry": {"type": "Point", "coordinates": [5.96808, 51.962649]}, "properties": {"type": "inleverpunt", "locatieNaam": "Kruidvat Westervoort", "straatNaam": "Dorpsplein", "straatNr": "110", "postcode": "6931 CZ", "plaats": "Westervoort", "merk": "StichtingOPEN", "puntType": "balie", "materialen": ["batterijen", "lampen"], "uitbetaling": [], "vrijToegankelijk": false, "gemeenteBeperking": null, "openingstijden": null, "latitude": 51.962649, "longitude": 5.96808, "bronId": "SP00029556"}}, {"type": "Feature", "geometry": {"type": "Point", "coordinates": [5.972927, 51.954932]}, "properties": {"type": "inleverpunt", "locatieNaam": "Jumbo Westervoort", "straatNaam": "Broeklanden", "straatNr": "8", "postcode": "6931 XS", "plaats": "Westervoort", "merk": "StichtingOPEN", "puntType": "balie", "materialen": ["batterijen", "lampen"], "uitbetaling": [], "vrijToegankelijk": false, "gemeenteBeperking": null, "openingstijden": null, "latitude": 51.954932, "longitude": 5.972927, "bronId": "SP00025158"}}, {"type": "Feature", "geometry": {"type": "Point", "coordinates": [5.978403, 51.94766]}, "properties": {"type": "inleverpunt", "locatieNaam": "Coop Westervoort", "straatNaam": "Korte Griet", "straatNr": "3-7", "postcode": "6932 LK", "plaats": "Westervoort", "merk": "StichtingOPEN", "puntType": "balie", "materialen": ["batterijen", "lampen"], "uitbetaling": [], "vrijToegankelijk": false, "gemeenteBeperking": null, "openingstijden": null, "latitude": 51.94766, "longitude": 5.978403, "bronId": "SP00026661"}}, {"type": "Feature", "geometry": {"type": "Point", "coordinates": [5.980661, 51.960353]}, "properties": {"type": "inleverpunt", "locatieNaam": "Kringloopwinkel 2Switch Westervoort", "straatNaam": "Het Vergun", "straatNr": "17", "postcode": "6931 KC", "plaats": "Westervoort", "merk": "StichtingOPEN", "puntType": "milieustraat", "materialen": ["batterijen", "elektro-groot", "elektro-klein", "elektro-middel", "lampen", "tl-buizen"], "uitbetaling": [], "vrijToegankelijk": false, "gemeenteBeperking": ["Westervoort"], "openingstijden": null, "latitude": 51.960353, "longitude": 5.980661, "bronId": "SP00027527"}}, {"type": "Feature", "geometry": {"type": "Point", "coordinates": [5.9664419, 51.9628732]}, "properties": {"type": "inleverpunt", "locatieNaam": "Lidl", "straatNaam": "Dorpsplein", "straatNr": "70", "postcode": "6931 CZ", "plaats": "Westervoort", "merk": "Stibat", "puntType": "inzamelbak", "materialen": ["batterijen"], "uitbetaling": [], "vrijToegankelijk": false, "gemeenteBeperking": null, "openingstijden": null, "latitude": 51.9628732, "longitude": 5.9664419, "bronId": "L017224"}}, {"type": "Feature", "geometry": {"type": "Point", "coordinates": [5.967201, 51.9622024]}, "properties": {"type": "inleverpunt", "locatieNaam": "Computer Service Liemers", "straatNaam": "Dorpsplein", "straatNr": "12", "postcode": "6931 CZ", "plaats": "Westervoort", "merk": "Stibat", "puntType": "inzamelbak", "materialen": ["batterijen"], "uitbetaling": [], "vrijToegankelijk": false, "gemeenteBeperking": null, "openingstijden": null, "latitude": 51.9622024, "longitude": 5.967201, "bronId": "L038477"}}, {"type": "Feature", "geometry": {"type": "Point", "coordinates": [5.9672184, 51.9619865]}, "properties": {"type": "inleverpunt", "locatieNaam": "HEMA Westervoort", "straatNaam": "Dorpsplein", "straatNr": "14", "postcode": "6931 CZ", "plaats": "Westervoort", "merk": "Stibat", "puntType": "inzamelbak", "materialen": ["batterijen"], "uitbetaling": [], "vrijToegankelijk": false, "gemeenteBeperking": null, "openingstijden": null, "latitude": 51.9619865, "longitude": 5.9672184, "bronId": "L046953"}}, {"type": "Feature", "geometry": {"type": "Point", "coordinates": [5.9676847, 51.9621783]}, "properties": {"type": "inleverpunt", "locatieNaam": "8705 Albert Heijn (Retourette)", "straatNaam": "Dorpsplein", "straatNr": "6", "postcode": "6931 CZ", "plaats": "Westervoort", "merk": "Stibat", "puntType": "inzamelbak", "materialen": ["batterijen"], "uitbetaling": [], "vrijToegankelijk": false, "gemeenteBeperking": null, "openingstijden": null, "latitude": 51.9621783, "longitude": 5.9676847, "bronId": "L007298"}}, {"type": "Feature", "geometry": {"type": "Point", "coordinates": [5.9680837, 51.9626527]}, "properties": {"type": "inleverpunt", "locatieNaam": "Kruidvat", "straatNaam": "Dorpsplein", "straatNr": "110", "postcode": "6931 CZ", "plaats": "Westervoort", "merk": "Stibat", "puntType": "inzamelbak", "materialen": ["batterijen"], "uitbetaling": [], "vrijToegankelijk": false, "gemeenteBeperking": null, "openingstijden": null, "latitude": 51.9626527, "longitude": 5.9680837, "bronId": "L015782"}}, {"type": "Feature", "geometry": {"type": "Point", "coordinates": [5.9680445, 51.9623741]}, "properties": {"type": "inleverpunt", "locatieNaam": "Dr. Phone Westervoort", "straatNaam": "Dorpsplein", "straatNr": "25", "postcode": "6931 CZ", "plaats": "Westervoort", "merk": "Stibat", "puntType": "inzamelbak", "materialen": ["batterijen"], "uitbetaling": [], "vrijToegankelijk": false, "gemeenteBeperking": null, "openingstijden": null, "latitude": 51.9623741, "longitude": 5.9680445, "bronId": "L038950"}}, {"type": "Feature", "geometry": {"type": "Point", "coordinates": [5.9679655, 51.9621716]}, "properties": {"type": "inleverpunt", "locatieNaam": "Zeeman", "straatNaam": "Dorpsplein", "straatNr": "30-31", "postcode": "6931 CZ", "plaats": "Westervoort", "merk": "Stibat", "puntType": "inzamelbak", "materialen": ["batterijen"], "uitbetaling": [], "vrijToegankelijk": false, "gemeenteBeperking": null, "openingstijden": null, "latitude": 51.9621716, "longitude": 5.9679655, "bronId": "L021920"}}, {"type": "Feature", "geometry": {"type": "Point", "coordinates": [5.9693046, 51.9636714]}, "properties": {"type": "inleverpunt", "locatieNaam": "Reerink Rijwielen", "straatNaam": "Dorpstraat", "straatNr": "90", "postcode": "6931 BM", "plaats": "Westervoort", "merk": "Stibat", "puntType": "inzamelbak", "materialen": ["batterijen"], "uitbetaling": [], "vrijToegankelijk": false, "gemeenteBeperking": null, "openingstijden": null, "latitude": 51.9636714, "longitude": 5.9693046, "bronId": "L034358"}}, {"type": "Feature", "geometry": {"type": "Point", "coordinates": [5.970365, 51.9637449]}, "properties": {"type": "inleverpunt", "locatieNaam": "Goodrides", "straatNaam": "Dorpstraat", "straatNr": "106", "postcode": "6931 BM", "plaats": "Westervoort", "merk": "Stibat", "puntType": "inzamelbak", "materialen": ["batterijen"], "uitbetaling": [], "vrijToegankelijk": false, "gemeenteBeperking": null, "openingstijden": null, "latitude": 51.9637449, "longitude": 5.970365, "bronId": "L033833"}}, {"type": "Feature", "geometry": {"type": "Point", "coordinates": [5.9729794, 51.9549454]}, "properties": {"type": "inleverpunt", "locatieNaam": "Jumbo", "straatNaam": "Broeklanden", "straatNr": "8", "postcode": "6931 XS", "plaats": "Westervoort", "merk": "Stibat", "puntType": "inzamelbak", "materialen": ["batterijen"], "uitbetaling": [], "vrijToegankelijk": false, "gemeenteBeperking": null, "openingstijden": null, "latitude": 51.9549454, "longitude": 5.9729794, "bronId": "L032531"}}, {"type": "Feature", "geometry": {"type": "Point", "coordinates": [5.9784076, 51.9476601]}, "properties": {"type": "inleverpunt", "locatieNaam": "Plus", "straatNaam": "Korte Griet", "straatNr": "3-7", "postcode": "6932 LK", "plaats": "Westervoort", "merk": "Stibat", "puntType": "inzamelbak", "materialen": ["batterijen"], "uitbetaling": [], "vrijToegankelijk": false, "gemeenteBeperking": null, "openingstijden": null, "latitude": 51.9476601, "longitude": 5.9784076, "bronId": "L046059"}}, {"type": "Feature", "geometry": {"type": "Polygon", "coordinates": [[[5.984488002306794, 51.946807003865715], [5.9875760023099955, 51.95044100386789], [5.984836002307289, 51.95168200386873], [5.984830002307297, 51.95213600386901], [5.984965002307483, 51.95382600387006], [5.98711100230983, 51.96036800387412], [5.9868410023096175, 51.96226800387533], [5.98776700231057, 51.963063003875774], [5.985264002308087, 51.96396000387643], [5.986636002309598, 51.96850000387922], [5.98399300230707, 51.97238700388177], [5.986582002309663, 51.97239600388168], [5.988252002311346, 51.972799003881875], [5.990347002313429, 51.972297003881486], [5.99619200231933, 51.97395600388239], [5.998395002321567, 51.97486500388289], [6.001596002324839, 51.97716400388425], [6.0031880023265245, 51.98022500388609], [6.001965002325315, 51.980650003886375], [6.000563002323851, 51.9787170038852], [5.998683002321927, 51.97728800388441], [5.995535002318733, 51.97589800388358], [5.99121700231437, 51.97460100388293], [5.987768002310898, 51.974071003882685], [5.98000700230311, 51.97355100388259], [5.968413002291453, 51.972083003882005], [5.964634002287646, 51.97142400388168], [5.962385002285372, 51.97071600388131], [5.958943002281878, 51.96920200388044], [5.95545700227832, 51.96701800387914], [5.952429002275209, 51.96457000387772], [5.950488002273186, 51.96205000387619], [5.94926600227184, 51.95801900387368], [5.950109002272569, 51.95422900387132], [5.951330002273739, 51.952463003870186], [5.954181002276509, 51.949648003868354], [5.959163002281371, 51.945392003865514], [5.961011002283125, 51.94225500386347], [5.96179400228381, 51.93879300386129], [5.967298002289326, 51.93873300386113], [5.969469002291525, 51.939597003861614], [5.969786002291826, 51.939155003861316], [5.9752410022973725, 51.94172300386278], [5.980309002302491, 51.94300100386344], [5.984364002306556, 51.94302100386331], [5.9859430023082005, 51.94511000386461], [5.986168002308465, 51.94636400386538], [5.984488002306794, 51.946807003865715]]]}, "properties": {"type": "boundary", "gemeente": "Westervoort"}}]}