{"type": "FeatureCollection", "metadata": {"gemeente": "Wijchen", "slug": "wijchen", "generated_at": "2026-07-28T09:25:50.134599Z", "total_points": 77, "merken": ["StatiegeldNederland", "Stibat", "StichtingOPEN"], "bounds": [5.654558, 51.7766224, 5.76596, 51.85287]}, "features": [{"type": "Feature", "geometry": {"type": "Point", "coordinates": [5.7279448, 51.8069607]}, "properties": {"type": "inleverpunt", "locatieNaam": "Albert Heijn", "straatNaam": "Europaplein", "straatNr": "85", "postcode": "6602 GV", "plaats": "Wijchen", "merk": "StatiegeldNederland", "puntType": "automaat", "materialen": ["pet-groot", "pet-klein", "blik", "glas", "krat"], "uitbetaling": ["bonnetje", "donatie"], "vrijToegankelijk": true, "gemeenteBeperking": null, "openingstijden": {"ma": "08:00–21:00", "di": "08:00–21:00", "wo": "08:00–21:00", "do": "08:00–21:00", "vr": "08:00–21:00", "za": "08:00–21:00", "zo": "08:00–21:00"}, "latitude": 51.8069607, "longitude": 5.7279448, "bronId": "252216"}}, {"type": "Feature", "geometry": {"type": "Point", "coordinates": [5.7118834, 51.8120489]}, "properties": {"type": "inleverpunt", "locatieNaam": "Albert Heijn", "straatNaam": "Homberg", "straatNr": "25-27", "postcode": "6601 XW", "plaats": "Wijchen", "merk": "StatiegeldNederland", "puntType": "automaat", "materialen": ["pet-groot", "pet-klein", "blik", "glas", "krat"], "uitbetaling": ["bonnetje", "donatie"], "vrijToegankelijk": true, "gemeenteBeperking": null, "openingstijden": {"ma": "08:00–21:00", "di": "08:00–21:00", "wo": "08:00–21:00", "do": "08:00–21:00", "vr": "08:00–21:00", "za": "08:00–21:00", "zo": "08:00–21:00"}, "latitude": 51.8120489, "longitude": 5.7118834, "bronId": "252321"}}, {"type": "Feature", "geometry": {"type": "Point", "coordinates": [5.712377, 51.811859]}, "properties": {"type": "inleverpunt", "locatieNaam": "Aldi", "straatNaam": "Homberg", "straatNr": "25-31", "postcode": "6601 XW", "plaats": "Wijchen", "merk": "StatiegeldNederland", "puntType": "automaat", "materialen": ["pet-groot", "pet-klein", "blik", "glas", "krat"], "uitbetaling": ["bonnetje"], "vrijToegankelijk": true, "gemeenteBeperking": null, "openingstijden": {"ma": "08:00–20:00", "di": "08:00–20:00", "wo": "08:00–20:00", "do": "08:00–20:00", "vr": "08:00–20:00", "za": "08:00–20:00", "zo": "09:00–18:00"}, "latitude": 51.811859, "longitude": 5.712377, "bronId": "253157"}}, {"type": "Feature", "geometry": {"type": "Point", "coordinates": [5.7492522, 51.807578]}, "properties": {"type": "inleverpunt", "locatieNaam": "Atletiek Vereniging Wijchen", "straatNaam": "De Wijchert", "straatNr": "4", "postcode": "6603 AG", "plaats": "Wijchen", "merk": "StatiegeldNederland", "puntType": "balie", "materialen": ["pet-groot", "pet-klein", "blik"], "uitbetaling": [], "vrijToegankelijk": false, "gemeenteBeperking": null, "openingstijden": {"ma": "19:30–21:30", "di": "18:00–21:30", "wo": "18:30–21:30", "do": "18:00–21:30", "vr": "19:00–21:00", "za": "09:00–13:00", "zo": "09:30–12:00"}, "latitude": 51.807578, "longitude": 5.7492522, "bronId": "253767"}}, {"type": "Feature", "geometry": {"type": "Point", "coordinates": [5.76596, 51.816964]}, "properties": {"type": "inleverpunt", "locatieNaam": "BP", "straatNaam": "Nieuweweg", "straatNr": "250", "postcode": "6603 BV", "plaats": "Wijchen", "merk": "StatiegeldNederland", "puntType": "balie", "materialen": ["pet-groot", "pet-klein", "blik"], "uitbetaling": [], "vrijToegankelijk": true, "gemeenteBeperking": null, "openingstijden": {"ma": "09:00–21:00", "di": "09:00–21:00", "wo": "09:00–21:00", "do": "09:00–21:00", "vr": "09:00–21:00", "za": "09:00–19:00", "zo": "09:00–19:00"}, "latitude": 51.816964, "longitude": 5.76596, "bronId": "253900"}}, {"type": "Feature", "geometry": {"type": "Point", "coordinates": [5.6681201, 51.8528167]}, "properties": {"type": "inleverpunt", "locatieNaam": "Buurtmarkt Blije Bikkels", "straatNaam": "Molenweg", "straatNr": "21a", "postcode": "6617 BB", "plaats": "Bergharen", "merk": "StatiegeldNederland", "puntType": "automaat", "materialen": ["pet-groot", "pet-klein", "blik"], "uitbetaling": ["bonnetje", "donatie"], "vrijToegankelijk": true, "gemeenteBeperking": null, "openingstijden": {"ma": "09:00–21:00", "di": "09:00–21:00", "wo": "09:00–21:00", "do": "09:00–21:00", "vr": "09:00–21:00", "za": "09:00–18:00", "zo": "11:00–17:00"}, "latitude": 51.8528167, "longitude": 5.6681201, "bronId": "253953"}}, {"type": "Feature", "geometry": {"type": "Point", "coordinates": [5.7296572, 51.8196061]}, "properties": {"type": "inleverpunt", "locatieNaam": "Haanenbergh", "straatNaam": "Suikerbergseweg", "straatNr": "12", "postcode": "6604 AE", "plaats": "Wijchen", "merk": "StatiegeldNederland", "puntType": "balie", "materialen": ["pet-groot", "pet-klein", "blik"], "uitbetaling": [], "vrijToegankelijk": false, "gemeenteBeperking": null, "openingstijden": {"ma": "08:00–23:00", "di": "08:00–23:00", "wo": "08:00–23:00", "do": "08:00–23:00", "vr": "08:00–23:00", "za": "08:00–23:00", "zo": "08:00–23:00"}, "latitude": 51.8196061, "longitude": 5.7296572, "bronId": "254925"}}, {"type": "Feature", "geometry": {"type": "Point", "coordinates": [5.72421, 51.80978]}, "properties": {"type": "inleverpunt", "locatieNaam": "Jumbo", "straatNaam": "Herenstraat", "straatNr": "17", "postcode": "6602 BA", "plaats": "Wijchen", "merk": "StatiegeldNederland", "puntType": "automaat", "materialen": ["pet-groot", "pet-klein", "blik", "glas", "krat"], "uitbetaling": ["bonnetje", "donatie"], "vrijToegankelijk": true, "gemeenteBeperking": null, "openingstijden": {"ma": "08:00–21:00", "di": "08:00–21:00", "wo": "08:00–21:00", "do": "08:00–21:00", "vr": "08:00–21:00", "za": "08:00–21:00", "zo": "09:00–19:00"}, "latitude": 51.80978, "longitude": 5.72421, "bronId": "255413"}}, {"type": "Feature", "geometry": {"type": "Point", "coordinates": [5.72388, 51.79999]}, "properties": {"type": "inleverpunt", "locatieNaam": "Jumbo", "straatNaam": "Zuiderpoort", "straatNr": "12-14", "postcode": "6605 HN", "plaats": "Wijchen", "merk": "StatiegeldNederland", "puntType": "automaat", "materialen": ["pet-groot", "pet-klein", "blik", "glas", "krat"], "uitbetaling": ["bonnetje", "donatie"], "vrijToegankelijk": true, "gemeenteBeperking": null, "openingstijden": {"ma": "08:00–21:00", "di": "08:00–21:00", "wo": "08:00–21:00", "do": "08:00–21:00", "vr": "08:00–21:00", "za": "08:00–21:00", "zo": "09:00–19:00"}, "latitude": 51.79999, "longitude": 5.72388, "bronId": "255886"}}, {"type": "Feature", "geometry": {"type": "Point", "coordinates": [5.72335, 51.80697]}, "properties": {"type": "inleverpunt", "locatieNaam": "Lidl", "straatNaam": "Touwslagersbaan", "straatNr": "35", "postcode": "6602 AJ", "plaats": "Wijchen", "merk": "StatiegeldNederland", "puntType": "automaat", "materialen": ["pet-groot", "pet-klein", "blik", "glas", "krat"], "uitbetaling": ["bonnetje", "donatie"], "vrijToegankelijk": true, "gemeenteBeperking": null, "openingstijden": {"ma": "08:00–21:00", "di": "08:00–21:00", "wo": "08:00–21:00", "do": "08:00–21:00", "vr": "08:00–21:00", "za": "08:00–21:00", "zo": "09:00–19:00"}, "latitude": 51.80697, "longitude": 5.72335, "bronId": "256416"}}, {"type": "Feature", "geometry": {"type": "Point", "coordinates": [5.7388319, 51.8019091]}, "properties": {"type": "inleverpunt", "locatieNaam": "Markies 6501 - Maaswaal Vmbo", "straatNaam": "Oosterweg", "straatNr": "189", "postcode": "6602 HL", "plaats": "Wijchen", "merk": "StatiegeldNederland", "puntType": "balie", "materialen": ["pet-groot", "pet-klein", "blik"], "uitbetaling": [], "vrijToegankelijk": true, "gemeenteBeperking": null, "openingstijden": {"ma": "07:00–17:00", "di": "07:00–17:00", "wo": "07:00–17:00", "do": "07:00–17:00", "vr": "07:00–17:00", "za": "Gesloten", "zo": "Gesloten"}, "latitude": 51.8019091, "longitude": 5.7388319, "bronId": "256575"}}, {"type": "Feature", "geometry": {"type": "Point", "coordinates": [5.7520107, 51.8066996]}, "properties": {"type": "inleverpunt", "locatieNaam": "Markies 6502 Maaswaal Havo V", "straatNaam": "Veenseweg", "straatNr": "18", "postcode": "6603 AN", "plaats": "Wijchen", "merk": "StatiegeldNederland", "puntType": "balie", "materialen": ["pet-groot", "pet-klein", "blik"], "uitbetaling": [], "vrijToegankelijk": true, "gemeenteBeperking": null, "openingstijden": null, "latitude": 51.8066996, "longitude": 5.7520107, "bronId": "256576"}}, {"type": "Feature", "geometry": {"type": "Point", "coordinates": [5.7276468, 51.8140676]}, "properties": {"type": "inleverpunt", "locatieNaam": "Plus", "straatNaam": "Tunnelweg", "straatNr": "86", "postcode": "6601 CX", "plaats": "Wijchen", "merk": "StatiegeldNederland", "puntType": "automaat", "materialen": ["pet-groot", "pet-klein", "blik", "glas", "krat"], "uitbetaling": ["bonnetje"], "vrijToegankelijk": true, "gemeenteBeperking": null, "openingstijden": {"ma": "08:00–21:00", "di": "08:00–21:00", "wo": "08:00–21:00", "do": "08:00–21:00", "vr": "08:00–21:00", "za": "08:00–21:00", "zo": "10:00–19:00"}, "latitude": 51.8140676, "longitude": 5.7276468, "bronId": "257549"}}, {"type": "Feature", "geometry": {"type": "Point", "coordinates": [5.7235628, 51.7766224]}, "properties": {"type": "inleverpunt", "locatieNaam": "Sc Diosa", "straatNaam": "Eindestraat", "straatNr": "43A", "postcode": "6613 AR", "plaats": "Balgoij", "merk": "StatiegeldNederland", "puntType": "balie", "materialen": ["pet-groot", "pet-klein", "blik"], "uitbetaling": [], "vrijToegankelijk": false, "gemeenteBeperking": null, "openingstijden": null, "latitude": 51.7766224, "longitude": 5.7235628, "bronId": "257961"}}, {"type": "Feature", "geometry": {"type": "Point", "coordinates": [5.726757, 51.8207794]}, "properties": {"type": "inleverpunt", "locatieNaam": "Sc. Woezik", "straatNaam": "Suikerbergseweg", "straatNr": "6", "postcode": "6604 AE", "plaats": "Wijchen", "merk": "StatiegeldNederland", "puntType": "balie", "materialen": ["pet-groot", "pet-klein", "blik"], "uitbetaling": [], "vrijToegankelijk": false, "gemeenteBeperking": null, "openingstijden": {"ma": "06:00–21:45", "di": "06:00–21:45", "wo": "06:00–21:45", "do": "17:30–00:00", "vr": "17:30–21:00", "za": "08:00–19:00", "zo": "07:30–19:00"}, "latitude": 51.8207794, "longitude": 5.726757, "bronId": "257974"}}, {"type": "Feature", "geometry": {"type": "Point", "coordinates": [5.7376202, 51.8233064]}, "properties": {"type": "inleverpunt", "locatieNaam": "Shell", "straatNaam": "Schoenaker", "straatNr": "9", "postcode": "6604 CT", "plaats": "Wijchen", "merk": "StatiegeldNederland", "puntType": "balie", "materialen": ["pet-groot", "pet-klein", "blik"], "uitbetaling": [], "vrijToegankelijk": true, "gemeenteBeperking": null, "openingstijden": {"ma": "24 uur geopend", "di": "24 uur geopend", "wo": "24 uur geopend", "do": "24 uur geopend", "vr": "24 uur geopend", "za": "24 uur geopend", "zo": "24 uur geopend"}, "latitude": 51.8233064, "longitude": 5.7376202, "bronId": "258222"}}, {"type": "Feature", "geometry": {"type": "Point", "coordinates": [5.7508211, 51.807786]}, "properties": {"type": "inleverpunt", "locatieNaam": "Vv Awc", "straatNaam": "de Wychert", "straatNr": "1", "postcode": "6603 AH", "plaats": "Wijchen", "merk": "StatiegeldNederland", "puntType": "balie", "materialen": ["pet-groot", "pet-klein", "blik"], "uitbetaling": [], "vrijToegankelijk": false, "gemeenteBeperking": null, "openingstijden": {"ma": "Gesloten", "di": "19:00–23:00", "wo": "19:00–23:00", "do": "19:00–23:00", "vr": "Gesloten", "za": "08:00–18:00", "zo": "09:00–18:00"}, "latitude": 51.807786, "longitude": 5.7508211, "bronId": "259755"}}, {"type": "Feature", "geometry": {"type": "Point", "coordinates": [5.66813, 51.85287]}, "properties": {"type": "inleverpunt", "locatieNaam": "SparBergharen", "straatNaam": "Molenweg", "straatNr": "21a", "postcode": "6617 BB", "plaats": "Bergharen", "merk": "StichtingOPEN", "puntType": "balie", "materialen": ["batterijen", "lampen"], "uitbetaling": [], "vrijToegankelijk": false, "gemeenteBeperking": null, "openingstijden": null, "latitude": 51.85287, "longitude": 5.66813, "bronId": "SP00030135"}}, {"type": "Feature", "geometry": {"type": "Point", "coordinates": [5.711557, 51.811976]}, "properties": {"type": "inleverpunt", "locatieNaam": "Aldi Wijchen", "straatNaam": "Homberg", "straatNr": "25-31", "postcode": "6601 XW", "plaats": "Wijchen", "merk": "StichtingOPEN", "puntType": "balie", "materialen": ["batterijen", "elektro-klein", "lampen"], "uitbetaling": [], "vrijToegankelijk": false, "gemeenteBeperking": null, "openingstijden": null, "latitude": 51.811976, "longitude": 5.711557, "bronId": "SP00026865"}}, {"type": "Feature", "geometry": {"type": "Point", "coordinates": [5.711885, 51.811948]}, "properties": {"type": "inleverpunt", "locatieNaam": "Albert Heijn Wijchen", "straatNaam": "Homberg", "straatNr": "2527", "postcode": "6601 XW", "plaats": "Wijchen", "merk": "StichtingOPEN", "puntType": "balie", "materialen": ["batterijen", "lampen"], "uitbetaling": [], "vrijToegankelijk": false, "gemeenteBeperking": null, "openingstijden": null, "latitude": 51.811948, "longitude": 5.711885, "bronId": "SP00025616"}}, {"type": "Feature", "geometry": {"type": "Point", "coordinates": [5.730255, 51.820246]}, "properties": {"type": "inleverpunt", "locatieNaam": "Coop Wijchen", "straatNaam": "Holenbergseweg", "straatNr": "11", "postcode": "6604 AJ", "plaats": "Wijchen", "merk": "StichtingOPEN", "puntType": "balie", "materialen": ["batterijen", "lampen"], "uitbetaling": [], "vrijToegankelijk": false, "gemeenteBeperking": null, "openingstijden": null, "latitude": 51.820246, "longitude": 5.730255, "bronId": "SP00026662"}}, {"type": "Feature", "geometry": {"type": "Point", "coordinates": [5.7249, 51.80965]}, "properties": {"type": "inleverpunt", "locatieNaam": "Jumbo Wijchen", "straatNaam": "Herenstraat", "straatNr": "17", "postcode": "6602 BA", "plaats": "Wijchen", "merk": "StichtingOPEN", "puntType": "balie", "materialen": ["batterijen", "lampen"], "uitbetaling": [], "vrijToegankelijk": false, "gemeenteBeperking": null, "openingstijden": null, "latitude": 51.80965, "longitude": 5.7249, "bronId": "SP00029897"}}, {"type": "Feature", "geometry": {"type": "Point", "coordinates": [5.723093, 51.8076]}, "properties": {"type": "inleverpunt", "locatieNaam": "Light Collection VOF", "straatNaam": "Touwslagersbaan", "straatNr": "38", "postcode": "6602 AL", "plaats": "Wijchen", "merk": "StichtingOPEN", "puntType": "balie", "materialen": ["lampen", "tl-buizen"], "uitbetaling": [], "vrijToegankelijk": false, "gemeenteBeperking": null, "openingstijden": null, "latitude": 51.8076, "longitude": 5.723093, "bronId": "SP00000971"}}, {"type": "Feature", "geometry": {"type": "Point", "coordinates": [5.723963, 51.807806]}, "properties": {"type": "inleverpunt", "locatieNaam": "Action Wijchen 1331", "straatNaam": "Burchtstraat", "straatNr": "9", "postcode": "6602 AP", "plaats": "Wijchen", "merk": "StichtingOPEN", "puntType": "balie", "materialen": ["batterijen", "lampen"], "uitbetaling": [], "vrijToegankelijk": false, "gemeenteBeperking": null, "openingstijden": null, "latitude": 51.807806, "longitude": 5.723963, "bronId": "SP00007896"}}, {"type": "Feature", "geometry": {"type": "Point", "coordinates": [5.7236, 51.80721]}, "properties": {"type": "inleverpunt", "locatieNaam": "Lidl Wijchen", "straatNaam": "Touwslagersbaan", "straatNr": "35", "postcode": "6602 AJ", "plaats": "Wijchen", "merk": "StichtingOPEN", "puntType": "balie", "materialen": ["batterijen", "lampen"], "uitbetaling": [], "vrijToegankelijk": false, "gemeenteBeperking": null, "openingstijden": null, "latitude": 51.80721, "longitude": 5.7236, "bronId": "SP00030002"}}, {"type": "Feature", "geometry": {"type": "Point", "coordinates": [5.724463, 51.807347]}, "properties": {"type": "inleverpunt", "locatieNaam": "Kruidvat Wijchen", "straatNaam": "Touwslagersbaan", "straatNr": "18b", "postcode": "6602 AK", "plaats": "Wijchen", "merk": "StichtingOPEN", "puntType": "balie", "materialen": ["batterijen", "lampen"], "uitbetaling": [], "vrijToegankelijk": false, "gemeenteBeperking": null, "openingstijden": null, "latitude": 51.807347, "longitude": 5.724463, "bronId": "SP00024922"}}, {"type": "Feature", "geometry": {"type": "Point", "coordinates": [5.72738, 51.80676]}, "properties": {"type": "inleverpunt", "locatieNaam": "Kruidvat Wijchen", "straatNaam": "Marktpromenade", "straatNr": "20", "postcode": "6602 HR", "plaats": "Wijchen", "merk": "StichtingOPEN", "puntType": "balie", "materialen": ["batterijen", "lampen"], "uitbetaling": [], "vrijToegankelijk": false, "gemeenteBeperking": null, "openingstijden": null, "latitude": 51.80676, "longitude": 5.72738, "bronId": "SP00029752"}}, {"type": "Feature", "geometry": {"type": "Point", "coordinates": [5.727803, 51.806457]}, "properties": {"type": "inleverpunt", "locatieNaam": "1370 Albert Heijn Wijchen", "straatNaam": "Europaplein", "straatNr": "85", "postcode": "6602 GV", "plaats": "Wijchen", "merk": "StichtingOPEN", "puntType": "balie", "materialen": ["batterijen", "elektro-klein", "lampen"], "uitbetaling": [], "vrijToegankelijk": false, "gemeenteBeperking": null, "openingstijden": null, "latitude": 51.806457, "longitude": 5.727803, "bronId": "SP00022665"}}, {"type": "Feature", "geometry": {"type": "Point", "coordinates": [5.739351, 51.812629]}, "properties": {"type": "inleverpunt", "locatieNaam": "Leen Bakker Wijchen", "straatNaam": "Stationslaan", "straatNr": "22", "postcode": "6602 BP", "plaats": "Wijchen", "merk": "StichtingOPEN", "puntType": "balie", "materialen": ["batterijen", "lampen"], "uitbetaling": [], "vrijToegankelijk": false, "gemeenteBeperking": null, "openingstijden": null, "latitude": 51.812629, "longitude": 5.739351, "bronId": "SP00025792"}}, {"type": "Feature", "geometry": {"type": "Point", "coordinates": [5.756083, 51.82261]}, "properties": {"type": "inleverpunt", "locatieNaam": "Tuinwereld Wijchen", "straatNaam": "Bijsterhuizen", "straatNr": "3004", "postcode": "6604 LR", "plaats": "Wijchen", "merk": "StichtingOPEN", "puntType": "balie", "materialen": ["elektro-middel", "lampen"], "uitbetaling": [], "vrijToegankelijk": false, "gemeenteBeperking": null, "openingstijden": null, "latitude": 51.82261, "longitude": 5.756083, "bronId": "SP00005900"}}, {"type": "Feature", "geometry": {"type": "Point", "coordinates": [5.747352, 51.813079]}, "properties": {"type": "inleverpunt", "locatieNaam": "Hormes Bouwmaterialen", "straatNaam": "Nieuweweg", "straatNr": "145", "postcode": "6603 BL", "plaats": "Wijchen", "merk": "StichtingOPEN", "puntType": "balie", "materialen": ["elektro-klein", "elektro-middel", "lampen", "tl-buizen"], "uitbetaling": [], "vrijToegankelijk": false, "gemeenteBeperking": null, "openingstijden": null, "latitude": 51.813079, "longitude": 5.747352, "bronId": "SP00004674"}}, {"type": "Feature", "geometry": {"type": "Point", "coordinates": [5.748172, 51.813039]}, "properties": {"type": "inleverpunt", "locatieNaam": "Praxis Wijchen - 2068", "straatNaam": "Nieuweweg", "straatNr": "151", "postcode": "6603 BL", "plaats": "Wijchen", "merk": "StichtingOPEN", "puntType": "balie", "materialen": ["elektro-middel", "lampen", "tl-buizen"], "uitbetaling": [], "vrijToegankelijk": false, "gemeenteBeperking": null, "openingstijden": null, "latitude": 51.813039, "longitude": 5.748172, "bronId": "SP00004503"}}, {"type": "Feature", "geometry": {"type": "Point", "coordinates": [5.725077, 51.799733]}, "properties": {"type": "inleverpunt", "locatieNaam": "Jumbo Wijchen", "straatNaam": "Zuiderpoort", "straatNr": "1214", "postcode": "6605 HN", "plaats": "Wijchen", "merk": "StichtingOPEN", "puntType": "balie", "materialen": ["batterijen", "lampen"], "uitbetaling": [], "vrijToegankelijk": false, "gemeenteBeperking": null, "openingstijden": null, "latitude": 51.799733, "longitude": 5.725077, "bronId": "SP00025098"}}, {"type": "Feature", "geometry": {"type": "Point", "coordinates": [5.750112, 51.811661]}, "properties": {"type": "inleverpunt", "locatieNaam": "232 - Isero Wijchen", "straatNaam": "Kamerlingh Onnesstraat", "straatNr": "5", "postcode": "6603 AX", "plaats": "Wijchen", "merk": "StichtingOPEN", "puntType": "balie", "materialen": ["elektro-klein", "lampen", "tl-buizen"], "uitbetaling": [], "vrijToegankelijk": false, "gemeenteBeperking": null, "openingstijden": null, "latitude": 51.811661, "longitude": 5.750112, "bronId": "SP00032826"}}, {"type": "Feature", "geometry": {"type": "Point", "coordinates": [5.75662, 51.803008]}, "properties": {"type": "inleverpunt", "locatieNaam": "Attent Wijchen", "straatNaam": "Heumenseweg", "straatNr": "8", "postcode": "6603 CZ", "plaats": "Wijchen", "merk": "StichtingOPEN", "puntType": "balie", "materialen": ["batterijen", "lampen"], "uitbetaling": [], "vrijToegankelijk": false, "gemeenteBeperking": null, "openingstijden": null, "latitude": 51.803008, "longitude": 5.75662, "bronId": "SP00025812"}}, {"type": "Feature", "geometry": {"type": "Point", "coordinates": [5.749325, 51.833099]}, "properties": {"type": "inleverpunt", "locatieNaam": "Milieustraat Bijsterhuizen", "straatNaam": "Bijsterhuizen", "straatNr": "2406", "postcode": "6604 LK", "plaats": "Wijchen", "merk": "StichtingOPEN", "puntType": "milieustraat", "materialen": ["batterijen", "elektro-groot", "elektro-klein", "elektro-middel", "lampen", "tl-buizen"], "uitbetaling": [], "vrijToegankelijk": false, "gemeenteBeperking": ["Wijchen", "Berg en Dal"], "openingstijden": null, "latitude": 51.833099, "longitude": 5.749325, "bronId": "SP00004399"}}, {"type": "Feature", "geometry": {"type": "Point", "coordinates": [5.654558, 51.8525176]}, "properties": {"type": "inleverpunt", "locatieNaam": "D'n Bond", "straatNaam": "Hogeveld", "straatNr": "7", "postcode": "6617 KP", "plaats": "BERGHAREN", "merk": "Stibat", "puntType": "inzamelbak", "materialen": ["batterijen"], "uitbetaling": [], "vrijToegankelijk": false, "gemeenteBeperking": null, "openingstijden": null, "latitude": 51.8525176, "longitude": 5.654558, "bronId": "L011707"}}, {"type": "Feature", "geometry": {"type": "Point", "coordinates": [5.7115576, 51.8119763]}, "properties": {"type": "inleverpunt", "locatieNaam": "Aldi", "straatNaam": "Homberg", "straatNr": "25-31", "postcode": "6601 XW", "plaats": "Wijchen", "merk": "Stibat", "puntType": "inzamelbak", "materialen": ["batterijen"], "uitbetaling": [], "vrijToegankelijk": false, "gemeenteBeperking": null, "openingstijden": null, "latitude": 51.8119763, "longitude": 5.7115576, "bronId": "L041425"}}, {"type": "Feature", "geometry": {"type": "Point", "coordinates": [5.7118834, 51.8120489]}, "properties": {"type": "inleverpunt", "locatieNaam": "4162 Albert Heijn", "straatNaam": "Homberg", "straatNr": "2527", "postcode": "6601 XW", "plaats": "WIJCHEN", "merk": "Stibat", "puntType": "inzamelbak", "materialen": ["batterijen"], "uitbetaling": [], "vrijToegankelijk": false, "gemeenteBeperking": null, "openingstijden": null, "latitude": 51.8120489, "longitude": 5.7118834, "bronId": "L047175"}}, {"type": "Feature", "geometry": {"type": "Point", "coordinates": [5.7472075, 51.831291]}, "properties": {"type": "inleverpunt", "locatieNaam": "Milieustraat Wijchen", "straatNaam": "Bijsterhuizen", "straatNr": "24-6", "postcode": "6604 LK", "plaats": "WIJCHEN", "merk": "Stibat", "puntType": "inzamelbak", "materialen": ["batterijen"], "uitbetaling": [], "vrijToegankelijk": false, "gemeenteBeperking": null, "openingstijden": null, "latitude": 51.831291, "longitude": 5.7472075, "bronId": "L035816"}}, {"type": "Feature", "geometry": {"type": "Point", "coordinates": [5.7279535, 51.8186205]}, "properties": {"type": "inleverpunt", "locatieNaam": "Esso", "straatNaam": "Randweg Noord", "straatNr": "10", "postcode": "6601 NX", "plaats": "WIJCHEN", "merk": "Stibat", "puntType": "inzamelbak", "materialen": ["batterijen"], "uitbetaling": [], "vrijToegankelijk": false, "gemeenteBeperking": null, "openingstijden": null, "latitude": 51.8186205, "longitude": 5.7279535, "bronId": "L047722"}}, {"type": "Feature", "geometry": {"type": "Point", "coordinates": [5.7415195, 51.823785]}, "properties": {"type": "inleverpunt", "locatieNaam": "Tool Techniek", "straatNaam": "Bijsterhuizen", "straatNr": "5012", "postcode": "6604 LZ", "plaats": "WYCHEN", "merk": "Stibat", "puntType": "inzamelbak", "materialen": ["batterijen"], "uitbetaling": [], "vrijToegankelijk": false, "gemeenteBeperking": null, "openingstijden": null, "latitude": 51.823785, "longitude": 5.7415195, "bronId": "L017522"}}, {"type": "Feature", "geometry": {"type": "Point", "coordinates": [5.7275245, 51.8145144]}, "properties": {"type": "inleverpunt", "locatieNaam": "Inktland", "straatNaam": "Lepelaarstraat", "straatNr": "2a", "postcode": "6601 DJ", "plaats": "WIJCHEN", "merk": "Stibat", "puntType": "inzamelbak", "materialen": ["batterijen"], "uitbetaling": [], "vrijToegankelijk": false, "gemeenteBeperking": null, "openingstijden": null, "latitude": 51.8145144, "longitude": 5.7275245, "bronId": "L025978"}}, {"type": "Feature", "geometry": {"type": "Point", "coordinates": [5.7277065, 51.8139145]}, "properties": {"type": "inleverpunt", "locatieNaam": "Read Shop/MABO Drogist Bewust Beter", "straatNaam": "Tunnelweg", "straatNr": "44", "postcode": "6601 CX", "plaats": "WIJCHEN", "merk": "Stibat", "puntType": "inzamelbak", "materialen": ["batterijen"], "uitbetaling": [], "vrijToegankelijk": false, "gemeenteBeperking": null, "openingstijden": null, "latitude": 51.8139145, "longitude": 5.7277065, "bronId": "L041669"}}, {"type": "Feature", "geometry": {"type": "Point", "coordinates": [5.7247616, 51.8096714]}, "properties": {"type": "inleverpunt", "locatieNaam": "Jumbo", "straatNaam": "Herenstraat", "straatNr": "17", "postcode": "6602 BA", "plaats": "WIJCHEN", "merk": "Stibat", "puntType": "inzamelbak", "materialen": ["batterijen"], "uitbetaling": [], "vrijToegankelijk": false, "gemeenteBeperking": null, "openingstijden": null, "latitude": 51.8096714, "longitude": 5.7247616, "bronId": "L040722"}}, {"type": "Feature", "geometry": {"type": "Point", "coordinates": [5.7320711, 51.8135843]}, "properties": {"type": "inleverpunt", "locatieNaam": "Boerenbond", "straatNaam": "Kruisbergseweg", "straatNr": "46", "postcode": "6601 DD", "plaats": "Wijchen", "merk": "Stibat", "puntType": "inzamelbak", "materialen": ["batterijen"], "uitbetaling": [], "vrijToegankelijk": false, "gemeenteBeperking": null, "openingstijden": null, "latitude": 51.8135843, "longitude": 5.7320711, "bronId": "L019033"}}, {"type": "Feature", "geometry": {"type": "Point", "coordinates": [5.7230839, 51.8074741]}, "properties": {"type": "inleverpunt", "locatieNaam": "Light Collection", "straatNaam": "Touwslagersbaan", "straatNr": "38", "postcode": "6602 AL", "plaats": "WYCHEN", "merk": "Stibat", "puntType": "inzamelbak", "materialen": ["batterijen"], "uitbetaling": [], "vrijToegankelijk": false, "gemeenteBeperking": null, "openingstijden": null, "latitude": 51.8074741, "longitude": 5.7230839, "bronId": "L032349"}}, {"type": "Feature", "geometry": {"type": "Point", "coordinates": [5.7238262, 51.8078281]}, "properties": {"type": "inleverpunt", "locatieNaam": "Beter Horen", "straatNaam": "Burchtstraat", "straatNr": "13", "postcode": "6602 AP", "plaats": "WIJCHEN", "merk": "Stibat", "puntType": "inzamelbak", "materialen": ["batterijen"], "uitbetaling": [], "vrijToegankelijk": false, "gemeenteBeperking": null, "openingstijden": null, "latitude": 51.8078281, "longitude": 5.7238262, "bronId": "L028604"}}, {"type": "Feature", "geometry": {"type": "Point", "coordinates": [5.7245885, 51.8081839]}, "properties": {"type": "inleverpunt", "locatieNaam": "Zeeman", "straatNaam": "Burchtstraat", "straatNr": "8", "postcode": "6602 AR", "plaats": "WIJCHEN", "merk": "Stibat", "puntType": "inzamelbak", "materialen": ["batterijen"], "uitbetaling": [], "vrijToegankelijk": false, "gemeenteBeperking": null, "openingstijden": null, "latitude": 51.8081839, "longitude": 5.7245885, "bronId": "L021545"}}, {"type": "Feature", "geometry": {"type": "Point", "coordinates": [5.724151, 51.8078526]}, "properties": {"type": "inleverpunt", "locatieNaam": "1331 Action", "straatNaam": "Burchtstraat", "straatNr": "9", "postcode": "6602 AP", "plaats": "WIJCHEN", "merk": "Stibat", "puntType": "inzamelbak", "materialen": ["batterijen"], "uitbetaling": [], "vrijToegankelijk": false, "gemeenteBeperking": null, "openingstijden": null, "latitude": 51.8078526, "longitude": 5.724151, "bronId": "L035420"}}, {"type": "Feature", "geometry": {"type": "Point", "coordinates": [5.7251097, 51.8083651]}, "properties": {"type": "inleverpunt", "locatieNaam": "Wibra", "straatNaam": "Spoorstraat", "straatNr": "37", "postcode": "6602 AW", "plaats": "WIJCHEN", "merk": "Stibat", "puntType": "inzamelbak", "materialen": ["batterijen"], "uitbetaling": [], "vrijToegankelijk": false, "gemeenteBeperking": null, "openingstijden": null, "latitude": 51.8083651, "longitude": 5.7251097, "bronId": "L023026"}}, {"type": "Feature", "geometry": {"type": "Point", "coordinates": [5.7234545, 51.8074253]}, "properties": {"type": "inleverpunt", "locatieNaam": "Expert", "straatNaam": "Touwslagersbaan", "straatNr": "32", "postcode": "6602 AL", "plaats": "WIJCHEN", "merk": "Stibat", "puntType": "inzamelbak", "materialen": ["batterijen"], "uitbetaling": [], "vrijToegankelijk": false, "gemeenteBeperking": null, "openingstijden": null, "latitude": 51.8074253, "longitude": 5.7234545, "bronId": "L011215"}}, {"type": "Feature", "geometry": {"type": "Point", "coordinates": [5.7340509, 51.8131995]}, "properties": {"type": "inleverpunt", "locatieNaam": "Fietsen Service Wijchen", "straatNaam": "Kraanvogelstraat", "straatNr": "137", "postcode": "6601 DH", "plaats": "WIJCHEN", "merk": "Stibat", "puntType": "inzamelbak", "materialen": ["batterijen"], "uitbetaling": [], "vrijToegankelijk": false, "gemeenteBeperking": null, "openingstijden": null, "latitude": 51.8131995, "longitude": 5.7340509, "bronId": "L032443"}}, {"type": "Feature", "geometry": {"type": "Point", "coordinates": [5.7250226, 51.8076994]}, "properties": {"type": "inleverpunt", "locatieNaam": "HEMA Spoorstraat", "straatNaam": "Spoorstraat", "straatNr": "15", "postcode": "6602 AV", "plaats": "WIJCHEN", "merk": "Stibat", "puntType": "inzamelbak", "materialen": ["batterijen"], "uitbetaling": [], "vrijToegankelijk": false, "gemeenteBeperking": null, "openingstijden": null, "latitude": 51.8076994, "longitude": 5.7250226, "bronId": "L006378"}}, {"type": "Feature", "geometry": {"type": "Point", "coordinates": [5.7253712, 51.8077883]}, "properties": {"type": "inleverpunt", "locatieNaam": "7224 Etos", "straatNaam": "Spoorstraat", "straatNr": "10", "postcode": "6602 AZ", "plaats": "WIJCHEN", "merk": "Stibat", "puntType": "inzamelbak", "materialen": ["batterijen"], "uitbetaling": [], "vrijToegankelijk": false, "gemeenteBeperking": null, "openingstijden": null, "latitude": 51.8077883, "longitude": 5.7253712, "bronId": "L023737"}}, {"type": "Feature", "geometry": {"type": "Point", "coordinates": [5.7241335, 51.8070701]}, "properties": {"type": "inleverpunt", "locatieNaam": "Lidl", "straatNaam": "Touwslagersbaan", "straatNr": "35", "postcode": "6602 AJ", "plaats": "WYCHEN", "merk": "Stibat", "puntType": "inzamelbak", "materialen": ["batterijen"], "uitbetaling": [], "vrijToegankelijk": false, "gemeenteBeperking": null, "openingstijden": null, "latitude": 51.8070701, "longitude": 5.7241335, "bronId": "L041059"}}, {"type": "Feature", "geometry": {"type": "Point", "coordinates": [5.7248865, 51.8073112]}, "properties": {"type": "inleverpunt", "locatieNaam": "Foto de Vakman", "straatNaam": "Touwslagersbaan", "straatNr": "14A", "postcode": "6602 AK", "plaats": "WIJCHEN", "merk": "Stibat", "puntType": "inzamelbak", "materialen": ["batterijen"], "uitbetaling": [], "vrijToegankelijk": false, "gemeenteBeperking": null, "openingstijden": null, "latitude": 51.8073112, "longitude": 5.7248865, "bronId": "L043265"}}, {"type": "Feature", "geometry": {"type": "Point", "coordinates": [5.7260918, 51.8075504]}, "properties": {"type": "inleverpunt", "locatieNaam": "Intertoys", "straatNaam": "Markt Promenade", "straatNr": "5", "postcode": "6602 HR", "plaats": "WIJCHEN", "merk": "Stibat", "puntType": "inzamelbak", "materialen": ["batterijen"], "uitbetaling": [], "vrijToegankelijk": false, "gemeenteBeperking": null, "openingstijden": null, "latitude": 51.8075504, "longitude": 5.7260918, "bronId": "L006209"}}, {"type": "Feature", "geometry": {"type": "Point", "coordinates": [5.7256856, 51.8071762]}, "properties": {"type": "inleverpunt", "locatieNaam": "Kruidvat", "straatNaam": "Touwslagersbaan", "straatNr": "18 b", "postcode": "6602 AK", "plaats": "WIJCHEN", "merk": "Stibat", "puntType": "inzamelbak", "materialen": ["batterijen"], "uitbetaling": [], "vrijToegankelijk": false, "gemeenteBeperking": null, "openingstijden": null, "latitude": 51.8071762, "longitude": 5.7256856, "bronId": "L016093"}}, {"type": "Feature", "geometry": {"type": "Point", "coordinates": [5.7260794, 51.8071703]}, "properties": {"type": "inleverpunt", "locatieNaam": "Specsavers", "straatNaam": "Markt", "straatNr": "15", "postcode": "6602 AN", "plaats": "Wijchen", "merk": "Stibat", "puntType": "inzamelbak", "materialen": ["batterijen"], "uitbetaling": [], "vrijToegankelijk": false, "gemeenteBeperking": null, "openingstijden": null, "latitude": 51.8071703, "longitude": 5.7260794, "bronId": "L045078"}}, {"type": "Feature", "geometry": {"type": "Point", "coordinates": [5.7265991, 51.8071735]}, "properties": {"type": "inleverpunt", "locatieNaam": "Bruna", "straatNaam": "Markt", "straatNr": "26", "postcode": "6602 AN", "plaats": "WIJCHEN", "merk": "Stibat", "puntType": "inzamelbak", "materialen": ["batterijen"], "uitbetaling": [], "vrijToegankelijk": false, "gemeenteBeperking": null, "openingstijden": null, "latitude": 51.8071735, "longitude": 5.7265991, "bronId": "L022392"}}, {"type": "Feature", "geometry": {"type": "Point", "coordinates": [5.7265399, 51.8069576]}, "properties": {"type": "inleverpunt", "locatieNaam": "Primera", "straatNaam": "Markt", "straatNr": "24", "postcode": "6602 AN", "plaats": "WIJCHEN", "merk": "Stibat", "puntType": "inzamelbak", "materialen": ["batterijen"], "uitbetaling": [], "vrijToegankelijk": false, "gemeenteBeperking": null, "openingstijden": null, "latitude": 51.8069576, "longitude": 5.7265399, "bronId": "L040116"}}, {"type": "Feature", "geometry": {"type": "Point", "coordinates": [5.727379, 51.8067578]}, "properties": {"type": "inleverpunt", "locatieNaam": "Kruidvat", "straatNaam": "Marktpromenade", "straatNr": "20", "postcode": "6602 HR", "plaats": "WIJCHEN", "merk": "Stibat", "puntType": "inzamelbak", "materialen": ["batterijen"], "uitbetaling": [], "vrijToegankelijk": false, "gemeenteBeperking": null, "openingstijden": null, "latitude": 51.8067578, "longitude": 5.727379, "bronId": "L016263"}}, {"type": "Feature", "geometry": {"type": "Point", "coordinates": [5.727637, 51.806755]}, "properties": {"type": "inleverpunt", "locatieNaam": "Hans Anders", "straatNaam": "Markt Promenade", "straatNr": "26", "postcode": "6602 HR", "plaats": "WIJCHEN", "merk": "Stibat", "puntType": "inzamelbak", "materialen": ["batterijen"], "uitbetaling": [], "vrijToegankelijk": false, "gemeenteBeperking": null, "openingstijden": null, "latitude": 51.806755, "longitude": 5.727637, "bronId": "L037961"}}, {"type": "Feature", "geometry": {"type": "Point", "coordinates": [5.7280036, 51.8069088]}, "properties": {"type": "inleverpunt", "locatieNaam": "1370 Albert Heijn", "straatNaam": "Europaplein", "straatNr": "85", "postcode": "6602 GV", "plaats": "WIJCHEN", "merk": "Stibat", "puntType": "inzamelbak", "materialen": ["batterijen"], "uitbetaling": [], "vrijToegankelijk": false, "gemeenteBeperking": null, "openingstijden": null, "latitude": 51.8069088, "longitude": 5.7280036, "bronId": "L005907"}}, {"type": "Feature", "geometry": {"type": "Point", "coordinates": [5.7390818, 51.8125388]}, "properties": {"type": "inleverpunt", "locatieNaam": "Leen Bakker", "straatNaam": "Stationslaan", "straatNr": "22", "postcode": "6602 BP", "plaats": "WIJCHEN", "merk": "Stibat", "puntType": "inzamelbak", "materialen": ["batterijen"], "uitbetaling": [], "vrijToegankelijk": false, "gemeenteBeperking": null, "openingstijden": null, "latitude": 51.8125388, "longitude": 5.7390818, "bronId": "L018095"}}, {"type": "Feature", "geometry": {"type": "Point", "coordinates": [5.7590206, 51.823542]}, "properties": {"type": "inleverpunt", "locatieNaam": "vdStad", "straatNaam": "Bijsterhuizen", "straatNr": "30-03", "postcode": "6604 LP", "plaats": "WIJCHEN", "merk": "Stibat", "puntType": "inzamelbak", "materialen": ["batterijen"], "uitbetaling": [], "vrijToegankelijk": false, "gemeenteBeperking": null, "openingstijden": null, "latitude": 51.823542, "longitude": 5.7590206, "bronId": "L045161"}}, {"type": "Feature", "geometry": {"type": "Point", "coordinates": [5.7572452, 51.8222893]}, "properties": {"type": "inleverpunt", "locatieNaam": "Tuinwereld Wijchen", "straatNaam": "Bijsterhuizen", "straatNr": "3004", "postcode": "6604 LR", "plaats": "Wijchen", "merk": "Stibat", "puntType": "inzamelbak", "materialen": ["batterijen"], "uitbetaling": [], "vrijToegankelijk": false, "gemeenteBeperking": null, "openingstijden": null, "latitude": 51.8222893, "longitude": 5.7572452, "bronId": "L032654"}}, {"type": "Feature", "geometry": {"type": "Point", "coordinates": [5.7510178, 51.8184146]}, "properties": {"type": "inleverpunt", "locatieNaam": "Mari van Rens Tweewielerspecialist", "straatNaam": "Marconistraat", "straatNr": "2", "postcode": "6604 BX", "plaats": "WIJCHEN", "merk": "Stibat", "puntType": "inzamelbak", "materialen": ["batterijen"], "uitbetaling": [], "vrijToegankelijk": false, "gemeenteBeperking": null, "openingstijden": null, "latitude": 51.8184146, "longitude": 5.7510178, "bronId": "L033771"}}, {"type": "Feature", "geometry": {"type": "Point", "coordinates": [5.7473766, 51.8130625]}, "properties": {"type": "inleverpunt", "locatieNaam": "Hormes Bouwmarkt", "straatNaam": "Nieuweweg", "straatNr": "145-147", "postcode": "6603 BL", "plaats": "WIJCHEN", "merk": "Stibat", "puntType": "inzamelbak", "materialen": ["batterijen"], "uitbetaling": [], "vrijToegankelijk": false, "gemeenteBeperking": null, "openingstijden": null, "latitude": 51.8130625, "longitude": 5.7473766, "bronId": "L037085"}}, {"type": "Feature", "geometry": {"type": "Point", "coordinates": [5.7242588, 51.7997974]}, "properties": {"type": "inleverpunt", "locatieNaam": "Jumbo", "straatNaam": "Zuiderpoort", "straatNr": "12-14", "postcode": "6605 HN", "plaats": "WIJCHEN", "merk": "Stibat", "puntType": "inzamelbak", "materialen": ["batterijen"], "uitbetaling": [], "vrijToegankelijk": false, "gemeenteBeperking": null, "openingstijden": null, "latitude": 51.7997974, "longitude": 5.7242588, "bronId": "L028818"}}, {"type": "Feature", "geometry": {"type": "Point", "coordinates": [5.7483093, 51.813113]}, "properties": {"type": "inleverpunt", "locatieNaam": "Praxis 2068", "straatNaam": "Nieuweweg", "straatNr": "151", "postcode": "6603 BL", "plaats": "WIJCHEN", "merk": "Stibat", "puntType": "inzamelbak", "materialen": ["batterijen"], "uitbetaling": [], "vrijToegankelijk": false, "gemeenteBeperking": null, "openingstijden": null, "latitude": 51.813113, "longitude": 5.7483093, "bronId": "L015754"}}, {"type": "Feature", "geometry": {"type": "Point", "coordinates": [5.725076, 51.7997154]}, "properties": {"type": "inleverpunt", "locatieNaam": "Trekpleister", "straatNaam": "Zuiderpoort", "straatNr": "4-5", "postcode": "6605 HN", "plaats": "WIJCHEN", "merk": "Stibat", "puntType": "inzamelbak", "materialen": ["batterijen"], "uitbetaling": [], "vrijToegankelijk": false, "gemeenteBeperking": null, "openingstijden": null, "latitude": 51.7997154, "longitude": 5.725076, "bronId": "L037305"}}, {"type": "Feature", "geometry": {"type": "Point", "coordinates": [5.7498543, 51.8134123]}, "properties": {"type": "inleverpunt", "locatieNaam": "Toolstation", "straatNaam": "Nieuweweg", "straatNr": "187", "postcode": "6603 BL", "plaats": "WIJCHEN", "merk": "Stibat", "puntType": "inzamelbak", "materialen": ["batterijen"], "uitbetaling": [], "vrijToegankelijk": false, "gemeenteBeperking": null, "openingstijden": null, "latitude": 51.8134123, "longitude": 5.7498543, "bronId": "L043366"}}, {"type": "Feature", "geometry": {"type": "Point", "coordinates": [5.7501126, 51.8116615]}, "properties": {"type": "inleverpunt", "locatieNaam": "Isero Wijchen", "straatNaam": "Kamerlingh Onnesstraat", "straatNr": "5", "postcode": "6603 AX", "plaats": "WIJCHEN", "merk": "Stibat", "puntType": "inzamelbak", "materialen": ["batterijen"], "uitbetaling": [], "vrijToegankelijk": false, "gemeenteBeperking": null, "openingstijden": null, "latitude": 51.8116615, "longitude": 5.7501126, "bronId": "L043307"}}, {"type": "Feature", "geometry": {"type": "Point", "coordinates": [5.7503143, 51.8117765]}, "properties": {"type": "inleverpunt", "locatieNaam": "HTI Technische Groothandel", "straatNaam": "Kamerlingh Onnesstraat", "straatNr": "5", "postcode": "6603 AX", "plaats": "WIJCHEN", "merk": "Stibat", "puntType": "inzamelbak", "materialen": ["batterijen"], "uitbetaling": [], "vrijToegankelijk": false, "gemeenteBeperking": null, "openingstijden": null, "latitude": 51.8117765, "longitude": 5.7503143, "bronId": "L023505"}}, {"type": "Feature", "geometry": {"type": "Point", "coordinates": [5.7617725, 51.8155246]}, "properties": {"type": "inleverpunt", "locatieNaam": "Kantoorvakhandel Wijchen", "straatNaam": "Nieuweweg", "straatNr": "236", "postcode": "6603 BV", "plaats": "WIJCHEN", "merk": "Stibat", "puntType": "inzamelbak", "materialen": ["batterijen"], "uitbetaling": [], "vrijToegankelijk": false, "gemeenteBeperking": null, "openingstijden": null, "latitude": 51.8155246, "longitude": 5.7617725, "bronId": "L010184"}}, {"type": "Feature", "geometry": {"type": "Polygon", "coordinates": [[[5.720051002035704, 51.774970003763045], [5.724799002040458, 51.77437800376253], [5.7297450020453855, 51.77285100376148], [5.73140100204716, 51.776057003763476], [5.731740002047499, 51.77601200376344], [5.732200002048037, 51.778178003764864], [5.733694002049531, 51.77793600376464], [5.733981002049889, 51.77994000376593], [5.736573002052446, 51.77849100376495], [5.740193002056067, 51.77785300376445], [5.740923002056807, 51.7779660037645], [5.740590002056501, 51.778867003765065], [5.7448340020607604, 51.7785750037648], [5.768779002084983, 51.78260500376685], [5.7694730020857685, 51.78518900376848], [5.772221002088517, 51.7846660037681], [5.774946002091224, 51.78372700376747], [5.775968002092267, 51.7841590037677], [5.780659002096986, 51.784204003767606], [5.786973002103432, 51.78705600376926], [5.7867370021032025, 51.78722700376943], [5.79736000211406, 51.792554003772615], [5.799593002116366, 51.79440900377369], [5.800365002117143, 51.79436300377366], [5.800949002117754, 51.79515100377417], [5.796076002112957, 51.798136003776214], [5.794374002111217, 51.797315003775694], [5.793113002109975, 51.798147003776286], [5.792096002108986, 51.79915600377696], [5.79179900210874, 51.800804003778026], [5.790461002107442, 51.80214000377887], [5.786670002103729, 51.804998003780796], [5.784364002101482, 51.80726500378233], [5.782007002099154, 51.80849300378318], [5.7811510020983725, 51.81082000378469], [5.78000200209725, 51.81186800378535], [5.780410002097665, 51.81199900378542], [5.773923002091464, 51.821551003791676], [5.771945002089501, 51.822341003792225], [5.771334002088914, 51.82306300379274], [5.764319002081866, 51.82321000379298], [5.757621002075157, 51.823990003793604], [5.764732002082588, 51.83229100379874], [5.751687002069543, 51.83436200380038], [5.72863000204651, 51.838614003803606], [5.678111001995878, 51.84314700380753], [5.677404001995276, 51.84625800380952], [5.681734001999628, 51.84626000380943], [5.681357001999335, 51.848678003810996], [5.684820002002818, 51.848781003811], [5.681350001999449, 51.85212500381315], [5.680498001998652, 51.85387000381432], [5.680188001998386, 51.855185003815144], [5.68077200199901, 51.85627600381582], [5.681663001999924, 51.85686800381621], [5.678258001996563, 51.858574003817345], [5.679571001997949, 51.86052500381855], [5.674199001992584, 51.86141500381929], [5.672318001990712, 51.86198500381963], [5.671713001990117, 51.86239800381993], [5.671478001989918, 51.86350600382061], [5.670520001989002, 51.86477400382144], [5.666227001984741, 51.86633400382253], [5.6405510019589675, 51.867395003823745], [5.63617700195457, 51.86736200382377], [5.63659700195489, 51.864401003821875], [5.639470001957689, 51.86201800382033], [5.638556001956738, 51.86111200381978], [5.640120001958131, 51.85603300381649], [5.6370530019549605, 51.85354200381495], [5.635865001953679, 51.85114300381348], [5.6347010019525055, 51.851089003813485], [5.637861001955602, 51.848771003811926], [5.635931001953616, 51.847458003811134], [5.639705001957379, 51.84653900381047], [5.643200001960838, 51.84498800380943], [5.622466001939821, 51.840458003806894], [5.609859001926994, 51.836280003804475], [5.606631001923726, 51.83568900380418], [5.609858001926908, 51.83394000380303], [5.607808001924818, 51.83310400380251], [5.608686001925669, 51.83224700380197], [5.607931001924899, 51.83196600380178], [5.608962001925902, 51.830989003801164], [5.603070001919878, 51.828281003799546], [5.59954500191636, 51.82911900380012], [5.597977001914748, 51.82804900379948], [5.606235001922956, 51.82530000379756], [5.616365001932978, 51.820607003794365], [5.619261001935856, 51.819630003793655], [5.623611001940217, 51.81914100379328], [5.63376500195045, 51.819664003793456], [5.638113001954803, 51.81902500379295], [5.641008001957679, 51.818039003792265], [5.644216001960836, 51.81603700379091], [5.645888001962455, 51.81423500378972], [5.649901001966207, 51.806137003784485], [5.652562001968752, 51.80253600378209], [5.657494001973557, 51.798030003779125], [5.662621001978605, 51.79489000377701], [5.66551200198147, 51.79363400377611], [5.66840700198436, 51.79291700377563], [5.681446001997446, 51.79195900377474], [5.685790002001787, 51.79119300377417], [5.688683002004671, 51.790296003773534], [5.691573002007532, 51.78902100377263], [5.695699002011589, 51.78625100377077], [5.701200002016876, 51.77904500376605], [5.7045320020201515, 51.77687000376455], [5.707422002023024, 51.77579300376385], [5.711763002027362, 51.77496300376319], [5.720051002035704, 51.774970003763045]]]}, "properties": {"type": "boundary", "gemeente": "Wijchen"}}]}