{"type": "FeatureCollection", "metadata": {"gemeente": "Wijdemeren", "slug": "wijdemeren", "generated_at": "2026-09-07T06:58:27.146480Z", "total_points": 34, "merken": ["StatiegeldNederland", "Stibat", "StichtingOPEN"], "bounds": [5.0443551, 52.1905817, 5.143331, 52.2650604]}, "features": [{"type": "Feature", "geometry": {"type": "Point", "coordinates": [5.0994806, 52.2650604]}, "properties": {"type": "inleverpunt", "locatieNaam": "A.s.v.65", "straatNaam": "Stichts End", "straatNr": "19B", "postcode": "1244 PK", "plaats": "Ankeveen", "merk": "StatiegeldNederland", "puntType": "balie", "materialen": ["pet-groot", "pet-klein", "blik"], "uitbetaling": [], "vrijToegankelijk": false, "gemeenteBeperking": null, "openingstijden": null, "latitude": 52.2650604, "longitude": 5.0994806, "bronId": "326938"}}, {"type": "Feature", "geometry": {"type": "Point", "coordinates": [5.1126994, 52.2399266]}, "properties": {"type": "inleverpunt", "locatieNaam": "Albert Heijn", "straatNaam": "Meenthof", "straatNr": "37", "postcode": "1241 XP", "plaats": "Kortenhoef", "merk": "StatiegeldNederland", "puntType": "automaat", "materialen": ["pet-groot", "pet-klein", "blik", "glas", "krat"], "uitbetaling": ["bonnetje", "donatie"], "vrijToegankelijk": true, "gemeenteBeperking": null, "openingstijden": {"ma": "08:00–21:00", "di": "08:00–21:00", "wo": "08:00–21:00", "do": "08:00–21:00", "vr": "08:00–21:00", "za": "08:00–21:00", "zo": "10:00–18:00"}, "latitude": 52.2399266, "longitude": 5.1126994, "bronId": "327538"}}, {"type": "Feature", "geometry": {"type": "Point", "coordinates": [5.0819663, 52.2070127]}, "properties": {"type": "inleverpunt", "locatieNaam": "Albert Heijn", "straatNaam": "Oud Loosdrechtsedijk", "straatNr": "182", "postcode": "1231 NG", "plaats": "Loosdrecht", "merk": "StatiegeldNederland", "puntType": "automaat", "materialen": ["pet-groot", "pet-klein", "blik", "glas", "krat"], "uitbetaling": ["bonnetje", "donatie"], "vrijToegankelijk": true, "gemeenteBeperking": null, "openingstijden": {"ma": "08:00–21:00", "di": "08:00–21:00", "wo": "08:00–21:00", "do": "08:00–21:00", "vr": "08:00–21:00", "za": "08:00–21:00", "zo": "09:00–19:00"}, "latitude": 52.2070127, "longitude": 5.0819663, "bronId": "327612"}}, {"type": "Feature", "geometry": {"type": "Point", "coordinates": [5.0449157, 52.2641258]}, "properties": {"type": "inleverpunt", "locatieNaam": "Albert Heijn", "straatNaam": "Voorstraat", "straatNr": "10", "postcode": "1394 CS", "plaats": "Nederhorst Den Berg", "merk": "StatiegeldNederland", "puntType": "automaat", "materialen": ["pet-groot", "pet-klein", "blik", "glas", "krat"], "uitbetaling": ["bonnetje", "donatie"], "vrijToegankelijk": true, "gemeenteBeperking": null, "openingstijden": {"ma": "08:00–21:00", "di": "08:00–21:00", "wo": "08:00–21:00", "do": "08:00–21:00", "vr": "08:00–21:00", "za": "08:00–21:00", "zo": "11:00–18:00"}, "latitude": 52.2641258, "longitude": 5.0449157, "bronId": "327894"}}, {"type": "Feature", "geometry": {"type": "Point", "coordinates": [5.1249348, 52.2120351]}, "properties": {"type": "inleverpunt", "locatieNaam": "Asc Hilversum Hurricanes", "straatNaam": "t Jagerspaadje", "straatNr": "32", "postcode": "1231 KJ", "plaats": "Loosdrecht", "merk": "StatiegeldNederland", "puntType": "balie", "materialen": ["pet-groot", "pet-klein", "blik"], "uitbetaling": [], "vrijToegankelijk": false, "gemeenteBeperking": null, "openingstijden": null, "latitude": 52.2120351, "longitude": 5.1249348, "bronId": "328769"}}, {"type": "Feature", "geometry": {"type": "Point", "coordinates": [5.1327451, 52.2090094]}, "properties": {"type": "inleverpunt", "locatieNaam": "Hilversumsche Mixed Hockey Club", "straatNaam": "t Jagerspaadje", "straatNr": "24", "postcode": "1231 KJ", "plaats": "Loosdrecht", "merk": "StatiegeldNederland", "puntType": "automaat", "materialen": ["pet-groot", "pet-klein", "blik"], "uitbetaling": ["bonnetje", "donatie", "tikkie"], "vrijToegankelijk": true, "gemeenteBeperking": null, "openingstijden": null, "latitude": 52.2090094, "longitude": 5.1327451, "bronId": "330039"}}, {"type": "Feature", "geometry": {"type": "Point", "coordinates": [5.1134481, 52.2397907]}, "properties": {"type": "inleverpunt", "locatieNaam": "Jumbo", "straatNaam": "Curtevenneweg", "straatNr": "2", "postcode": "1241 XZ", "plaats": "Kortenhoef", "merk": "StatiegeldNederland", "puntType": "automaat", "materialen": ["pet-groot", "pet-klein", "blik", "glas", "krat"], "uitbetaling": ["bonnetje", "donatie"], "vrijToegankelijk": true, "gemeenteBeperking": null, "openingstijden": {"ma": "08:00–21:00", "di": "08:00–21:00", "wo": "08:00–21:00", "do": "08:00–21:00", "vr": "08:00–21:00", "za": "08:00–21:00", "zo": "10:00–18:00"}, "latitude": 52.2397907, "longitude": 5.1134481, "bronId": "330360"}}, {"type": "Feature", "geometry": {"type": "Point", "coordinates": [5.138788, 52.200054]}, "properties": {"type": "inleverpunt", "locatieNaam": "Jumbo", "straatNaam": "Nootweg", "straatNr": "45", "postcode": "1231 CR", "plaats": "Loosdrecht", "merk": "StatiegeldNederland", "puntType": "automaat", "materialen": ["pet-groot", "pet-klein", "blik", "glas", "krat"], "uitbetaling": ["bonnetje", "donatie"], "vrijToegankelijk": true, "gemeenteBeperking": null, "openingstijden": {"ma": "08:00–21:00", "di": "08:00–21:00", "wo": "08:00–21:00", "do": "08:00–21:00", "vr": "08:00–21:00", "za": "08:00–21:00", "zo": "09:00–20:00"}, "latitude": 52.200054, "longitude": 5.138788, "bronId": "330711"}}, {"type": "Feature", "geometry": {"type": "Point", "coordinates": [5.0516649, 52.2534136]}, "properties": {"type": "inleverpunt", "locatieNaam": "Manege Laanhoeve", "straatNaam": "Meerlaan", "straatNr": "20a", "postcode": "1394 AB", "plaats": "Nederhorst Den Berg", "merk": "StatiegeldNederland", "puntType": "balie", "materialen": ["pet-groot", "pet-klein", "blik"], "uitbetaling": [], "vrijToegankelijk": false, "gemeenteBeperking": null, "openingstijden": {"ma": "08:00–21:30", "di": "08:00–21:00", "wo": "08:00–21:30", "do": "08:00–21:30", "vr": "08:00–21:30", "za": "08:00–18:00", "zo": "08:00–18:00"}, "latitude": 52.2534136, "longitude": 5.0516649, "bronId": "331662"}}, {"type": "Feature", "geometry": {"type": "Point", "coordinates": [5.1428098, 52.1959991]}, "properties": {"type": "inleverpunt", "locatieNaam": "Nettorama", "straatNaam": "Rading", "straatNr": "146", "postcode": "1231 KE", "plaats": "Loosdrecht", "merk": "StatiegeldNederland", "puntType": "automaat", "materialen": ["pet-groot", "pet-klein", "blik", "glas", "krat"], "uitbetaling": ["bonnetje"], "vrijToegankelijk": true, "gemeenteBeperking": null, "openingstijden": {"ma": "08:00–20:00", "di": "08:00–20:00", "wo": "08:00–20:00", "do": "08:00–20:00", "vr": "08:00–21:00", "za": "08:00–20:00", "zo": "10:00–18:00"}, "latitude": 52.1959991, "longitude": 5.1428098, "bronId": "332048"}}, {"type": "Feature", "geometry": {"type": "Point", "coordinates": [5.1339437, 52.1905817]}, "properties": {"type": "inleverpunt", "locatieNaam": "Sv Loosdrecht", "straatNaam": "Rading", "straatNr": "194", "postcode": "1231 KE", "plaats": "Loosdrecht", "merk": "StatiegeldNederland", "puntType": "balie", "materialen": ["pet-groot", "pet-klein", "blik"], "uitbetaling": [], "vrijToegankelijk": false, "gemeenteBeperking": null, "openingstijden": null, "latitude": 52.1905817, "longitude": 5.1339437, "bronId": "334094"}}, {"type": "Feature", "geometry": {"type": "Point", "coordinates": [5.0508672, 52.2499088]}, "properties": {"type": "inleverpunt", "locatieNaam": "Voetbalvereniging Nederhorst", "straatNaam": "Plantanenlaan", "straatNr": "1", "postcode": "1394 JR", "plaats": "Nederhorst Den Berg", "merk": "StatiegeldNederland", "puntType": "balie", "materialen": ["pet-groot", "pet-klein", "blik"], "uitbetaling": [], "vrijToegankelijk": false, "gemeenteBeperking": null, "openingstijden": {"ma": "24 uur geopend", "di": "24 uur geopend", "wo": "24 uur geopend", "do": "24 uur geopend", "vr": "24 uur geopend", "za": "24 uur geopend", "zo": "Gesloten"}, "latitude": 52.2499088, "longitude": 5.0508672, "bronId": "335119"}}, {"type": "Feature", "geometry": {"type": "Point", "coordinates": [5.143331, 52.195806]}, "properties": {"type": "inleverpunt", "locatieNaam": "Boni Loosdrecht", "straatNaam": "Dominee Versteegtstraat", "straatNr": "146", "postcode": "1231 KE", "plaats": "Loosdrecht", "merk": "StichtingOPEN", "puntType": "balie", "materialen": ["batterijen", "lampen"], "uitbetaling": [], "vrijToegankelijk": false, "gemeenteBeperking": null, "openingstijden": null, "latitude": 52.195806, "longitude": 5.143331, "bronId": "SP00023720"}}, {"type": "Feature", "geometry": {"type": "Point", "coordinates": [5.139128, 52.20019]}, "properties": {"type": "inleverpunt", "locatieNaam": "Jumbo Loosdrecht", "straatNaam": "Nootweg", "straatNr": "45", "postcode": "1231 CR", "plaats": "Loosdrecht", "merk": "StichtingOPEN", "puntType": "balie", "materialen": ["batterijen", "lampen"], "uitbetaling": [], "vrijToegankelijk": false, "gemeenteBeperking": null, "openingstijden": null, "latitude": 52.20019, "longitude": 5.139128, "bronId": "SP00025259"}}, {"type": "Feature", "geometry": {"type": "Point", "coordinates": [5.120881, 52.219134]}, "properties": {"type": "inleverpunt", "locatieNaam": "Intratuin Hilversum", "straatNaam": "Kromme rade", "straatNr": "2a", "postcode": "1241 LK", "plaats": "Kortenhoef", "merk": "StichtingOPEN", "puntType": "balie", "materialen": ["elektro-middel", "lampen"], "uitbetaling": [], "vrijToegankelijk": false, "gemeenteBeperking": null, "openingstijden": null, "latitude": 52.219134, "longitude": 5.120881, "bronId": "SP00004476"}}, {"type": "Feature", "geometry": {"type": "Point", "coordinates": [5.113991, 52.239606]}, "properties": {"type": "inleverpunt", "locatieNaam": "Jumbo Kortenhoef", "straatNaam": "Curtevenneweg", "straatNr": "2", "postcode": "1241 XZ", "plaats": "Kortenhoef", "merk": "StichtingOPEN", "puntType": "balie", "materialen": ["batterijen", "lampen"], "uitbetaling": [], "vrijToegankelijk": false, "gemeenteBeperking": null, "openingstijden": null, "latitude": 52.239606, "longitude": 5.113991, "bronId": "SP00025270"}}, {"type": "Feature", "geometry": {"type": "Point", "coordinates": [5.112719, 52.240097]}, "properties": {"type": "inleverpunt", "locatieNaam": "8584 Albert Heijn Kortenhoef", "straatNaam": "Meenthof", "straatNr": "37", "postcode": "1241 CZ", "plaats": "Kortenhoef", "merk": "StichtingOPEN", "puntType": "balie", "materialen": ["batterijen", "elektro-klein", "lampen"], "uitbetaling": [], "vrijToegankelijk": false, "gemeenteBeperking": null, "openingstijden": null, "latitude": 52.240097, "longitude": 5.112719, "bronId": "SP00022961"}}, {"type": "Feature", "geometry": {"type": "Point", "coordinates": [5.112086, 52.239979]}, "properties": {"type": "inleverpunt", "locatieNaam": "Kruidvat Kortenhoef", "straatNaam": "Meenthof", "straatNr": "44", "postcode": "1241 CZ", "plaats": "Kortenhoef", "merk": "StichtingOPEN", "puntType": "balie", "materialen": ["batterijen", "lampen"], "uitbetaling": [], "vrijToegankelijk": false, "gemeenteBeperking": null, "openingstijden": null, "latitude": 52.239979, "longitude": 5.112086, "bronId": "SP00024710"}}, {"type": "Feature", "geometry": {"type": "Point", "coordinates": [5.044962, 52.263714]}, "properties": {"type": "inleverpunt", "locatieNaam": "1326 Albert Heijn Nederhorst den Berg", "straatNaam": "Voorstraat", "straatNr": "10", "postcode": "1394 CS", "plaats": "Nederhorst den Berg", "merk": "StichtingOPEN", "puntType": "balie", "materialen": ["batterijen", "elektro-klein", "lampen"], "uitbetaling": [], "vrijToegankelijk": false, "gemeenteBeperking": null, "openingstijden": null, "latitude": 52.263714, "longitude": 5.044962, "bronId": "SP00022971"}}, {"type": "Feature", "geometry": {"type": "Point", "coordinates": [5.1398032, 52.1998603]}, "properties": {"type": "inleverpunt", "locatieNaam": "Kruidvat", "straatNaam": "Nootweg", "straatNr": "55", "postcode": "1231 CR", "plaats": "Loosdrecht", "merk": "Stibat", "puntType": "inzamelbak", "materialen": ["batterijen"], "uitbetaling": [], "vrijToegankelijk": false, "gemeenteBeperking": null, "openingstijden": null, "latitude": 52.1998603, "longitude": 5.1398032, "bronId": "L031812"}}, {"type": "Feature", "geometry": {"type": "Point", "coordinates": [5.1393292, 52.1998464]}, "properties": {"type": "inleverpunt", "locatieNaam": "Bike Totaal Bikeshop Loosdrecht", "straatNaam": "Nootweg", "straatNr": "51", "postcode": "1231 CR", "plaats": "Loosdrecht", "merk": "Stibat", "puntType": "inzamelbak", "materialen": ["batterijen"], "uitbetaling": [], "vrijToegankelijk": false, "gemeenteBeperking": null, "openingstijden": null, "latitude": 52.1998464, "longitude": 5.1393292, "bronId": "L018583"}}, {"type": "Feature", "geometry": {"type": "Point", "coordinates": [5.1391935, 52.2000767]}, "properties": {"type": "inleverpunt", "locatieNaam": "HEMA Loosdrecht", "straatNaam": "Nootweg", "straatNr": "47", "postcode": "1231 CR", "plaats": "Loosdrecht", "merk": "Stibat", "puntType": "inzamelbak", "materialen": ["batterijen"], "uitbetaling": [], "vrijToegankelijk": false, "gemeenteBeperking": null, "openingstijden": null, "latitude": 52.2000767, "longitude": 5.1391935, "bronId": "L046825"}}, {"type": "Feature", "geometry": {"type": "Point", "coordinates": [5.1387443, 52.1999649]}, "properties": {"type": "inleverpunt", "locatieNaam": "Jumbo", "straatNaam": "Nootweg", "straatNr": "45", "postcode": "1231 CR", "plaats": "Loosdrecht", "merk": "Stibat", "puntType": "inzamelbak", "materialen": ["batterijen"], "uitbetaling": [], "vrijToegankelijk": false, "gemeenteBeperking": null, "openingstijden": null, "latitude": 52.1999649, "longitude": 5.1387443, "bronId": "L036594"}}, {"type": "Feature", "geometry": {"type": "Point", "coordinates": [5.1221203, 52.2189428]}, "properties": {"type": "inleverpunt", "locatieNaam": "Intratuin", "straatNaam": "Kromme Rade", "straatNr": "2a", "postcode": "1241 LK", "plaats": "Kortenhoef", "merk": "Stibat", "puntType": "inzamelbak", "materialen": ["batterijen"], "uitbetaling": [], "vrijToegankelijk": false, "gemeenteBeperking": null, "openingstijden": null, "latitude": 52.2189428, "longitude": 5.1221203, "bronId": "L021939"}}, {"type": "Feature", "geometry": {"type": "Point", "coordinates": [5.0944097, 52.2057713]}, "properties": {"type": "inleverpunt", "locatieNaam": "Jachthaven Het Anker", "straatNaam": "Oudloosdrechtsedijk", "straatNr": "117", "postcode": "1231 LS", "plaats": "Loosdrecht", "merk": "Stibat", "puntType": "inzamelbak", "materialen": ["batterijen"], "uitbetaling": [], "vrijToegankelijk": false, "gemeenteBeperking": null, "openingstijden": null, "latitude": 52.2057713, "longitude": 5.0944097, "bronId": "L003856"}}, {"type": "Feature", "geometry": {"type": "Point", "coordinates": [5.0821315, 52.2071599]}, "properties": {"type": "inleverpunt", "locatieNaam": "4024 Albert Heijn", "straatNaam": "Oud-Loosdrechtsedijk", "straatNr": "182", "postcode": "1231 NG", "plaats": "Loosdrecht", "merk": "Stibat", "puntType": "inzamelbak", "materialen": ["batterijen"], "uitbetaling": [], "vrijToegankelijk": false, "gemeenteBeperking": null, "openingstijden": null, "latitude": 52.2071599, "longitude": 5.0821315, "bronId": "L042727"}}, {"type": "Feature", "geometry": {"type": "Point", "coordinates": [5.0813617, 52.2071392]}, "properties": {"type": "inleverpunt", "locatieNaam": "Vrijheid Watersport", "straatNaam": "Oud Loosdrechtsedijk", "straatNr": "190", "postcode": "1231 NG", "plaats": "Loosdrecht", "merk": "Stibat", "puntType": "inzamelbak", "materialen": ["batterijen"], "uitbetaling": [], "vrijToegankelijk": false, "gemeenteBeperking": null, "openingstijden": null, "latitude": 52.2071392, "longitude": 5.0813617, "bronId": "L026796"}}, {"type": "Feature", "geometry": {"type": "Point", "coordinates": [5.114559, 52.2397684]}, "properties": {"type": "inleverpunt", "locatieNaam": "Jumbo", "straatNaam": "Curtevenneweg", "straatNr": "2", "postcode": "1241 XZ", "plaats": "Kortenhoef", "merk": "Stibat", "puntType": "inzamelbak", "materialen": ["batterijen"], "uitbetaling": [], "vrijToegankelijk": false, "gemeenteBeperking": null, "openingstijden": null, "latitude": 52.2397684, "longitude": 5.114559, "bronId": "L028327"}}, {"type": "Feature", "geometry": {"type": "Point", "coordinates": [5.1130174, 52.2396668]}, "properties": {"type": "inleverpunt", "locatieNaam": "HEMA Kortenhoef", "straatNaam": "Meenthof", "straatNr": "19a", "postcode": "1241 CP", "plaats": "Kortenhoef", "merk": "Stibat", "puntType": "inzamelbak", "materialen": ["batterijen"], "uitbetaling": [], "vrijToegankelijk": false, "gemeenteBeperking": null, "openingstijden": null, "latitude": 52.2396668, "longitude": 5.1130174, "bronId": "L046910"}}, {"type": "Feature", "geometry": {"type": "Point", "coordinates": [5.1129466, 52.2400793]}, "properties": {"type": "inleverpunt", "locatieNaam": "Kruidvat", "straatNaam": "Meenthof", "straatNr": "44", "postcode": "1241 CZ", "plaats": "Kortenhoef", "merk": "Stibat", "puntType": "inzamelbak", "materialen": ["batterijen"], "uitbetaling": [], "vrijToegankelijk": false, "gemeenteBeperking": null, "openingstijden": null, "latitude": 52.2400793, "longitude": 5.1129466, "bronId": "L016638"}}, {"type": "Feature", "geometry": {"type": "Point", "coordinates": [5.1127224, 52.2400993]}, "properties": {"type": "inleverpunt", "locatieNaam": "8584 Albert Heijn", "straatNaam": "Meenthof", "straatNr": "37", "postcode": "1241 CZ", "plaats": "Kortenhoef", "merk": "Stibat", "puntType": "inzamelbak", "materialen": ["batterijen"], "uitbetaling": [], "vrijToegankelijk": false, "gemeenteBeperking": null, "openingstijden": null, "latitude": 52.2400993, "longitude": 5.1127224, "bronId": "L007012"}}, {"type": "Feature", "geometry": {"type": "Point", "coordinates": [5.0455114, 52.2608534]}, "properties": {"type": "inleverpunt", "locatieNaam": "Groenestein Techno-service", "straatNaam": "Overmeerseweg", "straatNr": "42", "postcode": "1394 BD", "plaats": "Nederhorst den Berg", "merk": "Stibat", "puntType": "inzamelbak", "materialen": ["batterijen"], "uitbetaling": [], "vrijToegankelijk": false, "gemeenteBeperking": null, "openingstijden": null, "latitude": 52.2608534, "longitude": 5.0455114, "bronId": "L047220"}}, {"type": "Feature", "geometry": {"type": "Point", "coordinates": [5.0443551, 52.2636753]}, "properties": {"type": "inleverpunt", "locatieNaam": "Kroon Tweewielers", "straatNaam": "Brugstraat", "straatNr": "1", "postcode": "1394 CV", "plaats": "Nederhorst den Berg", "merk": "Stibat", "puntType": "inzamelbak", "materialen": ["batterijen"], "uitbetaling": [], "vrijToegankelijk": false, "gemeenteBeperking": null, "openingstijden": null, "latitude": 52.2636753, "longitude": 5.0443551, "bronId": "L032760"}}, {"type": "Feature", "geometry": {"type": "Point", "coordinates": [5.0449465, 52.2641781]}, "properties": {"type": "inleverpunt", "locatieNaam": "1326 Albert Heijn", "straatNaam": "Voorstraat", "straatNr": "10", "postcode": "1394 CS", "plaats": "Nederhorst den Berg", "merk": "Stibat", "puntType": "inzamelbak", "materialen": ["batterijen"], "uitbetaling": [], "vrijToegankelijk": false, "gemeenteBeperking": null, "openingstijden": null, "latitude": 52.2641781, "longitude": 5.0449465, "bronId": "L002869"}}, {"type": "Feature", "geometry": {"type": "Polygon", "coordinates": [[[5.046661001374587, 52.165981004017276], [5.082452001410803, 52.17384200402184], [5.121122001449862, 52.18094300402589], [5.124111001452855, 52.18082700402577], [5.121939001450883, 52.18558000402866], [5.128667001457694, 52.18718200402959], [5.1365290014657194, 52.19061900403158], [5.141254001470567, 52.19326400403317], [5.145141001474606, 52.19663700403517], [5.145727001475248, 52.19799500403598], [5.145577001475212, 52.200585004037556], [5.140527001470442, 52.20727300404167], [5.142512001472453, 52.20780400404196], [5.142436001472417, 52.2087070040425], [5.141785001471758, 52.20859900404245], [5.142016001471974, 52.20816600404217], [5.141441001471392, 52.208049004042124], [5.141103001471074, 52.20847700404239], [5.1399830014699415, 52.20828800404228], [5.139828001469772, 52.2079800040421], [5.1375760014676475, 52.210976004043914], [5.133943001464154, 52.21429500404595], [5.128325001458639, 52.216878004047565], [5.122527001452915, 52.218825004048824], [5.122299001452772, 52.22075100404995], [5.123310001453817, 52.22138900405032], [5.130008001460523, 52.221491004050336], [5.129955001460511, 52.2223920040509], [5.128063001458616, 52.22238300405091], [5.1279450014585874, 52.224404004052126], [5.140233001470896, 52.224536004052055], [5.1417910014724955, 52.22549300405265], [5.141327001472584, 52.23827300406037], [5.142019001473317, 52.239160004060885], [5.142277001473753, 52.24331700406341], [5.141226001472735, 52.244098004063886], [5.140048001471628, 52.245774004064906], [5.139605001471543, 52.25401500406986], [5.136801001468734, 52.25395100406984], [5.136471001468659, 52.25981600407338], [5.12744000145961, 52.25957500407328], [5.126026001458213, 52.25992800407353], [5.12529800145751, 52.26061000407392], [5.122181001454729, 52.26835300407862], [5.119345001452116, 52.27341800408167], [5.108526001441386, 52.27561500408308], [5.103496001436431, 52.27736500408416], [5.10231500143529, 52.27825700408467], [5.102066001435112, 52.27989100408566], [5.087704001420826, 52.28168500408689], [5.084596001417616, 52.279401004085535], [5.0770820014100355, 52.27797700408475], [5.06462800139759, 52.27826400408501], [5.063813001396789, 52.27857700408516], [5.064531001397525, 52.27902200408543], [5.064336001397342, 52.27926000408558], [5.065325001398349, 52.279659004085815], [5.063886001396924, 52.279976004086016], [5.064412001397485, 52.28073800408645], [5.062873001396009, 52.282200004087365], [5.062887001396137, 52.28473900408884], [5.06115900139443, 52.28521300408918], [5.059759001393019, 52.28495000408904], [5.055278001388449, 52.28300100408788], [5.0507530013838675, 52.281818004087214], [5.049736001382793, 52.28053600408645], [5.049609001382542, 52.277769004084774], [5.048602001381504, 52.27703000408436], [5.0472160013801135, 52.27701300408434], [5.043734001376669, 52.27790900408491], [5.042110001375045, 52.27787000408486], [5.033328001366152, 52.27543700408349], [5.0305790013632565, 52.27224800408158], [5.028331001361002, 52.27209100408152], [5.024078001356797, 52.2732360040822], [5.023340001356049, 52.27307300408215], [5.022887001355569, 52.272483004081785], [5.0248170013573725, 52.26963300408008], [5.027750001360213, 52.267574004078824], [5.027799001360193, 52.26604100407789], [5.026582001358891, 52.26414800407679], [5.031039001363235, 52.261598004075225], [5.032502001364632, 52.26014100407432], [5.032437001364502, 52.25866200407341], [5.030972001362953, 52.25682000407234], [5.031804001363713, 52.25517600407134], [5.034468001366273, 52.25288300406994], [5.0357330013675305, 52.25265400406979], [5.037495001369341, 52.25368900407041], [5.038877001370809, 52.255594004071575], [5.040062001372035, 52.25649900407208], [5.041302001373285, 52.256712004072206], [5.042912001374866, 52.25600100407175], [5.04346600137539, 52.25536100407137], [5.044009001375797, 52.25234600406958], [5.0448940013765995, 52.25048300406845], [5.046634001378254, 52.24854100406723], [5.045854001377243, 52.2433820040642], [5.0562760013873955, 52.237127004060326], [5.057730001388771, 52.23535300405926], [5.057485001388517, 52.23520700405918], [5.056762001387813, 52.23559300405943], [5.055790001386823, 52.23521400405917], [5.056224001387246, 52.234979004059014], [5.053283001384273, 52.234243004058605], [5.042397001373207, 52.23054700405646], [5.0415860013724085, 52.23088800405665], [5.0413450013721315, 52.230077004056135], [5.040518001371293, 52.229834004056], [5.042484001373213, 52.228780004055395], [5.040842001371521, 52.22769300405475], [5.040489001371135, 52.22694200405429], [5.040046001370693, 52.22703100405434], [5.038731001369294, 52.225179004053224], [5.037102001367672, 52.22534200405334], [5.036965001367507, 52.22477600405299], [5.041929001372447, 52.224089004052566], [5.041984001372512, 52.22432700405271], [5.042796001373315, 52.22404000405254], [5.042633001373144, 52.22386600405244], [5.0393420013698735, 52.22441100405277], [5.039196001369709, 52.22402400405259], [5.036666001367191, 52.22436000405275], [5.035849001366066, 52.21752900404864], [5.036828001367031, 52.21720900404842], [5.037145001367302, 52.216203004047834], [5.036693001366828, 52.21569100404751], [5.036909001367021, 52.2151560040472], [5.03568300136579, 52.215125004047174], [5.035771001365855, 52.214557004046846], [5.0353300013654065, 52.214462004046815], [5.0372900013673565, 52.214215004046586], [5.036666001366733, 52.21419600404662], [5.036699001366741, 52.21364800404629], [5.0337880013638285, 52.21371400404632], [5.033730001363745, 52.21312300404597], [5.03435400136437, 52.21311700404598], [5.034339001364346, 52.212900004045835], [5.033401001363267, 52.209836004043986], [5.036445001366304, 52.209568004043824], [5.035315001364979, 52.20523300404122], [5.037421001367074, 52.204965004041014], [5.036650001366176, 52.202138004039305], [5.025600001355192, 52.2039820040405], [5.025431001354988, 52.2032560040401], [5.024674001354213, 52.202863004039806], [5.023315001352861, 52.20305100404], [5.023433001353013, 52.20382800404044], [5.022621001352205, 52.203941004040516], [5.022454001351986, 52.202815004039806], [5.023110001352641, 52.20274300403976], [5.023026001352523, 52.202039004039314], [5.021919001351435, 52.202501004039625], [5.0215870013511035, 52.20247500403961], [5.023006001352492, 52.20174600403917], [5.021293001350783, 52.201886004039274], [5.022769001352245, 52.201534004039026], [5.026061001355537, 52.20137400403891], [5.027942001357356, 52.199958004038045], [5.0298490013592465, 52.199534004037794], [5.031813001361164, 52.19844000403711], [5.03720100136654, 52.197949004036786], [5.037123001366402, 52.196626004035984], [5.037765001367043, 52.196565004035946], [5.038134001367351, 52.195163004035095], [5.036516001365658, 52.19355200403411], [5.036220001365267, 52.1914890040329], [5.035336001364347, 52.19070000403238], [5.035708001364651, 52.189201004031474], [5.0351590013640655, 52.18837800403097], [5.034977001363811, 52.18680300403002], [5.033635001362432, 52.18604900402959], [5.033199001361937, 52.18471700402876], [5.032503001361213, 52.184113004028404], [5.041549001370258, 52.18375200402813], [5.042049001370742, 52.18337000402789], [5.044395001372593, 52.17221500402112], [5.046076001374013, 52.166269004017465], [5.046661001374587, 52.165981004017276]]]}, "properties": {"type": "boundary", "gemeente": "Wijdemeren"}}]}