{"type": "FeatureCollection", "metadata": {"gemeente": "Wijk bij Duurstede", "slug": "wijk-bij-duurstede", "generated_at": "2026-08-24T03:11:25.039479Z", "total_points": 30, "merken": ["StatiegeldNederland", "Stibat", "StichtingOPEN"], "bounds": [5.3039091, 51.9656041, 5.3466582, 52.016036]}, "features": [{"type": "Feature", "geometry": {"type": "Point", "coordinates": [5.3271041, 51.973564]}, "properties": {"type": "inleverpunt", "locatieNaam": "Albert Heijn", "straatNaam": "Sluishoofd", "straatNr": "2", "postcode": "3961 KW", "plaats": "Wijk Bij Duurstede", "merk": "StatiegeldNederland", "puntType": "automaat", "materialen": ["pet-groot", "pet-klein", "blik", "glas", "krat"], "uitbetaling": ["bonnetje", "donatie"], "vrijToegankelijk": true, "gemeenteBeperking": null, "openingstijden": {"ma": "08:00–21:00", "di": "08:00–21:00", "wo": "08:00–21:00", "do": "08:00–21:00", "vr": "08:00–21:00", "za": "08:00–21:00", "zo": "10:00–18:00"}, "latitude": 51.973564, "longitude": 5.3271041, "bronId": "293955"}}, {"type": "Feature", "geometry": {"type": "Point", "coordinates": [5.3434866, 51.9745862]}, "properties": {"type": "inleverpunt", "locatieNaam": "Albert Heijn", "straatNaam": "Steenstraat", "straatNr": "5", "postcode": "3961 VM", "plaats": "Wijk Bij Duurstede", "merk": "StatiegeldNederland", "puntType": "automaat", "materialen": ["pet-groot", "pet-klein", "blik", "glas", "krat"], "uitbetaling": ["bonnetje", "donatie"], "vrijToegankelijk": true, "gemeenteBeperking": null, "openingstijden": {"ma": "08:00–22:00", "di": "08:00–22:00", "wo": "08:00–22:00", "do": "08:00–22:00", "vr": "08:00–22:00", "za": "08:00–22:00", "zo": "10:00–18:00"}, "latitude": 51.9745862, "longitude": 5.3434866, "bronId": "293990"}}, {"type": "Feature", "geometry": {"type": "Point", "coordinates": [5.3039091, 51.995035]}, "properties": {"type": "inleverpunt", "locatieNaam": "Hv Fortissimo", "straatNaam": "Kersenakker", "straatNr": "29-31", "postcode": "3945 EH", "plaats": "Cothen", "merk": "StatiegeldNederland", "puntType": "balie", "materialen": ["pet-groot", "pet-klein", "blik"], "uitbetaling": [], "vrijToegankelijk": false, "gemeenteBeperking": null, "openingstijden": null, "latitude": 51.995035, "longitude": 5.3039091, "bronId": "296588"}}, {"type": "Feature", "geometry": {"type": "Point", "coordinates": [5.340934, 51.983363]}, "properties": {"type": "inleverpunt", "locatieNaam": "Jumbo", "straatNaam": "Langbroekseweg", "straatNr": "3", "postcode": "3962 EH", "plaats": "Wijk Bij Duurstede", "merk": "StatiegeldNederland", "puntType": "automaat", "materialen": ["pet-groot", "pet-klein", "blik", "glas", "krat"], "uitbetaling": ["bonnetje"], "vrijToegankelijk": true, "gemeenteBeperking": null, "openingstijden": {"ma": "08:00–21:00", "di": "08:00–21:00", "wo": "08:00–21:00", "do": "08:00–21:00", "vr": "08:00–21:00", "za": "08:00–21:00", "zo": "10:00–18:00"}, "latitude": 51.983363, "longitude": 5.340934, "bronId": "296971"}}, {"type": "Feature", "geometry": {"type": "Point", "coordinates": [5.3359247, 51.9659844]}, "properties": {"type": "inleverpunt", "locatieNaam": "Korfbalvereniging Viking", "straatNaam": "Livius", "straatNr": "21", "postcode": "3962 KS", "plaats": "Wijk Bij Duurstede", "merk": "StatiegeldNederland", "puntType": "balie", "materialen": ["pet-groot", "pet-klein", "blik"], "uitbetaling": [], "vrijToegankelijk": false, "gemeenteBeperking": null, "openingstijden": {"ma": "09:00–00:00", "di": "09:00–00:00", "wo": "09:00–00:00", "do": "09:00–00:00", "vr": "09:00–00:00", "za": "24 uur geopend", "zo": "Gesloten"}, "latitude": 51.9659844, "longitude": 5.3359247, "bronId": "297406"}}, {"type": "Feature", "geometry": {"type": "Point", "coordinates": [5.34625, 51.97487]}, "properties": {"type": "inleverpunt", "locatieNaam": "Lidl", "straatNaam": "Hoogstraat", "straatNr": "14", "postcode": "3962 ES", "plaats": "Wijk Bij Duurstede", "merk": "StatiegeldNederland", "puntType": "automaat", "materialen": ["pet-groot", "pet-klein", "blik", "glas", "krat"], "uitbetaling": ["bonnetje", "donatie"], "vrijToegankelijk": true, "gemeenteBeperking": null, "openingstijden": {"ma": "08:00–21:00", "di": "08:00–21:00", "wo": "08:00–21:00", "do": "08:00–21:00", "vr": "08:00–21:00", "za": "08:00–21:00", "zo": "10:00–18:00"}, "latitude": 51.97487, "longitude": 5.34625, "bronId": "297660"}}, {"type": "Feature", "geometry": {"type": "Point", "coordinates": [5.3300332, 52.016036]}, "properties": {"type": "inleverpunt", "locatieNaam": "Sportvereniging Langbroek", "straatNaam": "Alexanderdreef", "straatNr": "16", "postcode": "3947 PA", "plaats": "Langbroek", "merk": "StatiegeldNederland", "puntType": "balie", "materialen": ["pet-groot", "pet-klein", "blik"], "uitbetaling": [], "vrijToegankelijk": false, "gemeenteBeperking": null, "openingstijden": null, "latitude": 52.016036, "longitude": 5.3300332, "bronId": "300140"}}, {"type": "Feature", "geometry": {"type": "Point", "coordinates": [5.3370541, 51.9656041]}, "properties": {"type": "inleverpunt", "locatieNaam": "Tennisvereniging Uitwijk", "straatNaam": "Lekdijk Oost", "straatNr": "12", "postcode": "3961 MB", "plaats": "Wijk Bij Duurstede", "merk": "StatiegeldNederland", "puntType": "balie", "materialen": ["pet-groot", "pet-klein", "blik"], "uitbetaling": [], "vrijToegankelijk": false, "gemeenteBeperking": null, "openingstijden": null, "latitude": 51.9656041, "longitude": 5.3370541, "bronId": "300462"}}, {"type": "Feature", "geometry": {"type": "Point", "coordinates": [5.311702, 51.997502]}, "properties": {"type": "inleverpunt", "locatieNaam": "Spar Cothen", "straatNaam": "Dorpsstraat", "straatNr": "29", "postcode": "3945 BK", "plaats": "Cothen", "merk": "StichtingOPEN", "puntType": "balie", "materialen": ["batterijen", "lampen"], "uitbetaling": [], "vrijToegankelijk": false, "gemeenteBeperking": null, "openingstijden": null, "latitude": 51.997502, "longitude": 5.311702, "bronId": "SP00022414"}}, {"type": "Feature", "geometry": {"type": "Point", "coordinates": [5.340809, 51.983117]}, "properties": {"type": "inleverpunt", "locatieNaam": "Jumbo Wijk bij Duurstede", "straatNaam": "Langbroekseweg", "straatNr": "3", "postcode": "3962 EH", "plaats": "Wijk bij Duurstede", "merk": "StichtingOPEN", "puntType": "balie", "materialen": ["batterijen", "elektro-klein", "lampen"], "uitbetaling": [], "vrijToegankelijk": false, "gemeenteBeperking": null, "openingstijden": null, "latitude": 51.983117, "longitude": 5.340809, "bronId": "SP00025172"}}, {"type": "Feature", "geometry": {"type": "Point", "coordinates": [5.314352, 51.973925]}, "properties": {"type": "inleverpunt", "locatieNaam": "KARWEI Wijk bij Duurstede", "straatNaam": "Hoge Maat", "straatNr": "6a", "postcode": "3961 NC", "plaats": "Wijk bij Duurstede", "merk": "StichtingOPEN", "puntType": "balie", "materialen": ["elektro-middel", "lampen", "tl-buizen"], "uitbetaling": [], "vrijToegankelijk": false, "gemeenteBeperking": null, "openingstijden": null, "latitude": 51.973925, "longitude": 5.314352, "bronId": "SP00000759"}}, {"type": "Feature", "geometry": {"type": "Point", "coordinates": [5.326981, 51.973536]}, "properties": {"type": "inleverpunt", "locatieNaam": "1825 Albert Heijn Wijk bij Duurstede", "straatNaam": "Sluishoofd", "straatNr": "2", "postcode": "3961 KW", "plaats": "Wijk bij Duurstede", "merk": "StichtingOPEN", "puntType": "balie", "materialen": ["batterijen", "elektro-klein", "lampen"], "uitbetaling": [], "vrijToegankelijk": false, "gemeenteBeperking": null, "openingstijden": null, "latitude": 51.973536, "longitude": 5.326981, "bronId": "SP00022775"}}, {"type": "Feature", "geometry": {"type": "Point", "coordinates": [5.343558, 51.97454]}, "properties": {"type": "inleverpunt", "locatieNaam": "1152 Albert Heijn Wijk bij Duurstede", "straatNaam": "Steenstraat", "straatNr": "5", "postcode": "3961 VM", "plaats": "Wijk bij Duurstede", "merk": "StichtingOPEN", "puntType": "balie", "materialen": ["batterijen", "elektro-klein", "lampen"], "uitbetaling": [], "vrijToegankelijk": false, "gemeenteBeperking": null, "openingstijden": null, "latitude": 51.97454, "longitude": 5.343558, "bronId": "SP00022776"}}, {"type": "Feature", "geometry": {"type": "Point", "coordinates": [5.34509, 51.972931]}, "properties": {"type": "inleverpunt", "locatieNaam": "Kruidvat Wijk bij Duurstede", "straatNaam": "Markt", "straatNr": "6", "postcode": "3961 BC", "plaats": "Wijk bij Duurstede", "merk": "StichtingOPEN", "puntType": "balie", "materialen": ["batterijen", "lampen"], "uitbetaling": [], "vrijToegankelijk": false, "gemeenteBeperking": null, "openingstijden": null, "latitude": 51.972931, "longitude": 5.34509, "bronId": "SP00024604"}}, {"type": "Feature", "geometry": {"type": "Point", "coordinates": [5.3406511, 51.9832396]}, "properties": {"type": "inleverpunt", "locatieNaam": "Jumbo", "straatNaam": "Langbroekseweg", "straatNr": "3A", "postcode": "3962 EH", "plaats": "Wijk bij Duurstede", "merk": "Stibat", "puntType": "inzamelbak", "materialen": ["batterijen"], "uitbetaling": [], "vrijToegankelijk": false, "gemeenteBeperking": null, "openingstijden": null, "latitude": 51.9832396, "longitude": 5.3406511, "bronId": "L006846"}}, {"type": "Feature", "geometry": {"type": "Point", "coordinates": [5.3409658, 51.983224]}, "properties": {"type": "inleverpunt", "locatieNaam": "Welkoop", "straatNaam": "Langbroekseweg", "straatNr": "3", "postcode": "3962 EH", "plaats": "Wijk bij Duurstede", "merk": "Stibat", "puntType": "inzamelbak", "materialen": ["batterijen"], "uitbetaling": [], "vrijToegankelijk": false, "gemeenteBeperking": null, "openingstijden": null, "latitude": 51.983224, "longitude": 5.3409658, "bronId": "L017803"}}, {"type": "Feature", "geometry": {"type": "Point", "coordinates": [5.339651, 51.9823208]}, "properties": {"type": "inleverpunt", "locatieNaam": "Beijer Tweewielers", "straatNaam": "v Lynden v Sandenburgweg", "straatNr": "1", "postcode": "3962 RB", "plaats": "Wijk bij Duurstede", "merk": "Stibat", "puntType": "inzamelbak", "materialen": ["batterijen"], "uitbetaling": [], "vrijToegankelijk": false, "gemeenteBeperking": null, "openingstijden": null, "latitude": 51.9823208, "longitude": 5.339651, "bronId": "L033289"}}, {"type": "Feature", "geometry": {"type": "Point", "coordinates": [5.3160772, 51.9739757]}, "properties": {"type": "inleverpunt", "locatieNaam": "Milieupark Wijk bij Duurstede", "straatNaam": "Vogelpoelweg", "straatNr": "20", "postcode": "3961 NL", "plaats": "Wyk By Duurstede", "merk": "Stibat", "puntType": "inzamelbak", "materialen": ["batterijen"], "uitbetaling": [], "vrijToegankelijk": false, "gemeenteBeperking": null, "openingstijden": null, "latitude": 51.9739757, "longitude": 5.3160772, "bronId": "L035704"}}, {"type": "Feature", "geometry": {"type": "Point", "coordinates": [5.3144375, 51.9737818]}, "properties": {"type": "inleverpunt", "locatieNaam": "Karwei", "straatNaam": "Hoge Maat", "straatNr": "6a", "postcode": "3961 NC", "plaats": "Wijk bij Duurstede", "merk": "Stibat", "puntType": "inzamelbak", "materialen": ["batterijen"], "uitbetaling": [], "vrijToegankelijk": false, "gemeenteBeperking": null, "openingstijden": null, "latitude": 51.9737818, "longitude": 5.3144375, "bronId": "L007453"}}, {"type": "Feature", "geometry": {"type": "Point", "coordinates": [5.3269811, 51.9735195]}, "properties": {"type": "inleverpunt", "locatieNaam": "1825 Albert Heijn", "straatNaam": "Sluishoofd", "straatNr": "2", "postcode": "3961 KW", "plaats": "Wijk bij Duurstede", "merk": "Stibat", "puntType": "inzamelbak", "materialen": ["batterijen"], "uitbetaling": [], "vrijToegankelijk": false, "gemeenteBeperking": null, "openingstijden": null, "latitude": 51.9735195, "longitude": 5.3269811, "bronId": "L022131"}}, {"type": "Feature", "geometry": {"type": "Point", "coordinates": [5.3168503, 51.9726362]}, "properties": {"type": "inleverpunt", "locatieNaam": "Lekkerkerker", "straatNaam": "Hoge Maat", "straatNr": "2", "postcode": "3961 NC", "plaats": "Wijk bij Duurstede", "merk": "Stibat", "puntType": "inzamelbak", "materialen": ["batterijen"], "uitbetaling": [], "vrijToegankelijk": false, "gemeenteBeperking": null, "openingstijden": null, "latitude": 51.9726362, "longitude": 5.3168503, "bronId": "L045240"}}, {"type": "Feature", "geometry": {"type": "Point", "coordinates": [5.3434547, 51.9746126]}, "properties": {"type": "inleverpunt", "locatieNaam": "1152 Albert Heijn", "straatNaam": "Steenstraat", "straatNr": "5", "postcode": "3961 VM", "plaats": "Wijk bij Duurstede", "merk": "Stibat", "puntType": "inzamelbak", "materialen": ["batterijen"], "uitbetaling": [], "vrijToegankelijk": false, "gemeenteBeperking": null, "openingstijden": null, "latitude": 51.9746126, "longitude": 5.3434547, "bronId": "L008135"}}, {"type": "Feature", "geometry": {"type": "Point", "coordinates": [5.346193, 51.974741]}, "properties": {"type": "inleverpunt", "locatieNaam": "Lidl", "straatNaam": "Hoogstraat", "straatNr": "14", "postcode": "3962 ES", "plaats": "Wijk bij Duurstede", "merk": "Stibat", "puntType": "inzamelbak", "materialen": ["batterijen"], "uitbetaling": [], "vrijToegankelijk": false, "gemeenteBeperking": null, "openingstijden": null, "latitude": 51.974741, "longitude": 5.346193, "bronId": "L017073"}}, {"type": "Feature", "geometry": {"type": "Point", "coordinates": [5.3446166, 51.9744165]}, "properties": {"type": "inleverpunt", "locatieNaam": "Fietsdomein", "straatNaam": "Zandweg", "straatNr": "4", "postcode": "3962 EC", "plaats": "Wijk bij Duurstede", "merk": "Stibat", "puntType": "inzamelbak", "materialen": ["batterijen"], "uitbetaling": [], "vrijToegankelijk": false, "gemeenteBeperking": null, "openingstijden": null, "latitude": 51.9744165, "longitude": 5.3446166, "bronId": "L033288"}}, {"type": "Feature", "geometry": {"type": "Point", "coordinates": [5.3440105, 51.974183]}, "properties": {"type": "inleverpunt", "locatieNaam": "Zeeman", "straatNaam": "van Egmondplein", "straatNr": "24", "postcode": "3961 CZ", "plaats": "Wijk bij Duurstede", "merk": "Stibat", "puntType": "inzamelbak", "materialen": ["batterijen"], "uitbetaling": [], "vrijToegankelijk": false, "gemeenteBeperking": null, "openingstijden": null, "latitude": 51.974183, "longitude": 5.3440105, "bronId": "L030061"}}, {"type": "Feature", "geometry": {"type": "Point", "coordinates": [5.3453375, 51.9733965]}, "properties": {"type": "inleverpunt", "locatieNaam": "Intertoys", "straatNaam": "Veldpoortstraat", "straatNr": "2", "postcode": "3961 BL", "plaats": "Wijk bij Duurstede", "merk": "Stibat", "puntType": "inzamelbak", "materialen": ["batterijen"], "uitbetaling": [], "vrijToegankelijk": false, "gemeenteBeperking": null, "openingstijden": null, "latitude": 51.9733965, "longitude": 5.3453375, "bronId": "L005933"}}, {"type": "Feature", "geometry": {"type": "Point", "coordinates": [5.3450346, 51.9729386]}, "properties": {"type": "inleverpunt", "locatieNaam": "Kruidvat", "straatNaam": "Markt", "straatNr": "6", "postcode": "3961 BC", "plaats": "Wyk By Duurstede", "merk": "Stibat", "puntType": "inzamelbak", "materialen": ["batterijen"], "uitbetaling": [], "vrijToegankelijk": false, "gemeenteBeperking": null, "openingstijden": null, "latitude": 51.9729386, "longitude": 5.3450346, "bronId": "L015688"}}, {"type": "Feature", "geometry": {"type": "Point", "coordinates": [5.3464122, 51.9730454]}, "properties": {"type": "inleverpunt", "locatieNaam": "HEMA Klooster Leuterstraat", "straatNaam": "Klooster Leuterstraat", "straatNr": "17", "postcode": "3961 AX", "plaats": "Wijk bij Duurstede", "merk": "Stibat", "puntType": "inzamelbak", "materialen": ["batterijen"], "uitbetaling": [], "vrijToegankelijk": false, "gemeenteBeperking": null, "openingstijden": null, "latitude": 51.9730454, "longitude": 5.3464122, "bronId": "L007541"}}, {"type": "Feature", "geometry": {"type": "Point", "coordinates": [5.3447808, 51.9725652]}, "properties": {"type": "inleverpunt", "locatieNaam": "DA", "straatNaam": "Markt", "straatNr": "11", "postcode": "3961 BC", "plaats": "Wijk bij Duurstede", "merk": "Stibat", "puntType": "inzamelbak", "materialen": ["batterijen"], "uitbetaling": [], "vrijToegankelijk": false, "gemeenteBeperking": null, "openingstijden": null, "latitude": 51.9725652, "longitude": 5.3447808, "bronId": "L022547"}}, {"type": "Feature", "geometry": {"type": "Point", "coordinates": [5.3466582, 51.9725924]}, "properties": {"type": "inleverpunt", "locatieNaam": "Schoonenberg Hoorcomfort", "straatNaam": "Klooster Leuterstraat", "straatNr": "22-A", "postcode": "3961 AZ", "plaats": "Wyk By Duurstede", "merk": "Stibat", "puntType": "inzamelbak", "materialen": ["batterijen"], "uitbetaling": [], "vrijToegankelijk": false, "gemeenteBeperking": null, "openingstijden": null, "latitude": 51.9725924, "longitude": 5.3466582, "bronId": "L038976"}}, {"type": "Feature", "geometry": {"type": "Polygon", "coordinates": [[[5.347095001667734, 51.96699700389136], [5.3523340016730945, 51.969482003892864], [5.358771001679616, 51.97082500389362], [5.364371001685248, 51.970874003893584], [5.373310001694175, 51.9694840038926], [5.37931200170019, 51.96910800389227], [5.3853960017063205, 51.96956300389248], [5.390976001711975, 51.97073000389315], [5.390517001711531, 51.97124800389346], [5.3926480017137015, 51.97197200389388], [5.391774001712848, 51.972657003894305], [5.392010001713118, 51.97340300389479], [5.393429001714574, 51.97419500389527], [5.394951001716112, 51.97444200389541], [5.394165001715382, 51.97593400389633], [5.389375001710586, 51.97638800389669], [5.38759100170879, 51.976309003896674], [5.3783940016999345, 51.986119003902914], [5.39942200172113, 51.987948003903796], [5.415277001737394, 51.99670200390902], [5.398906001721194, 52.00292300391316], [5.381554001703738, 52.0021660039129], [5.350260001672858, 52.016037003921966], [5.348234001670871, 52.01722800392275], [5.346563001669264, 52.019016003923895], [5.344292001667032, 52.020194003924644], [5.341033001663763, 52.02029700392474], [5.323985001646745, 52.02282500392654], [5.314649001637541, 52.02700100392925], [5.291220001613257, 52.008354003917916], [5.287996001610081, 52.009922003918945], [5.279910001601994, 52.010722003919525], [5.278653001600675, 52.00938200391871], [5.280153001602164, 52.008911003918406], [5.278447001600434, 52.00851200391818], [5.277288001599245, 52.00785600391777], [5.275702001597565, 52.005720003916494], [5.275807001597536, 52.002483003914456], [5.277587001599261, 52.000954003913485], [5.277543001599185, 52.00014300391299], [5.274583001596144, 51.99845700391192], [5.27289400159444, 51.998303003911886], [5.2721950015937145, 51.99774800391157], [5.271575001593093, 51.99777900391159], [5.2673670015889185, 51.999080003912404], [5.266333001587931, 52.0002970039132], [5.266169001587875, 52.00301700391488], [5.264736001586445, 52.00322000391502], [5.2595630015811565, 52.0009990039137], [5.25635800157793, 52.00083400391365], [5.254823001576369, 52.00036500391337], [5.242355001563773, 51.998662003912415], [5.24401800156543, 51.99835100391219], [5.24346600156484, 51.9974940039117], [5.2456220015669555, 51.996268003910906], [5.245385001566708, 51.99598400391072], [5.248892001570189, 51.99495600391007], [5.250355001571657, 51.99495800391002], [5.256205001577484, 51.99372400390921], [5.253325001574533, 51.99233500390837], [5.253847001574994, 51.99070600390737], [5.254141001575097, 51.98607100390444], [5.271447001592286, 51.98113400390115], [5.267946001588653, 51.97833000389949], [5.266048001586639, 51.97580700389789], [5.256266001576612, 51.97093900389498], [5.262104001582367, 51.96820600389318], [5.2689220015891225, 51.965862003891644], [5.273710001593881, 51.96454200389076], [5.280967001601129, 51.96337400388995], [5.2878720016080365, 51.9626060038894], [5.296649001616841, 51.96214900388899], [5.300894001621083, 51.961569003888584], [5.304594001624751, 51.96027900388772], [5.310976001631042, 51.957209003885716], [5.310768001630827, 51.95705000388561], [5.314857001634879, 51.955620003884675], [5.3183220016383395, 51.95501900388423], [5.321611001641638, 51.95491900388414], [5.32907500164919, 51.9561400038848], [5.335221001655443, 51.95804400388592], [5.3383190016586335, 51.95995000388709], [5.347095001667734, 51.96699700389136]]]}, "properties": {"type": "boundary", "gemeente": "Wijk bij Duurstede"}}]}