{"type": "FeatureCollection", "metadata": {"gemeente": "Woerden", "slug": "woerden", "generated_at": "2026-07-28T19:03:25.026558Z", "total_points": 106, "merken": ["StatiegeldNederland", "Stibat", "StichtingOPEN"], "bounds": [4.836201, 52.0744295, 5.003301, 52.157275]}, "features": [{"type": "Feature", "geometry": {"type": "Point", "coordinates": [4.8855229, 52.0849668]}, "properties": {"type": "inleverpunt", "locatieNaam": "Albert Heijn", "straatNaam": "Wagenstraat", "straatNr": "24", "postcode": "3441 BM", "plaats": "Woerden", "merk": "StatiegeldNederland", "puntType": "automaat", "materialen": ["pet-groot", "pet-klein", "blik", "glas", "krat"], "uitbetaling": ["bonnetje", "donatie"], "vrijToegankelijk": true, "gemeenteBeperking": null, "openingstijden": {"ma": "08:00–22:00", "di": "08:00–22:00", "wo": "08:00–22:00", "do": "08:00–22:00", "vr": "08:00–22:00", "za": "08:00–22:00", "zo": "09:00–21:00"}, "latitude": 52.0849668, "longitude": 4.8855229, "bronId": "252892"}}, {"type": "Feature", "geometry": {"type": "Point", "coordinates": [4.9021718, 52.0900365]}, "properties": {"type": "inleverpunt", "locatieNaam": "Aldi", "straatNaam": "Frederik Hendriklaan", "straatNr": "30", "postcode": "3445 XN", "plaats": "Woerden", "merk": "StatiegeldNederland", "puntType": "automaat", "materialen": ["pet-groot", "pet-klein", "blik", "glas", "krat"], "uitbetaling": ["bonnetje"], "vrijToegankelijk": true, "gemeenteBeperking": null, "openingstijden": {"ma": "08:00–19:00", "di": "08:00–19:00", "wo": "08:00–19:00", "do": "08:00–19:00", "vr": "08:00–19:00", "za": "08:00–18:00", "zo": "Gesloten"}, "latitude": 52.0900365, "longitude": 4.9021718, "bronId": "253110"}}, {"type": "Feature", "geometry": {"type": "Point", "coordinates": [4.8834591, 52.0804087]}, "properties": {"type": "inleverpunt", "locatieNaam": "Aldi", "straatNaam": "Industrieweg", "straatNr": "2", "postcode": "3442 AE", "plaats": "Woerden", "merk": "StatiegeldNederland", "puntType": "automaat", "materialen": ["pet-groot", "pet-klein", "blik", "glas", "krat"], "uitbetaling": ["bonnetje"], "vrijToegankelijk": true, "gemeenteBeperking": null, "openingstijden": {"ma": "08:00–20:00", "di": "08:00–20:00", "wo": "08:00–20:00", "do": "08:00–20:00", "vr": "08:00–20:00", "za": "08:00–18:00", "zo": "10:00–17:00"}, "latitude": 52.0804087, "longitude": 4.8834591, "bronId": "253175"}}, {"type": "Feature", "geometry": {"type": "Point", "coordinates": [4.9013505, 52.0758432]}, "properties": {"type": "inleverpunt", "locatieNaam": "Divers Woerden", "straatNaam": "Europabaan", "straatNr": "2", "postcode": "3446 CE", "plaats": "Woerden", "merk": "StatiegeldNederland", "puntType": "automaat", "materialen": ["pet-groot", "pet-klein", "blik"], "uitbetaling": ["bonnetje", "donatie", "tikkie"], "vrijToegankelijk": true, "gemeenteBeperking": null, "openingstijden": {"ma": "10:00–20:00", "di": "10:00–20:00", "wo": "10:00–20:00", "do": "10:00–20:00", "vr": "10:00–20:00", "za": "10:00–20:00", "zo": "10:00–20:00"}, "latitude": 52.0758432, "longitude": 4.9013505, "bronId": "254578"}}, {"type": "Feature", "geometry": {"type": "Point", "coordinates": [4.8363056, 52.1154856]}, "properties": {"type": "inleverpunt", "locatieNaam": "Gewoon Coop", "straatNaam": "Middenweg", "straatNr": "1", "postcode": "3474 KC", "plaats": "Zegveld", "merk": "StatiegeldNederland", "puntType": "automaat", "materialen": ["pet-groot", "pet-klein", "blik", "glas", "krat"], "uitbetaling": ["bonnetje", "donatie"], "vrijToegankelijk": true, "gemeenteBeperking": null, "openingstijden": {"ma": "07:00–20:00", "di": "07:00–20:00", "wo": "07:00–20:00", "do": "07:00–20:00", "vr": "07:00–20:00", "za": "07:00–20:00", "zo": "10:00–17:00"}, "latitude": 52.1154856, "longitude": 4.8363056, "bronId": "254846"}}, {"type": "Feature", "geometry": {"type": "Point", "coordinates": [4.9047233, 52.0861874]}, "properties": {"type": "inleverpunt", "locatieNaam": "Jumbo", "straatNaam": "La Fontaineplein", "straatNr": "19", "postcode": "3446 BX", "plaats": "Woerden", "merk": "StatiegeldNederland", "puntType": "automaat", "materialen": ["pet-groot", "pet-klein", "blik", "glas", "krat"], "uitbetaling": ["bonnetje", "donatie"], "vrijToegankelijk": true, "gemeenteBeperking": null, "openingstijden": {"ma": "07:00–22:00", "di": "07:00–22:00", "wo": "07:00–22:00", "do": "07:00–22:00", "vr": "07:00–22:00", "za": "07:00–22:00", "zo": "09:00–21:00"}, "latitude": 52.0861874, "longitude": 4.9047233, "bronId": "255514"}}, {"type": "Feature", "geometry": {"type": "Point", "coordinates": [4.863341, 52.077242]}, "properties": {"type": "inleverpunt", "locatieNaam": "Jumbo", "straatNaam": "Molenvlietbrink", "straatNr": "18", "postcode": "3448 HM", "plaats": "Woerden", "merk": "StatiegeldNederland", "puntType": "automaat", "materialen": ["pet-groot", "pet-klein", "blik", "glas", "krat"], "uitbetaling": ["bonnetje", "donatie"], "vrijToegankelijk": true, "gemeenteBeperking": null, "openingstijden": {"ma": "07:00–21:00", "di": "07:00–21:00", "wo": "07:00–21:00", "do": "07:00–21:00", "vr": "07:00–21:00", "za": "07:00–21:00", "zo": "09:00–21:00"}, "latitude": 52.077242, "longitude": 4.863341, "bronId": "255601"}}, {"type": "Feature", "geometry": {"type": "Point", "coordinates": [4.870138, 52.088354]}, "properties": {"type": "inleverpunt", "locatieNaam": "Jumbo", "straatNaam": "Tournoysveld", "straatNr": "92", "postcode": "3443 EW", "plaats": "Woerden", "merk": "StatiegeldNederland", "puntType": "automaat", "materialen": ["pet-groot", "pet-klein", "blik", "glas", "krat"], "uitbetaling": ["bonnetje", "donatie"], "vrijToegankelijk": true, "gemeenteBeperking": null, "openingstijden": {"ma": "07:00–21:00", "di": "07:00–21:00", "wo": "07:00–21:00", "do": "07:00–21:00", "vr": "07:00–21:00", "za": "07:00–21:00", "zo": "09:00–21:00"}, "latitude": 52.088354, "longitude": 4.870138, "bronId": "255800"}}, {"type": "Feature", "geometry": {"type": "Point", "coordinates": [4.9747145, 52.0946108]}, "properties": {"type": "inleverpunt", "locatieNaam": "Korfbalvereniging Thor", "straatNaam": "Sportlaan", "straatNr": "1A", "postcode": "3481 JD", "plaats": "Harmelen", "merk": "StatiegeldNederland", "puntType": "balie", "materialen": ["pet-groot", "pet-klein", "blik"], "uitbetaling": [], "vrijToegankelijk": false, "gemeenteBeperking": null, "openingstijden": null, "latitude": 52.0946108, "longitude": 4.9747145, "bronId": "255949"}}, {"type": "Feature", "geometry": {"type": "Point", "coordinates": [4.8765714, 52.0815618]}, "properties": {"type": "inleverpunt", "locatieNaam": "Lidl", "straatNaam": "Iepenlaan 1 A", "straatNr": "", "postcode": "3442 EK", "plaats": "Woerden", "merk": "StatiegeldNederland", "puntType": "automaat", "materialen": ["pet-groot", "pet-klein", "blik", "glas", "krat"], "uitbetaling": ["bonnetje", "donatie"], "vrijToegankelijk": true, "gemeenteBeperking": null, "openingstijden": {"ma": "07:00–22:00", "di": "07:00–22:00", "wo": "07:00–22:00", "do": "07:00–22:00", "vr": "07:00–22:00", "za": "07:00–22:00", "zo": "09:00–21:00"}, "latitude": 52.0815618, "longitude": 4.8765714, "bronId": "256207"}}, {"type": "Feature", "geometry": {"type": "Point", "coordinates": [4.9640075, 52.0838518]}, "properties": {"type": "inleverpunt", "locatieNaam": "Ltv Triaq", "straatNaam": "Albanusweg", "straatNr": "9", "postcode": "3453 HA", "plaats": "De Meern", "merk": "StatiegeldNederland", "puntType": "balie", "materialen": ["pet-groot", "pet-klein", "blik"], "uitbetaling": [], "vrijToegankelijk": false, "gemeenteBeperking": null, "openingstijden": {"ma": "09:00–22:00", "di": "09:00–22:00", "wo": "09:00–22:00", "do": "09:00–22:00", "vr": "09:00–22:00", "za": "09:00–22:00", "zo": "09:00–22:00"}, "latitude": 52.0838518, "longitude": 4.9640075, "bronId": "256511"}}, {"type": "Feature", "geometry": {"type": "Point", "coordinates": [4.894757, 52.0796862]}, "properties": {"type": "inleverpunt", "locatieNaam": "Markies 60009 Mbo Rijnland P", "straatNaam": "Polanerbaan", "straatNr": "15", "postcode": "3447 GN", "plaats": "Woerden", "merk": "StatiegeldNederland", "puntType": "balie", "materialen": ["pet-groot", "pet-klein", "blik"], "uitbetaling": [], "vrijToegankelijk": true, "gemeenteBeperking": null, "openingstijden": {"ma": "07:30–17:30", "di": "07:30–18:00", "wo": "07:30–17:30", "do": "07:30–17:30", "vr": "07:30–17:30", "za": "Gesloten", "zo": "Gesloten"}, "latitude": 52.0796862, "longitude": 4.894757, "bronId": "256636"}}, {"type": "Feature", "geometry": {"type": "Point", "coordinates": [4.8961027, 52.0846275]}, "properties": {"type": "inleverpunt", "locatieNaam": "Markies 60137 Minkemalaan 1", "straatNaam": "Minkemalaan", "straatNr": "1", "postcode": "3446 GL", "plaats": "Woerden", "merk": "StatiegeldNederland", "puntType": "balie", "materialen": ["pet-groot", "pet-klein", "blik"], "uitbetaling": [], "vrijToegankelijk": true, "gemeenteBeperking": null, "openingstijden": {"ma": "08:00–17:00", "di": "08:00–17:00", "wo": "08:00–17:00", "do": "08:00–17:00", "vr": "08:00–17:00", "za": "Gesloten", "zo": "Gesloten"}, "latitude": 52.0846275, "longitude": 4.8961027, "bronId": "256666"}}, {"type": "Feature", "geometry": {"type": "Point", "coordinates": [4.9050776, 52.0867987]}, "properties": {"type": "inleverpunt", "locatieNaam": "Markies 60138 Steinhagensewe", "straatNaam": "Steinhagenseweg", "straatNr": "3A", "postcode": "3446 GP", "plaats": "Woerden", "merk": "StatiegeldNederland", "puntType": "balie", "materialen": ["pet-groot", "pet-klein", "blik"], "uitbetaling": [], "vrijToegankelijk": true, "gemeenteBeperking": null, "openingstijden": {"ma": "08:00–17:00", "di": "08:00–17:00", "wo": "08:00–17:00", "do": "08:00–17:00", "vr": "08:00–17:00", "za": "Gesloten", "zo": "Gesloten"}, "latitude": 52.0867987, "longitude": 4.9050776, "bronId": "256667"}}, {"type": "Feature", "geometry": {"type": "Point", "coordinates": [4.9636353, 52.0903026]}, "properties": {"type": "inleverpunt", "locatieNaam": "Nettorama", "straatNaam": "Kerkweg", "straatNr": "9", "postcode": "3481 CP", "plaats": "Harmelen", "merk": "StatiegeldNederland", "puntType": "automaat", "materialen": ["pet-groot", "pet-klein", "blik", "glas", "krat"], "uitbetaling": ["bonnetje"], "vrijToegankelijk": true, "gemeenteBeperking": null, "openingstijden": {"ma": "08:00–21:00", "di": "08:00–21:00", "wo": "08:00–21:00", "do": "08:00–21:00", "vr": "08:00–21:00", "za": "08:00–21:00", "zo": "10:00–18:00"}, "latitude": 52.0903026, "longitude": 4.9636353, "bronId": "256877"}}, {"type": "Feature", "geometry": {"type": "Point", "coordinates": [4.8838074, 52.0877408]}, "properties": {"type": "inleverpunt", "locatieNaam": "Odin Woerden", "straatNaam": "Nieuwstraat", "straatNr": "3", "postcode": "3441 EA", "plaats": "Woerden", "merk": "StatiegeldNederland", "puntType": "balie", "materialen": ["pet-groot", "pet-klein", "blik"], "uitbetaling": [], "vrijToegankelijk": true, "gemeenteBeperking": null, "openingstijden": {"ma": "09:00–18:00", "di": "09:00–18:00", "wo": "09:00–18:00", "do": "09:00–18:00", "vr": "09:00–18:00", "za": "09:00–18:00", "zo": "Gesloten"}, "latitude": 52.0877408, "longitude": 4.8838074, "bronId": "256987"}}, {"type": "Feature", "geometry": {"type": "Point", "coordinates": [4.9579279, 52.0907711]}, "properties": {"type": "inleverpunt", "locatieNaam": "Plus", "straatNaam": "Dorpsstraat", "straatNr": "152", "postcode": "3481 ER", "plaats": "Harmelen", "merk": "StatiegeldNederland", "puntType": "automaat", "materialen": ["pet-groot", "pet-klein", "blik", "glas", "krat"], "uitbetaling": ["bonnetje", "donatie"], "vrijToegankelijk": true, "gemeenteBeperking": null, "openingstijden": {"ma": "08:00–20:00", "di": "08:00–20:00", "wo": "08:00–20:00", "do": "08:00–20:00", "vr": "08:00–20:00", "za": "08:00–20:00", "zo": "10:00–18:00"}, "latitude": 52.0907711, "longitude": 4.9579279, "bronId": "257286"}}, {"type": "Feature", "geometry": {"type": "Point", "coordinates": [4.892925, 52.11174]}, "properties": {"type": "inleverpunt", "locatieNaam": "Plus", "straatNaam": "Hallehuis", "straatNr": "1A", "postcode": "3471 EC", "plaats": "Kamerik", "merk": "StatiegeldNederland", "puntType": "automaat", "materialen": ["pet-groot", "pet-klein", "blik", "glas", "krat"], "uitbetaling": ["bonnetje"], "vrijToegankelijk": true, "gemeenteBeperking": null, "openingstijden": {"ma": "08:00–20:00", "di": "08:00–20:00", "wo": "08:00–20:00", "do": "08:00–20:00", "vr": "08:00–20:00", "za": "08:00–18:00", "zo": "Gesloten"}, "latitude": 52.11174, "longitude": 4.892925, "bronId": "257325"}}, {"type": "Feature", "geometry": {"type": "Point", "coordinates": [4.98429, 52.0812243]}, "properties": {"type": "inleverpunt", "locatieNaam": "Shell", "straatNaam": "Rijksweg A12/E30 NZ", "straatNr": "", "postcode": "3481 CV", "plaats": "Harmelen", "merk": "StatiegeldNederland", "puntType": "balie", "materialen": ["pet-groot", "pet-klein", "blik"], "uitbetaling": [], "vrijToegankelijk": true, "gemeenteBeperking": null, "openingstijden": {"ma": "24 uur geopend", "di": "24 uur geopend", "wo": "24 uur geopend", "do": "24 uur geopend", "vr": "24 uur geopend", "za": "24 uur geopend", "zo": "24 uur geopend"}, "latitude": 52.0812243, "longitude": 4.98429, "bronId": "258178"}}, {"type": "Feature", "geometry": {"type": "Point", "coordinates": [5.003301, 52.082081]}, "properties": {"type": "inleverpunt", "locatieNaam": "Shell", "straatNaam": "Veldhuizerweg", "straatNr": "2", "postcode": "3400 QQ", "plaats": "Harmelen", "merk": "StatiegeldNederland", "puntType": "balie", "materialen": ["pet-groot", "pet-klein", "blik"], "uitbetaling": [], "vrijToegankelijk": true, "gemeenteBeperking": null, "openingstijden": {"ma": "07:00–21:00", "di": "07:00–21:00", "wo": "07:00–21:00", "do": "07:00–21:00", "vr": "07:00–21:00", "za": "08:00–21:00", "zo": "09:00–21:00"}, "latitude": 52.082081, "longitude": 5.003301, "bronId": "258243"}}, {"type": "Feature", "geometry": {"type": "Point", "coordinates": [4.9095435, 52.0908305]}, "properties": {"type": "inleverpunt", "locatieNaam": "Tennisvereniging Vep", "straatNaam": "Talmalanen", "straatNr": "47B", "postcode": "3445 TJ", "plaats": "Woerden", "merk": "StatiegeldNederland", "puntType": "balie", "materialen": ["pet-groot", "pet-klein", "blik"], "uitbetaling": [], "vrijToegankelijk": false, "gemeenteBeperking": null, "openingstijden": {"ma": "09:00–23:30", "di": "09:00–23:30", "wo": "09:00–23:30", "do": "09:00–23:30", "vr": "09:00–23:30", "za": "09:00–23:30", "zo": "09:00–23:30"}, "latitude": 52.0908305, "longitude": 4.9095435, "bronId": "258950"}}, {"type": "Feature", "geometry": {"type": "Point", "coordinates": [4.8743399, 52.0744295]}, "properties": {"type": "inleverpunt", "locatieNaam": "Vvvep", "straatNaam": "Waardsedijk", "straatNr": "25", "postcode": "3448 HV", "plaats": "Woerden", "merk": "StatiegeldNederland", "puntType": "balie", "materialen": ["pet-groot", "pet-klein", "blik"], "uitbetaling": [], "vrijToegankelijk": false, "gemeenteBeperking": null, "openingstijden": {"ma": "09:00–23:00", "di": "09:00–23:00", "wo": "09:00–23:00", "do": "09:00–23:00", "vr": "09:00–23:00", "za": "09:00–23:00", "zo": "09:00–23:00"}, "latitude": 52.0744295, "longitude": 4.8743399, "bronId": "259835"}}, {"type": "Feature", "geometry": {"type": "Point", "coordinates": [4.96367, 52.090189]}, "properties": {"type": "inleverpunt", "locatieNaam": "PLUS Harmelen", "straatNaam": "Kerkweg", "straatNr": "911", "postcode": "3481 CP", "plaats": "Harmelen", "merk": "StichtingOPEN", "puntType": "balie", "materialen": ["batterijen", "lampen"], "uitbetaling": [], "vrijToegankelijk": false, "gemeenteBeperking": null, "openingstijden": null, "latitude": 52.090189, "longitude": 4.96367, "bronId": "SP00024089"}}, {"type": "Feature", "geometry": {"type": "Point", "coordinates": [4.944275, 52.098486]}, "properties": {"type": "inleverpunt", "locatieNaam": "Harmelen Welkoop", "straatNaam": "Leidsestraatweg", "straatNr": "26", "postcode": "3481 EX", "plaats": "Harmelen", "merk": "StichtingOPEN", "puntType": "balie", "materialen": ["elektro-middel", "lampen", "tl-buizen"], "uitbetaling": [], "vrijToegankelijk": false, "gemeenteBeperking": null, "openingstijden": null, "latitude": 52.098486, "longitude": 4.944275, "bronId": "SP00006763"}}, {"type": "Feature", "geometry": {"type": "Point", "coordinates": [4.906283, 52.077778]}, "properties": {"type": "inleverpunt", "locatieNaam": "Praxis Woerden - 2067", "straatNaam": "Finse Golf", "straatNr": "10A", "postcode": "3446 CK", "plaats": "Woerden", "merk": "StichtingOPEN", "puntType": "balie", "materialen": ["elektro-klein", "lampen", "tl-buizen"], "uitbetaling": [], "vrijToegankelijk": false, "gemeenteBeperking": null, "openingstijden": null, "latitude": 52.077778, "longitude": 4.906283, "bronId": "SP00003273"}}, {"type": "Feature", "geometry": {"type": "Point", "coordinates": [4.904883, 52.086161]}, "properties": {"type": "inleverpunt", "locatieNaam": "Jumbo Woerden", "straatNaam": "La Fontaineplein", "straatNr": "19", "postcode": "3446 BX", "plaats": "Woerden", "merk": "StichtingOPEN", "puntType": "balie", "materialen": ["batterijen", "lampen"], "uitbetaling": [], "vrijToegankelijk": false, "gemeenteBeperking": null, "openingstijden": null, "latitude": 52.086161, "longitude": 4.904883, "bronId": "SP00025221"}}, {"type": "Feature", "geometry": {"type": "Point", "coordinates": [4.90486, 52.08602]}, "properties": {"type": "inleverpunt", "locatieNaam": "Kruidvat Woerden", "straatNaam": "La Fontaineplein", "straatNr": "20", "postcode": "3446 BX", "plaats": "Woerden", "merk": "StichtingOPEN", "puntType": "balie", "materialen": ["batterijen", "lampen"], "uitbetaling": [], "vrijToegankelijk": false, "gemeenteBeperking": null, "openingstijden": null, "latitude": 52.08602, "longitude": 4.90486, "bronId": "SP00029595"}}, {"type": "Feature", "geometry": {"type": "Point", "coordinates": [4.905649, 52.077716]}, "properties": {"type": "inleverpunt", "locatieNaam": "Leen Bakker", "straatNaam": "Finse golf", "straatNr": "4", "postcode": "3446 CK", "plaats": "Woerden", "merk": "StichtingOPEN", "puntType": "balie", "materialen": ["elektro-middel", "lampen"], "uitbetaling": [], "vrijToegankelijk": false, "gemeenteBeperking": null, "openingstijden": null, "latitude": 52.077716, "longitude": 4.905649, "bronId": "SP00006088"}}, {"type": "Feature", "geometry": {"type": "Point", "coordinates": [4.902171, 52.090036]}, "properties": {"type": "inleverpunt", "locatieNaam": "Aldi Woerden", "straatNaam": "Frederik Hendriklaan", "straatNr": "30", "postcode": "3445 XN", "plaats": "Woerden", "merk": "StichtingOPEN", "puntType": "balie", "materialen": ["batterijen", "elektro-klein", "lampen"], "uitbetaling": [], "vrijToegankelijk": false, "gemeenteBeperking": null, "openingstijden": null, "latitude": 52.090036, "longitude": 4.902171, "bronId": "SP00027251"}}, {"type": "Feature", "geometry": {"type": "Point", "coordinates": [4.893381, 52.111457]}, "properties": {"type": "inleverpunt", "locatieNaam": "Plus Kamerik", "straatNaam": "Hallehuis", "straatNr": "1", "postcode": "3471 EC", "plaats": "Kamerik", "merk": "StichtingOPEN", "puntType": "balie", "materialen": ["batterijen", "lampen"], "uitbetaling": [], "vrijToegankelijk": false, "gemeenteBeperking": null, "openingstijden": null, "latitude": 52.111457, "longitude": 4.893381, "bronId": "SP00027271"}}, {"type": "Feature", "geometry": {"type": "Point", "coordinates": [4.88571, 52.08609]}, "properties": {"type": "inleverpunt", "locatieNaam": "Kruidvat Woerden", "straatNaam": "Voorstraat", "straatNr": "48", "postcode": "3441 CN", "plaats": "Woerden", "merk": "StichtingOPEN", "puntType": "balie", "materialen": ["batterijen", "lampen"], "uitbetaling": [], "vrijToegankelijk": false, "gemeenteBeperking": null, "openingstijden": null, "latitude": 52.08609, "longitude": 4.88571, "bronId": "SP00029799"}}, {"type": "Feature", "geometry": {"type": "Point", "coordinates": [4.885467, 52.084823]}, "properties": {"type": "inleverpunt", "locatieNaam": "1439 Albert Heijn Woerden", "straatNaam": "Wagenstraat", "straatNr": "24", "postcode": "3441 BM", "plaats": "Woerden", "merk": "StichtingOPEN", "puntType": "balie", "materialen": ["batterijen", "elektro-klein", "lampen"], "uitbetaling": [], "vrijToegankelijk": false, "gemeenteBeperking": null, "openingstijden": null, "latitude": 52.084823, "longitude": 4.885467, "bronId": "SP00022865"}}, {"type": "Feature", "geometry": {"type": "Point", "coordinates": [4.884661, 52.085255]}, "properties": {"type": "inleverpunt", "locatieNaam": "Allvision Digital Home Center", "straatNaam": "Havenstraat", "straatNr": "26", "postcode": "3441 BK", "plaats": "Woerden", "merk": "StichtingOPEN", "puntType": "balie", "materialen": ["elektro-groot", "elektro-klein", "elektro-middel"], "uitbetaling": [], "vrijToegankelijk": false, "gemeenteBeperking": null, "openingstijden": null, "latitude": 52.085255, "longitude": 4.884661, "bronId": "SP00021371"}}, {"type": "Feature", "geometry": {"type": "Point", "coordinates": [4.883288, 52.086921]}, "properties": {"type": "inleverpunt", "locatieNaam": "Expert Woerden", "straatNaam": "Meulmansweg", "straatNr": "23", "postcode": "3441 AT", "plaats": "Woerden", "merk": "StichtingOPEN", "puntType": "balie", "materialen": ["elektro-middel", "lampen"], "uitbetaling": [], "vrijToegankelijk": false, "gemeenteBeperking": null, "openingstijden": null, "latitude": 52.086921, "longitude": 4.883288, "bronId": "SP00001253"}}, {"type": "Feature", "geometry": {"type": "Point", "coordinates": [4.882621, 52.085738]}, "properties": {"type": "inleverpunt", "locatieNaam": "Kruidvat Woerden", "straatNaam": "Groenendaal", "straatNr": "34", "postcode": "3441 BD", "plaats": "Woerden", "merk": "StichtingOPEN", "puntType": "balie", "materialen": ["batterijen", "lampen"], "uitbetaling": [], "vrijToegankelijk": false, "gemeenteBeperking": null, "openingstijden": null, "latitude": 52.085738, "longitude": 4.882621, "bronId": "SP00024656"}}, {"type": "Feature", "geometry": {"type": "Point", "coordinates": [4.882621, 52.08568]}, "properties": {"type": "inleverpunt", "locatieNaam": "Xenos Woerden", "straatNaam": "Groenendaal", "straatNr": "36", "postcode": "3441 BD", "plaats": "Woerden", "merk": "StichtingOPEN", "puntType": "balie", "materialen": ["batterijen", "lampen"], "uitbetaling": [], "vrijToegankelijk": false, "gemeenteBeperking": null, "openingstijden": null, "latitude": 52.08568, "longitude": 4.882621, "bronId": "SP00025707"}}, {"type": "Feature", "geometry": {"type": "Point", "coordinates": [4.87653, 52.08167]}, "properties": {"type": "inleverpunt", "locatieNaam": "Lidl Woerden", "straatNaam": "Iepenlaan", "straatNr": "1a", "postcode": "3442 EK", "plaats": "Woerden", "merk": "StichtingOPEN", "puntType": "balie", "materialen": ["batterijen", "lampen"], "uitbetaling": [], "vrijToegankelijk": false, "gemeenteBeperking": null, "openingstijden": null, "latitude": 52.08167, "longitude": 4.87653, "bronId": "SP00029989"}}, {"type": "Feature", "geometry": {"type": "Point", "coordinates": [4.870834, 52.088097]}, "properties": {"type": "inleverpunt", "locatieNaam": "Jumbo Woerden", "straatNaam": "Tournoysveld 11 -", "straatNr": "13", "postcode": "3443 EW", "plaats": "Woerden", "merk": "StichtingOPEN", "puntType": "balie", "materialen": ["batterijen", "lampen"], "uitbetaling": [], "vrijToegankelijk": false, "gemeenteBeperking": null, "openingstijden": null, "latitude": 52.088097, "longitude": 4.870834, "bronId": "SP00025477"}}, {"type": "Feature", "geometry": {"type": "Point", "coordinates": [4.87051, 52.08825]}, "properties": {"type": "inleverpunt", "locatieNaam": "Action Woerden", "straatNaam": "Tournoysveld", "straatNr": "81-95", "postcode": "3443 ES", "plaats": "Woerden", "merk": "StichtingOPEN", "puntType": "balie", "materialen": ["batterijen", "lampen"], "uitbetaling": [], "vrijToegankelijk": false, "gemeenteBeperking": null, "openingstijden": null, "latitude": 52.08825, "longitude": 4.87051, "bronId": "SP00029868"}}, {"type": "Feature", "geometry": {"type": "Point", "coordinates": [4.867683, 52.082699]}, "properties": {"type": "inleverpunt", "locatieNaam": "GAMMA Woerden", "straatNaam": "Molenvlietbaan", "straatNr": "8", "postcode": "3448 DC", "plaats": "Woerden", "merk": "StichtingOPEN", "puntType": "balie", "materialen": ["batterijen", "elektro-klein", "lampen", "tl-buizen"], "uitbetaling": [], "vrijToegankelijk": false, "gemeenteBeperking": null, "openingstijden": null, "latitude": 52.082699, "longitude": 4.867683, "bronId": "SP00000646"}}, {"type": "Feature", "geometry": {"type": "Point", "coordinates": [4.863674, 52.077294]}, "properties": {"type": "inleverpunt", "locatieNaam": "Jumbo Woerden", "straatNaam": "Molenvlietbrink", "straatNr": "18", "postcode": "3448 HM", "plaats": "Woerden", "merk": "StichtingOPEN", "puntType": "balie", "materialen": ["batterijen", "lampen"], "uitbetaling": [], "vrijToegankelijk": false, "gemeenteBeperking": null, "openingstijden": null, "latitude": 52.077294, "longitude": 4.863674, "bronId": "SP00025218"}}, {"type": "Feature", "geometry": {"type": "Point", "coordinates": [4.86243, 52.07678]}, "properties": {"type": "inleverpunt", "locatieNaam": "Kruidvat Woerden", "straatNaam": "Molenvlietbrink", "straatNr": "307-311", "postcode": "3448 HT", "plaats": "Woerden", "merk": "StichtingOPEN", "puntType": "balie", "materialen": ["batterijen", "lampen"], "uitbetaling": [], "vrijToegankelijk": false, "gemeenteBeperking": null, "openingstijden": null, "latitude": 52.07678, "longitude": 4.86243, "bronId": "SP00029663"}}, {"type": "Feature", "geometry": {"type": "Point", "coordinates": [4.836201, 52.115529]}, "properties": {"type": "inleverpunt", "locatieNaam": "CoopCompact Zegveld", "straatNaam": "Middenweg", "straatNr": "1", "postcode": "3474 KC", "plaats": "Zegveld", "merk": "StichtingOPEN", "puntType": "balie", "materialen": ["batterijen", "lampen"], "uitbetaling": [], "vrijToegankelijk": false, "gemeenteBeperking": null, "openingstijden": null, "latitude": 52.115529, "longitude": 4.836201, "bronId": "SP00024324"}}, {"type": "Feature", "geometry": {"type": "Point", "coordinates": [4.888477, 52.078941]}, "properties": {"type": "inleverpunt", "locatieNaam": "Milieustraat Woerden", "straatNaam": "Blekerijlaan", "straatNr": "14", "postcode": "3447 GR", "plaats": "Woerden", "merk": "StichtingOPEN", "puntType": "milieustraat", "materialen": ["batterijen", "elektro-groot", "elektro-klein", "elektro-middel", "lampen", "tl-buizen"], "uitbetaling": [], "vrijToegankelijk": false, "gemeenteBeperking": ["Woerden"], "openingstijden": null, "latitude": 52.078941, "longitude": 4.888477, "bronId": "SP00020176"}}, {"type": "Feature", "geometry": {"type": "Point", "coordinates": [4.9635155, 52.090429]}, "properties": {"type": "inleverpunt", "locatieNaam": "D.I.O.", "straatNaam": "Kerkweg", "straatNr": "3", "postcode": "3481 CP", "plaats": "Harmelen", "merk": "Stibat", "puntType": "inzamelbak", "materialen": ["batterijen"], "uitbetaling": [], "vrijToegankelijk": false, "gemeenteBeperking": null, "openingstijden": null, "latitude": 52.090429, "longitude": 4.9635155, "bronId": "L022821"}}, {"type": "Feature", "geometry": {"type": "Point", "coordinates": [4.9579279, 52.0907711]}, "properties": {"type": "inleverpunt", "locatieNaam": "PLUS", "straatNaam": "Dorpsstraat", "straatNr": "152", "postcode": "3481 ER", "plaats": "Harmelen", "merk": "Stibat", "puntType": "inzamelbak", "materialen": ["batterijen"], "uitbetaling": [], "vrijToegankelijk": false, "gemeenteBeperking": null, "openingstijden": null, "latitude": 52.0907711, "longitude": 4.9579279, "bronId": "L045989"}}, {"type": "Feature", "geometry": {"type": "Point", "coordinates": [4.9574725, 52.0905168]}, "properties": {"type": "inleverpunt", "locatieNaam": "Venhuis Tweewielers", "straatNaam": "Dorpsstraat", "straatNr": "160", "postcode": "3481 ER", "plaats": "Harmelen", "merk": "Stibat", "puntType": "inzamelbak", "materialen": ["batterijen"], "uitbetaling": [], "vrijToegankelijk": false, "gemeenteBeperking": null, "openingstijden": null, "latitude": 52.0905168, "longitude": 4.9574725, "bronId": "L033177"}}, {"type": "Feature", "geometry": {"type": "Point", "coordinates": [4.9458976, 52.0960501]}, "properties": {"type": "inleverpunt", "locatieNaam": "Texaco", "straatNaam": "Bedrijfsweg", "straatNr": "2", "postcode": "3481 MG", "plaats": "Harmelen", "merk": "Stibat", "puntType": "inzamelbak", "materialen": ["batterijen"], "uitbetaling": [], "vrijToegankelijk": false, "gemeenteBeperking": null, "openingstijden": null, "latitude": 52.0960501, "longitude": 4.9458976, "bronId": "L021278"}}, {"type": "Feature", "geometry": {"type": "Point", "coordinates": [4.9438942, 52.0982766]}, "properties": {"type": "inleverpunt", "locatieNaam": "Welkoop", "straatNaam": "Leidsestraatweg", "straatNr": "26", "postcode": "3481 EX", "plaats": "Harmelen", "merk": "Stibat", "puntType": "inzamelbak", "materialen": ["batterijen"], "uitbetaling": [], "vrijToegankelijk": false, "gemeenteBeperking": null, "openingstijden": null, "latitude": 52.0982766, "longitude": 4.9438942, "bronId": "L021579"}}, {"type": "Feature", "geometry": {"type": "Point", "coordinates": [4.9121463, 52.0808347]}, "properties": {"type": "inleverpunt", "locatieNaam": "Stichting Woerden Helpt Oost-Europa", "straatNaam": "Cattenbroekerdijk", "straatNr": "8A", "postcode": "3446 HA", "plaats": "Woerden", "merk": "Stibat", "puntType": "inzamelbak", "materialen": ["batterijen"], "uitbetaling": [], "vrijToegankelijk": false, "gemeenteBeperking": null, "openingstijden": null, "latitude": 52.0808347, "longitude": 4.9121463, "bronId": "L047545"}}, {"type": "Feature", "geometry": {"type": "Point", "coordinates": [4.9075745, 52.0774303]}, "properties": {"type": "inleverpunt", "locatieNaam": "Praxis 2067", "straatNaam": "Finse Golf", "straatNr": "10a", "postcode": "3446 CK", "plaats": "Woerden", "merk": "Stibat", "puntType": "inzamelbak", "materialen": ["batterijen"], "uitbetaling": [], "vrijToegankelijk": false, "gemeenteBeperking": null, "openingstijden": null, "latitude": 52.0774303, "longitude": 4.9075745, "bronId": "L013790"}}, {"type": "Feature", "geometry": {"type": "Point", "coordinates": [4.9050873, 52.0862285]}, "properties": {"type": "inleverpunt", "locatieNaam": "Jumbo", "straatNaam": "La Fontaineplein", "straatNr": "19", "postcode": "3446 BX", "plaats": "Woerden", "merk": "Stibat", "puntType": "inzamelbak", "materialen": ["batterijen"], "uitbetaling": [], "vrijToegankelijk": false, "gemeenteBeperking": null, "openingstijden": null, "latitude": 52.0862285, "longitude": 4.9050873, "bronId": "L036510"}}, {"type": "Feature", "geometry": {"type": "Point", "coordinates": [4.9048409, 52.0864954]}, "properties": {"type": "inleverpunt", "locatieNaam": "Zeeman", "straatNaam": "La Fontaineplein", "straatNr": "2", "postcode": "3446 BX", "plaats": "Woerden", "merk": "Stibat", "puntType": "inzamelbak", "materialen": ["batterijen"], "uitbetaling": [], "vrijToegankelijk": false, "gemeenteBeperking": null, "openingstijden": null, "latitude": 52.0864954, "longitude": 4.9048409, "bronId": "L021126"}}, {"type": "Feature", "geometry": {"type": "Point", "coordinates": [4.9058464, 52.0777563]}, "properties": {"type": "inleverpunt", "locatieNaam": "Kwantum", "straatNaam": "Finse Golf", "straatNr": "6", "postcode": "3446 CK", "plaats": "Woerden", "merk": "Stibat", "puntType": "inzamelbak", "materialen": ["batterijen"], "uitbetaling": [], "vrijToegankelijk": false, "gemeenteBeperking": null, "openingstijden": null, "latitude": 52.0777563, "longitude": 4.9058464, "bronId": "L018752"}}, {"type": "Feature", "geometry": {"type": "Point", "coordinates": [4.90479, 52.0860333]}, "properties": {"type": "inleverpunt", "locatieNaam": "Kruidvat", "straatNaam": "La Fontaineplein", "straatNr": "20", "postcode": "3446 BX", "plaats": "Woerden", "merk": "Stibat", "puntType": "inzamelbak", "materialen": ["batterijen"], "uitbetaling": [], "vrijToegankelijk": false, "gemeenteBeperking": null, "openingstijden": null, "latitude": 52.0860333, "longitude": 4.90479, "bronId": "L039834"}}, {"type": "Feature", "geometry": {"type": "Point", "coordinates": [4.9056165, 52.0777778]}, "properties": {"type": "inleverpunt", "locatieNaam": "Leen Bakker", "straatNaam": "Finse Golf", "straatNr": "4", "postcode": "3446 CK", "plaats": "Woerden", "merk": "Stibat", "puntType": "inzamelbak", "materialen": ["batterijen"], "uitbetaling": [], "vrijToegankelijk": false, "gemeenteBeperking": null, "openingstijden": null, "latitude": 52.0777778, "longitude": 4.9056165, "bronId": "L018939"}}, {"type": "Feature", "geometry": {"type": "Point", "coordinates": [4.9021718, 52.0900365]}, "properties": {"type": "inleverpunt", "locatieNaam": "Aldi", "straatNaam": "Frederik Hendriklaan", "straatNr": "30", "postcode": "3445 XN", "plaats": "Woerden", "merk": "Stibat", "puntType": "inzamelbak", "materialen": ["batterijen"], "uitbetaling": [], "vrijToegankelijk": false, "gemeenteBeperking": null, "openingstijden": null, "latitude": 52.0900365, "longitude": 4.9021718, "bronId": "L041231"}}, {"type": "Feature", "geometry": {"type": "Point", "coordinates": [4.8980533, 52.0823616]}, "properties": {"type": "inleverpunt", "locatieNaam": "Wibra", "straatNaam": "Londenstraat", "straatNr": "3", "postcode": "3541 CA", "plaats": "Utrecht", "merk": "Stibat", "puntType": "inzamelbak", "materialen": ["batterijen"], "uitbetaling": [], "vrijToegankelijk": false, "gemeenteBeperking": null, "openingstijden": null, "latitude": 52.0823616, "longitude": 4.8980533, "bronId": "L039845"}}, {"type": "Feature", "geometry": {"type": "Point", "coordinates": [4.89828, 52.0776437]}, "properties": {"type": "inleverpunt", "locatieNaam": "Zwerfkei outdoor &amp; Travel Centre", "straatNaam": "Jaap Bijzerweg", "straatNr": "10", "postcode": "3446 CR", "plaats": "Woerden", "merk": "Stibat", "puntType": "inzamelbak", "materialen": ["batterijen"], "uitbetaling": [], "vrijToegankelijk": false, "gemeenteBeperking": null, "openingstijden": null, "latitude": 52.0776437, "longitude": 4.89828, "bronId": "L035449"}}, {"type": "Feature", "geometry": {"type": "Point", "coordinates": [4.8964444, 52.0769618]}, "properties": {"type": "inleverpunt", "locatieNaam": "BIKE CENTER WOERDEN BV", "straatNaam": "Korenmolenlaan", "straatNr": "4B", "postcode": "3447 GG", "plaats": "Woerden", "merk": "Stibat", "puntType": "inzamelbak", "materialen": ["batterijen"], "uitbetaling": [], "vrijToegankelijk": false, "gemeenteBeperking": null, "openingstijden": null, "latitude": 52.0769618, "longitude": 4.8964444, "bronId": "L033168"}}, {"type": "Feature", "geometry": {"type": "Point", "coordinates": [4.8950251, 52.0786289]}, "properties": {"type": "inleverpunt", "locatieNaam": "Intratuin", "straatNaam": "Korenmolenlaan", "straatNr": "3 A", "postcode": "3447 GG", "plaats": "Woerden", "merk": "Stibat", "puntType": "inzamelbak", "materialen": ["batterijen"], "uitbetaling": [], "vrijToegankelijk": false, "gemeenteBeperking": null, "openingstijden": null, "latitude": 52.0786289, "longitude": 4.8950251, "bronId": "L024858"}}, {"type": "Feature", "geometry": {"type": "Point", "coordinates": [4.8933572, 52.1114071]}, "properties": {"type": "inleverpunt", "locatieNaam": "PLUS", "straatNaam": "Hallehuis", "straatNr": "1a", "postcode": "3471 EC", "plaats": "Kamerik", "merk": "Stibat", "puntType": "inzamelbak", "materialen": ["batterijen"], "uitbetaling": [], "vrijToegankelijk": false, "gemeenteBeperking": null, "openingstijden": null, "latitude": 52.1114071, "longitude": 4.8933572, "bronId": "L025174"}}, {"type": "Feature", "geometry": {"type": "Point", "coordinates": [4.8935542, 52.0757621]}, "properties": {"type": "inleverpunt", "locatieNaam": "Hobart Nederland", "straatNaam": "Pompmolenlaan", "straatNr": "12", "postcode": "3447 GK", "plaats": "Woerden", "merk": "Stibat", "puntType": "inzamelbak", "materialen": ["batterijen"], "uitbetaling": [], "vrijToegankelijk": false, "gemeenteBeperking": null, "openingstijden": null, "latitude": 52.0757621, "longitude": 4.8935542, "bronId": "L029144"}}, {"type": "Feature", "geometry": {"type": "Point", "coordinates": [4.8876157, 52.0858836]}, "properties": {"type": "inleverpunt", "locatieNaam": "Digo Print", "straatNaam": "Voorstraat", "straatNr": "95", "postcode": "3441 CK", "plaats": "Woerden", "merk": "Stibat", "puntType": "inzamelbak", "materialen": ["batterijen"], "uitbetaling": [], "vrijToegankelijk": false, "gemeenteBeperking": null, "openingstijden": null, "latitude": 52.0858836, "longitude": 4.8876157, "bronId": "L025992"}}, {"type": "Feature", "geometry": {"type": "Point", "coordinates": [4.8869985, 52.0858494]}, "properties": {"type": "inleverpunt", "locatieNaam": "Beter Horen", "straatNaam": "Voorstraat", "straatNr": "83", "postcode": "3441 CJ", "plaats": "Woerden", "merk": "Stibat", "puntType": "inzamelbak", "materialen": ["batterijen"], "uitbetaling": [], "vrijToegankelijk": false, "gemeenteBeperking": null, "openingstijden": null, "latitude": 52.0858494, "longitude": 4.8869985, "bronId": "L031786"}}, {"type": "Feature", "geometry": {"type": "Point", "coordinates": [4.8865158, 52.0858129]}, "properties": {"type": "inleverpunt", "locatieNaam": "Bruna", "straatNaam": "Voorstraat", "straatNr": "66", "postcode": "3441 CN", "plaats": "Woerden", "merk": "Stibat", "puntType": "inzamelbak", "materialen": ["batterijen"], "uitbetaling": [], "vrijToegankelijk": false, "gemeenteBeperking": null, "openingstijden": null, "latitude": 52.0858129, "longitude": 4.8865158, "bronId": "L024520"}}, {"type": "Feature", "geometry": {"type": "Point", "coordinates": [4.8868956, 52.078584]}, "properties": {"type": "inleverpunt", "locatieNaam": "Rataplan", "straatNaam": "De Bleek", "straatNr": "5", "postcode": "3447 GV", "plaats": "Woerden", "merk": "Stibat", "puntType": "inzamelbak", "materialen": ["batterijen"], "uitbetaling": [], "vrijToegankelijk": false, "gemeenteBeperking": null, "openingstijden": null, "latitude": 52.078584, "longitude": 4.8868956, "bronId": "L040753"}}, {"type": "Feature", "geometry": {"type": "Point", "coordinates": [4.885863, 52.0861986]}, "properties": {"type": "inleverpunt", "locatieNaam": "Kruidvat", "straatNaam": "Voorstraat", "straatNr": "48", "postcode": "3441 CN", "plaats": "Woerden", "merk": "Stibat", "puntType": "inzamelbak", "materialen": ["batterijen"], "uitbetaling": [], "vrijToegankelijk": false, "gemeenteBeperking": null, "openingstijden": null, "latitude": 52.0861986, "longitude": 4.885863, "bronId": "L016090"}}, {"type": "Feature", "geometry": {"type": "Point", "coordinates": [4.8852789, 52.0928102]}, "properties": {"type": "inleverpunt", "locatieNaam": "Camping Batenstein", "straatNaam": "Van Helvoortlaan", "straatNr": "36", "postcode": "3443 AP", "plaats": "Woerden", "merk": "Stibat", "puntType": "inzamelbak", "materialen": ["batterijen"], "uitbetaling": [], "vrijToegankelijk": false, "gemeenteBeperking": null, "openingstijden": null, "latitude": 52.0928102, "longitude": 4.8852789, "bronId": "L011090"}}, {"type": "Feature", "geometry": {"type": "Point", "coordinates": [4.885641, 52.0866065]}, "properties": {"type": "inleverpunt", "locatieNaam": "Zeeman", "straatNaam": "Voorstraat", "straatNr": "47", "postcode": "3441 CE", "plaats": "Woerden", "merk": "Stibat", "puntType": "inzamelbak", "materialen": ["batterijen"], "uitbetaling": [], "vrijToegankelijk": false, "gemeenteBeperking": null, "openingstijden": null, "latitude": 52.0866065, "longitude": 4.885641, "bronId": "L020691"}}, {"type": "Feature", "geometry": {"type": "Point", "coordinates": [4.8852924, 52.0868491]}, "properties": {"type": "inleverpunt", "locatieNaam": "7766 Etos", "straatNaam": "Voorstraat", "straatNr": "39", "postcode": "3441 CD", "plaats": "Woerden", "merk": "Stibat", "puntType": "inzamelbak", "materialen": ["batterijen"], "uitbetaling": [], "vrijToegankelijk": false, "gemeenteBeperking": null, "openingstijden": null, "latitude": 52.0868491, "longitude": 4.8852924, "bronId": "L026498"}}, {"type": "Feature", "geometry": {"type": "Point", "coordinates": [4.8853097, 52.0866407]}, "properties": {"type": "inleverpunt", "locatieNaam": "Hans Anders", "straatNaam": "Voorstraat", "straatNr": "38", "postcode": "3441 CM", "plaats": "Woerden", "merk": "Stibat", "puntType": "inzamelbak", "materialen": ["batterijen"], "uitbetaling": [], "vrijToegankelijk": false, "gemeenteBeperking": null, "openingstijden": null, "latitude": 52.0866407, "longitude": 4.8853097, "bronId": "L041005"}}, {"type": "Feature", "geometry": {"type": "Point", "coordinates": [4.8854704, 52.0848255]}, "properties": {"type": "inleverpunt", "locatieNaam": "1439 Albert Heijn", "straatNaam": "Wagenstraat", "straatNr": "24", "postcode": "3441 BM", "plaats": "Woerden", "merk": "Stibat", "puntType": "inzamelbak", "materialen": ["batterijen"], "uitbetaling": [], "vrijToegankelijk": false, "gemeenteBeperking": null, "openingstijden": null, "latitude": 52.0848255, "longitude": 4.8854704, "bronId": "L006385"}}, {"type": "Feature", "geometry": {"type": "Point", "coordinates": [4.8850033, 52.0870167]}, "properties": {"type": "inleverpunt", "locatieNaam": "Specsavers", "straatNaam": "Voorstraat", "straatNr": "29", "postcode": "3441 CC", "plaats": "Woerden", "merk": "Stibat", "puntType": "inzamelbak", "materialen": ["batterijen"], "uitbetaling": [], "vrijToegankelijk": false, "gemeenteBeperking": null, "openingstijden": null, "latitude": 52.0870167, "longitude": 4.8850033, "bronId": "L039842"}}, {"type": "Feature", "geometry": {"type": "Point", "coordinates": [4.8861017, 52.0776146]}, "properties": {"type": "inleverpunt", "locatieNaam": "DC De Bijenkorf", "straatNaam": "Middellandbaan", "straatNr": "1", "postcode": "3447 GP", "plaats": "Woerden", "merk": "Stibat", "puntType": "inzamelbak", "materialen": ["batterijen"], "uitbetaling": [], "vrijToegankelijk": false, "gemeenteBeperking": null, "openingstijden": null, "latitude": 52.0776146, "longitude": 4.8861017, "bronId": "L030131"}}, {"type": "Feature", "geometry": {"type": "Point", "coordinates": [4.8843369, 52.0868049]}, "properties": {"type": "inleverpunt", "locatieNaam": "Trekpleister", "straatNaam": "Rijnstraat", "straatNr": "24", "postcode": "3441 BT", "plaats": "Woerden", "merk": "Stibat", "puntType": "inzamelbak", "materialen": ["batterijen"], "uitbetaling": [], "vrijToegankelijk": false, "gemeenteBeperking": null, "openingstijden": null, "latitude": 52.0868049, "longitude": 4.8843369, "bronId": "L019154"}}, {"type": "Feature", "geometry": {"type": "Point", "coordinates": [4.8842016, 52.0867697]}, "properties": {"type": "inleverpunt", "locatieNaam": "Wibra", "straatNaam": "Rijnstraat", "straatNr": "22", "postcode": "3441 BT", "plaats": "Woerden", "merk": "Stibat", "puntType": "inzamelbak", "materialen": ["batterijen"], "uitbetaling": [], "vrijToegankelijk": false, "gemeenteBeperking": null, "openingstijden": null, "latitude": 52.0867697, "longitude": 4.8842016, "bronId": "L043588"}}, {"type": "Feature", "geometry": {"type": "Point", "coordinates": [4.8840261, 52.0878148]}, "properties": {"type": "inleverpunt", "locatieNaam": "Schoonenberg Hoorcomfort", "straatNaam": "Nieuwstraat", "straatNr": "7", "postcode": "3441 EA", "plaats": "Woerden", "merk": "Stibat", "puntType": "inzamelbak", "materialen": ["batterijen"], "uitbetaling": [], "vrijToegankelijk": false, "gemeenteBeperking": null, "openingstijden": null, "latitude": 52.0878148, "longitude": 4.8840261, "bronId": "L020912"}}, {"type": "Feature", "geometry": {"type": "Point", "coordinates": [4.8838404, 52.0874177]}, "properties": {"type": "inleverpunt", "locatieNaam": "Telfix.nl", "straatNaam": "Voorstraat", "straatNr": "4", "postcode": "3441 CL", "plaats": "Woerden", "merk": "Stibat", "puntType": "inzamelbak", "materialen": ["batterijen"], "uitbetaling": [], "vrijToegankelijk": false, "gemeenteBeperking": null, "openingstijden": null, "latitude": 52.0874177, "longitude": 4.8838404, "bronId": "L042156"}}, {"type": "Feature", "geometry": {"type": "Point", "coordinates": [4.8837239, 52.0873453]}, "properties": {"type": "inleverpunt", "locatieNaam": "Kraan Fietsen", "straatNaam": "Nieuwe Steeg", "straatNr": "22", "postcode": "3441 BT", "plaats": "Woerden", "merk": "Stibat", "puntType": "inzamelbak", "materialen": ["batterijen"], "uitbetaling": [], "vrijToegankelijk": false, "gemeenteBeperking": null, "openingstijden": null, "latitude": 52.0873453, "longitude": 4.8837239, "bronId": "L048848"}}, {"type": "Feature", "geometry": {"type": "Point", "coordinates": [4.8833421, 52.0867398]}, "properties": {"type": "inleverpunt", "locatieNaam": "Expert", "straatNaam": "Meulmansweg", "straatNr": "23", "postcode": "3441 AT", "plaats": "Woerden", "merk": "Stibat", "puntType": "inzamelbak", "materialen": ["batterijen"], "uitbetaling": [], "vrijToegankelijk": false, "gemeenteBeperking": null, "openingstijden": null, "latitude": 52.0867398, "longitude": 4.8833421, "bronId": "L009142"}}, {"type": "Feature", "geometry": {"type": "Point", "coordinates": [4.8929017, 52.157275]}, "properties": {"type": "inleverpunt", "locatieNaam": "Berkenhoeve recreatie", "straatNaam": "Van Teylingenweg", "straatNr": "192", "postcode": "3471 GL", "plaats": "Kamerik", "merk": "Stibat", "puntType": "inzamelbak", "materialen": ["batterijen"], "uitbetaling": [], "vrijToegankelijk": false, "gemeenteBeperking": null, "openingstijden": null, "latitude": 52.157275, "longitude": 4.8929017, "bronId": "L009851"}}, {"type": "Feature", "geometry": {"type": "Point", "coordinates": [4.8826461, 52.0857207]}, "properties": {"type": "inleverpunt", "locatieNaam": "Kruidvat", "straatNaam": "Groenendaal", "straatNr": "34", "postcode": "3441 BD", "plaats": "Woerden", "merk": "Stibat", "puntType": "inzamelbak", "materialen": ["batterijen"], "uitbetaling": [], "vrijToegankelijk": false, "gemeenteBeperking": null, "openingstijden": null, "latitude": 52.0857207, "longitude": 4.8826461, "bronId": "L018158"}}, {"type": "Feature", "geometry": {"type": "Point", "coordinates": [4.8825946, 52.0857389]}, "properties": {"type": "inleverpunt", "locatieNaam": "Xenos", "straatNaam": "Groenendaal", "straatNr": "36", "postcode": "3441 BD", "plaats": "Woerden", "merk": "Stibat", "puntType": "inzamelbak", "materialen": ["batterijen"], "uitbetaling": [], "vrijToegankelijk": false, "gemeenteBeperking": null, "openingstijden": null, "latitude": 52.0857389, "longitude": 4.8825946, "bronId": "L036973"}}, {"type": "Feature", "geometry": {"type": "Point", "coordinates": [4.8825121, 52.0855718]}, "properties": {"type": "inleverpunt", "locatieNaam": "HEMA Groenendaal", "straatNaam": "Groenendaal", "straatNr": "38-42", "postcode": "3441 BD", "plaats": "Woerden", "merk": "Stibat", "puntType": "inzamelbak", "materialen": ["batterijen"], "uitbetaling": [], "vrijToegankelijk": false, "gemeenteBeperking": null, "openingstijden": null, "latitude": 52.0855718, "longitude": 4.8825121, "bronId": "L007635"}}, {"type": "Feature", "geometry": {"type": "Point", "coordinates": [4.8828636, 52.08059]}, "properties": {"type": "inleverpunt", "locatieNaam": "Aldi", "straatNaam": "Industrieweg", "straatNr": "2", "postcode": "3442 AE", "plaats": "Woerden", "merk": "Stibat", "puntType": "inzamelbak", "materialen": ["batterijen"], "uitbetaling": [], "vrijToegankelijk": false, "gemeenteBeperking": null, "openingstijden": null, "latitude": 52.08059, "longitude": 4.8828636, "bronId": "L041230"}}, {"type": "Feature", "geometry": {"type": "Point", "coordinates": [4.8749265, 52.0813735]}, "properties": {"type": "inleverpunt", "locatieNaam": "Lidl", "straatNaam": "Iepenlaan", "straatNr": "1a", "postcode": "3442 EK", "plaats": "Woerden", "merk": "Stibat", "puntType": "inzamelbak", "materialen": ["batterijen"], "uitbetaling": [], "vrijToegankelijk": false, "gemeenteBeperking": null, "openingstijden": null, "latitude": 52.0813735, "longitude": 4.8749265, "bronId": "L040217"}}, {"type": "Feature", "geometry": {"type": "Point", "coordinates": [4.8707449, 52.0882712]}, "properties": {"type": "inleverpunt", "locatieNaam": "1357 Action", "straatNaam": "Tournoysveld", "straatNr": "81-95", "postcode": "3443 ES", "plaats": "Woerden", "merk": "Stibat", "puntType": "inzamelbak", "materialen": ["batterijen"], "uitbetaling": [], "vrijToegankelijk": false, "gemeenteBeperking": null, "openingstijden": null, "latitude": 52.0882712, "longitude": 4.8707449, "bronId": "L038329"}}, {"type": "Feature", "geometry": {"type": "Point", "coordinates": [4.8708878, 52.0845598]}, "properties": {"type": "inleverpunt", "locatieNaam": "Van Mouwerik Tweewielers", "straatNaam": "Hoge Rijndijk", "straatNr": "8", "postcode": "3449 HB", "plaats": "Woerden", "merk": "Stibat", "puntType": "inzamelbak", "materialen": ["batterijen"], "uitbetaling": [], "vrijToegankelijk": false, "gemeenteBeperking": null, "openingstijden": null, "latitude": 52.0845598, "longitude": 4.8708878, "bronId": "L033167"}}, {"type": "Feature", "geometry": {"type": "Point", "coordinates": [4.870422, 52.0882005]}, "properties": {"type": "inleverpunt", "locatieNaam": "Primera", "straatNaam": "Tournoysveld", "straatNr": "99", "postcode": "3443 ES", "plaats": "Woerden", "merk": "Stibat", "puntType": "inzamelbak", "materialen": ["batterijen"], "uitbetaling": [], "vrijToegankelijk": false, "gemeenteBeperking": null, "openingstijden": null, "latitude": 52.0882005, "longitude": 4.870422, "bronId": "L024487"}}, {"type": "Feature", "geometry": {"type": "Point", "coordinates": [4.8703243, 52.0884539]}, "properties": {"type": "inleverpunt", "locatieNaam": "Jumbo", "straatNaam": "Tournoysveld", "straatNr": "92", "postcode": "3443 EW", "plaats": "Woerden", "merk": "Stibat", "puntType": "inzamelbak", "materialen": ["batterijen"], "uitbetaling": [], "vrijToegankelijk": false, "gemeenteBeperking": null, "openingstijden": null, "latitude": 52.0884539, "longitude": 4.8703243, "bronId": "L030875"}}, {"type": "Feature", "geometry": {"type": "Point", "coordinates": [4.8690227, 52.0841802]}, "properties": {"type": "inleverpunt", "locatieNaam": "Toolstation", "straatNaam": "Hoge Rijndijk", "straatNr": "14a", "postcode": "3449 HD", "plaats": "Woerden", "merk": "Stibat", "puntType": "inzamelbak", "materialen": ["batterijen"], "uitbetaling": [], "vrijToegankelijk": false, "gemeenteBeperking": null, "openingstijden": null, "latitude": 52.0841802, "longitude": 4.8690227, "bronId": "L043627"}}, {"type": "Feature", "geometry": {"type": "Point", "coordinates": [4.8676166, 52.0824336]}, "properties": {"type": "inleverpunt", "locatieNaam": "Gamma", "straatNaam": "Molenvlietbaan", "straatNr": "8", "postcode": "3448 DC", "plaats": "Woerden", "merk": "Stibat", "puntType": "inzamelbak", "materialen": ["batterijen"], "uitbetaling": [], "vrijToegankelijk": false, "gemeenteBeperking": null, "openingstijden": null, "latitude": 52.0824336, "longitude": 4.8676166, "bronId": "L006531"}}, {"type": "Feature", "geometry": {"type": "Point", "coordinates": [4.8666315, 52.0846179]}, "properties": {"type": "inleverpunt", "locatieNaam": "Isero Woerden", "straatNaam": "Barwoutswaarder", "straatNr": "1", "postcode": "3449 HE", "plaats": "Woerden", "merk": "Stibat", "puntType": "inzamelbak", "materialen": ["batterijen"], "uitbetaling": [], "vrijToegankelijk": false, "gemeenteBeperking": null, "openingstijden": null, "latitude": 52.0846179, "longitude": 4.8666315, "bronId": "L029899"}}, {"type": "Feature", "geometry": {"type": "Point", "coordinates": [4.866346, 52.0821156]}, "properties": {"type": "inleverpunt", "locatieNaam": "Total", "straatNaam": "Hollandbaan", "straatNr": "4", "postcode": "3449 JG", "plaats": "Woerden", "merk": "Stibat", "puntType": "inzamelbak", "materialen": ["batterijen"], "uitbetaling": [], "vrijToegankelijk": false, "gemeenteBeperking": null, "openingstijden": null, "latitude": 52.0821156, "longitude": 4.866346, "bronId": "L019513"}}, {"type": "Feature", "geometry": {"type": "Point", "coordinates": [4.8652682, 52.0839468]}, "properties": {"type": "inleverpunt", "locatieNaam": "Afvalbrengstation Woerden", "straatNaam": "Pijpenmakersweg", "straatNr": "4", "postcode": "3449 JE", "plaats": "Woerden", "merk": "Stibat", "puntType": "inzamelbak", "materialen": ["batterijen"], "uitbetaling": [], "vrijToegankelijk": false, "gemeenteBeperking": null, "openingstijden": null, "latitude": 52.0839468, "longitude": 4.8652682, "bronId": "L035677"}}, {"type": "Feature", "geometry": {"type": "Point", "coordinates": [4.8628041, 52.0867687]}, "properties": {"type": "inleverpunt", "locatieNaam": "Texaco", "straatNaam": "Leidsestraatweg", "straatNr": "132", "postcode": "3443 BZ", "plaats": "Woerden", "merk": "Stibat", "puntType": "inzamelbak", "materialen": ["batterijen"], "uitbetaling": [], "vrijToegankelijk": false, "gemeenteBeperking": null, "openingstijden": null, "latitude": 52.0867687, "longitude": 4.8628041, "bronId": "L029008"}}, {"type": "Feature", "geometry": {"type": "Point", "coordinates": [4.8635941, 52.0773689]}, "properties": {"type": "inleverpunt", "locatieNaam": "Jumbo", "straatNaam": "Molenvlietbrink", "straatNr": "18", "postcode": "3448 HM", "plaats": "Woerden", "merk": "Stibat", "puntType": "inzamelbak", "materialen": ["batterijen"], "uitbetaling": [], "vrijToegankelijk": false, "gemeenteBeperking": null, "openingstijden": null, "latitude": 52.0773689, "longitude": 4.8635941, "bronId": "L035520"}}, {"type": "Feature", "geometry": {"type": "Point", "coordinates": [4.8635696, 52.0765636]}, "properties": {"type": "inleverpunt", "locatieNaam": "Bike Totaal Woerden", "straatNaam": "Molenvlietbrink", "straatNr": "246", "postcode": "3448 HS", "plaats": "Woerden", "merk": "Stibat", "puntType": "inzamelbak", "materialen": ["batterijen"], "uitbetaling": [], "vrijToegankelijk": false, "gemeenteBeperking": null, "openingstijden": null, "latitude": 52.0765636, "longitude": 4.8635696, "bronId": "L038338"}}, {"type": "Feature", "geometry": {"type": "Point", "coordinates": [4.8630485, 52.0773544]}, "properties": {"type": "inleverpunt", "locatieNaam": "Drogisterij van den Broek", "straatNaam": "Molenvlietbrink", "straatNr": "8", "postcode": "3448 HM", "plaats": "Woerden", "merk": "Stibat", "puntType": "inzamelbak", "materialen": ["batterijen"], "uitbetaling": [], "vrijToegankelijk": false, "gemeenteBeperking": null, "openingstijden": null, "latitude": 52.0773544, "longitude": 4.8630485, "bronId": "L045610"}}, {"type": "Feature", "geometry": {"type": "Point", "coordinates": [4.8614109, 52.0860773]}, "properties": {"type": "inleverpunt", "locatieNaam": "Stoof Tweewielers Woerden", "straatNaam": "Kuipersweg", "straatNr": "1", "postcode": "3449 JA", "plaats": "Woerden", "merk": "Stibat", "puntType": "inzamelbak", "materialen": ["batterijen"], "uitbetaling": [], "vrijToegankelijk": false, "gemeenteBeperking": null, "openingstijden": null, "latitude": 52.0860773, "longitude": 4.8614109, "bronId": "L038035"}}, {"type": "Feature", "geometry": {"type": "Point", "coordinates": [4.8624313, 52.0767829]}, "properties": {"type": "inleverpunt", "locatieNaam": "Kruidvat", "straatNaam": "Molenvlietbrink", "straatNr": "307-311", "postcode": "3448 HT", "plaats": "Woerden", "merk": "Stibat", "puntType": "inzamelbak", "materialen": ["batterijen"], "uitbetaling": [], "vrijToegankelijk": false, "gemeenteBeperking": null, "openingstijden": null, "latitude": 52.0767829, "longitude": 4.8624313, "bronId": "L015654"}}, {"type": "Feature", "geometry": {"type": "Point", "coordinates": [4.8560223, 52.0885073]}, "properties": {"type": "inleverpunt", "locatieNaam": "Tuincentrum De Bosrand", "straatNaam": "Rietveld", "straatNr": "36a", "postcode": "3443 XC", "plaats": "Woerden", "merk": "Stibat", "puntType": "inzamelbak", "materialen": ["batterijen"], "uitbetaling": [], "vrijToegankelijk": false, "gemeenteBeperking": null, "openingstijden": null, "latitude": 52.0885073, "longitude": 4.8560223, "bronId": "L040562"}}, {"type": "Feature", "geometry": {"type": "Point", "coordinates": [4.8562476, 52.0850961]}, "properties": {"type": "inleverpunt", "locatieNaam": "MacHouse (HK)", "straatNaam": "Rietdekkersweg", "straatNr": "6", "postcode": "3449 JC", "plaats": "Woerden", "merk": "Stibat", "puntType": "inzamelbak", "materialen": ["batterijen"], "uitbetaling": [], "vrijToegankelijk": false, "gemeenteBeperking": null, "openingstijden": null, "latitude": 52.0850961, "longitude": 4.8562476, "bronId": "L029168"}}, {"type": "Feature", "geometry": {"type": "Point", "coordinates": [4.8371061, 52.1150192]}, "properties": {"type": "inleverpunt", "locatieNaam": "Stoof Tweewielers", "straatNaam": "Hoofdweg", "straatNr": "3", "postcode": "3474 JA", "plaats": "Zegveld", "merk": "Stibat", "puntType": "inzamelbak", "materialen": ["batterijen"], "uitbetaling": [], "vrijToegankelijk": false, "gemeenteBeperking": null, "openingstijden": null, "latitude": 52.1150192, "longitude": 4.8371061, "bronId": "L033176"}}, {"type": "Feature", "geometry": {"type": "Point", "coordinates": [4.8364887, 52.1154452]}, "properties": {"type": "inleverpunt", "locatieNaam": "CoopCompact", "straatNaam": "Middenweg", "straatNr": "1", "postcode": "3474 KC", "plaats": "Zegveld", "merk": "Stibat", "puntType": "inzamelbak", "materialen": ["batterijen"], "uitbetaling": [], "vrijToegankelijk": false, "gemeenteBeperking": null, "openingstijden": null, "latitude": 52.1154452, "longitude": 4.8364887, "bronId": "L036210"}}, {"type": "Feature", "geometry": {"type": "Polygon", "coordinates": [[[4.821577001147845, 52.141908004003454], [4.826472001152767, 52.142176004003645], [4.830022001156372, 52.143265004004235], [4.832858001159291, 52.14476200400519], [4.834135001160505, 52.143431004004384], [4.83412800116047, 52.14287600400401], [4.836705001163054, 52.14288000400401], [4.837366001163613, 52.14065000400265], [4.837946001164191, 52.140617004002635], [4.840276001166574, 52.14156100400322], [4.841740001168009, 52.140897004002824], [4.842186001168404, 52.139819004002156], [4.8428720011690745, 52.13946000400194], [4.846251001172467, 52.139545004001974], [4.847528001173719, 52.13893900400161], [4.849534001175761, 52.13957800400197], [4.8514790011777125, 52.139674004002046], [4.852152001178376, 52.13939200400186], [4.85260800117878, 52.13826900400119], [4.853845001179981, 52.137549004000725], [4.855239001181367, 52.137210004000536], [4.8649150011910764, 52.13739100400064], [4.8703420011965575, 52.13820700400109], [4.871315001197563, 52.13883800400146], [4.874518001200775, 52.138831004001524], [4.873623001200694, 52.15608300401204], [4.887574001214858, 52.15995800401438], [4.892273001219648, 52.16159300401533], [4.8921780012195635, 52.16179800401545], [4.903687001231108, 52.16205100401555], [4.90784700123525, 52.16146100401522], [4.909638001237065, 52.161871004015445], [4.910559001237929, 52.160626004014695], [4.9111060012384815, 52.16065600401472], [4.911197001238547, 52.16013000401438], [4.911778001238385, 52.14425400400469], [4.913282001239885, 52.144100004004606], [4.923602001250382, 52.14731900400651], [4.934697001261102, 52.138605004001136], [4.9439840012699, 52.12749600399428], [4.960992001287226, 52.133368003997845], [4.9691080012949005, 52.12323200399159], [4.970627001296361, 52.12189200399075], [4.978031001303382, 52.11302000398524], [4.978247001303591, 52.11284300398519], [4.978467001303827, 52.11315700398537], [4.980225001305548, 52.11225600398481], [4.9795620013048465, 52.11150100398432], [4.979625001304786, 52.10872200398263], [4.978729001303859, 52.10810000398229], [4.976553001301675, 52.10808800398228], [4.976097001301205, 52.10782300398213], [4.975530001300501, 52.1048540039803], [4.973000001297863, 52.10268100397901], [4.973277001298082, 52.1013740039782], [4.9756600013004, 52.0997900039772], [4.989327001314156, 52.100755003977696], [4.991810001316375, 52.094764003974], [4.992531001317104, 52.09485900397406], [4.9942170013185905, 52.090366003971276], [5.005011001329337, 52.08848500397006], [5.003230001327075, 52.077957003963604], [5.0016430013254976, 52.07829200396381], [4.999498001322794, 52.0661310039563], [4.995845001319183, 52.06733400395706], [4.982591001305768, 52.06495000395565], [4.9705010012937505, 52.067560003957325], [4.956773001279895, 52.0659330039564], [4.956333001279654, 52.070299003959086], [4.945273001268805, 52.075758003962505], [4.9387910012624125, 52.078189003964], [4.9361430012598335, 52.07992000396508], [4.930847001254488, 52.07928500396474], [4.926857001250407, 52.07759200396369], [4.926609001250169, 52.077818003963884], [4.924661001248202, 52.0775910039637], [4.917797001241179, 52.07468500396195], [4.9160340012393995, 52.07447200396181], [4.907966001231178, 52.0718120039602], [4.906322001229462, 52.07044400395936], [4.905083001228199, 52.0700150039591], [4.904855001227983, 52.07024600395925], [4.9033270012264385, 52.07003500395911], [4.9030400012261754, 52.07061500395945], [4.902082001225199, 52.07029800395925], [4.8889850012119895, 52.06890800395845], [4.875335001198288, 52.06888500395843], [4.874516001197432, 52.06819100395805], [4.872737001195679, 52.068852003958476], [4.86574700118867, 52.069047003958616], [4.86390200118682, 52.06905300395862], [4.864040001186935, 52.068553003958314], [4.862263001185177, 52.06906400395861], [4.856064001178941, 52.06881100395848], [4.850786001173658, 52.06911700395867], [4.842204001165038, 52.06900600395858], [4.837139001159927, 52.06842400395825], [4.829808001152493, 52.06682300395728], [4.834035001157016, 52.072736003960955], [4.832666001155651, 52.072844003961066], [4.8330450011561235, 52.07482700396223], [4.830898001153947, 52.07435300396199], [4.830634001153712, 52.07497100396233], [4.826276001149323, 52.07464400396214], [4.826493001149775, 52.07952700396514], [4.825629001148922, 52.079774003965305], [4.823348001147284, 52.09336900397368], [4.823056001147559, 52.105193003980965], [4.824389001148907, 52.1054030039811], [4.825380001149981, 52.10708700398212], [4.792043001117281, 52.1223120039915], [4.793113001118428, 52.123825003992394], [4.796993001122359, 52.124661003992955], [4.7983420011237445, 52.125299003993334], [4.801151001126538, 52.12485300399306], [4.802601001128003, 52.1250600039932], [4.803474001128944, 52.12640400399398], [4.805824001131333, 52.12707800399443], [4.807766001133351, 52.12862200399533], [4.808352001134082, 52.13152600399711], [4.808882001134632, 52.13188800399735], [4.807486001133383, 52.135022003999296], [4.808864001134796, 52.13569300399967], [4.808664001134666, 52.137149004000555], [4.809960001136032, 52.138432004001366], [4.81171500113782, 52.13908900400177], [4.813357001139523, 52.14024600400246], [4.81485400114101, 52.13998500400229], [4.81611900114225, 52.13939200400194], [4.816914001143052, 52.139468004001984], [4.817916001144118, 52.14075500400275], [4.820534001146813, 52.142229004003674], [4.821577001147845, 52.141908004003454]]]}, "properties": {"type": "boundary", "gemeente": "Woerden"}}]}