{"type": "FeatureCollection", "metadata": {"gemeente": "Zandvoort", "slug": "zandvoort", "generated_at": "2026-07-28T19:03:25.026558Z", "total_points": 32, "merken": ["StatiegeldNederland", "Stibat", "StichtingOPEN"], "bounds": [4.5270388, 52.3711483, 4.5487547, 52.389707]}, "features": [{"type": "Feature", "geometry": {"type": "Point", "coordinates": [4.5309397, 52.3720743]}, "properties": {"type": "inleverpunt", "locatieNaam": "Albert Heijn", "straatNaam": "Grote Krocht", "straatNr": "9", "postcode": "2042 LT", "plaats": "Zandvoort", "merk": "StatiegeldNederland", "puntType": "automaat", "materialen": ["pet-groot", "pet-klein", "blik", "glas", "krat"], "uitbetaling": ["bonnetje", "donatie"], "vrijToegankelijk": true, "gemeenteBeperking": null, "openingstijden": {"ma": "07:00–22:00", "di": "07:00–22:00", "wo": "07:00–22:00", "do": "07:00–22:00", "vr": "07:00–22:00", "za": "07:00–22:00", "zo": "08:00–22:00"}, "latitude": 52.3720743, "longitude": 4.5309397, "bronId": "252268"}}, {"type": "Feature", "geometry": {"type": "Point", "coordinates": [4.5365409, 52.3798089]}, "properties": {"type": "inleverpunt", "locatieNaam": "Albron", "straatNaam": "Vondellaan", "straatNr": "60", "postcode": "2041 BE", "plaats": "Zandvoort", "merk": "StatiegeldNederland", "puntType": "automaat", "materialen": ["pet-groot", "pet-klein", "blik", "glas"], "uitbetaling": ["bonnetje", "donatie"], "vrijToegankelijk": true, "gemeenteBeperking": null, "openingstijden": {"ma": "24 uur geopend", "di": "24 uur geopend", "wo": "24 uur geopend", "do": "24 uur geopend", "vr": "24 uur geopend", "za": "24 uur geopend", "zo": "24 uur geopend"}, "latitude": 52.3798089, "longitude": 4.5365409, "bronId": "253464"}}, {"type": "Feature", "geometry": {"type": "Point", "coordinates": [4.5417839, 52.389707]}, "properties": {"type": "inleverpunt", "locatieNaam": "Circuitpark Zandvoort", "straatNaam": "Burg. Van Alphenstraat", "straatNr": "108", "postcode": "2041 JA", "plaats": "Zandvoort", "merk": "StatiegeldNederland", "puntType": "automaat", "materialen": ["pet-groot", "pet-klein", "blik"], "uitbetaling": ["bonnetje", "donatie", "tikkie"], "vrijToegankelijk": true, "gemeenteBeperking": null, "openingstijden": null, "latitude": 52.389707, "longitude": 4.5417839, "bronId": "254172"}}, {"type": "Feature", "geometry": {"type": "Point", "coordinates": [4.5297548, 52.3711885]}, "properties": {"type": "inleverpunt", "locatieNaam": "Dekamarkt", "straatNaam": "Oranjestraat", "straatNr": "4", "postcode": "2042 GS", "plaats": "Zandvoort", "merk": "StatiegeldNederland", "puntType": "automaat", "materialen": ["pet-groot", "pet-klein", "blik", "glas", "krat"], "uitbetaling": ["bonnetje"], "vrijToegankelijk": true, "gemeenteBeperking": null, "openingstijden": {"ma": "08:00–20:00", "di": "08:00–20:00", "wo": "08:00–20:00", "do": "08:00–20:00", "vr": "08:00–20:00", "za": "08:00–20:00", "zo": "10:00–18:00"}, "latitude": 52.3711885, "longitude": 4.5297548, "bronId": "254364"}}, {"type": "Feature", "geometry": {"type": "Point", "coordinates": [4.5275277, 52.3743637]}, "properties": {"type": "inleverpunt", "locatieNaam": "Dirk", "straatNaam": "Burgemeester Engelbertsstraat", "straatNr": "21", "postcode": "2042 KM", "plaats": "Zandvoort", "merk": "StatiegeldNederland", "puntType": "automaat", "materialen": ["pet-groot", "pet-klein", "blik", "glas", "krat"], "uitbetaling": ["bonnetje", "donatie"], "vrijToegankelijk": true, "gemeenteBeperking": null, "openingstijden": {"ma": "08:00–21:00", "di": "08:00–21:00", "wo": "08:00–21:00", "do": "08:00–21:00", "vr": "08:00–21:00", "za": "08:00–20:00", "zo": "08:00–20:00"}, "latitude": 52.3743637, "longitude": 4.5275277, "bronId": "254453"}}, {"type": "Feature", "geometry": {"type": "Point", "coordinates": [4.5487547, 52.3833942]}, "properties": {"type": "inleverpunt", "locatieNaam": "Open Golf Zandvoort", "straatNaam": "duintjesveldweg", "straatNr": "3", "postcode": "2041 TZ", "plaats": "Zandvoort", "merk": "StatiegeldNederland", "puntType": "balie", "materialen": ["pet-groot", "pet-klein", "blik"], "uitbetaling": [], "vrijToegankelijk": false, "gemeenteBeperking": null, "openingstijden": {"ma": "09:00–17:00", "di": "09:00–17:00", "wo": "09:00–18:00", "do": "09:00–18:00", "vr": "09:00–18:00", "za": "09:00–18:00", "zo": "09:00–18:00"}, "latitude": 52.3833942, "longitude": 4.5487547, "bronId": "257002"}}, {"type": "Feature", "geometry": {"type": "Point", "coordinates": [4.5486707, 52.3789261]}, "properties": {"type": "inleverpunt", "locatieNaam": "Vomar", "straatNaam": "Celsiusstraat", "straatNr": "192", "postcode": "2041 TR", "plaats": "Zandvoort", "merk": "StatiegeldNederland", "puntType": "automaat", "materialen": ["pet-groot", "pet-klein", "blik", "glas", "krat"], "uitbetaling": ["bonnetje", "donatie"], "vrijToegankelijk": true, "gemeenteBeperking": null, "openingstijden": {"ma": "07:30–22:00", "di": "07:30–22:00", "wo": "07:30–22:00", "do": "07:30–22:00", "vr": "07:30–22:00", "za": "07:30–22:00", "zo": "08:00–22:00"}, "latitude": 52.3789261, "longitude": 4.5486707, "bronId": "259646"}}, {"type": "Feature", "geometry": {"type": "Point", "coordinates": [4.548501, 52.378963]}, "properties": {"type": "inleverpunt", "locatieNaam": "Vomar Zandvoort", "straatNaam": "Celsiusstraat", "straatNr": "192", "postcode": "2041 TR", "plaats": "Zandvoort", "merk": "StichtingOPEN", "puntType": "balie", "materialen": ["batterijen", "lampen"], "uitbetaling": [], "vrijToegankelijk": false, "gemeenteBeperking": null, "openingstijden": null, "latitude": 52.378963, "longitude": 4.548501, "bronId": "SP00025758"}}, {"type": "Feature", "geometry": {"type": "Point", "coordinates": [4.531917, 52.371321]}, "properties": {"type": "inleverpunt", "locatieNaam": "1047 Albert Heijn Zandvoort", "straatNaam": "Grote Krocht", "straatNr": "1", "postcode": "2042 LT", "plaats": "Zandvoort", "merk": "StichtingOPEN", "puntType": "balie", "materialen": ["batterijen", "elektro-klein", "lampen"], "uitbetaling": [], "vrijToegankelijk": false, "gemeenteBeperking": null, "openingstijden": null, "latitude": 52.371321, "longitude": 4.531917, "bronId": "SP00023062"}}, {"type": "Feature", "geometry": {"type": "Point", "coordinates": [4.531509, 52.371309]}, "properties": {"type": "inleverpunt", "locatieNaam": "Radio Stiphout", "straatNaam": "Grote Krocht", "straatNr": "34", "postcode": "2042 LX", "plaats": "Zandvoort", "merk": "StichtingOPEN", "puntType": "balie", "materialen": ["elektro-middel", "lampen"], "uitbetaling": [], "vrijToegankelijk": false, "gemeenteBeperking": null, "openingstijden": null, "latitude": 52.371309, "longitude": 4.531509, "bronId": "SP00002148"}}, {"type": "Feature", "geometry": {"type": "Point", "coordinates": [4.529795, 52.371281]}, "properties": {"type": "inleverpunt", "locatieNaam": "Dekamarkt Zandvoort", "straatNaam": "Oranjestraat", "straatNr": "4", "postcode": "2042 GS", "plaats": "Zandvoort", "merk": "StichtingOPEN", "puntType": "balie", "materialen": ["batterijen", "lampen"], "uitbetaling": [], "vrijToegankelijk": false, "gemeenteBeperking": null, "openingstijden": null, "latitude": 52.371281, "longitude": 4.529795, "bronId": "SP00023663"}}, {"type": "Feature", "geometry": {"type": "Point", "coordinates": [4.52989, 52.371724]}, "properties": {"type": "inleverpunt", "locatieNaam": "Kruidvat Zandvoort", "straatNaam": "Raadhuisplein", "straatNr": "4", "postcode": "2042 LR", "plaats": "Zandvoort", "merk": "StichtingOPEN", "puntType": "balie", "materialen": ["batterijen", "lampen"], "uitbetaling": [], "vrijToegankelijk": false, "gemeenteBeperking": null, "openingstijden": null, "latitude": 52.371724, "longitude": 4.52989, "bronId": "SP00024751"}}, {"type": "Feature", "geometry": {"type": "Point", "coordinates": [4.527914, 52.374213]}, "properties": {"type": "inleverpunt", "locatieNaam": "Dirk Zandvoort", "straatNaam": "Burg Engelbertsstr", "straatNr": "21", "postcode": "2042 KM", "plaats": "Zandvoort", "merk": "StichtingOPEN", "puntType": "balie", "materialen": ["batterijen", "lampen"], "uitbetaling": [], "vrijToegankelijk": false, "gemeenteBeperking": null, "openingstijden": null, "latitude": 52.374213, "longitude": 4.527914, "bronId": "SP00023482"}}, {"type": "Feature", "geometry": {"type": "Point", "coordinates": [4.529237, 52.372605]}, "properties": {"type": "inleverpunt", "locatieNaam": "Remise Zandvoort", "straatNaam": "Kamerlingh Onnesstraat", "straatNr": "20", "postcode": "2041 CC", "plaats": "Zandvoort", "merk": "StichtingOPEN", "puntType": "milieustraat", "materialen": ["batterijen", "elektro-groot", "elektro-klein", "elektro-middel", "lampen", "tl-buizen"], "uitbetaling": [], "vrijToegankelijk": false, "gemeenteBeperking": ["Zandvoort"], "openingstijden": null, "latitude": 52.372605, "longitude": 4.529237, "bronId": "SP00001536"}}, {"type": "Feature", "geometry": {"type": "Point", "coordinates": [4.5483876, 52.3786401]}, "properties": {"type": "inleverpunt", "locatieNaam": "Vomar", "straatNaam": "Celsiusstraat", "straatNr": "192", "postcode": "2041 TR", "plaats": "Zandvoort", "merk": "Stibat", "puntType": "inzamelbak", "materialen": ["batterijen"], "uitbetaling": [], "vrijToegankelijk": false, "gemeenteBeperking": null, "openingstijden": null, "latitude": 52.3786401, "longitude": 4.5483876, "bronId": "L005743"}}, {"type": "Feature", "geometry": {"type": "Point", "coordinates": [4.5315096, 52.3713096]}, "properties": {"type": "inleverpunt", "locatieNaam": "Electro World - Radio Stiphout", "straatNaam": "Grote Krocht", "straatNr": "34", "postcode": "2042 LX", "plaats": "Zandvoort", "merk": "Stibat", "puntType": "inzamelbak", "materialen": ["batterijen"], "uitbetaling": [], "vrijToegankelijk": false, "gemeenteBeperking": null, "openingstijden": null, "latitude": 52.3713096, "longitude": 4.5315096, "bronId": "L041826"}}, {"type": "Feature", "geometry": {"type": "Point", "coordinates": [4.5306658, 52.3715554]}, "properties": {"type": "inleverpunt", "locatieNaam": "Zeeman", "straatNaam": "Grote Krocht", "straatNr": "20", "postcode": "2042 LW", "plaats": "Zandvoort", "merk": "Stibat", "puntType": "inzamelbak", "materialen": ["batterijen"], "uitbetaling": [], "vrijToegankelijk": false, "gemeenteBeperking": null, "openingstijden": null, "latitude": 52.3715554, "longitude": 4.5306658, "bronId": "L019927"}}, {"type": "Feature", "geometry": {"type": "Point", "coordinates": [4.5306104, 52.3716149]}, "properties": {"type": "inleverpunt", "locatieNaam": "Bruna", "straatNaam": "Grote Krocht", "straatNr": "18", "postcode": "2042 LW", "plaats": "Zandvoort", "merk": "Stibat", "puntType": "inzamelbak", "materialen": ["batterijen"], "uitbetaling": [], "vrijToegankelijk": false, "gemeenteBeperking": null, "openingstijden": null, "latitude": 52.3716149, "longitude": 4.5306104, "bronId": "L023781"}}, {"type": "Feature", "geometry": {"type": "Point", "coordinates": [4.5298334, 52.3711483]}, "properties": {"type": "inleverpunt", "locatieNaam": "Dekamarkt", "straatNaam": "Oranjestraat", "straatNr": "4", "postcode": "2042 GS", "plaats": "Zandvoort", "merk": "Stibat", "puntType": "inzamelbak", "materialen": ["batterijen"], "uitbetaling": [], "vrijToegankelijk": false, "gemeenteBeperking": null, "openingstijden": null, "latitude": 52.3711483, "longitude": 4.5298334, "bronId": "L008000"}}, {"type": "Feature", "geometry": {"type": "Point", "coordinates": [4.5302459, 52.3716419]}, "properties": {"type": "inleverpunt", "locatieNaam": "Kruidvat", "straatNaam": "Raadhuisplein", "straatNr": "6", "postcode": "2042 LR", "plaats": "Zandvoort", "merk": "Stibat", "puntType": "inzamelbak", "materialen": ["batterijen"], "uitbetaling": [], "vrijToegankelijk": false, "gemeenteBeperking": null, "openingstijden": null, "latitude": 52.3716419, "longitude": 4.5302459, "bronId": "L015781"}}, {"type": "Feature", "geometry": {"type": "Point", "coordinates": [4.5304519, 52.3719054]}, "properties": {"type": "inleverpunt", "locatieNaam": "1047 Albert Heijn", "straatNaam": "Grote Krocht", "straatNr": "1", "postcode": "2042 LT", "plaats": "Zandvoort", "merk": "Stibat", "puntType": "inzamelbak", "materialen": ["batterijen"], "uitbetaling": [], "vrijToegankelijk": false, "gemeenteBeperking": null, "openingstijden": null, "latitude": 52.3719054, "longitude": 4.5304519, "bronId": "L005844"}}, {"type": "Feature", "geometry": {"type": "Point", "coordinates": [4.530309, 52.372567]}, "properties": {"type": "inleverpunt", "locatieNaam": "KiK Zandvoort", "straatNaam": "Haltestraat", "straatNr": "4", "postcode": "2042 LM", "plaats": "Zandvoort", "merk": "Stibat", "puntType": "inzamelbak", "materialen": ["batterijen"], "uitbetaling": [], "vrijToegankelijk": false, "gemeenteBeperking": null, "openingstijden": null, "latitude": 52.372567, "longitude": 4.530309, "bronId": "L044902"}}, {"type": "Feature", "geometry": {"type": "Point", "coordinates": [4.5295494, 52.3718189]}, "properties": {"type": "inleverpunt", "locatieNaam": "HEMA Raadhuisplein", "straatNaam": "Raadhuisplein", "straatNr": "1", "postcode": "2042 LR", "plaats": "Zandvoort", "merk": "Stibat", "puntType": "inzamelbak", "materialen": ["batterijen"], "uitbetaling": [], "vrijToegankelijk": false, "gemeenteBeperking": null, "openingstijden": null, "latitude": 52.3718189, "longitude": 4.5295494, "bronId": "L006868"}}, {"type": "Feature", "geometry": {"type": "Point", "coordinates": [4.5299862, 52.3726243]}, "properties": {"type": "inleverpunt", "locatieNaam": "Primera", "straatNaam": "Haltestraat", "straatNr": "9", "postcode": "2042 LJ", "plaats": "Zandvoort", "merk": "Stibat", "puntType": "inzamelbak", "materialen": ["batterijen"], "uitbetaling": [], "vrijToegankelijk": false, "gemeenteBeperking": null, "openingstijden": null, "latitude": 52.3726243, "longitude": 4.5299862, "bronId": "L019558"}}, {"type": "Feature", "geometry": {"type": "Point", "coordinates": [4.5304836, 52.3736322]}, "properties": {"type": "inleverpunt", "locatieNaam": "Bike Totaal Versteege Wielersport", "straatNaam": "Haltestraat", "straatNr": "31", "postcode": "2042 LK", "plaats": "Zandvoort", "merk": "Stibat", "puntType": "inzamelbak", "materialen": ["batterijen"], "uitbetaling": [], "vrijToegankelijk": false, "gemeenteBeperking": null, "openingstijden": null, "latitude": 52.3736322, "longitude": 4.5304836, "bronId": "L017771"}}, {"type": "Feature", "geometry": {"type": "Point", "coordinates": [4.5292768, 52.3730033]}, "properties": {"type": "inleverpunt", "locatieNaam": "IJzerhandel Zantvoort", "straatNaam": "Swaluestraat", "straatNr": "7", "postcode": "2042 KA", "plaats": "Zandvoort", "merk": "Stibat", "puntType": "inzamelbak", "materialen": ["batterijen"], "uitbetaling": [], "vrijToegankelijk": false, "gemeenteBeperking": null, "openingstijden": null, "latitude": 52.3730033, "longitude": 4.5292768, "bronId": "L017417"}}, {"type": "Feature", "geometry": {"type": "Point", "coordinates": [4.5282819, 52.3720743]}, "properties": {"type": "inleverpunt", "locatieNaam": "6235 Etos", "straatNaam": "Kerkstraat", "straatNr": "31", "postcode": "2042 JD", "plaats": "Zandvoort", "merk": "Stibat", "puntType": "inzamelbak", "materialen": ["batterijen"], "uitbetaling": [], "vrijToegankelijk": false, "gemeenteBeperking": null, "openingstijden": null, "latitude": 52.3720743, "longitude": 4.5282819, "bronId": "L024081"}}, {"type": "Feature", "geometry": {"type": "Point", "coordinates": [4.5271057, 52.3721337]}, "properties": {"type": "inleverpunt", "locatieNaam": "E-Plaza", "straatNaam": "Kerkstraat", "straatNr": "12", "postcode": "2042 JE", "plaats": "Zandvoort", "merk": "Stibat", "puntType": "inzamelbak", "materialen": ["batterijen"], "uitbetaling": [], "vrijToegankelijk": false, "gemeenteBeperking": null, "openingstijden": null, "latitude": 52.3721337, "longitude": 4.5271057, "bronId": "L028872"}}, {"type": "Feature", "geometry": {"type": "Point", "coordinates": [4.5270388, 52.3721873]}, "properties": {"type": "inleverpunt", "locatieNaam": "BelCompany", "straatNaam": "Kerkstraat", "straatNr": "10", "postcode": "2042 JE", "plaats": "Zandvoort", "merk": "Stibat", "puntType": "inzamelbak", "materialen": ["batterijen"], "uitbetaling": [], "vrijToegankelijk": false, "gemeenteBeperking": null, "openingstijden": null, "latitude": 52.3721873, "longitude": 4.5270388, "bronId": "L023226"}}, {"type": "Feature", "geometry": {"type": "Point", "coordinates": [4.527917, 52.3742158]}, "properties": {"type": "inleverpunt", "locatieNaam": "Dirk", "straatNaam": "Burgemeester Engelbertsstraat", "straatNr": "21", "postcode": "2042 KM", "plaats": "Zandvoort", "merk": "Stibat", "puntType": "inzamelbak", "materialen": ["batterijen"], "uitbetaling": [], "vrijToegankelijk": false, "gemeenteBeperking": null, "openingstijden": null, "latitude": 52.3742158, "longitude": 4.527917, "bronId": "L019798"}}, {"type": "Feature", "geometry": {"type": "Point", "coordinates": [4.5311481, 52.3802881]}, "properties": {"type": "inleverpunt", "locatieNaam": "Center Parcs Hotel \"park Zandvoort \"", "straatNaam": "Trompstraat", "straatNr": "1", "postcode": "2041 JB", "plaats": "Zandvoort", "merk": "Stibat", "puntType": "inzamelbak", "materialen": ["batterijen"], "uitbetaling": [], "vrijToegankelijk": false, "gemeenteBeperking": null, "openingstijden": null, "latitude": 52.3802881, "longitude": 4.5311481, "bronId": "L016469"}}, {"type": "Feature", "geometry": {"type": "Point", "coordinates": [4.5335254, 52.3841927]}, "properties": {"type": "inleverpunt", "locatieNaam": "NH Hotel Zandvoort", "straatNaam": "Burgemeester van Alphenstraat", "straatNr": "63", "postcode": "2041 KG", "plaats": "Zandvoort", "merk": "Stibat", "puntType": "inzamelbak", "materialen": ["batterijen"], "uitbetaling": [], "vrijToegankelijk": false, "gemeenteBeperking": null, "openingstijden": null, "latitude": 52.3841927, "longitude": 4.5335254, "bronId": "L039028"}}, {"type": "Feature", "geometry": {"type": "Polygon", "coordinates": [[[4.562026000898128, 52.33895800412168], [4.591659000930515, 52.39171600415299], [4.541820000881309, 52.40127300415837], [4.526045000865784, 52.40516700416056], [4.507728000845973, 52.37688800414379], [4.50101800083879, 52.367940004138475], [4.497092000834449, 52.36018000413389], [4.477649000813525, 52.332511004117364], [4.5473220008821045, 52.31399700410677], [4.562026000898128, 52.33895800412168]]]}, "properties": {"type": "boundary", "gemeente": "Zandvoort"}}]}