{"type": "FeatureCollection", "metadata": {"gemeente": "Zeewolde", "slug": "zeewolde", "generated_at": "2026-07-28T10:02:02.095237Z", "total_points": 53, "merken": ["StatiegeldNederland", "Stibat", "StichtingOPEN"], "bounds": [5.3970568, 52.2621053, 5.5443469, 52.3586682]}, "features": [{"type": "Feature", "geometry": {"type": "Point", "coordinates": [5.5418283, 52.3303605]}, "properties": {"type": "inleverpunt", "locatieNaam": "Albert Heijn", "straatNaam": "Kerkstraat", "straatNr": "26", "postcode": "3891 EC", "plaats": "Zeewolde", "merk": "StatiegeldNederland", "puntType": "automaat", "materialen": ["pet-groot", "pet-klein", "blik", "glas", "krat"], "uitbetaling": ["bonnetje", "donatie"], "vrijToegankelijk": true, "gemeenteBeperking": null, "openingstijden": {"ma": "07:00–22:00", "di": "07:00–22:00", "wo": "07:00–22:00", "do": "07:00–22:00", "vr": "07:00–22:00", "za": "07:00–22:00", "zo": "13:00–20:00"}, "latitude": 52.3303605, "longitude": 5.5418283, "bronId": "252396"}}, {"type": "Feature", "geometry": {"type": "Point", "coordinates": [5.3979285, 52.2621053]}, "properties": {"type": "inleverpunt", "locatieNaam": "Albron", "straatNaam": "Slingerweg", "straatNr": "1", "postcode": "3896 LD", "plaats": "Zeewolde", "merk": "StatiegeldNederland", "puntType": "automaat", "materialen": ["pet-groot", "pet-klein", "blik", "glas"], "uitbetaling": ["bonnetje"], "vrijToegankelijk": true, "gemeenteBeperking": null, "openingstijden": {"ma": "Gesloten", "di": "Gesloten", "wo": "Gesloten", "do": "Gesloten", "vr": "Gesloten", "za": "10:00–18:00", "zo": "10:00–18:00"}, "latitude": 52.2621053, "longitude": 5.3979285, "bronId": "253463"}}, {"type": "Feature", "geometry": {"type": "Point", "coordinates": [5.5288638, 52.30677]}, "properties": {"type": "inleverpunt", "locatieNaam": "Bs Scouting Jan Wandelaar", "straatNaam": "Dasselaarweg", "straatNr": "49", "postcode": "3896 LT", "plaats": "Zeewolde", "merk": "StatiegeldNederland", "puntType": "balie", "materialen": ["pet-groot", "pet-klein", "blik"], "uitbetaling": [], "vrijToegankelijk": false, "gemeenteBeperking": null, "openingstijden": {"ma": "Gesloten", "di": "Gesloten", "wo": "Gesloten", "do": "Gesloten", "vr": "Gesloten", "za": "09:00–17:00", "zo": "Gesloten"}, "latitude": 52.30677, "longitude": 5.5288638, "bronId": "253918"}}, {"type": "Feature", "geometry": {"type": "Point", "coordinates": [5.5403587, 52.3310818]}, "properties": {"type": "inleverpunt", "locatieNaam": "BudgetFood", "straatNaam": "Gouwzee", "straatNr": "61", "postcode": "3891 GH", "plaats": "Zeewolde", "merk": "StatiegeldNederland", "puntType": "automaat", "materialen": ["pet-groot", "pet-klein", "blik"], "uitbetaling": ["bonnetje", "donatie"], "vrijToegankelijk": true, "gemeenteBeperking": null, "openingstijden": {"ma": "08:00–17:00", "di": "08:00–17:00", "wo": "08:00–17:00", "do": "08:00–17:00", "vr": "08:00–17:00", "za": "Gesloten", "zo": "Gesloten"}, "latitude": 52.3310818, "longitude": 5.5403587, "bronId": "253927"}}, {"type": "Feature", "geometry": {"type": "Point", "coordinates": [5.5302232, 52.3455033]}, "properties": {"type": "inleverpunt", "locatieNaam": "Dekamarkt", "straatNaam": "Molenplein", "straatNr": "1", "postcode": "3894 GB", "plaats": "Zeewolde", "merk": "StatiegeldNederland", "puntType": "automaat", "materialen": ["pet-groot", "pet-klein", "blik", "glas", "krat"], "uitbetaling": ["bonnetje"], "vrijToegankelijk": true, "gemeenteBeperking": null, "openingstijden": {"ma": "07:30–21:00", "di": "07:30–21:00", "wo": "07:30–21:00", "do": "07:30–21:00", "vr": "07:30–21:00", "za": "07:30–21:00", "zo": "13:00–20:00"}, "latitude": 52.3455033, "longitude": 5.5302232, "bronId": "254355"}}, {"type": "Feature", "geometry": {"type": "Point", "coordinates": [5.5248895, 52.3277308]}, "properties": {"type": "inleverpunt", "locatieNaam": "Kv Wolderwijd", "straatNaam": "Westhoven", "straatNr": "4", "postcode": "3894 AN", "plaats": "Zeewolde", "merk": "StatiegeldNederland", "puntType": "balie", "materialen": ["pet-groot", "pet-klein", "blik"], "uitbetaling": [], "vrijToegankelijk": false, "gemeenteBeperking": null, "openingstijden": {"ma": "Gesloten", "di": "17:00–21:30", "wo": "Gesloten", "do": "17:00–21:30", "vr": "Gesloten", "za": "09:00–18:00", "zo": "Gesloten"}, "latitude": 52.3277308, "longitude": 5.5248895, "bronId": "255980"}}, {"type": "Feature", "geometry": {"type": "Point", "coordinates": [5.5403587, 52.3310818]}, "properties": {"type": "inleverpunt", "locatieNaam": "Lajkonik B.V.", "straatNaam": "Ravelijn", "straatNr": "35", "postcode": "3891 GN", "plaats": "Zeewolde", "merk": "StatiegeldNederland", "puntType": "automaat", "materialen": ["pet-groot", "pet-klein", "blik"], "uitbetaling": ["bonnetje", "donatie", "tikkie"], "vrijToegankelijk": true, "gemeenteBeperking": null, "openingstijden": {"ma": "08:00–17:00", "di": "08:00–17:00", "wo": "08:00–17:00", "do": "08:00–17:00", "vr": "08:00–17:00", "za": "Gesloten", "zo": "Gesloten"}, "latitude": 52.3310818, "longitude": 5.5403587, "bronId": "255995"}}, {"type": "Feature", "geometry": {"type": "Point", "coordinates": [5.5402549, 52.3313071]}, "properties": {"type": "inleverpunt", "locatieNaam": "Lidl", "straatNaam": "Gouwzee", "straatNr": "27", "postcode": "3891 CB", "plaats": "Zeewolde", "merk": "StatiegeldNederland", "puntType": "automaat", "materialen": ["pet-groot", "pet-klein", "blik", "glas", "krat"], "uitbetaling": ["bonnetje", "donatie"], "vrijToegankelijk": true, "gemeenteBeperking": null, "openingstijden": {"ma": "08:00–21:00", "di": "08:00–21:00", "wo": "08:00–21:00", "do": "08:00–21:00", "vr": "08:00–21:00", "za": "07:00–21:00", "zo": "13:00–20:00"}, "latitude": 52.3313071, "longitude": 5.5402549, "bronId": "256165"}}, {"type": "Feature", "geometry": {"type": "Point", "coordinates": [5.4357269, 52.2736767]}, "properties": {"type": "inleverpunt", "locatieNaam": "Parkshop Flevonatuur", "straatNaam": "Wielseweg", "straatNr": "3", "postcode": "3869 LA", "plaats": "Zeewolde", "merk": "StatiegeldNederland", "puntType": "automaat", "materialen": ["pet-groot", "pet-klein", "blik"], "uitbetaling": ["donatie", "retourpinnen"], "vrijToegankelijk": false, "gemeenteBeperking": null, "openingstijden": {"ma": "09:00–18:00", "di": "09:00–18:00", "wo": "09:00–18:00", "do": "09:00–18:00", "vr": "09:00–20:00", "za": "09:00–18:00", "zo": "09:00–18:00"}, "latitude": 52.2736767, "longitude": 5.4357269, "bronId": "257126"}}, {"type": "Feature", "geometry": {"type": "Point", "coordinates": [5.5177685, 52.3373577]}, "properties": {"type": "inleverpunt", "locatieNaam": "Plus", "straatNaam": "Aquamarijn", "straatNr": "21", "postcode": "3893 EA", "plaats": "Zeewolde", "merk": "StatiegeldNederland", "puntType": "automaat", "materialen": ["pet-groot", "pet-klein", "blik", "glas", "krat"], "uitbetaling": ["bonnetje"], "vrijToegankelijk": true, "gemeenteBeperking": null, "openingstijden": {"ma": "08:00–21:00", "di": "08:00–21:00", "wo": "08:00–21:00", "do": "08:00–21:00", "vr": "08:00–21:00", "za": "08:00–21:00", "zo": "13:00–19:00"}, "latitude": 52.3373577, "longitude": 5.5177685, "bronId": "257189"}}, {"type": "Feature", "geometry": {"type": "Point", "coordinates": [5.5288638, 52.30677]}, "properties": {"type": "inleverpunt", "locatieNaam": "Scouting Jan Wandelaar", "straatNaam": "Pluuthaven", "straatNr": "51A", "postcode": "3891 AW", "plaats": "Zeewolde", "merk": "StatiegeldNederland", "puntType": "balie", "materialen": ["pet-groot", "pet-klein", "blik"], "uitbetaling": [], "vrijToegankelijk": false, "gemeenteBeperking": null, "openingstijden": {"ma": "Gesloten", "di": "Gesloten", "wo": "Gesloten", "do": "Gesloten", "vr": "Gesloten", "za": "09:00–17:00", "zo": "Gesloten"}, "latitude": 52.30677, "longitude": 5.5288638, "bronId": "257997"}}, {"type": "Feature", "geometry": {"type": "Point", "coordinates": [5.5410835, 52.3317632]}, "properties": {"type": "inleverpunt", "locatieNaam": "Spar", "straatNaam": "DASSERLAARWEG", "straatNr": "2", "postcode": "3896 LT", "plaats": "Zeewolde", "merk": "StatiegeldNederland", "puntType": "balie", "materialen": ["pet-groot", "pet-klein", "blik"], "uitbetaling": [], "vrijToegankelijk": true, "gemeenteBeperking": null, "openingstijden": {"ma": "07:30–21:30", "di": "07:30–21:30", "wo": "07:30–21:30", "do": "07:30–21:30", "vr": "07:30–21:30", "za": "07:30–21:30", "zo": "13:00–20:00"}, "latitude": 52.3317632, "longitude": 5.5410835, "bronId": "258324"}}, {"type": "Feature", "geometry": {"type": "Point", "coordinates": [5.5410835, 52.3317632]}, "properties": {"type": "inleverpunt", "locatieNaam": "Vomar", "straatNaam": "Flevoplein 6 -", "straatNr": "7", "postcode": "3891 BA", "plaats": "Zeewolde", "merk": "StatiegeldNederland", "puntType": "automaat", "materialen": ["pet-groot", "pet-klein", "blik", "glas", "krat"], "uitbetaling": ["bonnetje", "donatie"], "vrijToegankelijk": true, "gemeenteBeperking": null, "openingstijden": {"ma": "07:30–21:30", "di": "07:30–21:30", "wo": "07:30–21:30", "do": "07:30–21:30", "vr": "07:30–21:30", "za": "07:30–21:30", "zo": "13:00–20:00"}, "latitude": 52.3317632, "longitude": 5.5410835, "bronId": "259661"}}, {"type": "Feature", "geometry": {"type": "Point", "coordinates": [5.517768, 52.337357]}, "properties": {"type": "inleverpunt", "locatieNaam": "PLUS Zeewolde", "straatNaam": "Aquamarijn", "straatNr": "21", "postcode": "3893 EA", "plaats": "Zeewolde", "merk": "StichtingOPEN", "puntType": "balie", "materialen": ["batterijen", "lampen"], "uitbetaling": [], "vrijToegankelijk": false, "gemeenteBeperking": null, "openingstijden": null, "latitude": 52.337357, "longitude": 5.517768, "bronId": "SP00036167"}}, {"type": "Feature", "geometry": {"type": "Point", "coordinates": [5.517876, 52.337443]}, "properties": {"type": "inleverpunt", "locatieNaam": "Coop Zeewolde", "straatNaam": "Aquamarijn", "straatNr": "21", "postcode": "3893 EA", "plaats": "Zeewolde", "merk": "StichtingOPEN", "puntType": "balie", "materialen": ["batterijen", "lampen"], "uitbetaling": [], "vrijToegankelijk": false, "gemeenteBeperking": null, "openingstijden": null, "latitude": 52.337443, "longitude": 5.517876, "bronId": "SP00024352"}}, {"type": "Feature", "geometry": {"type": "Point", "coordinates": [5.541964, 52.33025]}, "properties": {"type": "inleverpunt", "locatieNaam": "1279 Albert Heijn Zeewolde", "straatNaam": "Kerkstraat", "straatNr": "26", "postcode": "3891 ET", "plaats": "Zeewolde", "merk": "StichtingOPEN", "puntType": "balie", "materialen": ["batterijen", "elektro-klein", "lampen"], "uitbetaling": [], "vrijToegankelijk": false, "gemeenteBeperking": null, "openingstijden": null, "latitude": 52.33025, "longitude": 5.541964, "bronId": "SP00023011"}}, {"type": "Feature", "geometry": {"type": "Point", "coordinates": [5.540557, 52.331033]}, "properties": {"type": "inleverpunt", "locatieNaam": "Boni Zeewolde", "straatNaam": "Gouwzee", "straatNr": "65", "postcode": "3891 GH", "plaats": "Zeewolde", "merk": "StichtingOPEN", "puntType": "balie", "materialen": ["batterijen", "lampen"], "uitbetaling": [], "vrijToegankelijk": false, "gemeenteBeperking": null, "openingstijden": null, "latitude": 52.331033, "longitude": 5.540557, "bronId": "SP00023735"}}, {"type": "Feature", "geometry": {"type": "Point", "coordinates": [5.540407, 52.331149]}, "properties": {"type": "inleverpunt", "locatieNaam": "Action Zeewolde 1168", "straatNaam": "Gouwzee", "straatNr": "61", "postcode": "3891 GH", "plaats": "Zeewolde", "merk": "StichtingOPEN", "puntType": "balie", "materialen": ["batterijen", "lampen"], "uitbetaling": [], "vrijToegankelijk": false, "gemeenteBeperking": null, "openingstijden": null, "latitude": 52.331149, "longitude": 5.540407, "bronId": "SP00007750"}}, {"type": "Feature", "geometry": {"type": "Point", "coordinates": [5.54338, 52.33056]}, "properties": {"type": "inleverpunt", "locatieNaam": "Kruidvat Zeewolde", "straatNaam": "Horsterplein", "straatNr": "24", "postcode": "3891 ES", "plaats": "Zeewolde", "merk": "StichtingOPEN", "puntType": "balie", "materialen": ["batterijen", "lampen"], "uitbetaling": [], "vrijToegankelijk": false, "gemeenteBeperking": null, "openingstijden": null, "latitude": 52.33056, "longitude": 5.54338, "bronId": "SP00029715"}}, {"type": "Feature", "geometry": {"type": "Point", "coordinates": [5.524413, 52.338339]}, "properties": {"type": "inleverpunt", "locatieNaam": "Praxis Zeewolde - 2279", "straatNaam": "Mast", "straatNr": "39", "postcode": "3891 KE", "plaats": "Zeewolde", "merk": "StichtingOPEN", "puntType": "balie", "materialen": ["elektro-middel", "lampen", "tl-buizen"], "uitbetaling": [], "vrijToegankelijk": false, "gemeenteBeperking": null, "openingstijden": null, "latitude": 52.338339, "longitude": 5.524413, "bronId": "SP00021378"}}, {"type": "Feature", "geometry": {"type": "Point", "coordinates": [5.543926, 52.33115]}, "properties": {"type": "inleverpunt", "locatieNaam": "Expert Zeewolde", "straatNaam": "Raadhuisstraat", "straatNr": "30", "postcode": "3891 EB", "plaats": "Zeewolde", "merk": "StichtingOPEN", "puntType": "balie", "materialen": ["elektro-middel", "lampen"], "uitbetaling": [], "vrijToegankelijk": false, "gemeenteBeperking": null, "openingstijden": null, "latitude": 52.33115, "longitude": 5.543926, "bronId": "SP00002320"}}, {"type": "Feature", "geometry": {"type": "Point", "coordinates": [5.516032, 52.347524]}, "properties": {"type": "inleverpunt", "locatieNaam": "Gamma Zeewolde", "straatNaam": "Bolwerk", "straatNr": "7", "postcode": "3895 BX", "plaats": "Zeewolde", "merk": "StichtingOPEN", "puntType": "balie", "materialen": ["batterijen", "elektro-klein", "elektro-middel", "lampen", "tl-buizen"], "uitbetaling": [], "vrijToegankelijk": false, "gemeenteBeperking": null, "openingstijden": null, "latitude": 52.347524, "longitude": 5.516032, "bronId": "SP00006554"}}, {"type": "Feature", "geometry": {"type": "Point", "coordinates": [5.52976, 52.3454]}, "properties": {"type": "inleverpunt", "locatieNaam": "Dekamarkt Zeewolde", "straatNaam": "Molenplein", "straatNr": "1", "postcode": "3894 GB", "plaats": "Zeewolde", "merk": "StichtingOPEN", "puntType": "balie", "materialen": ["batterijen", "lampen"], "uitbetaling": [], "vrijToegankelijk": false, "gemeenteBeperking": null, "openingstijden": null, "latitude": 52.3454, "longitude": 5.52976, "bronId": "SP00030141"}}, {"type": "Feature", "geometry": {"type": "Point", "coordinates": [5.494967, 52.3566]}, "properties": {"type": "inleverpunt", "locatieNaam": "Zeewolde Welkoop", "straatNaam": "Baardmeesweg", "straatNr": "30", "postcode": "3899 XS", "plaats": "Zeewolde", "merk": "StichtingOPEN", "puntType": "balie", "materialen": ["elektro-middel", "lampen", "tl-buizen"], "uitbetaling": [], "vrijToegankelijk": false, "gemeenteBeperking": null, "openingstijden": null, "latitude": 52.3566, "longitude": 5.494967, "bronId": "SP00006772"}}, {"type": "Feature", "geometry": {"type": "Point", "coordinates": [5.50667, 52.35865]}, "properties": {"type": "inleverpunt", "locatieNaam": "Afvalbrengstation Zeewolde", "straatNaam": "Industrieweg", "straatNr": "41", "postcode": "3899 AT", "plaats": "Zeewolde", "merk": "StichtingOPEN", "puntType": "milieustraat", "materialen": ["batterijen", "elektro-groot", "elektro-klein", "elektro-middel", "lampen", "tl-buizen"], "uitbetaling": [], "vrijToegankelijk": false, "gemeenteBeperking": ["Zeewolde"], "openingstijden": null, "latitude": 52.35865, "longitude": 5.50667, "bronId": "SP00003790"}}, {"type": "Feature", "geometry": {"type": "Point", "coordinates": [5.3970568, 52.2622356]}, "properties": {"type": "inleverpunt", "locatieNaam": "Center Parcs De Eemhof", "straatNaam": "Slingerweg", "straatNr": "1", "postcode": "3896 LD", "plaats": "Zeewolde", "merk": "Stibat", "puntType": "inzamelbak", "materialen": ["batterijen"], "uitbetaling": [], "vrijToegankelijk": false, "gemeenteBeperking": null, "openingstijden": null, "latitude": 52.2622356, "longitude": 5.3970568, "bronId": "L008703"}}, {"type": "Feature", "geometry": {"type": "Point", "coordinates": [5.4883083, 52.2700135]}, "properties": {"type": "inleverpunt", "locatieNaam": "Recreatiegebied Erkemederstrand", "straatNaam": "Erkemederweg", "straatNr": "79", "postcode": "3896 LB", "plaats": "Zeewolde", "merk": "Stibat", "puntType": "inzamelbak", "materialen": ["batterijen"], "uitbetaling": [], "vrijToegankelijk": false, "gemeenteBeperking": null, "openingstijden": null, "latitude": 52.2700135, "longitude": 5.4883083, "bronId": "L013094"}}, {"type": "Feature", "geometry": {"type": "Point", "coordinates": [5.5439799, 52.3116378]}, "properties": {"type": "inleverpunt", "locatieNaam": "Campingstore Zeewolde", "straatNaam": "Dasselaarweg", "straatNr": "2", "postcode": "3896 LT", "plaats": "Zeewolde", "merk": "Stibat", "puntType": "inzamelbak", "materialen": ["batterijen"], "uitbetaling": [], "vrijToegankelijk": false, "gemeenteBeperking": null, "openingstijden": null, "latitude": 52.3116378, "longitude": 5.5439799, "bronId": "L020505"}}, {"type": "Feature", "geometry": {"type": "Point", "coordinates": [5.5439799, 52.3116378]}, "properties": {"type": "inleverpunt", "locatieNaam": "RCN Vakantiepark Zeewolde", "straatNaam": "Dasselaarweg", "straatNr": "1", "postcode": "3896 LT", "plaats": "Zeewolde", "merk": "Stibat", "puntType": "inzamelbak", "materialen": ["batterijen"], "uitbetaling": [], "vrijToegankelijk": false, "gemeenteBeperking": null, "openingstijden": null, "latitude": 52.3116378, "longitude": 5.5439799, "bronId": "L013012"}}, {"type": "Feature", "geometry": {"type": "Point", "coordinates": [5.5177685, 52.3373577]}, "properties": {"type": "inleverpunt", "locatieNaam": "PLUS", "straatNaam": "Aquamarijn", "straatNr": "21", "postcode": "3893 EA", "plaats": "Zeewolde", "merk": "Stibat", "puntType": "inzamelbak", "materialen": ["batterijen"], "uitbetaling": [], "vrijToegankelijk": false, "gemeenteBeperking": null, "openingstijden": null, "latitude": 52.3373577, "longitude": 5.5177685, "bronId": "L047690"}}, {"type": "Feature", "geometry": {"type": "Point", "coordinates": [5.5416688, 52.3301554]}, "properties": {"type": "inleverpunt", "locatieNaam": "1279 Albert Heijn", "straatNaam": "Kerkstraat", "straatNr": "26", "postcode": "3891 ET", "plaats": "Zeewolde", "merk": "Stibat", "puntType": "inzamelbak", "materialen": ["batterijen"], "uitbetaling": [], "vrijToegankelijk": false, "gemeenteBeperking": null, "openingstijden": null, "latitude": 52.3301554, "longitude": 5.5416688, "bronId": "L007494"}}, {"type": "Feature", "geometry": {"type": "Point", "coordinates": [5.5271346, 52.3360335]}, "properties": {"type": "inleverpunt", "locatieNaam": "STALEN ROS", "straatNaam": "Schepenveld", "straatNr": "12-28", "postcode": "3891 ZK", "plaats": "Zeewolde", "merk": "Stibat", "puntType": "inzamelbak", "materialen": ["batterijen"], "uitbetaling": [], "vrijToegankelijk": false, "gemeenteBeperking": null, "openingstijden": null, "latitude": 52.3360335, "longitude": 5.5271346, "bronId": "L033268"}}, {"type": "Feature", "geometry": {"type": "Point", "coordinates": [5.540214, 52.3311236]}, "properties": {"type": "inleverpunt", "locatieNaam": "Lidl", "straatNaam": "Gouwzee", "straatNr": "27", "postcode": "3891 GH", "plaats": "Zeewolde", "merk": "Stibat", "puntType": "inzamelbak", "materialen": ["batterijen"], "uitbetaling": [], "vrijToegankelijk": false, "gemeenteBeperking": null, "openingstijden": null, "latitude": 52.3311236, "longitude": 5.540214, "bronId": "L017914"}}, {"type": "Feature", "geometry": {"type": "Point", "coordinates": [5.5404074, 52.3311491]}, "properties": {"type": "inleverpunt", "locatieNaam": "Budget Food", "straatNaam": "Gouwzee", "straatNr": "61", "postcode": "3891 GH", "plaats": "Zeewolde", "merk": "Stibat", "puntType": "inzamelbak", "materialen": ["batterijen"], "uitbetaling": [], "vrijToegankelijk": false, "gemeenteBeperking": null, "openingstijden": null, "latitude": 52.3311491, "longitude": 5.5404074, "bronId": "L046556"}}, {"type": "Feature", "geometry": {"type": "Point", "coordinates": [5.5410898, 52.3311002]}, "properties": {"type": "inleverpunt", "locatieNaam": "Bikestore Van Meerveld", "straatNaam": "Marktstraat", "straatNr": "6", "postcode": "3891 EX", "plaats": "Zeewolde", "merk": "Stibat", "puntType": "inzamelbak", "materialen": ["batterijen"], "uitbetaling": [], "vrijToegankelijk": false, "gemeenteBeperking": null, "openingstijden": null, "latitude": 52.3311002, "longitude": 5.5410898, "bronId": "L048918"}}, {"type": "Feature", "geometry": {"type": "Point", "coordinates": [5.5419375, 52.3307794]}, "properties": {"type": "inleverpunt", "locatieNaam": "Wibra", "straatNaam": "Kerkstraat", "straatNr": "11", "postcode": "3891 ET", "plaats": "Zeewolde", "merk": "Stibat", "puntType": "inzamelbak", "materialen": ["batterijen"], "uitbetaling": [], "vrijToegankelijk": false, "gemeenteBeperking": null, "openingstijden": null, "latitude": 52.3307794, "longitude": 5.5419375, "bronId": "L043608"}}, {"type": "Feature", "geometry": {"type": "Point", "coordinates": [5.5430343, 52.3304952]}, "properties": {"type": "inleverpunt", "locatieNaam": "Intertoys", "straatNaam": "Horsterplein", "straatNr": "16", "postcode": "3891 ES", "plaats": "Zeewolde", "merk": "Stibat", "puntType": "inzamelbak", "materialen": ["batterijen"], "uitbetaling": [], "vrijToegankelijk": false, "gemeenteBeperking": null, "openingstijden": null, "latitude": 52.3304952, "longitude": 5.5430343, "bronId": "L005881"}}, {"type": "Feature", "geometry": {"type": "Point", "coordinates": [5.5433866, 52.3305576]}, "properties": {"type": "inleverpunt", "locatieNaam": "Kruidvat", "straatNaam": "Horsterplein", "straatNr": "24", "postcode": "3891 ES", "plaats": "Zeewolde", "merk": "Stibat", "puntType": "inzamelbak", "materialen": ["batterijen"], "uitbetaling": [], "vrijToegankelijk": false, "gemeenteBeperking": null, "openingstijden": null, "latitude": 52.3305576, "longitude": 5.5433866, "bronId": "L014914"}}, {"type": "Feature", "geometry": {"type": "Point", "coordinates": [5.5410835, 52.3317632]}, "properties": {"type": "inleverpunt", "locatieNaam": "Vomar", "straatNaam": "Flevoplein", "straatNr": "6-7", "postcode": "3891 BA", "plaats": "Zeewolde", "merk": "Stibat", "puntType": "inzamelbak", "materialen": ["batterijen"], "uitbetaling": [], "vrijToegankelijk": false, "gemeenteBeperking": null, "openingstijden": null, "latitude": 52.3317632, "longitude": 5.5410835, "bronId": "L044288"}}, {"type": "Feature", "geometry": {"type": "Point", "coordinates": [5.5442158, 52.3306885]}, "properties": {"type": "inleverpunt", "locatieNaam": "Primera", "straatNaam": "Horsterplein", "straatNr": "36", "postcode": "3891 ES", "plaats": "Zeewolde", "merk": "Stibat", "puntType": "inzamelbak", "materialen": ["batterijen"], "uitbetaling": [], "vrijToegankelijk": false, "gemeenteBeperking": null, "openingstijden": null, "latitude": 52.3306885, "longitude": 5.5442158, "bronId": "L042582"}}, {"type": "Feature", "geometry": {"type": "Point", "coordinates": [5.5442296, 52.3308465]}, "properties": {"type": "inleverpunt", "locatieNaam": "7775 Etos", "straatNaam": "Horsterplein", "straatNr": "38", "postcode": "3891 ES", "plaats": "Zeewolde", "merk": "Stibat", "puntType": "inzamelbak", "materialen": ["batterijen"], "uitbetaling": [], "vrijToegankelijk": false, "gemeenteBeperking": null, "openingstijden": null, "latitude": 52.3308465, "longitude": 5.5442296, "bronId": "L027053"}}, {"type": "Feature", "geometry": {"type": "Point", "coordinates": [5.5244139, 52.3383394]}, "properties": {"type": "inleverpunt", "locatieNaam": "Praxis 2279", "straatNaam": "Mast", "straatNr": "39", "postcode": "3891 KE", "plaats": "Zeewolde", "merk": "Stibat", "puntType": "inzamelbak", "materialen": ["batterijen"], "uitbetaling": [], "vrijToegankelijk": false, "gemeenteBeperking": null, "openingstijden": null, "latitude": 52.3383394, "longitude": 5.5244139, "bronId": "L040019"}}, {"type": "Feature", "geometry": {"type": "Point", "coordinates": [5.5441193, 52.3310848]}, "properties": {"type": "inleverpunt", "locatieNaam": "1168 Action", "straatNaam": "Weergang", "straatNr": "11-13", "postcode": "3891 GR", "plaats": "Zeewolde", "merk": "Stibat", "puntType": "inzamelbak", "materialen": ["batterijen"], "uitbetaling": [], "vrijToegankelijk": false, "gemeenteBeperking": null, "openingstijden": null, "latitude": 52.3310848, "longitude": 5.5441193, "bronId": "L017949"}}, {"type": "Feature", "geometry": {"type": "Point", "coordinates": [5.5433909, 52.3316266]}, "properties": {"type": "inleverpunt", "locatieNaam": "Expert", "straatNaam": "Raadhuisstraat", "straatNr": "30", "postcode": "3891 EB", "plaats": "Zeewolde", "merk": "Stibat", "puntType": "inzamelbak", "materialen": ["batterijen"], "uitbetaling": [], "vrijToegankelijk": false, "gemeenteBeperking": null, "openingstijden": null, "latitude": 52.3316266, "longitude": 5.5433909, "bronId": "L008757"}}, {"type": "Feature", "geometry": {"type": "Point", "coordinates": [5.5440723, 52.3313655]}, "properties": {"type": "inleverpunt", "locatieNaam": "HEMA Zeewolde", "straatNaam": "Ravelijn", "straatNr": "5", "postcode": "3891 GN", "plaats": "Zeewolde", "merk": "Stibat", "puntType": "inzamelbak", "materialen": ["batterijen"], "uitbetaling": [], "vrijToegankelijk": false, "gemeenteBeperking": null, "openingstijden": null, "latitude": 52.3313655, "longitude": 5.5440723, "bronId": "L046772"}}, {"type": "Feature", "geometry": {"type": "Point", "coordinates": [5.523564, 52.339073]}, "properties": {"type": "inleverpunt", "locatieNaam": "vdHam", "straatNaam": "Mast", "straatNr": "38A", "postcode": "3891 KG", "plaats": "Zeewolde", "merk": "Stibat", "puntType": "inzamelbak", "materialen": ["batterijen"], "uitbetaling": [], "vrijToegankelijk": false, "gemeenteBeperking": null, "openingstijden": null, "latitude": 52.339073, "longitude": 5.523564, "bronId": "L045230"}}, {"type": "Feature", "geometry": {"type": "Point", "coordinates": [5.5436916, 52.3317104]}, "properties": {"type": "inleverpunt", "locatieNaam": "Foto Rene Tuinte", "straatNaam": "Raadhuisstraat", "straatNr": "38", "postcode": "3891 EB", "plaats": "Zeewolde", "merk": "Stibat", "puntType": "inzamelbak", "materialen": ["batterijen"], "uitbetaling": [], "vrijToegankelijk": false, "gemeenteBeperking": null, "openingstijden": null, "latitude": 52.3317104, "longitude": 5.5436916, "bronId": "L010569"}}, {"type": "Feature", "geometry": {"type": "Point", "coordinates": [5.5422134, 52.332328]}, "properties": {"type": "inleverpunt", "locatieNaam": "De Leeuw Tweewielers", "straatNaam": "Stevinweg", "straatNr": "2", "postcode": "3891 EA", "plaats": "Zeewolde", "merk": "Stibat", "puntType": "inzamelbak", "materialen": ["batterijen"], "uitbetaling": [], "vrijToegankelijk": false, "gemeenteBeperking": null, "openingstijden": null, "latitude": 52.332328, "longitude": 5.5422134, "bronId": "L048359"}}, {"type": "Feature", "geometry": {"type": "Point", "coordinates": [5.5443469, 52.3328076]}, "properties": {"type": "inleverpunt", "locatieNaam": "EP:", "straatNaam": "Gelderseweg", "straatNr": "26", "postcode": "3891 AB", "plaats": "Zeewolde", "merk": "Stibat", "puntType": "inzamelbak", "materialen": ["batterijen"], "uitbetaling": [], "vrijToegankelijk": false, "gemeenteBeperking": null, "openingstijden": null, "latitude": 52.3328076, "longitude": 5.5443469, "bronId": "L028299"}}, {"type": "Feature", "geometry": {"type": "Point", "coordinates": [5.5154693, 52.3474033]}, "properties": {"type": "inleverpunt", "locatieNaam": "Gamma", "straatNaam": "Bolwerk", "straatNr": "7", "postcode": "3895 BX", "plaats": "Zeewolde", "merk": "Stibat", "puntType": "inzamelbak", "materialen": ["batterijen"], "uitbetaling": [], "vrijToegankelijk": false, "gemeenteBeperking": null, "openingstijden": null, "latitude": 52.3474033, "longitude": 5.5154693, "bronId": "L035556"}}, {"type": "Feature", "geometry": {"type": "Point", "coordinates": [5.4978155, 52.3532573]}, "properties": {"type": "inleverpunt", "locatieNaam": "2Cheap.nl", "straatNaam": "Landbouwweg", "straatNr": "22", "postcode": "3899 BE", "plaats": "Zeewolde", "merk": "Stibat", "puntType": "inzamelbak", "materialen": ["batterijen"], "uitbetaling": [], "vrijToegankelijk": false, "gemeenteBeperking": null, "openingstijden": null, "latitude": 52.3532573, "longitude": 5.4978155, "bronId": "L047150"}}, {"type": "Feature", "geometry": {"type": "Point", "coordinates": [5.4944261, 52.3570432]}, "properties": {"type": "inleverpunt", "locatieNaam": "Welkoop", "straatNaam": "Baardmeesweg", "straatNr": "30", "postcode": "3899 XS", "plaats": "Zeewolde", "merk": "Stibat", "puntType": "inzamelbak", "materialen": ["batterijen"], "uitbetaling": [], "vrijToegankelijk": false, "gemeenteBeperking": null, "openingstijden": null, "latitude": 52.3570432, "longitude": 5.4944261, "bronId": "L017624"}}, {"type": "Feature", "geometry": {"type": "Point", "coordinates": [5.5066003, 52.3586682]}, "properties": {"type": "inleverpunt", "locatieNaam": "Milieupark Trekkersveld", "straatNaam": "Industrieweg", "straatNr": "41", "postcode": "3899 AT", "plaats": "Zeewolde", "merk": "Stibat", "puntType": "inzamelbak", "materialen": ["batterijen"], "uitbetaling": [], "vrijToegankelijk": false, "gemeenteBeperking": null, "openingstijden": null, "latitude": 52.3586682, "longitude": 5.5066003, "bronId": "L035697"}}, {"type": "Feature", "geometry": {"type": "Polygon", "coordinates": [[[5.406728001738629, 52.24975400406413], [5.463372001795673, 52.26000200406944], [5.464761001797085, 52.260637004069835], [5.46445900179683, 52.26182800407056], [5.4692740018016766, 52.26269300407099], [5.469055001801475, 52.26315200407122], [5.472299001804741, 52.26374000407155], [5.472520001804943, 52.26327700407127], [5.4761220018085695, 52.263924004071605], [5.476849001809237, 52.262400004070635], [5.522166001854836, 52.27040600407465], [5.533281001866034, 52.2727410040759], [5.534812001867613, 52.27408100407665], [5.536206001869086, 52.27635400407798], [5.575604001911136, 52.350760004121554], [5.585682001921521, 52.35994700412681], [5.587707001923595, 52.36145400412765], [5.591157001927089, 52.36291600412845], [5.597937001933875, 52.3635920041287], [5.606301001942208, 52.36324700412835], [5.608596001944467, 52.36235800412774], [5.611638001947401, 52.35950000412605], [5.614039001949892, 52.3622570041276], [5.6207370019566385, 52.36413000412859], [5.615516001951657, 52.37058500413248], [5.615189001951342, 52.37084000413266], [5.614523001950664, 52.37043700413245], [5.613557001949719, 52.37104200413281], [5.614149001950323, 52.371404004133005], [5.612256001948491, 52.372973004133954], [5.611828001948116, 52.37444800413487], [5.617188001953827, 52.38478300414083], [5.623021001960489, 52.40887200415486], [5.622424001959879, 52.40852100415465], [5.618401001955873, 52.40856800415481], [5.585868001923546, 52.41142200415707], [5.5832170019209, 52.411358004157094], [5.580509001918185, 52.41088300415683], [5.578014001915662, 52.40996800415634], [5.564429001901842, 52.40230600415213], [5.553252001890455, 52.39552400414837], [5.537298001874158, 52.38500000414247], [5.5367640018736335, 52.385206004142596], [5.534824001871678, 52.38468800414232], [5.533982001870852, 52.385032004142545], [5.533006001869856, 52.3843770041422], [5.508496001845908, 52.3979650041506], [5.474979001813308, 52.42003300416409], [5.4462290017852855, 52.43694200417446], [5.438705001778005, 52.4426560041779], [5.42688900176595, 52.43550500417392], [5.427177001766201, 52.43455400417334], [5.423775001762732, 52.43256400417223], [5.4210080017599545, 52.43208300417201], [5.401793001740401, 52.42189800416636], [5.384988001723331, 52.414069004162016], [5.350497001688369, 52.40010300415432], [5.349528001687373, 52.39930100415384], [5.348168001685921, 52.39702800415252], [5.346371001684092, 52.396114004152], [5.3459130016836465, 52.39645400415223], [5.34437200168209, 52.39588400415194], [5.3401080016778355, 52.39594100415199], [5.338610001676326, 52.39558100415185], [5.332370001670005, 52.39324600415052], [5.332934001670549, 52.39277300415023], [5.313517001650884, 52.38574100414634], [5.313039001650429, 52.38625300414667], [5.301244001638481, 52.38198600414426], [5.3792110017136325, 52.31399500410298], [5.354006001688263, 52.309407004100606], [5.348617001682868, 52.309165004100535], [5.34417700167847, 52.3101720041012], [5.333505001667969, 52.3142740041038], [5.320222001654336, 52.305359004098655], [5.315179001649174, 52.30239200409694], [5.402897001734793, 52.24952700406407], [5.406728001738629, 52.24975400406413]]]}, "properties": {"type": "boundary", "gemeente": "Zeewolde"}}]}